{"type": "FeatureCollection", "features": [{"type": "Feature", "geometry": {"type": "Polygon", "coordinates": [[[138.666321, -34.717881], [138.666344, -34.717996], [138.666365, -34.717993], [138.666492, -34.718627], [138.667028, -34.718558], [138.667114, -34.718987], [138.666971, -34.719012], [138.667016, -34.719245], [138.66702, -34.719262], [138.667103, -34.719679], [138.667156, -34.719924], [138.667643, -34.719851], [138.667666, -34.719948], [138.667805, -34.719928], [138.667784, -34.719829], [138.668012, -34.719795], [138.66791, -34.719301], [138.66834, -34.719238], [138.668343, -34.719254], [138.667966, -34.71931], [138.668079, -34.719857], [138.668123, -34.719852], [138.668149, -34.719997], [138.668242, -34.719985], [138.668245, -34.72], [138.668433, -34.719976], [138.668433, -34.719988], [138.668643, -34.719959], [138.66862, -34.719836], [138.668717, -34.719836], [138.668717, -34.719859], [138.668797, -34.719859], [138.66879, -34.719772], [138.668817, -34.71977], [138.668813, -34.719641], [138.668767, -34.71964], [138.668758, -34.719495], [138.668711, -34.719497], [138.668712, -34.719488], [138.668751, -34.719483], [138.668725, -34.719351], [138.668798, -34.719341], [138.668894, -34.719327], [138.668892, -34.719319], [138.668906, -34.719318], [138.668914, -34.719344], [138.668868, -34.719349], [138.66888, -34.719406], [138.668923, -34.719404], [138.668926, -34.719412], [138.668884, -34.719428], [138.669053, -34.719721], [138.669076, -34.719713], [138.669115, -34.719785], [138.669189, -34.719756], [138.669174, -34.71973], [138.669234, -34.719707], [138.669172, -34.719593], [138.669084, -34.719175], [138.669095, -34.719173], [138.669107, -34.719172], [138.66911, -34.719185], [138.669128, -34.719183], [138.669147, -34.71918], [138.669171, -34.719283], [138.669356, -34.719253], [138.669403, -34.719472], [138.669254, -34.71949], [138.669267, -34.719561], [138.669418, -34.719543], [138.669435, -34.719625], [138.67047, -34.719475], [138.670497, -34.719611], [138.670634, -34.719596], [138.670605, -34.719456], [138.670462, -34.718777], [138.669739, -34.71888], [138.669732, -34.718844], [138.669722, -34.718799], [138.669694, -34.718802], [138.669673, -34.71869], [138.669651, -34.718692], [138.669637, -34.718625], [138.669747, -34.718612], [138.669736, -34.718556], [138.669774, -34.718551], [138.669772, -34.718537], [138.669804, -34.718533], [138.669802, -34.718523], [138.669844, -34.718516], [138.669835, -34.718467], [138.669706, -34.718486], [138.669698, -34.718457], [138.669585, -34.718469], [138.669503, -34.718104], [138.669976, -34.718038], [138.669988, -34.718094], [138.669924, -34.718104], [138.669949, -34.718219], [138.669936, -34.718221], [138.669985, -34.718464], [138.670223, -34.718431], [138.67017, -34.718171], [138.670178, -34.718169], [138.670118, -34.717889], [138.67003, -34.717901], [138.670002, -34.717762], [138.669689, -34.717805], [138.669699, -34.717857], [138.669677, -34.717859], [138.669671, -34.717828], [138.669643, -34.717832], [138.669638, -34.717805], [138.66978, -34.717784], [138.669775, -34.717759], [138.669766, -34.717703], [138.669743, -34.717706], [138.669734, -34.717671], [138.669649, -34.717266], [138.66971, -34.717259], [138.669693, -34.717175], [138.669633, -34.717183], [138.669555, -34.716832], [138.669477, -34.716842], [138.669472, -34.716817], [138.668722, -34.716923], [138.668727, -34.71695], [138.668674, -34.716958], [138.668721, -34.717181], [138.668683, -34.717186], [138.668338, -34.717235], [138.668326, -34.71717], [138.668225, -34.717111], [138.667942, -34.717153], [138.667902, -34.717159], [138.667881, -34.717051], [138.667932, -34.717045], [138.66791, -34.716933], [138.667326, -34.71702], [138.667343, -34.717119], [138.667231, -34.717136], [138.667266, -34.717311], [138.667223, -34.717317], [138.667071, -34.717337], [138.667182, -34.717874], [138.66714, -34.717879], [138.667038, -34.717406], [138.666658, -34.717458], [138.666679, -34.717548], [138.666393, -34.717588], [138.666449, -34.717859], [138.666321, -34.717881]], [[138.668, -34.717501], [138.66802, -34.717498], [138.668388, -34.717448], [138.668368, -34.717351], [138.668486, -34.717335], [138.668541, -34.717608], [138.668035, -34.717676], [138.668, -34.717501]], [[138.66838, -34.718041], [138.668438, -34.718033], [138.668518, -34.718392], [138.66856, -34.718386], [138.668586, -34.718504], [138.668882, -34.718459], [138.668806, -34.718119], [138.668834, -34.718114], [138.668823, -34.718063], [138.668863, -34.718057], [138.668936, -34.718387], [138.66891, -34.718391], [138.668972, -34.718672], [138.668998, -34.718668], [138.669023, -34.718781], [138.669002, -34.718771], [138.668761, -34.718645], [138.668744, -34.718569], [138.668555, -34.718598], [138.668507, -34.718605], [138.66838, -34.718041]]]}, "properties": {"display_name": "Elizabeth City Centre, Philip Highway, Elizabeth, Adelaide, City of Playford, South Australia, 5112, Australia", "type": "mall", "osm_type": "relation", "osm_id": 8058066, "class": null, "keyword": "city centre"}}, {"type": "Feature", "geometry": {"type": "Polygon", "coordinates": [[[138.639522, -34.797354], [138.640414, -34.79786], [138.640996, -34.797243], [138.640736, -34.797096], [138.641038, -34.796535], [138.64126, -34.796121], [138.640597, -34.795879], [138.640042, -34.796934], [138.639976, -34.796905], [138.639817, -34.797198], [138.63986, -34.797217], [138.639829, -34.797287], [138.639588, -34.797211], [138.639522, -34.797354]]]}, "properties": {"display_name": "District, Nobby Buckley Drive, Parafield, Adelaide, City of Salisbury, South Australia, 5106, Australia", "type": "retail", "osm_type": "way", "osm_id": 1179874498, "class": null, "keyword": "district"}}, {"type": "Feature", "geometry": {"type": "Polygon", "coordinates": [[[138.489854, -34.860725], [138.490353, -34.861141], [138.490442, -34.861089], [138.490763, -34.86076], [138.491114, -34.860476], [138.491463, -34.860262], [138.491842, -34.86005], [138.492054, -34.859944], [138.49193, -34.859911], [138.491776, -34.859751], [138.490899, -34.8602], [138.490349, -34.86046], [138.489854, -34.860725]]]}, "properties": {"display_name": "Neighbourhood Reserve, West Lakes Shore, Adelaide, City of Charles Sturt, South Australia, 5020, Australia", "type": "recreation_ground", "osm_type": "way", "osm_id": 49836621, "class": null, "keyword": "neighbourhood"}}, {"type": "Feature", "geometry": {"type": "Polygon", "coordinates": [[[138.48957, -35.177362], [138.489579, -35.177484], [138.489715, -35.177477], [138.489733, -35.177719], [138.490089, -35.177701], [138.490115, -35.178042], [138.490433, -35.178026], [138.490395, -35.177527], [138.490418, -35.177526], [138.490396, -35.177224], [138.489923, -35.177248], [138.489935, -35.177402], [138.489877, -35.177405], [138.489873, -35.177346], [138.48957, -35.177362]]]}, "properties": {"display_name": "City of Onkaparinga Field Operations Centre, Railway Road, Seaford Meadows, Adelaide, City of Onkaparinga, South Australia, 5169, Australia", "type": "yes", "osm_type": "way", "osm_id": 324208511, "class": null, "keyword": "city centre"}}, {"type": "Feature", "geometry": {"type": "Polygon", "coordinates": [[[138.62613, -34.958389], [138.626172, -34.958905], [138.626944, -34.958862], [138.626901, -34.958346], [138.62613, -34.958389]]]}, "properties": {"display_name": "East Borough, 412-414, Myrtle Bank, Adelaide, City of Unley, South Australia, 5064, Australia", "type": "residential", "osm_type": "way", "osm_id": 1347908104, "class": null, "keyword": "borough"}}, {"type": "Feature", "geometry": {"type": "Polygon", "coordinates": [[[138.666929, -34.716817], [138.667395, -34.716945], [138.66805, -34.716866], [138.66886, -34.716862], [138.669772, -34.716733], [138.669736, -34.716589], [138.668704, -34.716747], [138.667964, -34.716742], [138.667723, -34.716764], [138.667428, -34.716782], [138.667004, -34.71665], [138.666929, -34.716817]]]}, "properties": {"display_name": "Elizabeth City Centre Interchange, Oxenham Drive, Elizabeth, Adelaide, City of Playford, South Australia, 5112, Australia", "type": "bus_station", "osm_type": "way", "osm_id": 193052239, "class": null, "keyword": "city centre"}}, {"type": "Feature", "geometry": {"type": "Polygon", "coordinates": [[[138.664389, -34.776059], [138.66485, -34.776339], [138.665291, -34.775824], [138.665059, -34.775681], [138.664847, -34.775551], [138.664722, -34.775691], [138.66451, -34.775929], [138.664389, -34.776059]]]}, "properties": {"display_name": "Salisbury East Neighbourhood Centre, Fern Grove Boulevard, Salisbury East, Adelaide, City of Salisbury, South Australia, 5109, Australia", "type": "community_centre", "osm_type": "way", "osm_id": 180276557, "class": null, "keyword": "neighbourhood"}}, {"type": "Feature", "geometry": {"type": "Polygon", "coordinates": [[[138.561424, -34.932531], [138.561439, -34.93274], [138.561857, -34.932883], [138.56212, -34.93287], [138.562112, -34.932765], [138.562083, -34.932399], [138.562078, -34.932347], [138.561779, -34.932356], [138.561489, -34.932428], [138.561424, -34.932531]]]}, "properties": {"display_name": "City of West Torrens Council, 165, Sir Donald Bradman Drive, Hilton, Adelaide, City of West Torrens, South Australia, 5033, Australia", "type": "townhall", "osm_type": "way", "osm_id": 15091228, "class": null, "keyword": "city centre"}}, {"type": "Feature", "geometry": {"type": "Polygon", "coordinates": [[[138.503476, -34.844139], [138.503579, -34.844523], [138.503623, -34.844543], [138.503726, -34.844525], [138.503755, -34.844491], [138.503736, -34.844407], [138.503781, -34.8444], [138.503793, -34.844449], [138.503983, -34.844415], [138.50397, -34.844366], [138.504003, -34.84436], [138.504031, -34.844449], [138.504198, -34.844417], [138.50407, -34.843981], [138.504016, -34.843999], [138.504003, -34.843944], [138.503818, -34.844019], [138.503842, -34.844099], [138.50367, -34.844133], [138.503651, -34.844084], [138.503614, -34.844079], [138.50348, -34.844117], [138.503476, -34.844139]]]}, "properties": {"display_name": "City of Port Adelaide Enfield Civic Centre, 163, St Vincent Street, Port Adelaide, Adelaide, City of Port Adelaide Enfield, South Australia, 5015, Australia", "type": "company", "osm_type": "way", "osm_id": 76534017, "class": null, "keyword": "city centre"}}, {"type": "Feature", "geometry": {"type": "Polygon", "coordinates": [[[138.537336, -34.878807], [138.53748, -34.8789], [138.537602, -34.878773], [138.537669, -34.878817], [138.53755, -34.878941], [138.537916, -34.879177], [138.538046, -34.879042], [138.538177, -34.878986], [138.538147, -34.878939], [138.538192, -34.878896], [138.538024, -34.878783], [138.538115, -34.878692], [138.538095, -34.878679], [138.538035, -34.87873], [138.537982, -34.878688], [138.537917, -34.878693], [138.537744, -34.878571], [138.537649, -34.878666], [138.537495, -34.878647], [138.53749, -34.878677], [138.537512, -34.878691], [138.537494, -34.87871], [138.537454, -34.878684], [138.537336, -34.878807]]]}, "properties": {"display_name": "City of Charles Sturt Civic Centre, 72, Woodville Road, Woodville, Adelaide, City of Charles Sturt, South Australia, 5011, Australia", "type": "government", "osm_type": "way", "osm_id": 210312271, "class": null, "keyword": "city centre"}}, {"type": "Feature", "geometry": {"type": "Polygon", "coordinates": [[[138.519457, -35.016651], [138.519463, -35.016741], [138.519472, -35.016888], [138.519483, -35.016888], [138.519494, -35.016908], [138.519525, -35.016913], [138.519526, -35.016926], [138.519643, -35.016922], [138.51964, -35.016878], [138.519851, -35.01687], [138.51985, -35.01685], [138.520001, -35.016844], [138.51998, -35.016497], [138.519824, -35.016503], [138.519825, -35.01652], [138.519765, -35.016522], [138.519774, -35.016664], [138.519593, -35.016671], [138.519591, -35.016645], [138.519457, -35.016651]]]}, "properties": {"display_name": "City of Holdfast Bay - Brighton Civic Centre, 24, Jetty Road, Brighton, Adelaide, City of Holdfast Bay, South Australia, 5048, Australia", "type": "civic", "osm_type": "way", "osm_id": 581499138, "class": null, "keyword": "city centre"}}, {"type": "Feature", "geometry": {"type": "Polygon", "coordinates": [[[138.668358, -34.723387], [138.668501, -34.723449], [138.66855, -34.723455], [138.668585, -34.723463], [138.668647, -34.723492], [138.66881, -34.723228], [138.668526, -34.723111], [138.668378, -34.723353], [138.668358, -34.723387]]]}, "properties": {"display_name": "Elizabeth City Medical Centre, Philip Highway, Elizabeth, Adelaide, City of Playford, South Australia, 5112, Australia", "type": "doctors", "osm_type": "relation", "osm_id": 2267472, "class": null, "keyword": "city centre"}}, {"type": "Feature", "geometry": {"type": "Polygon", "coordinates": [[[138.550764, -35.018599], [138.550942, -35.018726], [138.551034, -35.018639], [138.551062, -35.018658], [138.551114, -35.018609], [138.551193, -35.018665], [138.5513, -35.018564], [138.551016, -35.018362], [138.550764, -35.018599]]]}, "properties": {"display_name": "Cooinda Neighbourhood Centre, Maesbury Circuit, Sturt, Adelaide, City of Marion, South Australia, 5047, Australia", "type": "community_centre", "osm_type": "way", "osm_id": 587989245, "class": null, "keyword": "neighbourhood"}}, {"type": "Feature", "geometry": {"type": "Polygon", "coordinates": [[[138.542242, -35.071378], [138.542264, -35.071569], [138.542294, -35.071567], [138.542295, -35.071578], [138.542348, -35.071574], [138.542349, -35.071581], [138.542518, -35.071567], [138.542516, -35.071551], [138.542698, -35.071537], [138.542691, -35.071478], [138.542679, -35.071479], [138.542677, -35.071458], [138.542503, -35.071472], [138.542494, -35.071401], [138.542382, -35.07141], [138.542376, -35.071367], [138.542242, -35.071378]]]}, "properties": {"display_name": "Trott Park Neighbourhood Centre, Hessing Crescent, Trott Park, Adelaide, City of Marion, South Australia, 5158, Australia", "type": "yes", "osm_type": "way", "osm_id": 571255932, "class": null, "keyword": "neighbourhood"}}, {"type": "Feature", "geometry": {"type": "Polygon", "coordinates": [[[138.505923, -34.846891], [138.505988, -34.847122], [138.506135, -34.847095], [138.506103, -34.846985], [138.50631, -34.846942], [138.50623, -34.846825], [138.506043, -34.846865], [138.505923, -34.846891]]]}, "properties": {"display_name": "Port Adelaide Medical Center, Thomas Place, Port Adelaide, Adelaide, City of Port Adelaide Enfield, South Australia, 5015, Australia", "type": "yes", "osm_type": "way", "osm_id": 186836014, "class": null, "keyword": "city center"}}, {"type": "Feature", "geometry": {"type": "Polygon", "coordinates": [[[138.596405, -34.934051], [138.596412, -34.934144], [138.596499, -34.93414], [138.596502, -34.934178], [138.596492, -34.934179], [138.596508, -34.934408], [138.596613, -34.934403], [138.596595, -34.934171], [138.596585, -34.934171], [138.596583, -34.934136], [138.596646, -34.934133], [138.596645, -34.934124], [138.596716, -34.934121], [138.596707, -34.933996], [138.596635, -34.934], [138.596638, -34.93404], [138.596405, -34.934051]]]}, "properties": {"display_name": "City Community Children's Centre, Christie Walk, Adelaide, Adelaide City Council, South Australia, 5000, Australia", "type": "childcare", "osm_type": "way", "osm_id": 299068093, "class": null, "keyword": "city centre"}}]}