{"type": "FeatureCollection", "features": [{"type": "Feature", "geometry": {"type": "Polygon", "coordinates": [[[-106.568522, 35.099586], [-106.568514, 35.099114], [-106.56851, 35.09889], [-106.568494, 35.098019], [-106.568167, 35.098015], [-106.568164, 35.097971], [-106.567654, 35.097966], [-106.567653, 35.098186], [-106.567443, 35.098193], [-106.567279, 35.098198], [-106.567244, 35.098076], [-106.567134, 35.097863], [-106.566889, 35.097551], [-106.566526, 35.09709], [-106.566416, 35.096992], [-106.566274, 35.09693], [-106.565347, 35.096572], [-106.564082, 35.095956], [-106.563937, 35.095885], [-106.563737, 35.095877], [-106.561925, 35.096796], [-106.560963, 35.097283], [-106.56058, 35.09747], [-106.560745, 35.097672], [-106.561685, 35.098913], [-106.561718, 35.099059], [-106.561703, 35.099398], [-106.561583, 35.099805], [-106.561298, 35.100778], [-106.561208, 35.100871], [-106.561239, 35.100883], [-106.561283, 35.100899], [-106.561287, 35.1009], [-106.561389, 35.100974], [-106.56147, 35.101123], [-106.561472, 35.101337], [-106.561477, 35.101768], [-106.561519, 35.101768], [-106.561566, 35.101804], [-106.565143, 35.10175], [-106.565443, 35.101761], [-106.565537, 35.101765], [-106.565965, 35.101758], [-106.565976, 35.101734], [-106.565998, 35.101735], [-106.566051, 35.101725], [-106.566079, 35.101716], [-106.566104, 35.1017], [-106.566117, 35.101678], [-106.566133, 35.101637], [-106.566176, 35.10165], [-106.566292, 35.101319], [-106.566325, 35.101222], [-106.56641, 35.101027], [-106.566544, 35.100825], [-106.566712, 35.100555], [-106.566682, 35.100539], [-106.566826, 35.10026], [-106.567158, 35.099876], [-106.567255, 35.099809], [-106.567431, 35.099726], [-106.567556, 35.099692], [-106.567799, 35.09961], [-106.568046, 35.099608], [-106.568362, 35.099641], [-106.568458, 35.099638], [-106.568497, 35.099623], [-106.568522, 35.099586]]]}, "properties": {"display_name": "Winrock Town Center, 2100, Uptown, Albuquerque, Bernalillo County, New Mexico, 87110, United States", "type": "commercial", "osm_type": "way", "osm_id": 169378863, "class": null, "keyword": "town center"}}, {"type": "Feature", "geometry": {"type": "Polygon", "coordinates": [[[-106.571819, 35.08367], [-106.571785, 35.08238], [-106.571775, 35.080793], [-106.571784, 35.079552], [-106.571772, 35.079452], [-106.571749, 35.079352], [-106.571715, 35.079255], [-106.571671, 35.079161], [-106.571617, 35.07907], [-106.571552, 35.078984], [-106.571479, 35.078902], [-106.571397, 35.078827], [-106.571307, 35.078757], [-106.571209, 35.078695], [-106.571106, 35.07864], [-106.570996, 35.078593], [-106.570882, 35.078554], [-106.570764, 35.078524], [-106.570644, 35.078502], [-106.570521, 35.078489], [-106.570398, 35.078486], [-106.570273, 35.078491], [-106.570149, 35.078506], [-106.570027, 35.07853], [-106.569909, 35.078563], [-106.569795, 35.078605], [-106.569686, 35.078655], [-106.569582, 35.078713], [-106.569486, 35.078778], [-106.569397, 35.07885], [-106.569317, 35.078928], [-106.569246, 35.079012], [-106.569184, 35.079102], [-106.569133, 35.079195], [-106.569092, 35.079292], [-106.569062, 35.079391], [-106.569043, 35.079492], [-106.569035, 35.079594], [-106.569033, 35.081952], [-106.569051, 35.083692], [-106.569063, 35.083793], [-106.569085, 35.083892], [-106.569118, 35.08399], [-106.569161, 35.084084], [-106.569215, 35.084175], [-106.569278, 35.084262], [-106.56935, 35.084344], [-106.569431, 35.08442], [-106.56952, 35.08449], [-106.569617, 35.084553], [-106.56972, 35.084609], [-106.569828, 35.084658], [-106.569941, 35.084698], [-106.570059, 35.08473], [-106.570179, 35.084753], [-106.570301, 35.084767], [-106.570424, 35.084772], [-106.570551, 35.084768], [-106.570676, 35.084755], [-106.570799, 35.084732], [-106.570919, 35.0847], [-106.571035, 35.08466], [-106.571146, 35.084611], [-106.571252, 35.084554], [-106.57135, 35.084489], [-106.571441, 35.084417], [-106.571524, 35.084339], [-106.571597, 35.084255], [-106.571661, 35.084166], [-106.571714, 35.084072], [-106.571757, 35.083975], [-106.571789, 35.083875], [-106.57181, 35.083773], [-106.571819, 35.08367]]]}, "properties": {"display_name": "The Downs Albuquerque, Louisiana Boulevard Northeast, International District, Albuquerque, Bernalillo County, New Mexico, 87192, United States", "type": "track", "osm_type": "way", "osm_id": 334630274, "class": null, "keyword": "district"}}, {"type": "Feature", "geometry": {"type": "Polygon", "coordinates": [[[-106.62205, 35.086813], [-106.618262, 35.086948], [-106.613278, 35.084771], [-106.613201, 35.08753], [-106.61868, 35.087412], [-106.621945, 35.088679], [-106.62205, 35.086813]]]}, "properties": {"display_name": "Neighborhood Association 28, Nob Hill, Albuquerque, Bernalillo County, New Mexico, United States", "type": "administrative", "osm_type": "way", "osm_id": 473655550, "class": null, "keyword": "neighborhood"}}, {"type": "Feature", "geometry": {"type": "Polygon", "coordinates": [[[-106.559765, 35.174737], [-106.559755, 35.174606], [-106.55969, 35.17448], [-106.559631, 35.174438], [-106.559541, 35.174408], [-106.559393, 35.174391], [-106.558243, 35.174337], [-106.556958, 35.174271], [-106.555513, 35.174265], [-106.555521, 35.174559], [-106.555524, 35.175628], [-106.555248, 35.175623], [-106.55524, 35.175782], [-106.555269, 35.175941], [-106.555893, 35.176427], [-106.556333, 35.17675], [-106.556332, 35.176693], [-106.556435, 35.176544], [-106.556511, 35.176476], [-106.556568, 35.176438], [-106.556635, 35.176422], [-106.558153, 35.176418], [-106.558271, 35.176424], [-106.558349, 35.176472], [-106.558399, 35.176527], [-106.558584, 35.176558], [-106.558679, 35.176486], [-106.558737, 35.176417], [-106.558802, 35.176287], [-106.558815, 35.17581], [-106.558884, 35.175757], [-106.559708, 35.175797], [-106.559765, 35.174737]]]}, "properties": {"display_name": "La Cueva Town Center, 8100, Albuquerque, Bernalillo County, New Mexico, United States", "type": "commercial", "osm_type": "way", "osm_id": 584240926, "class": null, "keyword": "town center"}}, {"type": "Feature", "geometry": {"type": "Polygon", "coordinates": [[[-106.718692, 35.212899], [-106.718547, 35.212707], [-106.718118, 35.212509], [-106.717565, 35.212251], [-106.71726, 35.212277], [-106.71705, 35.212387], [-106.716777, 35.212702], [-106.716552, 35.212886], [-106.716144, 35.213219], [-106.715731, 35.21329], [-106.715538, 35.213092], [-106.715194, 35.212996], [-106.715001, 35.212943], [-106.714814, 35.212856], [-106.713977, 35.212737], [-106.713623, 35.212637], [-106.713403, 35.212579], [-106.713177, 35.2124], [-106.713097, 35.212229], [-106.712968, 35.212137], [-106.7127, 35.212014], [-106.712512, 35.21201], [-106.712319, 35.211983], [-106.712067, 35.211681], [-106.711944, 35.211615], [-106.712078, 35.212027], [-106.712062, 35.212755], [-106.711654, 35.212742], [-106.711627, 35.213837], [-106.710699, 35.213837], [-106.710699, 35.214035], [-106.711675, 35.21403], [-106.712528, 35.214114], [-106.713279, 35.214105], [-106.714443, 35.213947], [-106.715661, 35.213737], [-106.717753, 35.213127], [-106.718692, 35.212899]]]}, "properties": {"display_name": "Joe M. Lucero Hillside, Albuquerque, Bernalillo County, New Mexico, United States", "type": "grassland", "osm_type": "way", "osm_id": 929625107, "class": null, "keyword": "neighborhood"}}, {"type": "Feature", "geometry": {"type": "Polygon", "coordinates": [[[-106.56867, 35.104466], [-106.56859, 35.102], [-106.566337, 35.102009], [-106.566287, 35.102017], [-106.566242, 35.102057], [-106.565928, 35.102545], [-106.565906, 35.102584], [-106.565875, 35.102626], [-106.565845, 35.102662], [-106.565816, 35.102691], [-106.565733, 35.102777], [-106.565665, 35.102852], [-106.5656, 35.102929], [-106.565529, 35.103021], [-106.565462, 35.103116], [-106.565404, 35.103209], [-106.565371, 35.103283], [-106.565343, 35.103361], [-106.565323, 35.103441], [-106.56531, 35.103523], [-106.565306, 35.103589], [-106.565307, 35.103655], [-106.565313, 35.10372], [-106.565326, 35.103791], [-106.565347, 35.103863], [-106.565372, 35.103933], [-106.565404, 35.104002], [-106.565452, 35.104086], [-106.565509, 35.104165], [-106.565573, 35.104241], [-106.565639, 35.104306], [-106.565706, 35.104351], [-106.565784, 35.104394], [-106.565868, 35.10443], [-106.565956, 35.104459], [-106.566033, 35.104478], [-106.566114, 35.104489], [-106.566194, 35.104494], [-106.566298, 35.104495], [-106.56867, 35.104466]]]}, "properties": {"display_name": "ABQ Uptown, Uptown, Albuquerque, Bernalillo County, New Mexico, United States", "type": "retail", "osm_type": "way", "osm_id": 169380672, "class": null, "keyword": "uptown"}}, {"type": "Feature", "geometry": {"type": "Polygon", "coordinates": [[[-106.619031, 35.108705], [-106.619023, 35.108069], [-106.61901, 35.108069], [-106.61901, 35.107923], [-106.618795, 35.107948], [-106.61775, 35.108049], [-106.617058, 35.10805], [-106.617024, 35.108051], [-106.617026, 35.108136], [-106.616961, 35.108136], [-106.616981, 35.108981], [-106.617201, 35.108978], [-106.618022, 35.108974], [-106.618052, 35.108982], [-106.618067, 35.108995], [-106.618105, 35.109057], [-106.618184, 35.109054], [-106.618183, 35.108903], [-106.618186, 35.108712], [-106.618668, 35.108708], [-106.619011, 35.108705], [-106.619031, 35.108705]]]}, "properties": {"display_name": "Midtown Center, 2300, Albuquerque, Bernalillo County, New Mexico, United States", "type": "commercial", "osm_type": "way", "osm_id": 776906898, "class": null, "keyword": "midtown"}}, {"type": "Feature", "geometry": {"type": "Polygon", "coordinates": [[[-106.621653, 35.108578], [-106.621649, 35.108024], [-106.621571, 35.107792], [-106.621151, 35.10774], [-106.6211, 35.107595], [-106.619744, 35.107804], [-106.620306, 35.108321], [-106.620441, 35.108578], [-106.620458, 35.108707], [-106.620458, 35.109043], [-106.621027, 35.109039], [-106.621031, 35.108582], [-106.621653, 35.108578]]]}, "properties": {"display_name": "Midtown Inn & Suites, 2120, Menaul Boulevard Northeast, Netherwood Park, Albuquerque, Bernalillo County, New Mexico, 87131, United States", "type": "motel", "osm_type": "way", "osm_id": 1350054522, "class": null, "keyword": "midtown"}}, {"type": "Feature", "geometry": {"type": "Polygon", "coordinates": [[[-106.568286, 35.085636], [-106.568283, 35.085087], [-106.567211, 35.085091], [-106.567211, 35.084999], [-106.567117, 35.084999], [-106.567117, 35.085089], [-106.566609, 35.085091], [-106.566612, 35.085643], [-106.567065, 35.085641], [-106.567065, 35.085673], [-106.567499, 35.085671], [-106.567499, 35.085639], [-106.568286, 35.085636]]]}, "properties": {"display_name": "Albuquerque Public Schools Nutrition Warehouse, 800, Louisiana Boulevard Northeast, International District, Albuquerque, Bernalillo County, New Mexico, 87192, United States", "type": "warehouse", "osm_type": "way", "osm_id": 334630272, "class": null, "keyword": "district"}}, {"type": "Feature", "geometry": {"type": "Polygon", "coordinates": [[[-106.73984, 35.054806], [-106.739828, 35.054711], [-106.739789, 35.054714], [-106.739747, 35.054718], [-106.739711, 35.054441], [-106.739407, 35.054467], [-106.739397, 35.054395], [-106.739205, 35.054412], [-106.739215, 35.054485], [-106.73896, 35.054507], [-106.73902, 35.054973], [-106.739092, 35.054967], [-106.739098, 35.055012], [-106.739339, 35.054991], [-106.739334, 35.054945], [-106.739772, 35.054907], [-106.73976, 35.054813], [-106.739801, 35.054809], [-106.73984, 35.054806]]]}, "properties": {"display_name": "Walmart Neighborhood Market, 9600, Sage Road Southwest, Albuquerque, Bernalillo County, New Mexico, 87121, United States", "type": "supermarket", "osm_type": "way", "osm_id": 158604943, "class": null, "keyword": "neighborhood"}}, {"type": "Feature", "geometry": {"type": "Polygon", "coordinates": [[[-106.728368, 35.103283], [-106.728368, 35.102842], [-106.727956, 35.102842], [-106.727956, 35.102836], [-106.727949, 35.102836], [-106.727949, 35.102767], [-106.727701, 35.102767], [-106.727701, 35.10284], [-106.727553, 35.102841], [-106.727553, 35.103284], [-106.728368, 35.103283]]]}, "properties": {"display_name": "Walmart Neighborhood Market, 1820, Unser Boulevard Northwest, Albuquerque, Bernalillo County, New Mexico, 87120, United States", "type": "supermarket", "osm_type": "way", "osm_id": 581917331, "class": null, "keyword": "neighborhood"}}, {"type": "Feature", "geometry": {"type": "Polygon", "coordinates": [[[-106.517381, 35.129953], [-106.51724, 35.129786], [-106.51715, 35.129837], [-106.516757, 35.12937], [-106.516606, 35.129451], [-106.516429, 35.129557], [-106.516638, 35.129802], [-106.516594, 35.129824], [-106.516792, 35.130055], [-106.516832, 35.13003], [-106.516969, 35.130193], [-106.517075, 35.130133], [-106.51717, 35.130079], [-106.517294, 35.130009], [-106.517381, 35.129953]]]}, "properties": {"display_name": "Walmart Neighborhood Market, 11018, Montgomery Boulevard Northeast, Eldorado Heights, Cielito Lindo, Albuquerque, Bernalillo County, New Mexico, 87111, United States", "type": "supermarket", "osm_type": "way", "osm_id": 520936822, "class": null, "keyword": "neighborhood"}}, {"type": "Feature", "geometry": {"type": "Polygon", "coordinates": [[[-106.652121, 35.08756], [-106.652103, 35.087544], [-106.652088, 35.087543], [-106.65208, 35.087589], [-106.651994, 35.087583], [-106.652, 35.08753], [-106.651948, 35.087524], [-106.651948, 35.087498], [-106.651838, 35.087483], [-106.651838, 35.087498], [-106.651478, 35.087455], [-106.651483, 35.087436], [-106.651376, 35.08742], [-106.651376, 35.08744], [-106.651245, 35.087423], [-106.651236, 35.08746], [-106.651219, 35.087536], [-106.6515, 35.087852], [-106.651595, 35.087925], [-106.651751, 35.08795], [-106.651755, 35.087923], [-106.65176, 35.087895], [-106.651878, 35.087911], [-106.651881, 35.087897], [-106.651998, 35.087911], [-106.652033, 35.08775], [-106.652073, 35.087756], [-106.652095, 35.087633], [-106.652107, 35.087635], [-106.652121, 35.08756]]]}, "properties": {"display_name": "Albuquerque City Government Center, 1, Skyway, Albuquerque, Bernalillo County, New Mexico, 87102, United States", "type": "government", "osm_type": "way", "osm_id": 437182224, "class": null, "keyword": "city center"}}, {"type": "Feature", "geometry": {"type": "Polygon", "coordinates": [[[-106.575898, 35.103515], [-106.57564, 35.103219], [-106.575596, 35.103244], [-106.575551, 35.103194], [-106.57549, 35.103228], [-106.575462, 35.103195], [-106.575059, 35.10343], [-106.575391, 35.103811], [-106.575396, 35.103808], [-106.575401, 35.103813], [-106.575894, 35.103524], [-106.575891, 35.103519], [-106.575898, 35.103515]]]}, "properties": {"display_name": "One Town Centre, 6121, Indian School Road Northeast, Uptown, Albuquerque, Bernalillo County, New Mexico, 87110, United States", "type": "office", "osm_type": "way", "osm_id": 205640241, "class": null, "keyword": "town centre"}}, {"type": "Feature", "geometry": {"type": "Polygon", "coordinates": [[[-106.650325, 35.110893], [-106.649131, 35.11073], [-106.649085, 35.111186], [-106.649223, 35.111204], [-106.649232, 35.111128], [-106.649235, 35.111046], [-106.649321, 35.111046], [-106.649333, 35.110846], [-106.649517, 35.110878], [-106.649465, 35.111093], [-106.649704, 35.111128], [-106.649744, 35.110953], [-106.650295, 35.111036], [-106.650325, 35.110893]]]}, "properties": {"display_name": "Albuquerque Office of the City Clerk Records Center, 604, Menaul Boulevard Northwest, Los Candelarias, Albuquerque, Bernalillo County, New Mexico, 81702, United States", "type": "government", "osm_type": "way", "osm_id": 1109175108, "class": null, "keyword": "city center"}}, {"type": "Feature", "geometry": {"type": "Polygon", "coordinates": [[[-106.626674, 35.115069], [-106.626492, 35.115024], [-106.626147, 35.11596], [-106.62633, 35.116005], [-106.626674, 35.115069]]]}, "properties": {"display_name": "SureStay by Best Western Albuquerque Midtown, 1635, Candelaria Road Northeast, Albuquerque, Bernalillo County, New Mexico, 87107, United States", "type": "hotel", "osm_type": "way", "osm_id": 1227951378, "class": null, "keyword": "midtown"}}, {"type": "Feature", "geometry": {"type": "Polygon", "coordinates": [[[-106.63477, 35.082549], [-106.634494, 35.082513], [-106.634492, 35.082525], [-106.634421, 35.082516], [-106.634397, 35.082513], [-106.634372, 35.08251], [-106.634367, 35.082509], [-106.634347, 35.08261], [-106.63442, 35.082619], [-106.634427, 35.082583], [-106.634476, 35.08259], [-106.634344, 35.083272], [-106.634544, 35.083298], [-106.634623, 35.082894], [-106.634654, 35.082729], [-106.634713, 35.082737], [-106.634737, 35.082615], [-106.634756, 35.082617], [-106.63477, 35.082549]]]}, "properties": {"display_name": "SpringHill Suites Albuquerque University Area, 1101, Central Avenue Northeast, Albuquerque, Bernalillo County, New Mexico, 87106, United States", "type": "hotel", "osm_type": "way", "osm_id": 727961831, "class": null, "keyword": "central area"}}, {"type": "Feature", "geometry": {"type": "Polygon", "coordinates": [[[-106.622123, 35.110874], [-106.622118, 35.110813], [-106.622102, 35.110813], [-106.622096, 35.11074], [-106.622065, 35.110742], [-106.622062, 35.110708], [-106.622019, 35.110711], [-106.622019, 35.110706], [-106.621979, 35.110709], [-106.621979, 35.110703], [-106.621875, 35.110709], [-106.621875, 35.110714], [-106.621799, 35.110718], [-106.621796, 35.110695], [-106.621793, 35.110661], [-106.621792, 35.110644], [-106.62177, 35.110645], [-106.621768, 35.110614], [-106.621736, 35.110616], [-106.621733, 35.110589], [-106.621573, 35.110599], [-106.621571, 35.110594], [-106.621466, 35.110599], [-106.621466, 35.110603], [-106.621427, 35.110605], [-106.621427, 35.110609], [-106.621389, 35.110611], [-106.621396, 35.110701], [-106.621362, 35.110703], [-106.621368, 35.110777], [-106.621397, 35.110775], [-106.621401, 35.110824], [-106.621433, 35.110822], [-106.621433, 35.110827], [-106.621466, 35.110826], [-106.621474, 35.110833], [-106.62149, 35.110837], [-106.621509, 35.110834], [-106.621517, 35.110827], [-106.62152, 35.110821], [-106.621541, 35.11082], [-106.62154, 35.110817], [-106.621582, 35.110815], [-106.621576, 35.110734], [-106.621621, 35.110732], [-106.621628, 35.110824], [-106.621661, 35.110822], [-106.621668, 35.110916], [-106.621686, 35.110915], [-106.621688, 35.110939], [-106.621854, 35.110931], [-106.621854, 35.110935], [-106.622031, 35.110925], [-106.622029, 35.110896], [-106.622079, 35.110894], [-106.622077, 35.110876], [-106.622123, 35.110874]]]}, "properties": {"display_name": "La Quinta Inn & Suites Albuquerque Midtown, Princeton Drive Northeast, Netherwood Park, Albuquerque, Bernalillo County, New Mexico, 87107, United States", "type": "hotel", "osm_type": "way", "osm_id": 880251008, "class": null, "keyword": "midtown"}}, {"type": "Feature", "geometry": {"type": "Polygon", "coordinates": [[[-106.633919, 35.089855], [-106.633855, 35.089791], [-106.633764, 35.089852], [-106.633723, 35.089811], [-106.633669, 35.089847], [-106.633713, 35.08989], [-106.633612, 35.089957], [-106.63359, 35.089938], [-106.633183, 35.090207], [-106.633196, 35.090219], [-106.633075, 35.090306], [-106.633049, 35.090281], [-106.633002, 35.090351], [-106.633067, 35.090385], [-106.633228, 35.090468], [-106.633298, 35.090426], [-106.633229, 35.090347], [-106.633275, 35.090317], [-106.633297, 35.090339], [-106.633708, 35.090064], [-106.633667, 35.090023], [-106.633919, 35.089855]]]}, "properties": {"display_name": "Howard Johnson by Wyndham Albuquerque Midtown, 900, Medical Arts Avenue Northeast, Sandia Medical Park, Albuquerque, Bernalillo County, New Mexico, 87102, United States", "type": "hotel", "osm_type": "way", "osm_id": 308897297, "class": null, "keyword": "midtown"}}, {"type": "Feature", "geometry": {"type": "Polygon", "coordinates": [[[-106.602759, 35.10596], [-106.602755, 35.105846], [-106.602716, 35.105838], [-106.602716, 35.105823], [-106.601861, 35.105823], [-106.601861, 35.105973], [-106.602711, 35.105973], [-106.602711, 35.105948], [-106.602759, 35.10596]]]}, "properties": {"display_name": "Hampton Inn Albuquerque - University/Midtown, 2300, Cutler Avenue Northeast, Albuquerque, Bernalillo County, New Mexico, 87110, United States", "type": "hotel", "osm_type": "way", "osm_id": 207910494, "class": null, "keyword": "midtown"}}, {"type": "Feature", "geometry": {"type": "Polygon", "coordinates": [[[-106.614296, 35.108655], [-106.614296, 35.108517], [-106.61428, 35.108517], [-106.61428, 35.10848], [-106.614293, 35.10848], [-106.614293, 35.108388], [-106.614279, 35.108388], [-106.614278, 35.108345], [-106.614264, 35.108345], [-106.614263, 35.1083], [-106.614098, 35.108302], [-106.614099, 35.108389], [-106.614089, 35.108389], [-106.61409, 35.108473], [-106.614102, 35.108473], [-106.614103, 35.108516], [-106.614071, 35.108516], [-106.614072, 35.108558], [-106.61405, 35.108558], [-106.614051, 35.108603], [-106.614065, 35.108603], [-106.614066, 35.108647], [-106.614092, 35.108654], [-106.614092, 35.108688], [-106.614076, 35.108688], [-106.614078, 35.108788], [-106.614092, 35.108788], [-106.614093, 35.108871], [-106.61427, 35.108869], [-106.61427, 35.108827], [-106.614287, 35.108827], [-106.614286, 35.108783], [-106.614295, 35.108781], [-106.614295, 35.108689], [-106.614286, 35.108689], [-106.614286, 35.108655], [-106.614296, 35.108655]]]}, "properties": {"display_name": "Holiday Inn Express Hotel & Suites Midtown, Menaul Boulevard Northeast, Netherwood Park, Albuquerque, Bernalillo County, New Mexico, 87131, United States", "type": "hotel", "osm_type": "way", "osm_id": 205410257, "class": null, "keyword": "midtown"}}, {"type": "Feature", "geometry": {"type": "Polygon", "coordinates": [[[-106.599412, 35.192297], [-106.599249, 35.19224], [-106.599286, 35.192161], [-106.598964, 35.192065], [-106.598887, 35.19226], [-106.599182, 35.192352], [-106.599163, 35.192387], [-106.599262, 35.19242], [-106.599292, 35.192358], [-106.599372, 35.192383], [-106.599412, 35.192297]]]}, "properties": {"display_name": "City of Albuquerque Golf Training Center, 9401, Balloon Museum Drive Northeast, Albuquerque, Bernalillo County, New Mexico, 87113, United States", "type": "retail", "osm_type": "way", "osm_id": 229950256, "class": null, "keyword": "city center"}}, {"type": "Feature", "geometry": {"type": "Polygon", "coordinates": [[[-106.568139, 35.065179], [-106.568138, 35.065164], [-106.56813, 35.065153], [-106.568114, 35.065143], [-106.568099, 35.065138], [-106.568039, 35.065139], [-106.568038, 35.065028], [-106.567947, 35.065028], [-106.567947, 35.065001], [-106.5678, 35.065002], [-106.567806, 35.0653], [-106.567854, 35.0653], [-106.567854, 35.06533], [-106.567916, 35.065329], [-106.567919, 35.065342], [-106.567929, 35.065352], [-106.567944, 35.065356], [-106.567957, 35.065351], [-106.567967, 35.065342], [-106.56797, 35.065329], [-106.568066, 35.065329], [-106.568065, 35.065299], [-106.568139, 35.065299], [-106.568139, 35.065179]]]}, "properties": {"display_name": "Albuquerque Police Department - Southeast Area Command, 800, Louisiana Boulevard Southeast, International District, Albuquerque, Bernalillo County, New Mexico, 87108, United States", "type": "police", "osm_type": "way", "osm_id": 392967448, "class": null, "keyword": "district"}}, {"type": "Feature", "geometry": {"type": "Polygon", "coordinates": [[[-106.564096, 35.080315], [-106.564096, 35.080127], [-106.563615, 35.080127], [-106.563615, 35.080315], [-106.564096, 35.080315]]]}, "properties": {"display_name": "La Mesa Neighborhood Community Garden, Española Street Northeast, La Mesa, Albuquerque, Bernalillo County, New Mexico, 87192, United States", "type": "garden", "osm_type": "way", "osm_id": 973171878, "class": null, "keyword": "neighborhood"}}, {"type": "Feature", "geometry": {"type": "Polygon", "coordinates": [[[-106.621516, 35.05888], [-106.621515, 35.058741], [-106.621218, 35.058741], [-106.621218, 35.058749], [-106.621144, 35.058749], [-106.621144, 35.058794], [-106.621217, 35.058794], [-106.621217, 35.058881], [-106.621373, 35.058881], [-106.621373, 35.058934], [-106.621491, 35.058934], [-106.621491, 35.05888], [-106.621516, 35.05888]]]}, "properties": {"display_name": "Applebee's, 2000, Yale Boulevard Southeast, Albuquerque, Bernalillo County, New Mexico, 87106, United States", "type": "restaurant", "osm_type": "way", "osm_id": 204847388, "class": null, "keyword": "neighborhood"}}, {"type": "Feature", "geometry": {"type": "Polygon", "coordinates": [[[-106.529656, 35.086554], [-106.529651, 35.086554], [-106.529653, 35.086494], [-106.529577, 35.086492], [-106.529576, 35.086529], [-106.529593, 35.08653], [-106.529593, 35.086551], [-106.529486, 35.086548], [-106.529481, 35.086666], [-106.52945, 35.086665], [-106.529445, 35.086772], [-106.529476, 35.086773], [-106.529475, 35.086796], [-106.529486, 35.086796], [-106.529646, 35.086801], [-106.529656, 35.086554]]]}, "properties": {"display_name": "Applebee's, 10600, Lomas Boulevard Northeast, Sandia Vista, Albuquerque, Bernalillo County, New Mexico, 87112, United States", "type": "restaurant", "osm_type": "way", "osm_id": 255993906, "class": null, "keyword": "neighborhood"}}, {"type": "Feature", "geometry": {"type": "Polygon", "coordinates": [[[-106.682735, 35.15338], [-106.682507, 35.153294], [-106.682415, 35.153457], [-106.682469, 35.153477], [-106.68251, 35.153493], [-106.682501, 35.153509], [-106.682536, 35.153522], [-106.682514, 35.153562], [-106.68256, 35.15358], [-106.682587, 35.153533], [-106.682638, 35.153552], [-106.682735, 35.15338]]]}, "properties": {"display_name": "Applebee's, Montaño Plaza Drive Northwest, Albuquerque, Bernalillo County, New Mexico, 87120, United States", "type": "restaurant", "osm_type": "way", "osm_id": 1123773342, "class": null, "keyword": "neighborhood"}}, {"type": "Feature", "geometry": {"type": "Polygon", "coordinates": [[[-106.702446, 35.114619], [-106.702371, 35.114375], [-106.702205, 35.11441], [-106.702296, 35.114706], [-106.702368, 35.114691], [-106.702356, 35.114653], [-106.702338, 35.114657], [-106.702334, 35.114642], [-106.702446, 35.114619]]]}, "properties": {"display_name": "Applebee's, Coors Frontage Road Northwest, Albuquerque, Bernalillo County, New Mexico, 87120, United States", "type": "restaurant", "osm_type": "way", "osm_id": 1104778082, "class": null, "keyword": "neighborhood"}}, {"type": "Feature", "geometry": {"type": "Polygon", "coordinates": [[[-106.652122, 35.206537], [-106.65204, 35.206413], [-106.651778, 35.206528], [-106.65186, 35.206652], [-106.652122, 35.206537]]]}, "properties": {"display_name": "Applebee's, New Mexico State Road 528 Northwest, Albuquerque, Bernalillo County, New Mexico, 87114, United States", "type": "restaurant", "osm_type": "way", "osm_id": 1054366015, "class": null, "keyword": "neighborhood"}}, {"type": "Feature", "geometry": {"type": "Polygon", "coordinates": [[[-106.563802, 35.080218], [-106.563797, 35.080198], [-106.563783, 35.08018], [-106.563763, 35.080167], [-106.563739, 35.08016], [-106.563713, 35.080161], [-106.563689, 35.080168], [-106.56367, 35.080182], [-106.563658, 35.080199], [-106.563653, 35.080218], [-106.563655, 35.080237], [-106.563665, 35.080255], [-106.563681, 35.080269], [-106.563702, 35.080278], [-106.563725, 35.080282], [-106.563749, 35.08028], [-106.56377, 35.080271], [-106.563787, 35.080258], [-106.563799, 35.080239], [-106.563802, 35.080218]]]}, "properties": {"display_name": "La Mesa Neighborhood Community Garden, La Mesa, Albuquerque, Bernalillo County, New Mexico, United States", "type": "recreation_ground", "osm_type": "way", "osm_id": 922695839, "class": null, "keyword": "neighborhood"}}, {"type": "Feature", "geometry": {"type": "Polygon", "coordinates": [[[-106.556208, 35.072554], [-106.556106, 35.072554], [-106.556107, 35.072623], [-106.556207, 35.072622], [-106.556208, 35.072554]]]}, "properties": {"display_name": "Albuquerque Indian Center Annex Number 1, 8322, Zuni Road Southeast, Trumbull Village, International District, Albuquerque, Bernalillo County, New Mexico, 87108, United States", "type": "yes", "osm_type": "way", "osm_id": 348408378, "class": null, "keyword": "district"}}]}