{"type": "FeatureCollection", "features": [{"type": "Feature", "geometry": {"type": "Polygon", "coordinates": [[[123.183205, 40.377152], [123.199711, 40.37914], [123.201945, 40.378425], [123.199196, 40.374172], [123.19782, 40.370313], [123.200487, 40.354105], [123.203152, 40.351559], [123.206332, 40.35104], [123.207621, 40.343783], [123.212435, 40.336138], [123.216817, 40.329471], [123.21888, 40.320315], [123.211578, 40.317296], [123.211751, 40.308987], [123.212009, 40.308006], [123.215841, 40.306715], [123.21902, 40.306849], [123.221511, 40.306721], [123.223142, 40.306461], [123.22589, 40.305743], [123.228123, 40.304568], [123.230699, 40.303522], [123.232674, 40.302738], [123.234991, 40.302543], [123.235764, 40.302674], [123.237566, 40.301955], [123.238338, 40.301105], [123.239798, 40.299601], [123.240913, 40.29875], [123.242373, 40.298162], [123.24426, 40.297311], [123.245718, 40.297115], [123.247863, 40.296919], [123.250265, 40.296723], [123.252152, 40.296723], [123.254124, 40.296918], [123.256611, 40.297311], [123.258412, 40.297244], [123.261155, 40.297898], [123.263127, 40.298159], [123.266898, 40.299073], [123.27204, 40.300117], [123.275724, 40.30044], [123.278122, 40.300438], [123.282919, 40.299778], [123.28446, 40.299122], [123.28536, 40.298073], [123.289556, 40.301176], [123.295549, 40.303132], [123.301926, 40.306066], [123.307393, 40.309091], [123.317545, 40.314708], [123.321908, 40.316204], [123.338715, 40.322855], [123.341076, 40.32379], [123.34605, 40.327238], [123.35049, 40.330314], [123.366493, 40.338028], [123.367178, 40.342213], [123.362382, 40.352421], [123.358442, 40.356349], [123.355189, 40.360147], [123.353306, 40.359888], [123.34816, 40.365614], [123.340122, 40.374558], [123.334644, 40.380582], [123.332834, 40.384679], [123.330195, 40.390655], [123.305377, 40.395929], [123.308627, 40.4069], [123.307198, 40.412515], [123.305202, 40.420362], [123.299039, 40.422333], [123.291161, 40.43854], [123.276501, 40.438135], [123.264333, 40.424563], [123.257818, 40.425153], [123.253016, 40.422671], [123.242894, 40.417739], [123.231953, 40.410386], [123.232469, 40.404799], [123.236032, 40.396503], [123.229553, 40.395812], [123.222041, 40.395838], [123.214053, 40.393869], [123.189774, 40.394846], [123.190253, 40.389255], [123.184925, 40.3799], [123.183205, 40.377152]]]}, "properties": {"display_name": "兴隆街道, 岫岩满族自治县, 鞍山市, 辽宁省, 中国", "type": "administrative", "osm_type": "relation", "osm_id": 9637898, "class": null, "keyword": "subdistrict"}}, {"type": "Feature", "geometry": {"type": "Polygon", "coordinates": [[[123.16657, 40.254006], [123.169105, 40.249385], [123.171517, 40.244986], [123.173536, 40.241305], [123.178867, 40.23365], [123.184026, 40.227433], [123.187, 40.224776], [123.194344, 40.218213], [123.199072, 40.212257], [123.202715, 40.20959], [123.203628, 40.208922], [123.20406, 40.202058], [123.204577, 40.193848], [123.211453, 40.185924], [123.213761, 40.182101], [123.220474, 40.170985], [123.235331, 40.158271], [123.23116, 40.151426], [123.233481, 40.12689], [123.255613, 40.135443], [123.270527, 40.151574], [123.279437, 40.17098], [123.27301, 40.182068], [123.269496, 40.187184], [123.270385, 40.193521], [123.270866, 40.19695], [123.268722, 40.201672], [123.275149, 40.202912], [123.284486, 40.199689], [123.289625, 40.194045], [123.296303, 40.195609], [123.301525, 40.193109], [123.309827, 40.197618], [123.31556, 40.206391], [123.315045, 40.21], [123.321634, 40.21143], [123.336265, 40.221558], [123.330732, 40.221249], [123.326367, 40.221061], [123.324912, 40.222178], [123.323117, 40.22408], [123.322431, 40.226669], [123.320506, 40.229915], [123.316996, 40.233266], [123.316568, 40.235707], [123.316525, 40.237361], [123.314127, 40.242263], [123.31096, 40.245658], [123.306703, 40.248058], [123.303622, 40.249536], [123.301054, 40.25013], [123.297544, 40.250168], [123.294823, 40.248928], [123.291528, 40.247197], [123.290821, 40.246772], [123.290392, 40.246479], [123.289901, 40.246249], [123.289494, 40.246103], [123.288681, 40.245842], [123.288038, 40.245745], [123.288102, 40.245532], [123.28821, 40.245302], [123.288102, 40.24504], [123.287824, 40.244942], [123.286947, 40.245123], [123.286325, 40.244944], [123.285983, 40.24483], [123.285576, 40.244798], [123.284977, 40.244799], [123.284806, 40.244749], [123.284548, 40.244849], [123.284356, 40.245144], [123.28352, 40.245128], [123.282236, 40.245129], [123.281829, 40.245245], [123.281572, 40.245474], [123.280952, 40.245524], [123.279623, 40.244952], [123.279345, 40.244953], [123.278917, 40.244675], [123.278489, 40.244201], [123.277547, 40.243678], [123.276925, 40.243416], [123.275362, 40.242845], [123.274248, 40.242289], [123.272878, 40.241864], [123.271549, 40.241587], [123.271058, 40.242811], [123.270715, 40.243532], [123.270758, 40.24458], [123.270737, 40.245071], [123.271272, 40.245709], [123.272064, 40.246822], [123.272193, 40.247723], [123.271036, 40.248461], [123.269087, 40.248937], [123.268872, 40.249674], [123.268272, 40.251213], [123.267672, 40.252949], [123.267064, 40.254224], [123.266751, 40.254883], [123.265807, 40.256618], [123.267885, 40.257386], [123.269685, 40.258826], [123.270498, 40.259021], [123.271506, 40.25943], [123.27234, 40.259854], [123.272954, 40.260576], [123.273732, 40.261491], [123.274075, 40.262947], [123.273625, 40.26411], [123.271119, 40.264275], [123.269662, 40.263557], [123.269062, 40.262901], [123.269083, 40.261902], [123.267733, 40.262984], [123.268848, 40.266453], [123.269897, 40.267664], [123.270325, 40.268956], [123.268437, 40.26973], [123.265888, 40.270977], [123.264581, 40.270797], [123.26418, 40.27067], [123.263994, 40.270611], [123.263809, 40.270552], [123.263016, 40.270536], [123.262823, 40.26998], [123.262137, 40.269783], [123.261516, 40.270389], [123.261452, 40.271764], [123.259523, 40.272388], [123.259223, 40.276152], [123.254506, 40.276121], [123.244514, 40.272913], [123.239751, 40.274188], [123.235031, 40.277525], [123.232499, 40.280796], [123.229964, 40.284886], [123.22799, 40.28639], [123.221034, 40.28743], [123.212884, 40.288127], [123.212369, 40.28577], [123.204292, 40.283009], [123.199824, 40.277373], [123.189336, 40.276176], [123.18246, 40.271451], [123.172831, 40.268814], [123.167329, 40.26016], [123.16657, 40.254006]]]}, "properties": {"display_name": "雅河街道, 岫岩满族自治县, 鞍山市, 辽宁省, 中国", "type": "administrative", "osm_type": "relation", "osm_id": 9637899, "class": null, "keyword": "subdistrict"}}, {"type": "Feature", "geometry": {"type": "Polygon", "coordinates": [[[123.16657, 40.254006], [123.169105, 40.249385], [123.171517, 40.244986], [123.173536, 40.241305], [123.178867, 40.23365], [123.184026, 40.227433], [123.187, 40.224776], [123.194344, 40.218213], [123.199072, 40.212257], [123.202715, 40.20959], [123.203628, 40.208922], [123.20406, 40.202058], [123.204577, 40.193848], [123.211453, 40.185924], [123.213761, 40.182101], [123.221658, 40.1846], [123.221229, 40.187714], [123.219081, 40.194333], [123.217578, 40.199738], [123.218178, 40.202427], [123.227282, 40.206729], [123.228742, 40.209679], [123.230501, 40.212629], [123.23475, 40.217514], [123.238826, 40.220006], [123.241658, 40.220466], [123.244361, 40.219222], [123.247278, 40.218764], [123.250495, 40.219714], [123.252725, 40.221024], [123.254892, 40.223118], [123.256369, 40.224545], [123.257655, 40.22615], [123.260419, 40.228115], [123.262026, 40.231456], [123.262454, 40.23288], [123.262733, 40.233764], [123.263033, 40.23473], [123.263762, 40.235812], [123.26402, 40.236303], [123.265648, 40.237056], [123.267448, 40.237741], [123.26929, 40.237577], [123.272418, 40.237542], [123.272096, 40.239768], [123.271549, 40.241587], [123.271058, 40.242811], [123.270715, 40.243532], [123.270758, 40.24458], [123.270737, 40.245071], [123.271272, 40.245709], [123.272064, 40.246822], [123.272193, 40.247723], [123.271036, 40.248461], [123.269087, 40.248937], [123.268872, 40.249674], [123.268272, 40.251213], [123.267672, 40.252949], [123.267064, 40.254224], [123.266751, 40.254883], [123.265807, 40.256618], [123.267885, 40.257386], [123.269685, 40.258826], [123.270498, 40.259021], [123.271506, 40.25943], [123.27234, 40.259854], [123.272954, 40.260576], [123.273732, 40.261491], [123.274075, 40.262947], [123.273625, 40.26411], [123.271119, 40.264275], [123.269662, 40.263557], [123.269062, 40.262901], [123.269083, 40.261902], [123.267733, 40.262984], [123.268848, 40.266453], [123.269897, 40.267664], [123.270325, 40.268956], [123.268437, 40.26973], [123.265888, 40.270977], [123.264581, 40.270797], [123.26418, 40.27067], [123.263994, 40.270611], [123.263809, 40.270552], [123.263016, 40.270536], [123.262823, 40.26998], [123.262137, 40.269783], [123.261516, 40.270389], [123.261452, 40.271764], [123.259523, 40.272388], [123.259223, 40.276152], [123.254506, 40.276121], [123.244514, 40.272913], [123.239751, 40.274188], [123.235031, 40.277525], [123.232499, 40.280796], [123.229964, 40.284886], [123.22799, 40.28639], [123.221034, 40.28743], [123.212884, 40.288127], [123.212369, 40.28577], [123.204292, 40.283009], [123.199824, 40.277373], [123.189336, 40.276176], [123.18246, 40.271451], [123.172831, 40.268814], [123.167329, 40.26016], [123.16657, 40.254006]]]}, "properties": {"display_name": "仙人咀街道, 岫岩满族自治县, 鞍山市, 辽宁省, 中国", "type": "historic", "osm_type": "relation", "osm_id": 9637897, "class": null, "keyword": "subdistrict"}}, {"type": "Feature", "geometry": {"type": "MultiPolygon", "coordinates": [[[[123.207026, 40.305774], [123.212354, 40.304407], [123.212883, 40.298468], [123.212884, 40.288127], [123.221034, 40.28743], [123.22799, 40.28639], [123.229964, 40.284886], [123.232499, 40.280796], [123.235031, 40.277525], [123.239751, 40.274188], [123.244514, 40.272913], [123.254506, 40.276121], [123.259223, 40.276152], [123.259523, 40.272388], [123.261452, 40.271764], [123.261516, 40.270389], [123.262137, 40.269783], [123.262823, 40.26998], [123.263016, 40.270536], [123.263809, 40.270552], [123.263994, 40.270611], [123.26418, 40.27067], [123.264581, 40.270797], [123.265888, 40.270977], [123.268437, 40.26973], [123.270325, 40.268956], [123.269897, 40.267664], [123.268848, 40.266453], [123.267733, 40.262984], [123.269083, 40.261902], [123.269062, 40.262901], [123.269662, 40.263557], [123.271119, 40.264275], [123.273625, 40.26411], [123.274075, 40.262947], [123.273732, 40.261491], [123.272954, 40.260576], [123.27234, 40.259854], [123.271506, 40.25943], [123.270498, 40.259021], [123.269685, 40.258826], [123.267885, 40.257386], [123.265807, 40.256618], [123.266751, 40.254883], [123.267064, 40.254224], [123.267672, 40.252949], [123.268272, 40.251213], [123.268872, 40.249674], [123.269087, 40.248937], [123.271036, 40.248461], [123.272193, 40.247723], [123.272064, 40.246822], [123.271272, 40.245709], [123.270737, 40.245071], [123.270758, 40.24458], [123.270715, 40.243532], [123.271058, 40.242811], [123.271549, 40.241587], [123.272878, 40.241864], [123.274248, 40.242289], [123.275362, 40.242845], [123.276925, 40.243416], [123.277547, 40.243678], [123.278489, 40.244201], [123.278917, 40.244675], [123.279345, 40.244953], [123.279623, 40.244952], [123.280952, 40.245524], [123.281572, 40.245474], [123.281829, 40.245245], [123.282236, 40.245129], [123.28352, 40.245128], [123.284356, 40.245144], [123.284548, 40.244849], [123.284806, 40.244749], [123.284977, 40.244799], [123.285576, 40.244798], [123.285983, 40.24483], [123.286325, 40.244944], [123.286947, 40.245123], [123.287824, 40.244942], [123.288102, 40.24504], [123.28821, 40.245302], [123.288102, 40.245532], [123.288038, 40.245745], [123.288681, 40.245842], [123.289494, 40.246103], [123.289901, 40.246249], [123.290392, 40.246479], [123.290821, 40.246772], [123.291528, 40.247197], [123.294823, 40.248928], [123.297544, 40.250168], [123.301054, 40.25013], [123.303622, 40.249536], [123.306703, 40.248058], [123.31096, 40.245658], [123.314127, 40.242263], [123.316525, 40.237361], [123.316568, 40.235707], [123.316996, 40.233266], [123.320506, 40.229915], [123.322431, 40.226669], [123.323117, 40.22408], [123.324912, 40.222178], [123.326367, 40.221061], [123.330732, 40.221249], [123.336265, 40.221558], [123.342939, 40.230325], [123.343195, 40.235762], [123.339686, 40.248543], [123.334722, 40.255037], [123.335576, 40.262108], [123.338315, 40.263936], [123.341396, 40.263734], [123.345932, 40.261107], [123.346016, 40.266737], [123.337583, 40.267842], [123.327485, 40.270447], [123.321538, 40.27239], [123.322811, 40.277686], [123.325292, 40.279972], [123.326875, 40.283275], [123.327044, 40.288053], [123.330852, 40.292039], [123.330852, 40.294035], [123.331921, 40.297959], [123.332948, 40.300903], [123.334658, 40.308785], [123.336026, 40.312053], [123.337652, 40.317677], [123.338715, 40.322855], [123.321908, 40.316204], [123.317545, 40.314708], [123.307393, 40.309091], [123.301926, 40.306066], [123.295549, 40.303132], [123.289556, 40.301176], [123.28536, 40.298073], [123.28446, 40.299122], [123.282919, 40.299778], [123.278122, 40.300438], [123.275724, 40.30044], [123.27204, 40.300117], [123.266898, 40.299073], [123.263127, 40.298159], [123.261155, 40.297898], [123.258412, 40.297244], [123.256611, 40.297311], [123.254124, 40.296918], [123.252152, 40.296723], [123.250265, 40.296723], [123.247863, 40.296919], [123.245718, 40.297115], [123.24426, 40.297311], [123.242373, 40.298162], [123.240913, 40.29875], [123.239798, 40.299601], [123.238338, 40.301105], [123.237566, 40.301955], [123.235764, 40.302674], [123.234991, 40.302543], [123.232674, 40.302738], [123.230699, 40.303522], [123.228123, 40.304568], [123.22589, 40.305743], [123.223142, 40.306461], [123.221511, 40.306721], [123.21902, 40.306849], [123.215841, 40.306715], [123.212009, 40.308006], [123.20797, 40.308132], [123.207026, 40.305774]]], [[[123.347002, 40.272369], [123.347131, 40.27173], [123.34987, 40.271039], [123.352674, 40.271001], [123.353744, 40.272211], [123.353828, 40.273094], [123.353144, 40.275403], [123.352522, 40.277729], [123.351902, 40.278858], [123.350618, 40.278861], [123.349056, 40.278781], [123.348564, 40.277014], [123.347516, 40.274152], [123.347002, 40.272369]]]]}, "properties": {"display_name": "阜昌街道, 岫岩满族自治县, 鞍山市, 辽宁省, 中国", "type": "administrative", "osm_type": "relation", "osm_id": 9637896, "class": null, "keyword": "subdistrict"}}, {"type": "Feature", "geometry": {"type": "Polygon", "coordinates": [[[122.64953, 40.882747], [122.650386, 40.881254], [122.652527, 40.878203], [122.65792, 40.873265], [122.662285, 40.870728], [122.66973, 40.867536], [122.674693, 40.867462], [122.684962, 40.866729], [122.690719, 40.867742], [122.700177, 40.864807], [122.709295, 40.85954], [122.713449, 40.863394], [122.714647, 40.8649], [122.713748, 40.86542], [122.714273, 40.866052], [122.714915, 40.865719], [122.715889, 40.866715], [122.71287, 40.868648], [122.712302, 40.868941], [122.710344, 40.869892], [122.709455, 40.870266], [122.708085, 40.870803], [122.708267, 40.871127], [122.709316, 40.870687], [122.709487, 40.870874], [122.709359, 40.870906], [122.709445, 40.871223], [122.70877, 40.871507], [122.709616, 40.872932], [122.7095, 40.873004], [122.706729, 40.874151], [122.707586, 40.875472], [122.708944, 40.875023], [122.709908, 40.875776], [122.709084, 40.87628], [122.709555, 40.876814], [122.710261, 40.876562], [122.712348, 40.877758], [122.712509, 40.884328], [122.714221, 40.887438], [122.735139, 40.879331], [122.741066, 40.876912], [122.745867, 40.875193], [122.747475, 40.877235], [122.748419, 40.878791], [122.748783, 40.878548], [122.749297, 40.877884], [122.749533, 40.877348], [122.749426, 40.877138], [122.749358, 40.876705], [122.748821, 40.874095], [122.753025, 40.872392], [122.752103, 40.870883], [122.750815, 40.869263], [122.747385, 40.86696], [122.744642, 40.86508], [122.74415, 40.864335], [122.743922, 40.863852], [122.743736, 40.863266], [122.743441, 40.859925], [122.743787, 40.859381], [122.744516, 40.859835], [122.745717, 40.858781], [122.746832, 40.857922], [122.747196, 40.857824], [122.748119, 40.858132], [122.75322, 40.861325], [122.75337, 40.861617], [122.753649, 40.861698], [122.753928, 40.861682], [122.754093, 40.861556], [122.759677, 40.863921], [122.763152, 40.865836], [122.764311, 40.866453], [122.765813, 40.867475], [122.766779, 40.868383], [122.768478, 40.869775], [122.77011, 40.870879], [122.778869, 40.874712], [122.782475, 40.876078], [122.784365, 40.877312], [122.781393, 40.883276], [122.772546, 40.890074], [122.76748, 40.893053], [122.766879, 40.898174], [122.77409, 40.909133], [122.769882, 40.915934], [122.752977, 40.913789], [122.746629, 40.914437], [122.740712, 40.920724], [122.737538, 40.926881], [122.731155, 40.934406], [122.719161, 40.932474], [122.704346, 40.933789], [122.700984, 40.932458], [122.696276, 40.928967], [122.68742, 40.921759], [122.684511, 40.918654], [122.676765, 40.909273], [122.674113, 40.905713], [122.666796, 40.897657], [122.664144, 40.894907], [122.661596, 40.892125], [122.658857, 40.889473], [122.65552, 40.886821], [122.64953, 40.882747]]]}, "properties": {"display_name": "验军街道, 海城市, 鞍山市, 辽宁省, 中国", "type": "administrative", "osm_type": "relation", "osm_id": 9637440, "class": null, "keyword": "subdistrict"}}, {"type": "Feature", "geometry": {"type": "Polygon", "coordinates": [[[122.424437, 41.368903], [122.425598, 41.368228], [122.426962, 41.368133], [122.432226, 41.368318], [122.43558, 41.368451], [122.445949, 41.363171], [122.450079, 41.361634], [122.454684, 41.357073], [122.457934, 41.350396], [122.476877, 41.353535], [122.504274, 41.348979], [122.529945, 41.345317], [122.530643, 41.355951], [122.532106, 41.361942], [122.538475, 41.36994], [122.545494, 41.374731], [122.507259, 41.386213], [122.510618, 41.394397], [122.518715, 41.394806], [122.521642, 41.402343], [122.503035, 41.407629], [122.49554, 41.405033], [122.495797, 41.413848], [122.492749, 41.413442], [122.489389, 41.412403], [122.484995, 41.409496], [122.481033, 41.406911], [122.47466, 41.402517], [122.472163, 41.400838], [122.468718, 41.399156], [122.46579, 41.397669], [122.462863, 41.396889], [122.460108, 41.396045], [122.456492, 41.395266], [122.452706, 41.393906], [122.450297, 41.393], [122.448662, 41.392353], [122.446398, 41.391216], [122.442047, 41.389103], [122.44087, 41.388643], [122.439537, 41.38819], [122.43657, 41.387493], [122.434863, 41.387184], [122.434249, 41.387111], [122.432937, 41.387024], [122.434175, 41.385014], [122.434311, 41.384726], [122.434322, 41.384496], [122.434257, 41.384109], [122.433904, 41.38358], [122.433238, 41.382822], [122.432518, 41.382043], [122.430465, 41.383549], [122.430237, 41.383686], [122.429933, 41.383845], [122.429576, 41.383987], [122.429138, 41.384111], [122.425606, 41.38478], [122.424921, 41.385217], [122.424898, 41.383779], [122.424855, 41.381928], [122.424855, 41.380994], [122.424663, 41.375113], [122.424512, 41.369763], [122.424437, 41.368903]]]}, "properties": {"display_name": "台东街道, 台安县, 鞍山市, 辽宁省, 中国", "type": "administrative", "osm_type": "relation", "osm_id": 9636530, "class": null, "keyword": "subdistrict"}}, {"type": "Feature", "geometry": {"type": "Polygon", "coordinates": [[[122.416413, 41.407679], [122.416414, 41.404011], [122.41925, 41.401375], [122.419206, 41.400764], [122.419356, 41.398545], [122.421891, 41.398321], [122.423115, 41.398242], [122.42406, 41.398162], [122.424662, 41.397954], [122.425392, 41.39789], [122.425822, 41.397199], [122.425693, 41.395413], [122.425479, 41.393386], [122.425415, 41.391777], [122.425265, 41.389717], [122.424921, 41.385217], [122.425606, 41.38478], [122.429138, 41.384111], [122.429576, 41.383987], [122.429933, 41.383845], [122.430237, 41.383686], [122.430465, 41.383549], [122.432518, 41.382043], [122.433238, 41.382822], [122.433904, 41.38358], [122.434257, 41.384109], [122.434322, 41.384496], [122.434311, 41.384726], [122.434175, 41.385014], [122.432937, 41.387024], [122.434249, 41.387111], [122.434863, 41.387184], [122.43657, 41.387493], [122.439537, 41.38819], [122.44087, 41.388643], [122.442047, 41.389103], [122.446398, 41.391216], [122.448662, 41.392353], [122.450297, 41.393], [122.452706, 41.393906], [122.456492, 41.395266], [122.460108, 41.396045], [122.462863, 41.396889], [122.46579, 41.397669], [122.468718, 41.399156], [122.472163, 41.400838], [122.47466, 41.402517], [122.481033, 41.406911], [122.484995, 41.409496], [122.489389, 41.412403], [122.492749, 41.413442], [122.495797, 41.413848], [122.485113, 41.421601], [122.483852, 41.425395], [122.482614, 41.42912], [122.475723, 41.433538], [122.465533, 41.43753], [122.463494, 41.43833], [122.456865, 41.439728], [122.467454, 41.444513], [122.473482, 41.448258], [122.470725, 41.459953], [122.476148, 41.470521], [122.46788, 41.470692], [122.462799, 41.473763], [122.447135, 41.469937], [122.431827, 41.465026], [122.425123, 41.464248], [122.417905, 41.46392], [122.418211, 41.458425], [122.419501, 41.447816], [122.419588, 41.439199], [122.419675, 41.432704], [122.420019, 41.423957], [122.420708, 41.418683], [122.422855, 41.414439], [122.421482, 41.408648], [122.416413, 41.407679]]]}, "properties": {"display_name": "台北街道, 台安县, 鞍山市, 辽宁省, 中国", "type": "administrative", "osm_type": "relation", "osm_id": 9636529, "class": null, "keyword": "subdistrict"}}, {"type": "Feature", "geometry": {"type": "Polygon", "coordinates": [[[122.361539, 41.472836], [122.365481, 41.466144], [122.368565, 41.46614], [122.36925, 41.464725], [122.384851, 41.465224], [122.37885, 41.460728], [122.382794, 41.460211], [122.381079, 41.458412], [122.382623, 41.456738], [122.386396, 41.44722], [122.389828, 41.444517], [122.386741, 41.434358], [122.388971, 41.433456], [122.385339, 41.427064], [122.38057, 41.418668], [122.384171, 41.417637], [122.382114, 41.412105], [122.383657, 41.411332], [122.383357, 41.40892], [122.385673, 41.408145], [122.385415, 41.406537], [122.392877, 41.403252], [122.392191, 41.401514], [122.388245, 41.401195], [122.386445, 41.400875], [122.385588, 41.399137], [122.38413, 41.399138], [122.383616, 41.397595], [122.384387, 41.396886], [122.383273, 41.395407], [122.380531, 41.387366], [122.379813, 41.38493], [122.384271, 41.382351], [122.383757, 41.378747], [122.381872, 41.373986], [122.371074, 41.35507], [122.371418, 41.350691], [122.379518, 41.353933], [122.388478, 41.356308], [122.389207, 41.358078], [122.390021, 41.362906], [122.38762, 41.366053], [122.386934, 41.369787], [122.39255, 41.373334], [122.391821, 41.373978], [122.400056, 41.378321], [122.406751, 41.382118], [122.408508, 41.382661], [122.417913, 41.384796], [122.42161, 41.385022], [122.422813, 41.385087], [122.424921, 41.385217], [122.425265, 41.389717], [122.425415, 41.391777], [122.425479, 41.393386], [122.425693, 41.395413], [122.425822, 41.397199], [122.425392, 41.39789], [122.424662, 41.397954], [122.42406, 41.398162], [122.423115, 41.398242], [122.421891, 41.398321], [122.419356, 41.398545], [122.419206, 41.400764], [122.41925, 41.401375], [122.416414, 41.404011], [122.416413, 41.407679], [122.421482, 41.408648], [122.422855, 41.414439], [122.420708, 41.418683], [122.420019, 41.423957], [122.419675, 41.432704], [122.419588, 41.439199], [122.419501, 41.447816], [122.418211, 41.458425], [122.417905, 41.46392], [122.411119, 41.468352], [122.404423, 41.468479], [122.40408, 41.463658], [122.397987, 41.462887], [122.391381, 41.464946], [122.379034, 41.467012], [122.367378, 41.469082], [122.363865, 41.471273], [122.361539, 41.472836]]]}, "properties": {"display_name": "八角台街道, 台安县, 鞍山市, 辽宁省, 中国", "type": "administrative", "osm_type": "relation", "osm_id": 9636528, "class": null, "keyword": "subdistrict"}}, {"type": "Feature", "geometry": {"type": "Polygon", "coordinates": [[[122.364953, 41.351251], [122.367311, 41.343423], [122.372619, 41.342061], [122.381877, 41.334065], [122.392253, 41.331031], [122.392598, 41.326136], [122.411279, 41.329274], [122.420095, 41.330759], [122.448125, 41.33595], [122.457934, 41.350396], [122.454684, 41.357073], [122.450079, 41.361634], [122.445949, 41.363171], [122.43558, 41.368451], [122.432226, 41.368318], [122.426962, 41.368133], [122.425598, 41.368228], [122.424437, 41.368903], [122.424512, 41.369763], [122.424663, 41.375113], [122.424855, 41.380994], [122.424855, 41.381928], [122.424898, 41.383779], [122.424921, 41.385217], [122.422813, 41.385087], [122.42161, 41.385022], [122.417913, 41.384796], [122.408508, 41.382661], [122.406751, 41.382118], [122.400056, 41.378321], [122.391821, 41.373978], [122.39255, 41.373334], [122.386934, 41.369787], [122.38762, 41.366053], [122.390021, 41.362906], [122.389207, 41.358078], [122.388478, 41.356308], [122.379518, 41.353933], [122.371418, 41.350691], [122.364953, 41.351251]]]}, "properties": {"display_name": "台南街道, 台安县, 鞍山市, 辽宁省, 中国", "type": "administrative", "osm_type": "relation", "osm_id": 9636531, "class": null, "keyword": "subdistrict"}}, {"type": "Feature", "geometry": {"type": "MultiPolygon", "coordinates": [[[[122.834987, 40.985439], [122.835332, 40.984275], [122.840662, 40.981695], [122.840835, 40.979753], [122.844617, 40.978465], [122.846164, 40.980281], [122.849088, 40.97912], [122.848227, 40.981838], [122.850291, 40.981194], [122.851323, 40.978217], [122.854074, 40.976021], [122.857168, 40.97499], [122.859746, 40.975901], [122.864042, 40.974352], [122.865932, 40.975391], [122.871948, 40.96996], [122.873837, 40.970351], [122.875038, 40.971647], [122.872462, 40.975658], [122.87521, 40.977992], [122.880563, 40.985083], [122.882827, 40.988082], [122.887829, 40.994977], [122.889936, 40.997884], [122.892267, 41.001097], [122.896643, 41.000062], [122.898959, 41.00181], [122.90299, 41.002523], [122.90573, 41.003494], [122.906461, 41.004604], [122.907563, 41.004095], [122.909813, 41.003009], [122.912028, 41.005811], [122.912421, 41.007568], [122.916105, 41.007501], [122.919092, 41.006247], [122.921483, 41.008524], [122.922122, 41.010156], [122.922152, 41.010762], [122.922106, 41.013082], [122.91941, 41.013259], [122.918895, 41.014553], [122.916495, 41.015591], [122.916667, 41.017661], [122.917008, 41.019601], [122.916837, 41.021154], [122.917008, 41.02206], [122.918893, 41.023094], [122.920435, 41.023351], [122.922491, 41.024254], [122.92112, 41.025162], [122.919407, 41.024516], [122.917522, 41.02413], [122.915122, 41.024001], [122.912381, 41.021804], [122.909809, 41.021675], [122.908266, 41.021417], [122.90878, 41.02284], [122.908266, 41.024393], [122.907408, 41.024652], [122.906551, 41.023617], [122.90535, 41.023488], [122.904493, 41.022711], [122.902777, 41.023229], [122.903121, 41.024782], [122.899176, 41.025688], [122.896773, 41.025558], [122.894886, 41.027499], [122.891625, 41.026721], [122.892634, 41.025116], [122.890575, 41.023045], [122.892978, 41.022141], [122.890918, 41.021363], [122.889889, 41.020198], [122.890404, 41.018257], [122.886971, 41.015926], [122.886113, 41.014502], [122.887487, 41.012044], [122.88371, 41.011524], [122.879932, 41.009192], [122.877356, 41.008153], [122.875124, 41.00841], [122.871001, 41.007111], [122.870379, 41.007501], [122.869969, 41.007757], [122.869136, 41.008279], [122.868754, 41.008518], [122.867908, 41.009049], [122.866472, 41.008428], [122.8643, 41.007491], [122.861894, 41.007099], [122.861206, 41.006192], [122.856909, 41.005927], [122.853644, 41.006051], [122.852295, 41.005297], [122.850632, 41.004367], [122.849772, 41.002165], [122.848913, 40.999834], [122.84857, 40.998668], [122.848398, 40.995562], [122.849602, 40.994786], [122.848742, 40.992844], [122.843928, 40.993223], [122.840661, 40.992829], [122.840833, 40.991017], [122.83877, 40.990107], [122.840661, 40.987392], [122.836018, 40.987901], [122.834987, 40.985439]]], [[[122.86893, 41.043127], [122.869627, 41.042263], [122.870314, 41.042264], [122.877854, 41.039014], [122.879591, 41.038264], [122.880964, 41.037618], [122.881995, 41.03749], [122.883196, 41.03762], [122.883711, 41.03762], [122.88457, 41.037492], [122.884913, 41.037233], [122.885616, 41.036809], [122.889221, 41.035259], [122.890938, 41.036295], [122.889565, 41.036812], [122.890079, 41.037329], [122.890422, 41.037976], [122.890594, 41.037976], [122.89025, 41.039529], [122.888019, 41.039915], [122.888362, 41.04108], [122.89025, 41.041858], [122.890594, 41.042374], [122.891452, 41.042763], [122.892652, 41.043023], [122.894197, 41.043928], [122.894883, 41.044575], [122.895398, 41.045352], [122.89557, 41.046128], [122.895398, 41.046645], [122.895398, 41.047551], [122.895741, 41.048456], [122.897114, 41.049103], [122.897457, 41.049879], [122.898658, 41.051561], [122.898828, 41.052725], [122.897456, 41.054406], [122.89471, 41.055828], [122.891621, 41.055827], [122.88939, 41.055697], [122.886987, 41.05673], [122.884882, 41.057861], [122.880823, 41.055797], [122.881767, 41.054374], [122.87969, 41.055441], [122.877614, 41.054089], [122.874216, 41.055085], [122.873272, 41.053733], [122.870441, 41.051099], [122.872706, 41.050245], [122.871384, 41.048181], [122.872423, 41.047469], [122.872895, 41.048039], [122.873933, 41.047968], [122.874688, 41.047327], [122.872989, 41.045049], [122.870724, 41.044195], [122.869308, 41.044408], [122.86893, 41.043127]]], [[[122.929968, 40.997785], [122.930447, 40.994385], [122.930863, 40.993459], [122.930007, 40.991712], [122.931096, 40.991607], [122.932939, 40.991595], [122.934716, 40.991771], [122.933603, 40.987176], [122.935401, 40.986591], [122.934117, 40.984909], [122.933861, 40.983227], [122.936086, 40.982835], [122.93814, 40.982508], [122.940793, 40.98341], [122.943189, 40.983665], [122.943616, 40.984181], [122.944473, 40.984116], [122.945413, 40.984632], [122.945328, 40.985732], [122.946097, 40.986637], [122.948322, 40.985921], [122.950631, 40.985916], [122.951914, 40.985719], [122.954394, 40.985454], [122.960465, 40.981492], [122.962175, 40.981164], [122.964825, 40.981157], [122.967389, 40.980827], [122.970893, 40.980429], [122.973457, 40.980357], [122.973371, 40.97984], [122.974568, 40.979189], [122.975422, 40.980093], [122.97773, 40.980086], [122.979268, 40.980277], [122.979609, 40.980276], [122.980122, 40.980079], [122.980976, 40.979883], [122.981739, 40.980683], [122.981739, 40.981978], [122.981118, 40.982874], [122.98003, 40.984443], [122.979346, 40.985221], [122.978491, 40.985742], [122.978321, 40.986002], [122.977637, 40.98678], [122.976099, 40.987043], [122.975586, 40.987433], [122.975245, 40.988599], [122.974561, 40.989637], [122.97456, 40.990931], [122.97456, 40.991578], [122.97456, 40.992097], [122.974047, 40.992616], [122.973706, 40.992746], [122.9708, 40.992625], [122.968407, 40.993796], [122.966527, 40.994577], [122.967039, 40.995353], [122.967381, 40.995481], [122.967211, 40.996518], [122.965842, 40.996909], [122.964475, 40.996784], [122.963791, 40.995232], [122.961739, 40.994589], [122.961739, 40.995496], [122.960713, 40.996275], [122.959687, 40.996148], [122.959345, 40.997184], [122.95678, 40.997837], [122.955754, 40.997452], [122.951649, 40.999144], [122.950965, 40.999792], [122.950452, 41.00044], [122.950109, 41.001088], [122.948741, 41.00135], [122.947659, 41.002442], [122.947145, 41.002572], [122.946461, 41.002444], [122.945434, 41.002575], [122.945264, 41.002705], [122.944065, 41.002837], [122.943724, 41.002708], [122.942867, 41.002192], [122.941499, 41.001547], [122.940814, 41.000901], [122.940301, 41.000902], [122.939105, 41.00081], [122.936708, 41.000814], [122.935998, 40.998824], [122.93546, 40.997518], [122.934443, 40.997706], [122.933458, 40.998168], [122.932479, 40.997819], [122.932573, 40.996627], [122.932403, 40.996304], [122.929968, 40.997785]]]]}, "properties": {"display_name": "汤岗子街道, 千山区, 鞍山市, 辽宁省, 114000, 中国", "type": "administrative", "osm_type": "relation", "osm_id": 9638681, "class": null, "keyword": "subdistrict"}}, {"type": "Feature", "geometry": {"type": "MultiPolygon", "coordinates": [[[[122.933112, 41.057434], [122.93372, 41.056274], [122.935948, 41.056511], [122.936942, 41.05653], [122.937433, 41.056674], [122.937741, 41.056098], [122.943437, 41.055896], [122.944114, 41.05546], [122.941978, 41.053601], [122.94123, 41.052277], [122.942173, 41.050388], [122.942949, 41.048908], [122.944248, 41.04484], [122.944952, 41.042048], [122.948592, 41.040849], [122.952273, 41.038215], [122.963127, 41.03672], [122.971244, 41.038784], [122.976813, 41.04149], [122.978229, 41.043981], [122.98106, 41.04633], [122.985591, 41.04932], [122.985591, 41.053306], [122.985591, 41.055228], [122.987195, 41.05658], [122.989083, 41.05722], [122.991442, 41.05722], [122.994557, 41.054445], [122.996728, 41.053804], [122.998427, 41.054658], [123.000032, 41.056936], [123.002202, 41.058075], [123.002413, 41.0597], [123.003249, 41.062398], [123.002652, 41.062412], [123.001786, 41.062431], [123.000459, 41.062886], [122.999778, 41.063084], [122.999308, 41.063425], [122.997261, 41.06411], [122.994592, 41.065023], [122.992114, 41.065969], [122.991025, 41.066812], [122.990858, 41.066823], [122.989541, 41.066904], [122.989439, 41.066926], [122.988883, 41.067043], [122.987889, 41.067474], [122.985169, 41.069716], [122.984201, 41.07054], [122.980441, 41.073654], [122.976955, 41.076626], [122.973912, 41.079099], [122.973425, 41.079506], [122.972704, 41.080097], [122.971566, 41.081046], [122.970969, 41.081561], [122.970191, 41.082203], [122.96905, 41.083219], [122.96799, 41.084102], [122.967632, 41.084416], [122.967197, 41.084836], [122.966916, 41.08516], [122.966643, 41.085542], [122.966301, 41.086086], [122.966003, 41.086709], [122.965561, 41.088102], [122.965444, 41.087936], [122.960024, 41.081408], [122.959826, 41.081175], [122.959471, 41.080766], [122.957857, 41.078873], [122.956211, 41.07693], [122.948252, 41.06765], [122.947129, 41.066349], [122.9456, 41.06505], [122.943258, 41.06306], [122.942149, 41.061049], [122.939144, 41.061841], [122.938202, 41.061122], [122.93761, 41.059259], [122.936266, 41.059337], [122.935059, 41.059592], [122.934242, 41.059407], [122.933112, 41.057434]]], [[[123.023635, 41.065245], [123.02467, 41.062849], [123.026556, 41.063116], [123.026737, 41.062941], [123.026265, 41.062726], [123.026234, 41.062154], [123.026524, 41.06192], [123.027005, 41.061533], [123.027098, 41.060999], [123.027515, 41.060612], [123.027766, 41.060183], [123.028778, 41.060377], [123.029973, 41.0602], [123.034596, 41.059887], [123.037256, 41.059923], [123.037682, 41.060529], [123.038002, 41.061029], [123.03766, 41.061184], [123.03829, 41.061716], [123.038547, 41.062241], [123.042096, 41.061012], [123.042426, 41.061505], [123.042618, 41.062021], [123.04263, 41.062043], [123.042608, 41.062539], [123.042575, 41.063081], [123.042505, 41.0642], [123.045337, 41.064324], [123.048169, 41.064434], [123.049028, 41.064457], [123.048981, 41.064246], [123.048612, 41.06347], [123.048545, 41.063417], [123.048514, 41.063309], [123.047978, 41.062484], [123.047824, 41.062265], [123.047392, 41.061246], [123.048276, 41.061027], [123.048553, 41.060171], [123.048488, 41.059033], [123.049839, 41.058871], [123.050095, 41.060101], [123.050166, 41.060674], [123.050213, 41.061363], [123.050104, 41.064498], [123.051062, 41.064648], [123.052396, 41.064679], [123.054092, 41.065717], [123.055674, 41.066237], [123.056594, 41.066632], [123.059247, 41.068413], [123.067711, 41.071196], [123.068506, 41.071466], [123.069001, 41.07477], [123.070257, 41.076994], [123.070638, 41.080694], [123.069868, 41.083013], [123.066878, 41.084995], [123.063583, 41.087571], [123.063469, 41.090625], [123.062565, 41.09158], [123.05727, 41.091904], [123.051927, 41.093712], [123.046619, 41.092977], [123.041978, 41.092828], [123.038911, 41.093185], [123.038523, 41.09203], [123.033507, 41.084945], [123.033453, 41.084597], [123.032595, 41.079017], [123.032719, 41.076672], [123.030234, 41.076785], [123.030844, 41.074333], [123.031881, 41.072406], [123.031834, 41.072377], [123.027314, 41.072553], [123.026989, 41.072564], [123.02702, 41.070882], [123.027023, 41.068444], [123.027569, 41.068412], [123.027514, 41.067004], [123.027054, 41.066609], [123.026958, 41.065381], [123.026271, 41.065434], [123.025745, 41.065474], [123.025078, 41.065509], [123.023635, 41.065245]]]]}, "properties": {"display_name": "旧堡街道, 千山区, 铁东区, 鞍山市, 辽宁省, 中国", "type": "administrative", "osm_type": "relation", "osm_id": 9641900, "class": null, "keyword": "subdistrict"}}, {"type": "Feature", "geometry": {"type": "Polygon", "coordinates": [[[122.713815, 40.843139], [122.715346, 40.841994], [122.715581, 40.84171], [122.715839, 40.841539], [122.715999, 40.841231], [122.715999, 40.840995], [122.716063, 40.840817], [122.716149, 40.840314], [122.714843, 40.839554], [122.714201, 40.836743], [122.714168, 40.836061], [122.716513, 40.833139], [122.71707, 40.833625], [122.718237, 40.833972], [122.719757, 40.833354], [122.72069, 40.833142], [122.720817, 40.83302], [122.721129, 40.832972], [122.721288, 40.832915], [122.721439, 40.832931], [122.721718, 40.832865], [122.720357, 40.831277], [122.722179, 40.830666], [122.72499, 40.829713], [122.72973, 40.828105], [122.729561, 40.827968], [122.729025, 40.826994], [122.729845, 40.826341], [122.732319, 40.825531], [122.737645, 40.823789], [122.74037, 40.82354], [122.740488, 40.8229], [122.740767, 40.822762], [122.741152, 40.82264], [122.74142, 40.822494], [122.741871, 40.822356], [122.742439, 40.822299], [122.74275, 40.822452], [122.743146, 40.822525], [122.74336, 40.822745], [122.743757, 40.82332], [122.744647, 40.823028], [122.743565, 40.821325], [122.745957, 40.821155], [122.745678, 40.820027], [122.745667, 40.819832], [122.745581, 40.819743], [122.745527, 40.819491], [122.745839, 40.819508], [122.74674, 40.819589], [122.747286, 40.819581], [122.748615, 40.819516], [122.748454, 40.818745], [122.748588, 40.818531], [122.750561, 40.817849], [122.751463, 40.81402], [122.752687, 40.809623], [122.753932, 40.80331], [122.756099, 40.803629], [122.758244, 40.803944], [122.764421, 40.808376], [122.765237, 40.809918], [122.7655, 40.810562], [122.765881, 40.811492], [122.765602, 40.81232], [122.768841, 40.821457], [122.769918, 40.820997], [122.773392, 40.819514], [122.776484, 40.818218], [122.779576, 40.815885], [122.782754, 40.813293], [122.788166, 40.812262], [122.792376, 40.812916], [122.794783, 40.815646], [122.798391, 40.81591], [122.804323, 40.81579], [122.807633, 40.815939], [122.809956, 40.816043], [122.8123, 40.816148], [122.820829, 40.816534], [122.828308, 40.824595], [122.828136, 40.829007], [122.815509, 40.83329], [122.813864, 40.833848], [122.804922, 40.839478], [122.798119, 40.841194], [122.779383, 40.845926], [122.776291, 40.845793], [122.773671, 40.844712], [122.77003, 40.843281], [122.770012, 40.843274], [122.767404, 40.84281], [122.763134, 40.842808], [122.762805, 40.842703], [122.762501, 40.842605], [122.76235, 40.841891], [122.76293, 40.841399], [122.763445, 40.840345], [122.766492, 40.838238], [122.767061, 40.837541], [122.76808, 40.837022], [122.767435, 40.836357], [122.765655, 40.834296], [122.765301, 40.834337], [122.765247, 40.834248], [122.764893, 40.833915], [122.764614, 40.833598], [122.764078, 40.832835], [122.763735, 40.832243], [122.763552, 40.831854], [122.763402, 40.831562], [122.763198, 40.831351], [122.762899, 40.831091], [122.762512, 40.830539], [122.762151, 40.829777], [122.761443, 40.829323], [122.760606, 40.828949], [122.760091, 40.828446], [122.759576, 40.827748], [122.75904, 40.826629], [122.757388, 40.826726], [122.756004, 40.827003], [122.754245, 40.827814], [122.752358, 40.82989], [122.750727, 40.832518], [122.74884, 40.835568], [122.747425, 40.837254], [122.74528, 40.839493], [122.743444, 40.840822], [122.741336, 40.842349], [122.738846, 40.84379], [122.738421, 40.844037], [122.735892, 40.845531], [122.733663, 40.84738], [122.732077, 40.849523], [122.731476, 40.851793], [122.731734, 40.853188], [122.731947, 40.853739], [122.731785, 40.85428], [122.731605, 40.854875], [122.731004, 40.855426], [122.729847, 40.857081], [122.727962, 40.858736], [122.723164, 40.858935], [122.717853, 40.858486], [122.717478, 40.856711], [122.716987, 40.854166], [122.718872, 40.851358], [122.715318, 40.847941], [122.7139, 40.844948], [122.713815, 40.843139]]]}, "properties": {"display_name": "响堂街道, 海城市, 鞍山市, 辽宁省, 中国", "type": "administrative", "osm_type": "relation", "osm_id": 9637438, "class": null, "keyword": "subdistrict"}}, {"type": "Feature", "geometry": {"type": "Polygon", "coordinates": [[[122.888223, 41.098864], [122.890754, 41.092127], [122.892454, 41.085734], [122.892238, 41.081944], [122.890934, 41.076929], [122.890842, 41.076499], [122.890971, 41.075638], [122.890943, 41.074937], [122.890614, 41.073661], [122.895583, 41.072465], [122.896695, 41.072268], [122.899327, 41.072237], [122.904526, 41.072198], [122.905516, 41.072127], [122.909327, 41.071667], [122.916501, 41.070101], [122.918807, 41.070001], [122.920941, 41.070305], [122.922258, 41.070315], [122.922386, 41.069655], [122.922468, 41.069229], [122.922699, 41.068874], [122.923661, 41.067506], [122.92393, 41.067124], [122.924335, 41.066899], [122.924834, 41.066662], [122.925179, 41.066408], [122.925361, 41.066002], [122.925546, 41.065813], [122.925856, 41.065497], [122.926475, 41.065183], [122.927051, 41.064654], [122.927373, 41.064282], [122.927513, 41.064237], [122.927696, 41.064178], [122.92795, 41.063708], [122.927994, 41.063491], [122.928218, 41.063248], [122.928465, 41.062981], [122.929437, 41.062665], [122.930121, 41.062695], [122.930312, 41.062715], [122.930786, 41.062765], [122.930996, 41.06291], [122.931267, 41.063096], [122.931324, 41.063388], [122.931748, 41.064046], [122.931998, 41.064819], [122.932234, 41.065942], [122.933496, 41.067232], [122.934, 41.067264], [122.934687, 41.069317], [122.940135, 41.068688], [122.94475, 41.068502], [122.946133, 41.06845], [122.946477, 41.068388], [122.946983, 41.068266], [122.948252, 41.06765], [122.956211, 41.07693], [122.957857, 41.078873], [122.959471, 41.080766], [122.959826, 41.081175], [122.952984, 41.084362], [122.949974, 41.080435], [122.947664, 41.081594], [122.945804, 41.082287], [122.946191, 41.083051], [122.946532, 41.083342], [122.946881, 41.083585], [122.94782, 41.083349], [122.948511, 41.085292], [122.944589, 41.085243], [122.944893, 41.085805], [122.946163, 41.085763], [122.946274, 41.086742], [122.951677, 41.086575], [122.95188, 41.086894], [122.951346, 41.087089], [122.950803, 41.087505], [122.950583, 41.087757], [122.950475, 41.08799], [122.950342, 41.088393], [122.950287, 41.088934], [122.950536, 41.096045], [122.950904, 41.096199], [122.950973, 41.096233], [122.951046, 41.0963], [122.95118, 41.096544], [122.952812, 41.099398], [122.946496, 41.101542], [122.940345, 41.10363], [122.939664, 41.103894], [122.939084, 41.104247], [122.938513, 41.104636], [122.938016, 41.105135], [122.94075, 41.105944], [122.939581, 41.108153], [122.938994, 41.10957], [122.940428, 41.109931], [122.940014, 41.111095], [122.935198, 41.109939], [122.932956, 41.113539], [122.932467, 41.114471], [122.932273, 41.114956], [122.93196, 41.11615], [122.931199, 41.115946], [122.926888, 41.117285], [122.927787, 41.118592], [122.922091, 41.120681], [122.921577, 41.12501], [122.922819, 41.127188], [122.91995, 41.126787], [122.91892, 41.126626], [122.918214, 41.124043], [122.917615, 41.121313], [122.917915, 41.120812], [122.918022, 41.118373], [122.915773, 41.114145], [122.913416, 41.109686], [122.913031, 41.108346], [122.912303, 41.104485], [122.912122, 41.104443], [122.888223, 41.098864]]]}, "properties": {"display_name": "永发街道, 铁西区, 鞍山市, 辽宁省, 中国", "type": "administrative", "osm_type": "relation", "osm_id": 9640690, "class": null, "keyword": "subdistrict"}}, {"type": "Feature", "geometry": {"type": "Polygon", "coordinates": [[[123.265807, 40.256618], [123.266751, 40.254883], [123.267064, 40.254224], [123.267672, 40.252949], [123.268272, 40.251213], [123.268872, 40.249674], [123.269087, 40.248937], [123.271036, 40.248461], [123.272193, 40.247723], [123.272064, 40.246822], [123.271272, 40.245709], [123.270737, 40.245071], [123.270758, 40.24458], [123.270715, 40.243532], [123.271058, 40.242811], [123.271549, 40.241587], [123.272878, 40.241864], [123.274248, 40.242289], [123.275362, 40.242845], [123.276925, 40.243416], [123.277547, 40.243678], [123.278489, 40.244201], [123.278917, 40.244675], [123.279345, 40.244953], [123.279623, 40.244952], [123.280952, 40.245524], [123.281572, 40.245474], [123.281829, 40.245245], [123.282236, 40.245129], [123.28352, 40.245128], [123.284356, 40.245144], [123.284548, 40.244849], [123.284806, 40.244749], [123.284977, 40.244799], [123.285576, 40.244798], [123.285983, 40.24483], [123.286325, 40.244944], [123.286947, 40.245123], [123.287824, 40.244942], [123.288102, 40.24504], [123.28821, 40.245302], [123.288102, 40.245532], [123.288038, 40.245745], [123.288681, 40.245842], [123.289494, 40.246103], [123.289901, 40.246249], [123.290392, 40.246479], [123.290821, 40.246772], [123.291528, 40.247197], [123.294823, 40.248928], [123.297544, 40.250168], [123.301054, 40.25013], [123.303622, 40.249536], [123.306703, 40.248058], [123.31096, 40.245658], [123.314127, 40.242263], [123.316525, 40.237361], [123.316568, 40.235707], [123.316996, 40.233266], [123.320506, 40.229915], [123.322431, 40.226669], [123.323117, 40.22408], [123.324912, 40.222178], [123.326367, 40.221061], [123.330732, 40.221249], [123.336265, 40.221558], [123.342939, 40.230325], [123.343195, 40.235762], [123.339686, 40.248543], [123.334722, 40.255037], [123.335576, 40.262108], [123.338315, 40.263936], [123.341396, 40.263734], [123.345932, 40.261107], [123.346016, 40.266737], [123.337583, 40.267842], [123.327485, 40.270447], [123.321538, 40.27239], [123.314093, 40.272699], [123.308188, 40.271924], [123.306519, 40.268523], [123.305965, 40.265282], [123.305431, 40.264759], [123.304082, 40.264844], [123.302413, 40.265746], [123.300573, 40.2666], [123.298518, 40.270221], [123.297062, 40.272416], [123.293673, 40.271432], [123.292354, 40.271049], [123.29107, 40.270199], [123.290933, 40.270068], [123.290505, 40.270208], [123.289831, 40.270283], [123.288985, 40.270382], [123.288022, 40.270465], [123.287529, 40.270515], [123.287133, 40.270531], [123.287208, 40.270253], [123.287273, 40.270016], [123.287176, 40.269975], [123.286234, 40.269951], [123.285292, 40.269937], [123.285121, 40.269937], [123.283345, 40.26989], [123.283023, 40.269914], [123.282134, 40.270529], [123.282005, 40.270562], [123.28117, 40.27026], [123.281213, 40.269957], [123.279726, 40.269624], [123.279833, 40.269255], [123.279405, 40.269019], [123.278795, 40.268839], [123.277745, 40.268448], [123.276238, 40.267756], [123.275317, 40.267921], [123.27386, 40.269084], [123.272832, 40.269544], [123.270325, 40.268956], [123.269897, 40.267664], [123.268848, 40.266453], [123.267733, 40.262984], [123.269083, 40.261902], [123.269062, 40.262901], [123.269662, 40.263557], [123.271119, 40.264275], [123.273625, 40.26411], [123.274075, 40.262947], [123.273732, 40.261491], [123.272954, 40.260576], [123.27234, 40.259854], [123.271506, 40.25943], [123.270498, 40.259021], [123.269685, 40.258826], [123.267885, 40.257386], [123.265807, 40.256618]]]}, "properties": {"display_name": "大宁街道, 阜昌街道, 岫岩满族自治县, 鞍山市, 辽宁省, 中国", "type": "historic", "osm_type": "relation", "osm_id": 9637895, "class": null, "keyword": "subdistrict"}}, {"type": "Feature", "geometry": {"type": "Polygon", "coordinates": [[[123.002202, 41.058075], [123.005978, 41.059], [123.010886, 41.059213], [123.018908, 41.05722], [123.020346, 41.057274], [123.021635, 41.057322], [123.021722, 41.056611], [123.021777, 41.055973], [123.02442, 41.05607], [123.024052, 41.058773], [123.02863, 41.059], [123.0325, 41.055583], [123.033161, 41.052167], [123.03099, 41.050103], [123.031839, 41.048324], [123.032972, 41.046259], [123.034293, 41.044551], [123.033444, 41.0427], [123.034293, 41.041063], [123.036464, 41.040066], [123.041844, 41.04149], [123.044393, 41.041561], [123.045903, 41.045049], [123.049301, 41.044551], [123.049489, 41.043554], [123.056474, 41.04092], [123.055341, 41.039069], [123.078277, 41.027179], [123.106095, 41.048367], [123.096185, 41.051499], [123.096373, 41.059399], [123.0976, 41.069291], [123.090427, 41.069575], [123.077119, 41.067796], [123.070228, 41.069148], [123.068506, 41.071466], [123.067711, 41.071196], [123.059247, 41.068413], [123.056594, 41.066632], [123.055674, 41.066237], [123.054092, 41.065717], [123.052396, 41.064679], [123.051062, 41.064648], [123.050104, 41.064498], [123.050213, 41.061363], [123.050166, 41.060674], [123.050095, 41.060101], [123.049839, 41.058871], [123.048488, 41.059033], [123.048553, 41.060171], [123.048276, 41.061027], [123.047392, 41.061246], [123.047824, 41.062265], [123.047978, 41.062484], [123.048514, 41.063309], [123.048545, 41.063417], [123.048612, 41.06347], [123.048981, 41.064246], [123.049028, 41.064457], [123.048169, 41.064434], [123.045337, 41.064324], [123.042505, 41.0642], [123.042575, 41.063081], [123.042608, 41.062539], [123.04263, 41.062043], [123.042618, 41.062021], [123.042426, 41.061505], [123.042096, 41.061012], [123.038547, 41.062241], [123.03829, 41.061716], [123.03766, 41.061184], [123.038002, 41.061029], [123.037682, 41.060529], [123.037256, 41.059923], [123.034596, 41.059887], [123.029973, 41.0602], [123.028778, 41.060377], [123.027766, 41.060183], [123.027515, 41.060612], [123.027098, 41.060999], [123.027005, 41.061533], [123.026524, 41.06192], [123.026234, 41.062154], [123.026265, 41.062726], [123.026737, 41.062941], [123.026556, 41.063116], [123.02467, 41.062849], [123.023635, 41.065245], [123.017833, 41.064036], [123.01727, 41.063915], [123.0161, 41.063409], [123.013899, 41.061982], [123.009944, 41.063149], [123.008918, 41.063281], [123.007979, 41.0633], [123.006933, 41.063077], [123.005566, 41.062582], [123.005396, 41.062687], [123.005076, 41.062648], [123.004284, 41.062375], [123.003249, 41.062398], [123.002413, 41.0597], [123.002202, 41.058075]]]}, "properties": {"display_name": "大孤山街道, 崔家屯村, 铁东区, 鞍山市, 辽宁省, 中国", "type": "administrative", "osm_type": "relation", "osm_id": 9641893, "class": null, "keyword": "subdistrict"}}, {"type": "Feature", "geometry": {"type": "MultiPolygon", "coordinates": [[[[122.738846, 40.84379], [122.741336, 40.842349], [122.743444, 40.840822], [122.74528, 40.839493], [122.747425, 40.837254], [122.74884, 40.835568], [122.750727, 40.832518], [122.752358, 40.82989], [122.754245, 40.827814], [122.756004, 40.827003], [122.757388, 40.826726], [122.75904, 40.826629], [122.759576, 40.827748], [122.760091, 40.828446], [122.760606, 40.828949], [122.761443, 40.829323], [122.762151, 40.829777], [122.762512, 40.830539], [122.762899, 40.831091], [122.763198, 40.831351], [122.763402, 40.831562], [122.763552, 40.831854], [122.763735, 40.832243], [122.764078, 40.832835], [122.764614, 40.833598], [122.764893, 40.833915], [122.765247, 40.834248], [122.765301, 40.834337], [122.765655, 40.834296], [122.767435, 40.836357], [122.76808, 40.837022], [122.767061, 40.837541], [122.766492, 40.838238], [122.763445, 40.840345], [122.76293, 40.841399], [122.76235, 40.841891], [122.762501, 40.842605], [122.762805, 40.842703], [122.763134, 40.842808], [122.767404, 40.84281], [122.770012, 40.843274], [122.77003, 40.843281], [122.773671, 40.844712], [122.776291, 40.845793], [122.779383, 40.845926], [122.782236, 40.847581], [122.783139, 40.850079], [122.783481, 40.852415], [122.783481, 40.85308], [122.781441, 40.853094], [122.779659, 40.853595], [122.779766, 40.85439], [122.779788, 40.854601], [122.779573, 40.854876], [122.779959, 40.855004], [122.779916, 40.856027], [122.778692, 40.855879], [122.778799, 40.856512], [122.777382, 40.856656], [122.776651, 40.858552], [122.775644, 40.863395], [122.774013, 40.864335], [122.772772, 40.864792], [122.772526, 40.864452], [122.771916, 40.864505], [122.771609, 40.865031], [122.771459, 40.866068], [122.770749, 40.866991], [122.768539, 40.867346], [122.767272, 40.868075], [122.766779, 40.868383], [122.765813, 40.867475], [122.764311, 40.866453], [122.763152, 40.865836], [122.759677, 40.863921], [122.754093, 40.861556], [122.753928, 40.861682], [122.753649, 40.861698], [122.75337, 40.861617], [122.75322, 40.861325], [122.748119, 40.858132], [122.747196, 40.857824], [122.746832, 40.857922], [122.745717, 40.858781], [122.744516, 40.859835], [122.743787, 40.859381], [122.745631, 40.857321], [122.742916, 40.857747], [122.742749, 40.857186], [122.742634, 40.85666], [122.74173, 40.853059], [122.741194, 40.851583], [122.740723, 40.849866], [122.740724, 40.848163], [122.740338, 40.84633], [122.740059, 40.844937], [122.738846, 40.84379]]], [[[122.783661, 40.722796], [122.7877, 40.714481], [122.792829, 40.7133], [122.796121, 40.712542], [122.805404, 40.711647], [122.807983, 40.714317], [122.809186, 40.717504], [122.810626, 40.719034], [122.810518, 40.720611], [122.812732, 40.722548], [122.81372, 40.7232], [122.814538, 40.723591], [122.815354, 40.723576], [122.81602, 40.723464], [122.816729, 40.723514], [122.816838, 40.723823], [122.81688, 40.724277], [122.817245, 40.724587], [122.818137, 40.724831], [122.818363, 40.725344], [122.818717, 40.726205], [122.819147, 40.727125], [122.819555, 40.7265], [122.82035, 40.726143], [122.821769, 40.726243], [122.824305, 40.727093], [122.826325, 40.728397], [122.826369, 40.729501], [122.827056, 40.730803], [122.827916, 40.731585], [122.825422, 40.732457], [122.823875, 40.73226], [122.820564, 40.732155], [122.818931, 40.732737], [122.817641, 40.734068], [122.816222, 40.73595], [122.815531, 40.736601], [122.81519, 40.736922], [122.813728, 40.737602], [122.811278, 40.738507], [122.810547, 40.738863], [122.80753, 40.73661], [122.805294, 40.734705], [122.805531, 40.733683], [122.806326, 40.732677], [122.807014, 40.732109], [122.807229, 40.731606], [122.807101, 40.731085], [122.806692, 40.730484], [122.805876, 40.729832], [122.805811, 40.728451], [122.804866, 40.727345], [122.802352, 40.72695], [122.801083, 40.728037], [122.799021, 40.729317], [122.797946, 40.730437], [122.797322, 40.730485], [122.796291, 40.730094], [122.794508, 40.729879], [122.793004, 40.730007], [122.791952, 40.72994], [122.790748, 40.729484], [122.79019, 40.728525], [122.789438, 40.728052], [122.787419, 40.727904], [122.786024, 40.727869], [122.785529, 40.727235], [122.785464, 40.725398], [122.783661, 40.722796]]]]}, "properties": {"display_name": "海州街道, 海城市, 鞍山市, 辽宁省, 中国", "type": "administrative", "osm_type": "relation", "osm_id": 9637436, "class": null, "keyword": "subdistrict"}}, {"type": "Feature", "geometry": {"type": "MultiPolygon", "coordinates": [[[[122.689265, 40.857789], [122.691277, 40.85759], [122.691363, 40.849773], [122.691664, 40.843123], [122.698364, 40.843692], [122.707583, 40.844478], [122.710754, 40.844748], [122.7139, 40.844948], [122.715318, 40.847941], [122.718872, 40.851358], [122.716987, 40.854166], [122.717478, 40.856711], [122.717853, 40.858486], [122.723164, 40.858935], [122.727962, 40.858736], [122.729847, 40.857081], [122.731004, 40.855426], [122.731605, 40.854875], [122.731785, 40.85428], [122.731947, 40.853739], [122.731734, 40.853188], [122.731476, 40.851793], [122.732077, 40.849523], [122.733663, 40.84738], [122.735892, 40.845531], [122.738421, 40.844037], [122.738846, 40.84379], [122.740059, 40.844937], [122.740338, 40.84633], [122.740724, 40.848163], [122.740723, 40.849866], [122.741194, 40.851583], [122.74173, 40.853059], [122.742634, 40.85666], [122.742749, 40.857186], [122.742916, 40.857747], [122.745631, 40.857321], [122.743787, 40.859381], [122.743441, 40.859925], [122.743736, 40.863266], [122.743922, 40.863852], [122.74415, 40.864335], [122.744642, 40.86508], [122.747385, 40.86696], [122.750815, 40.869263], [122.752103, 40.870883], [122.753025, 40.872392], [122.748821, 40.874095], [122.749358, 40.876705], [122.749426, 40.877138], [122.749533, 40.877348], [122.749297, 40.877884], [122.748783, 40.878548], [122.748419, 40.878791], [122.747475, 40.877235], [122.745867, 40.875193], [122.741066, 40.876912], [122.735139, 40.879331], [122.714221, 40.887438], [122.712509, 40.884328], [122.712348, 40.877758], [122.710261, 40.876562], [122.709555, 40.876814], [122.709084, 40.87628], [122.709908, 40.875776], [122.708944, 40.875023], [122.707586, 40.875472], [122.706729, 40.874151], [122.7095, 40.873004], [122.709616, 40.872932], [122.70877, 40.871507], [122.709445, 40.871223], [122.709359, 40.870906], [122.709487, 40.870874], [122.709316, 40.870687], [122.708267, 40.871127], [122.708085, 40.870803], [122.709455, 40.870266], [122.710344, 40.869892], [122.712302, 40.868941], [122.71287, 40.868648], [122.715889, 40.866715], [122.714915, 40.865719], [122.714273, 40.866052], [122.713748, 40.86542], [122.714647, 40.8649], [122.713449, 40.863394], [122.709295, 40.85954], [122.700177, 40.864807], [122.690719, 40.867742], [122.689265, 40.857789]]], [[[122.825144, 40.8974], [122.825789, 40.895749], [122.826542, 40.893983], [122.827831, 40.894051], [122.832065, 40.894528], [122.83213, 40.896895], [122.83185, 40.899698], [122.828841, 40.900146], [122.827959, 40.900242], [122.827078, 40.899349], [122.825144, 40.8974]]]]}, "properties": {"display_name": "兴海街道, 海城市, 鞍山市, 辽宁省, 中国", "type": "administrative", "osm_type": "relation", "osm_id": 9637439, "class": null, "keyword": "subdistrict"}}, {"type": "Feature", "geometry": {"type": "Polygon", "coordinates": [[[122.976955, 41.076626], [122.980441, 41.073654], [122.984201, 41.07054], [122.985169, 41.069716], [122.987889, 41.067474], [122.988883, 41.067043], [122.989439, 41.066926], [122.989541, 41.066904], [122.990858, 41.066823], [122.991025, 41.066812], [122.992114, 41.065969], [122.994592, 41.065023], [122.997261, 41.06411], [122.999308, 41.063425], [122.999778, 41.063084], [123.000459, 41.062886], [123.001786, 41.062431], [123.002652, 41.062412], [123.003249, 41.062398], [123.004284, 41.062375], [123.005076, 41.062648], [123.005396, 41.062687], [123.005566, 41.062582], [123.006933, 41.063077], [123.007979, 41.0633], [123.008918, 41.063281], [123.009944, 41.063149], [123.013899, 41.061982], [123.0161, 41.063409], [123.01727, 41.063915], [123.017833, 41.064036], [123.023635, 41.065245], [123.025078, 41.065509], [123.025745, 41.065474], [123.026271, 41.065434], [123.026958, 41.065381], [123.027054, 41.066609], [123.027514, 41.067004], [123.027569, 41.068412], [123.027023, 41.068444], [123.02702, 41.070882], [123.026989, 41.072564], [123.027314, 41.072553], [123.031834, 41.072377], [123.031881, 41.072406], [123.030844, 41.074333], [123.030234, 41.076785], [123.032719, 41.076672], [123.032595, 41.079017], [123.033453, 41.084597], [123.033507, 41.084945], [123.038523, 41.09203], [123.038911, 41.093185], [123.03762, 41.093336], [123.032723, 41.094783], [123.030587, 41.095116], [123.02881, 41.095441], [123.022567, 41.096715], [123.016423, 41.09649], [123.015345, 41.096041], [123.013577, 41.094786], [123.012288, 41.093557], [123.011648, 41.091894], [123.011414, 41.090992], [123.011798, 41.090829], [123.011819, 41.090491], [123.011561, 41.089974], [123.011416, 41.089623], [123.011115, 41.088893], [123.011205, 41.087195], [123.011924, 41.087133], [123.011902, 41.086808], [123.011861, 41.085258], [123.011935, 41.08481], [123.012313, 41.084094], [123.012714, 41.0833], [123.013005, 41.082687], [123.013403, 41.082324], [123.012209, 41.081163], [123.01079, 41.079802], [123.007699, 41.076803], [123.007609, 41.076717], [123.007096, 41.077026], [123.006658, 41.077221], [123.006241, 41.077351], [123.005508, 41.077539], [123.004792, 41.077657], [123.004651, 41.077696], [123.003669, 41.078151], [123.002945, 41.07862], [123.002504, 41.076971], [123.00255, 41.076464], [123.002739, 41.076132], [123.00309, 41.075544], [123.00382, 41.074905], [123.004992, 41.073479], [123.004053, 41.072529], [123.003519, 41.072061], [123.00329, 41.071801], [123.005359, 41.070206], [123.004815, 41.069722], [123.003897, 41.068933], [123.001526, 41.070557], [122.999501, 41.072098], [122.999411, 41.072014], [122.998649, 41.071372], [122.998146, 41.071034], [122.998077, 41.070889], [122.998306, 41.070355], [122.998263, 41.070263], [122.998109, 41.070202], [122.997602, 41.070176], [122.996524, 41.070191], [122.995659, 41.070278], [122.995472, 41.070335], [122.995215, 41.070441], [122.995066, 41.070502], [122.994511, 41.070573], [122.994233, 41.070617], [122.99403, 41.07065], [122.993668, 41.070692], [122.99332, 41.070766], [122.992887, 41.0709], [122.991889, 41.07117], [122.99073, 41.071541], [122.989728, 41.071871], [122.989077, 41.072083], [122.988502, 41.07229], [122.988409, 41.072324], [122.987257, 41.072767], [122.986805, 41.072945], [122.985668, 41.073393], [122.984618, 41.073819], [122.985061, 41.074602], [122.985702, 41.07584], [122.984164, 41.076307], [122.983029, 41.076678], [122.982693, 41.076119], [122.981763, 41.076395], [122.980834, 41.076713], [122.979947, 41.077095], [122.9803, 41.07762], [122.978014, 41.078426], [122.976955, 41.076626]]]}, "properties": {"display_name": "新兴街道, 铁东区, 鞍山市, 辽宁省, 中国", "type": "administrative", "osm_type": "relation", "osm_id": 9641904, "class": null, "keyword": "subdistrict"}}, {"type": "Feature", "geometry": {"type": "Polygon", "coordinates": [[[123.026527, 41.125501], [123.039087, 41.117649], [123.039569, 41.117177], [123.039856, 41.116657], [123.040078, 41.114949], [123.046032, 41.115302], [123.046319, 41.115774], [123.04641, 41.116137], [123.046475, 41.116353], [123.046762, 41.116991], [123.046764, 41.117022], [123.04684, 41.117963], [123.046827, 41.118679], [123.047022, 41.119052], [123.047329, 41.119305], [123.047439, 41.119396], [123.048273, 41.119563], [123.048338, 41.120024], [123.048404, 41.120299], [123.048299, 41.120623], [123.048312, 41.120917], [123.04843, 41.121604], [123.048378, 41.121899], [123.048365, 41.122233], [123.048286, 41.122586], [123.047674, 41.123273], [123.047635, 41.12342], [123.047648, 41.123666], [123.048677, 41.125697], [123.049224, 41.125795], [123.049707, 41.12607], [123.049954, 41.12609], [123.050606, 41.126374], [123.050775, 41.12664], [123.051244, 41.126924], [123.052065, 41.128033], [123.052404, 41.12822], [123.052612, 41.128406], [123.052717, 41.12875], [123.053472, 41.129388], [123.053668, 41.129859], [123.05398, 41.130398], [123.054046, 41.13087], [123.054567, 41.131674], [123.054606, 41.132479], [123.05471, 41.133019], [123.054645, 41.133352], [123.054124, 41.13451], [123.054163, 41.134952], [123.054892, 41.136189], [123.054879, 41.137562], [123.052847, 41.138455], [123.05213, 41.137778], [123.051049, 41.137808], [123.051049, 41.138033], [123.046853, 41.138161], [123.044729, 41.136159], [123.043744, 41.136722], [123.043401, 41.136919], [123.038996, 41.139437], [123.036768, 41.13874], [123.034905, 41.138083], [123.035061, 41.13767], [123.033198, 41.137788], [123.032729, 41.138053], [123.032312, 41.138122], [123.031856, 41.137974], [123.03153, 41.138043], [123.029671, 41.138785], [123.02933, 41.137574], [123.028833, 41.137352], [123.028529, 41.1372], [123.028335, 41.136887], [123.028225, 41.136464], [123.027718, 41.135562], [123.027488, 41.135084], [123.027534, 41.134938], [123.027479, 41.134675], [123.027488, 41.134446], [123.027645, 41.134009], [123.027285, 41.133266], [123.027497, 41.132732], [123.030071, 41.132666], [123.030683, 41.132773], [123.032247, 41.133146], [123.032911, 41.133156], [123.033341, 41.133048], [123.034345, 41.132557], [123.028151, 41.126967], [123.026552, 41.125523], [123.026527, 41.125501]]]}, "properties": {"display_name": "深北街道, 上汪家峪, 立山区, 鞍山市, 辽宁省, 中国", "type": "historic", "osm_type": "relation", "osm_id": 9642376, "class": null, "keyword": "subdistrict"}}, {"type": "Feature", "geometry": {"type": "Polygon", "coordinates": [[[123.037814, 41.154069], [123.037837, 41.153507], [123.03798, 41.152928], [123.038045, 41.152506], [123.039074, 41.148768], [123.039726, 41.146138], [123.040508, 41.14291], [123.040495, 41.142302], [123.040625, 41.141487], [123.040521, 41.140624], [123.040221, 41.139554], [123.038996, 41.139437], [123.043401, 41.136919], [123.043744, 41.136722], [123.044729, 41.136159], [123.046853, 41.138161], [123.051049, 41.138033], [123.051049, 41.137808], [123.05213, 41.137778], [123.052847, 41.138455], [123.054879, 41.137562], [123.055736, 41.13775], [123.057929, 41.137431], [123.057864, 41.136064], [123.057763, 41.135821], [123.05779, 41.13537], [123.059015, 41.135405], [123.059734, 41.135377], [123.060775, 41.135634], [123.061116, 41.136168], [123.061521, 41.13639], [123.060849, 41.137403], [123.062332, 41.138436], [123.06247, 41.138652], [123.062516, 41.139248], [123.062479, 41.139845], [123.063372, 41.141697], [123.064929, 41.142828], [123.062682, 41.144631], [123.063142, 41.144937], [123.062755, 41.145173], [123.061724, 41.145658], [123.057975, 41.147288], [123.056952, 41.147767], [123.056657, 41.147989], [123.06013, 41.151727], [123.055776, 41.154764], [123.05407, 41.155274], [123.048455, 41.15602], [123.047869, 41.153378], [123.047845, 41.152565], [123.046883, 41.152791], [123.046625, 41.152153], [123.045952, 41.152271], [123.045817, 41.151637], [123.044497, 41.151635], [123.043627, 41.151616], [123.043548, 41.153644], [123.039569, 41.154005], [123.037814, 41.154069]]]}, "properties": {"display_name": "曙光街道, 立山区, 鞍山市, 辽宁省, 中国", "type": "administrative", "osm_type": "relation", "osm_id": 9642379, "class": null, "keyword": "subdistrict"}}, {"type": "Feature", "geometry": {"type": "Polygon", "coordinates": [[[123.013851, 41.125438], [123.014062, 41.125312], [123.014134, 41.124764], [123.014492, 41.124133], [123.014981, 41.123171], [123.015103, 41.12293], [123.015257, 41.122606], [123.016776, 41.122981], [123.017503, 41.121139], [123.018325, 41.121341], [123.018648, 41.120434], [123.016569, 41.119968], [123.017274, 41.117204], [123.016923, 41.116984], [123.016063, 41.116333], [123.016889, 41.115571], [123.01876, 41.114101], [123.020359, 41.113182], [123.022911, 41.112357], [123.024807, 41.110478], [123.033539, 41.111251], [123.035971, 41.11164], [123.037232, 41.112313], [123.038273, 41.112909], [123.040391, 41.11302], [123.040188, 41.113603], [123.040096, 41.114013], [123.040078, 41.114949], [123.039856, 41.116657], [123.039569, 41.117177], [123.039087, 41.117649], [123.026527, 41.125501], [123.026552, 41.125523], [123.028151, 41.126967], [123.034345, 41.132557], [123.033341, 41.133048], [123.032911, 41.133156], [123.032247, 41.133146], [123.030683, 41.132773], [123.030071, 41.132666], [123.027497, 41.132732], [123.027322, 41.132559], [123.026917, 41.132365], [123.026687, 41.132149], [123.026374, 41.131976], [123.025876, 41.131844], [123.024697, 41.131206], [123.024697, 41.131012], [123.025084, 41.13036], [123.023703, 41.130339], [123.023085, 41.130158], [123.022468, 41.130006], [123.0214, 41.130748], [123.019968, 41.129573], [123.020341, 41.129354], [123.020074, 41.129041], [123.019005, 41.128771], [123.018609, 41.128327], [123.017578, 41.127612], [123.01743, 41.127314], [123.01673, 41.12678], [123.013851, 41.125438]]]}, "properties": {"display_name": "深南街道, 上汪家峪, 立山区, 鞍山市, 辽宁省, 中国", "type": "historic", "osm_type": "relation", "osm_id": 9642377, "class": null, "keyword": "subdistrict"}}, {"type": "Feature", "geometry": {"type": "Polygon", "coordinates": [[[123.003474, 41.13978], [123.016052, 41.131987], [123.018169, 41.130663], [123.019968, 41.129573], [123.0214, 41.130748], [123.022468, 41.130006], [123.023085, 41.130158], [123.023703, 41.130339], [123.025084, 41.13036], [123.024697, 41.131012], [123.024697, 41.131206], [123.025876, 41.131844], [123.026374, 41.131976], [123.026687, 41.132149], [123.026917, 41.132365], [123.027322, 41.132559], [123.027497, 41.132732], [123.027285, 41.133266], [123.027645, 41.134009], [123.027488, 41.134446], [123.027479, 41.134675], [123.027534, 41.134938], [123.027488, 41.135084], [123.027718, 41.135562], [123.028225, 41.136464], [123.028335, 41.136887], [123.028529, 41.1372], [123.028833, 41.137352], [123.02933, 41.137574], [123.029671, 41.138785], [123.029754, 41.139079], [123.029616, 41.139405], [123.029008, 41.139759], [123.028243, 41.139586], [123.027663, 41.139371], [123.027138, 41.139343], [123.02642, 41.139787], [123.025959, 41.140314], [123.025976, 41.140761], [123.026174, 41.141832], [123.025943, 41.141946], [123.026291, 41.142936], [123.026576, 41.144337], [123.023228, 41.144906], [123.020967, 41.145287], [123.019788, 41.145493], [123.015643, 41.146119], [123.015137, 41.146168], [123.014603, 41.146161], [123.013845, 41.146094], [123.011628, 41.145898], [123.010992, 41.145759], [123.010338, 41.145544], [123.009517, 41.145227], [123.009132, 41.145087], [123.008946, 41.145171], [123.008019, 41.145631], [123.00685, 41.144338], [123.004682, 41.141554], [123.003474, 41.13978]]]}, "properties": {"display_name": "双山街道, 立山区, 鞍山市, 辽宁省, 中国", "type": "administrative", "osm_type": "relation", "osm_id": 9642378, "class": null, "keyword": "subdistrict"}}, {"type": "Feature", "geometry": {"type": "Polygon", "coordinates": [[[122.965561, 41.088102], [122.966003, 41.086709], [122.966301, 41.086086], [122.966643, 41.085542], [122.966916, 41.08516], [122.967197, 41.084836], [122.967632, 41.084416], [122.96799, 41.084102], [122.96905, 41.083219], [122.970191, 41.082203], [122.970969, 41.081561], [122.971566, 41.081046], [122.972704, 41.080097], [122.973425, 41.079506], [122.973912, 41.079099], [122.976955, 41.076626], [122.978014, 41.078426], [122.9803, 41.07762], [122.979947, 41.077095], [122.980834, 41.076713], [122.981763, 41.076395], [122.982693, 41.076119], [122.983029, 41.076678], [122.986605, 41.082764], [122.989172, 41.087255], [122.990646, 41.089763], [122.985261, 41.090742], [122.985344, 41.09089], [122.984476, 41.091276], [122.984273, 41.091567], [122.983583, 41.092769], [122.983007, 41.092941], [122.982275, 41.091706], [122.981346, 41.092011], [122.981125, 41.091629], [122.980747, 41.091727], [122.979937, 41.090353], [122.972663, 41.092823], [122.969658, 41.093797], [122.968992, 41.092711], [122.968199, 41.091546], [122.966407, 41.08914], [122.965561, 41.088102]]]}, "properties": {"display_name": "解放街道, 铁东区, 鞍山市, 辽宁省, 中国", "type": "administrative", "osm_type": "relation", "osm_id": 9641899, "class": null, "keyword": "subdistrict"}}, {"type": "Feature", "geometry": {"type": "Polygon", "coordinates": [[[122.938016, 41.105135], [122.938513, 41.104636], [122.939084, 41.104247], [122.939664, 41.103894], [122.940345, 41.10363], [122.946496, 41.101542], [122.952812, 41.099398], [122.958196, 41.097625], [122.961308, 41.103013], [122.964606, 41.108664], [122.954967, 41.111854], [122.95389, 41.114392], [122.944551, 41.112156], [122.941234, 41.111367], [122.940014, 41.111095], [122.940428, 41.109931], [122.938994, 41.10957], [122.939581, 41.108153], [122.94075, 41.105944], [122.938016, 41.105135]]]}, "properties": {"display_name": "大陆街道, 铁西区, 鞍山市, 辽宁省, 中国", "type": "administrative", "osm_type": "relation", "osm_id": 9640681, "class": null, "keyword": "subdistrict"}}, {"type": "Feature", "geometry": {"type": "Polygon", "coordinates": [[[122.983029, 41.076678], [122.984164, 41.076307], [122.985702, 41.07584], [122.985061, 41.074602], [122.984618, 41.073819], [122.985668, 41.073393], [122.986805, 41.072945], [122.987257, 41.072767], [122.988409, 41.072324], [122.988502, 41.07229], [122.989077, 41.072083], [122.989728, 41.071871], [122.99073, 41.071541], [122.991889, 41.07117], [122.992887, 41.0709], [122.99332, 41.070766], [122.993668, 41.070692], [122.99403, 41.07065], [122.994233, 41.070617], [122.994511, 41.070573], [122.995066, 41.070502], [122.995215, 41.070441], [122.995472, 41.070335], [122.995659, 41.070278], [122.996524, 41.070191], [122.997602, 41.070176], [122.998109, 41.070202], [122.998263, 41.070263], [122.998306, 41.070355], [122.998077, 41.070889], [122.998146, 41.071034], [122.998649, 41.071372], [122.999411, 41.072014], [122.999501, 41.072098], [123.001526, 41.070557], [123.003897, 41.068933], [123.004815, 41.069722], [123.005359, 41.070206], [123.00329, 41.071801], [123.003519, 41.072061], [123.004053, 41.072529], [123.004992, 41.073479], [123.00382, 41.074905], [123.00309, 41.075544], [123.002739, 41.076132], [123.00255, 41.076464], [123.002504, 41.076971], [123.002945, 41.07862], [123.002685, 41.078862], [123.00241, 41.079212], [123.001717, 41.080563], [123.001396, 41.08112], [123.001, 41.081712], [122.999704, 41.083488], [122.999077, 41.08424], [122.998427, 41.084788], [122.997355, 41.085528], [122.996562, 41.085361], [122.995975, 41.085269], [122.99532, 41.085258], [122.994755, 41.085333], [122.989172, 41.087255], [122.986605, 41.082764], [122.983029, 41.076678]]]}, "properties": {"display_name": "东长甸街道, 铁东区, 鞍山市, 辽宁省, 中国", "type": "administrative", "osm_type": "relation", "osm_id": 9641894, "class": null, "keyword": "subdistrict"}}, {"type": "Feature", "geometry": {"type": "Polygon", "coordinates": [[[122.944589, 41.085243], [122.948511, 41.085292], [122.94782, 41.083349], [122.946881, 41.083585], [122.946532, 41.083342], [122.946191, 41.083051], [122.945804, 41.082287], [122.947664, 41.081594], [122.949974, 41.080435], [122.952984, 41.084362], [122.959826, 41.081175], [122.960024, 41.081408], [122.965444, 41.087936], [122.965561, 41.088102], [122.966407, 41.08914], [122.968199, 41.091546], [122.968992, 41.092711], [122.969658, 41.093797], [122.965288, 41.095228], [122.958196, 41.097625], [122.952812, 41.099398], [122.95118, 41.096544], [122.951046, 41.0963], [122.950973, 41.096233], [122.950904, 41.096199], [122.950536, 41.096045], [122.950287, 41.088934], [122.950342, 41.088393], [122.950475, 41.08799], [122.950583, 41.087757], [122.950803, 41.087505], [122.951346, 41.087089], [122.95188, 41.086894], [122.951677, 41.086575], [122.946274, 41.086742], [122.946163, 41.085763], [122.944893, 41.085805], [122.944589, 41.085243]]]}, "properties": {"display_name": "南华街道, 铁西区, 鞍山市, 辽宁省, 中国", "type": "administrative", "osm_type": "relation", "osm_id": 9640684, "class": null, "keyword": "subdistrict"}}, {"type": "Feature", "geometry": {"type": "Polygon", "coordinates": [[[123.020967, 41.145287], [123.023228, 41.144906], [123.026576, 41.144337], [123.026291, 41.142936], [123.025943, 41.141946], [123.026174, 41.141832], [123.025976, 41.140761], [123.025959, 41.140314], [123.02642, 41.139787], [123.027138, 41.139343], [123.027663, 41.139371], [123.028243, 41.139586], [123.029008, 41.139759], [123.029616, 41.139405], [123.029754, 41.139079], [123.029671, 41.138785], [123.03153, 41.138043], [123.031856, 41.137974], [123.032312, 41.138122], [123.032729, 41.138053], [123.033198, 41.137788], [123.035061, 41.13767], [123.034905, 41.138083], [123.036768, 41.13874], [123.038996, 41.139437], [123.040221, 41.139554], [123.040521, 41.140624], [123.040625, 41.141487], [123.040495, 41.142302], [123.040508, 41.14291], [123.039726, 41.146138], [123.039074, 41.148768], [123.038045, 41.152506], [123.03798, 41.152928], [123.037837, 41.153507], [123.037814, 41.154069], [123.037769, 41.154281], [123.037465, 41.154471], [123.038657, 41.156881], [123.039361, 41.157931], [123.035726, 41.159373], [123.033221, 41.159876], [123.029978, 41.153252], [123.029655, 41.152683], [123.029222, 41.152169], [123.027914, 41.151052], [123.020967, 41.145287]]]}, "properties": {"display_name": "沙河街道, 立山区, 鞍山市, 辽宁省, 中国", "type": "administrative", "osm_type": "relation", "osm_id": 9642375, "class": null, "keyword": "subdistrict"}}, {"type": "Feature", "geometry": {"type": "MultiPolygon", "coordinates": [[[[122.985261, 41.090742], [122.990646, 41.089763], [122.993844, 41.095075], [122.994838, 41.096747], [122.995777, 41.097981], [122.996505, 41.098904], [122.996728, 41.098825], [122.996804, 41.098803], [122.996905, 41.098807], [122.997295, 41.098852], [122.997382, 41.098869], [122.997704, 41.098932], [122.997775, 41.098962], [122.99789, 41.099015], [122.998083, 41.099107], [122.998438, 41.099291], [122.998818, 41.099358], [122.999502, 41.099483], [122.999586, 41.09964], [123.000003, 41.100268], [123.0004, 41.100869], [122.998525, 41.101517], [122.998448, 41.101579], [122.998256, 41.101664], [123.000254, 41.105012], [123.000389, 41.105258], [123.001749, 41.107544], [123.002343, 41.108583], [123.002591, 41.109045], [123.003398, 41.110637], [122.997459, 41.11268], [122.993214, 41.105483], [122.989908, 41.099727], [122.989636, 41.099226], [122.989531, 41.099054], [122.989526, 41.099042], [122.989301, 41.098492], [122.989017, 41.097466], [122.98875, 41.096785], [122.985344, 41.09089], [122.985261, 41.090742]]], [[[123.006091, 41.10751], [123.00614, 41.106752], [123.006201, 41.106468], [123.006354, 41.106118], [123.006566, 41.105804], [123.00686, 41.105542], [123.00727, 41.105281], [123.007725, 41.105091], [123.009097, 41.104619], [123.010054, 41.104321], [123.010635, 41.104218], [123.011344, 41.104158], [123.012254, 41.104058], [123.01287, 41.103908], [123.013272, 41.103844], [123.013801, 41.103863], [123.01503, 41.104032], [123.015494, 41.104044], [123.01809, 41.103801], [123.018475, 41.103723], [123.018782, 41.103629], [123.019167, 41.103482], [123.022195, 41.102157], [123.024939, 41.105757], [123.012105, 41.111234], [123.007273, 41.107768], [123.006091, 41.10751]]]]}, "properties": {"display_name": "园林街道, 鞍山市, 铁东区, 鞍山市, 辽宁省, 中国", "type": "administrative", "osm_type": "relation", "osm_id": 9641905, "class": null, "keyword": "subdistrict"}}, {"type": "Feature", "geometry": {"type": "Polygon", "coordinates": [[[122.997355, 41.085528], [122.998427, 41.084788], [122.999077, 41.08424], [122.999704, 41.083488], [123.001, 41.081712], [123.001396, 41.08112], [123.001717, 41.080563], [123.00241, 41.079212], [123.002685, 41.078862], [123.002945, 41.07862], [123.003669, 41.078151], [123.004651, 41.077696], [123.004792, 41.077657], [123.005508, 41.077539], [123.006241, 41.077351], [123.006658, 41.077221], [123.007096, 41.077026], [123.007609, 41.076717], [123.007699, 41.076803], [123.01079, 41.079802], [123.012209, 41.081163], [123.013403, 41.082324], [123.013005, 41.082687], [123.012714, 41.0833], [123.012313, 41.084094], [123.011935, 41.08481], [123.011861, 41.085258], [123.011902, 41.086808], [123.011924, 41.087133], [123.011205, 41.087195], [123.011115, 41.088893], [123.011416, 41.089623], [123.011561, 41.089974], [123.011819, 41.090491], [123.011798, 41.090829], [123.011414, 41.090992], [123.011648, 41.091894], [123.012288, 41.093557], [123.011553, 41.093349], [123.011136, 41.093187], [123.011033, 41.093073], [123.010836, 41.093141], [123.010835, 41.093228], [123.010286, 41.094314], [123.009913, 41.094952], [123.010302, 41.095159], [123.00973, 41.09594], [123.009013, 41.095647], [123.00854, 41.09625], [123.008266, 41.096917], [123.004698, 41.095383], [123.003821, 41.09505], [123.003716, 41.095021], [123.002878, 41.094802], [123.002532, 41.094729], [123.002098, 41.09467], [123.001473, 41.094676], [123.000527, 41.094797], [122.999399, 41.092895], [122.998735, 41.091384], [122.998339, 41.090683], [122.998026, 41.090108], [122.997645, 41.088694], [122.997561, 41.088177], [122.997355, 41.085528]]]}, "properties": {"display_name": "湖南街道, 大石头村, 铁东区, 鞍山市, 辽宁省, 中国", "type": "administrative", "osm_type": "relation", "osm_id": 9641898, "class": null, "keyword": "subdistrict"}}, {"type": "Feature", "geometry": {"type": "Polygon", "coordinates": [[[122.993962, 41.11387], [122.997459, 41.11268], [123.003398, 41.110637], [123.002591, 41.109045], [123.002343, 41.108583], [123.001749, 41.107544], [123.003127, 41.106995], [123.004755, 41.107433], [123.006091, 41.10751], [123.007273, 41.107768], [123.012105, 41.111234], [123.012383, 41.11168], [123.016063, 41.116333], [123.016923, 41.116984], [123.017274, 41.117204], [123.016569, 41.119968], [123.018648, 41.120434], [123.018325, 41.121341], [123.017503, 41.121139], [123.016776, 41.122981], [123.015257, 41.122606], [123.012231, 41.12186], [123.009814, 41.121244], [123.009124, 41.121132], [123.008693, 41.121032], [123.001576, 41.119086], [123.001334, 41.119025], [123.001161, 41.119086], [123.000656, 41.119245], [122.99908, 41.11977], [122.996273, 41.120671], [122.99625, 41.120579], [122.996208, 41.120487], [122.995988, 41.120106], [122.995357, 41.119011], [122.996714, 41.118552], [122.993962, 41.11387]]]}, "properties": {"display_name": "和平街道, 鞍山市, 铁东区, 鞍山市, 辽宁省, 中国", "type": "administrative", "osm_type": "relation", "osm_id": 9641897, "class": null, "keyword": "subdistrict"}}, {"type": "Feature", "geometry": {"type": "Polygon", "coordinates": [[[122.994941, 41.131025], [122.99761, 41.129097], [122.998, 41.128858], [122.999394, 41.128383], [123.000242, 41.128096], [123.000957, 41.127872], [123.001847, 41.127564], [123.002957, 41.127205], [123.005571, 41.126333], [123.007044, 41.125842], [123.009983, 41.12478], [123.010345, 41.124738], [123.010969, 41.124654], [123.012871, 41.124981], [123.013851, 41.125438], [123.01673, 41.12678], [123.01743, 41.127314], [123.017578, 41.127612], [123.018609, 41.128327], [123.019005, 41.128771], [123.020074, 41.129041], [123.020341, 41.129354], [123.019968, 41.129573], [123.018169, 41.130663], [123.016052, 41.131987], [123.003474, 41.13978], [123.000571, 41.135928], [122.999454, 41.134673], [122.998858, 41.134113], [122.994941, 41.131025]]]}, "properties": {"display_name": "友好街道, 立山区, 鞍山市, 辽宁省, 中国", "type": "administrative", "osm_type": "relation", "osm_id": 9642380, "class": null, "keyword": "subdistrict"}}, {"type": "Feature", "geometry": {"type": "Polygon", "coordinates": [[[123.008019, 41.145631], [123.008946, 41.145171], [123.009132, 41.145087], [123.009517, 41.145227], [123.010338, 41.145544], [123.010992, 41.145759], [123.011628, 41.145898], [123.013845, 41.146094], [123.014603, 41.146161], [123.015137, 41.146168], [123.015643, 41.146119], [123.019788, 41.145493], [123.020967, 41.145287], [123.027914, 41.151052], [123.029222, 41.152169], [123.029655, 41.152683], [123.029978, 41.153252], [123.033221, 41.159876], [123.030644, 41.160011], [123.028559, 41.159579], [123.025041, 41.158049], [123.022566, 41.158049], [123.022448, 41.16004], [123.022836, 41.160066], [123.022818, 41.160522], [123.022744, 41.160847], [123.022732, 41.161286], [123.022772, 41.162143], [123.023647, 41.162601], [123.026514, 41.164592], [123.021719, 41.164827], [123.021497, 41.163709], [123.022227, 41.161806], [123.02211, 41.159991], [123.022149, 41.158029], [123.018122, 41.157944], [123.018132, 41.157091], [123.018105, 41.156181], [123.017973, 41.155411], [123.017847, 41.155034], [123.017728, 41.154776], [123.017561, 41.154494], [123.017274, 41.154078], [123.015469, 41.152379], [123.012154, 41.14944], [123.009182, 41.146808], [123.008019, 41.145631]]]}, "properties": {"display_name": "立山街道, 立山区, 鞍山市, 辽宁省, 中国", "type": "administrative", "osm_type": "relation", "osm_id": 9642374, "class": null, "keyword": "subdistrict"}}, {"type": "Feature", "geometry": {"type": "Polygon", "coordinates": [[[122.969658, 41.093797], [122.972663, 41.092823], [122.979937, 41.090353], [122.980747, 41.091727], [122.981125, 41.091629], [122.981346, 41.092011], [122.982275, 41.091706], [122.983007, 41.092941], [122.983583, 41.092769], [122.984273, 41.091567], [122.984476, 41.091276], [122.985344, 41.09089], [122.98875, 41.096785], [122.989017, 41.097466], [122.989301, 41.098492], [122.989526, 41.099042], [122.989531, 41.099054], [122.989636, 41.099226], [122.989908, 41.099727], [122.98885, 41.100095], [122.988619, 41.100296], [122.988325, 41.10065], [122.988095, 41.100788], [122.986604, 41.101271], [122.984229, 41.102053], [122.982913, 41.102476], [122.981776, 41.102873], [122.980969, 41.103154], [122.975745, 41.104886], [122.972165, 41.098135], [122.969658, 41.093797]]]}, "properties": {"display_name": "山南街道, 铁东区, 鞍山市, 辽宁省, 中国", "type": "administrative", "osm_type": "relation", "osm_id": 9641901, "class": null, "keyword": "subdistrict"}}, {"type": "Feature", "geometry": {"type": "Polygon", "coordinates": [[[122.937868, 41.119309], [122.938522, 41.119101], [122.938964, 41.11795], [122.938982, 41.117728], [122.939093, 41.117533], [122.939305, 41.117291], [122.939728, 41.116201], [122.939516, 41.116153], [122.939876, 41.11507], [122.940106, 41.115098], [122.940216, 41.114717], [122.93878, 41.114383], [122.938734, 41.114071], [122.940014, 41.111095], [122.941234, 41.111367], [122.944551, 41.112156], [122.95389, 41.114392], [122.953553, 41.115226], [122.95238, 41.11802], [122.953667, 41.120337], [122.953918, 41.120788], [122.952927, 41.12112], [122.951955, 41.12144], [122.947216, 41.123026], [122.944538, 41.123939], [122.940937, 41.125193], [122.938752, 41.121127], [122.938771, 41.120981], [122.937868, 41.119309]]]}, "properties": {"display_name": "永乐街道, 二台子, 铁西区, 鞍山市, 辽宁省, 中国", "type": "administrative", "osm_type": "relation", "osm_id": 9640691, "class": null, "keyword": "subdistrict"}}, {"type": "Feature", "geometry": {"type": "Polygon", "coordinates": [[[122.937814, 41.126237], [122.940937, 41.125193], [122.944538, 41.123939], [122.947216, 41.123026], [122.951955, 41.12144], [122.952927, 41.12112], [122.953918, 41.120788], [122.954459, 41.121695], [122.956155, 41.124375], [122.956359, 41.124574], [122.957168, 41.125367], [122.953185, 41.128138], [122.951436, 41.130089], [122.95008, 41.131319], [122.948101, 41.132806], [122.945983, 41.133576], [122.94303, 41.128688], [122.94114, 41.129301], [122.939864, 41.129728], [122.937814, 41.126237]]]}, "properties": {"display_name": "共和街道, 二台子, 铁西区, 鞍山市, 辽宁省, 中国", "type": "administrative", "osm_type": "relation", "osm_id": 9640683, "class": null, "keyword": "subdistrict"}}, {"type": "Feature", "geometry": {"type": "Polygon", "coordinates": [[[122.953918, 41.120788], [122.955779, 41.120165], [122.956515, 41.119921], [122.957665, 41.119538], [122.958889, 41.119114], [122.959665, 41.118854], [122.960807, 41.118469], [122.962422, 41.117932], [122.963412, 41.117609], [122.964834, 41.117124], [122.965361, 41.116952], [122.965949, 41.116745], [122.966764, 41.116468], [122.967158, 41.116339], [122.968804, 41.115762], [122.969126, 41.116368], [122.971454, 41.120308], [122.970271, 41.12157], [122.964348, 41.126198], [122.963131, 41.124983], [122.962213, 41.123922], [122.958613, 41.126408], [122.958579, 41.126431], [122.957168, 41.125367], [122.956359, 41.124574], [122.956155, 41.124375], [122.954459, 41.121695], [122.953918, 41.120788]]]}, "properties": {"display_name": "八家子街道, 铁西区, 鞍山市, 辽宁省, 中国", "type": "administrative", "osm_type": "relation", "osm_id": 9640678, "class": null, "keyword": "subdistrict"}}, {"type": "Feature", "geometry": {"type": "Polygon", "coordinates": [[[122.964606, 41.108664], [122.975745, 41.104886], [122.977476, 41.10762], [122.980061, 41.112076], [122.976533, 41.113214], [122.972861, 41.114386], [122.971067, 41.115015], [122.969981, 41.115382], [122.969089, 41.115668], [122.968804, 41.115762], [122.968752, 41.115685], [122.96563, 41.110482], [122.964606, 41.108664]]]}, "properties": {"display_name": "繁荣街道, 铁西区, 鞍山市, 辽宁省, 中国", "type": "administrative", "osm_type": "relation", "osm_id": 9640682, "class": null, "keyword": "subdistrict"}}, {"type": "Feature", "geometry": {"type": "Polygon", "coordinates": [[[122.980061, 41.112076], [122.982398, 41.111331], [122.982489, 41.111299], [122.981944, 41.110343], [122.983075, 41.109973], [122.988392, 41.108153], [122.990251, 41.107533], [122.993962, 41.11387], [122.991522, 41.114654], [122.989358, 41.117491], [122.989184, 41.11759], [122.988923, 41.117697], [122.988424, 41.117872], [122.988647, 41.118241], [122.98854, 41.118585], [122.987034, 41.118294], [122.985199, 41.11792], [122.984928, 41.117893], [122.98478, 41.117901], [122.984664, 41.117918], [122.983888, 41.118231], [122.982683, 41.116269], [122.982604, 41.116158], [122.980061, 41.112076]]]}, "properties": {"display_name": "站前街道, 鞍山市, 铁东区, 鞍山市, 辽宁省, 中国", "type": "administrative", "osm_type": "relation", "osm_id": 9641907, "class": null, "keyword": "subdistrict"}}, {"type": "Feature", "geometry": {"type": "Polygon", "coordinates": [[[122.910546, 41.10241], [122.911692, 41.101976], [122.914825, 41.102705], [122.914219, 41.104181], [122.913808, 41.104108], [122.91377, 41.104181], [122.913015, 41.104001], [122.912993, 41.104108], [122.911617, 41.103809], [122.911049, 41.103178], [122.910546, 41.10241]]]}, "properties": {"display_name": "鞍山市宝得中学, 鞍腾路, 小台子村, 宁远街道, 铁西区, 鞍山市, 辽宁省, 114225, 中国", "type": "school", "osm_type": "way", "osm_id": 1004613265, "class": null, "keyword": "中心城区"}}, {"type": "Feature", "geometry": {"type": "Polygon", "coordinates": [[[122.911645, 41.149518], [122.911776, 41.149142], [122.912061, 41.148817], [122.912477, 41.148576], [122.912976, 41.148451], [122.913501, 41.148455], [122.913996, 41.148589], [122.914406, 41.148837], [122.914684, 41.149172], [122.914802, 41.149558], [122.914745, 41.149952], [122.91452, 41.150309], [122.914153, 41.150592], [122.913691, 41.150766], [122.91318, 41.15082], [122.912673, 41.150746], [122.912225, 41.150554], [122.911882, 41.150263], [122.911682, 41.149905], [122.911645, 41.149518]]]}, "properties": {"display_name": "鞍山体育中心体育场, 盛达街, 达道湾街道, 大阳气镇, 达道湾镇, 铁西区, 鞍山市, 辽宁省, 中国", "type": "stadium", "osm_type": "way", "osm_id": 611756323, "class": null, "keyword": "city centre"}}, {"type": "Feature", "geometry": {"type": "Polygon", "coordinates": [[[123.007117, 41.088659], [123.007124, 41.0886], [123.007156, 41.088519], [123.007292, 41.088547], [123.007368, 41.088508], [123.007555, 41.088579], [123.008419, 41.088899], [123.008479, 41.089067], [123.00872, 41.089419], [123.008724, 41.089451], [123.007319, 41.088877], [123.00718, 41.088792], [123.007117, 41.088715], [123.007117, 41.088659]]]}, "properties": {"display_name": "劳园, 湖南街道, 大石头村, 铁东区, 鞍山市, 辽宁省, 中国", "type": "park", "osm_type": "way", "osm_id": 821780936, "class": null, "keyword": "老城"}}, {"type": "Feature", "geometry": {"type": "Polygon", "coordinates": [[[122.988794, 41.104877], [122.989246, 41.104723], [122.98953, 41.105196], [122.989077, 41.10535], [122.988794, 41.104877]]]}, "properties": {"display_name": "中央公馆, 胜利南路, 胜利街道, 鞍山市, 铁东区, 鞍山市, 辽宁省, 中国", "type": "apartments", "osm_type": "way", "osm_id": 813748582, "class": null, "keyword": "中央区"}}]}