{"type": "FeatureCollection", "features": [{"type": "Feature", "geometry": {"type": "Polygon", "coordinates": [[[-7.997032, 12.651662], [-7.996931, 12.650371], [-7.996225, 12.650467], [-7.996073, 12.650486], [-7.995942, 12.650506], [-7.994826, 12.650645], [-7.994682, 12.650901], [-7.995144, 12.652326], [-7.995192, 12.652348], [-7.997032, 12.651662]]]}, "properties": {"display_name": "Centre Hospitalo Universitaire Gabriel Touré, Rue 10, Médina-coura, Médina Coura, Bamako, Mali", "type": "hospital", "osm_type": "way", "osm_id": 314695939, "class": null, "keyword": "centro"}}, {"type": "Feature", "geometry": {"type": "Polygon", "coordinates": [[[-8.025137, 12.596967], [-8.024388, 12.596837], [-8.024321, 12.597237], [-8.024695, 12.597309], [-8.025137, 12.596967]]]}, "properties": {"display_name": "Commissariat de police 15ème Arrondissement, Rue 614, Baco-Djicoroni, Sabalibougou, Bamako, Mali", "type": "police", "osm_type": "way", "osm_id": 93316106, "class": null, "keyword": "arrondissement"}}, {"type": "Feature", "geometry": {"type": "Polygon", "coordinates": [[[-7.955588, 12.671011], [-7.955526, 12.670594], [-7.954997, 12.670671], [-7.955035, 12.671076], [-7.955588, 12.671011]]]}, "properties": {"display_name": "Commissariat de police 6ème arrondissement, Rue 152, Fadjiguila, Bamako, Mali", "type": "police", "osm_type": "way", "osm_id": 93314857, "class": null, "keyword": "arrondissement"}}, {"type": "Feature", "geometry": {"type": "Polygon", "coordinates": [[[-7.922964, 12.671202], [-7.922956, 12.670805], [-7.922713, 12.670809], [-7.922583, 12.670812], [-7.922591, 12.671209], [-7.922964, 12.671202]]]}, "properties": {"display_name": "Commissariat de police du 12ème arrondissement, Avenue Al Qoods - Route de Koulikoro, Boulkassoumbougou Kouloubleni, Bamako, Mali", "type": "police", "osm_type": "way", "osm_id": 93314825, "class": null, "keyword": "arrondissement"}}, {"type": "Feature", "geometry": {"type": "Polygon", "coordinates": [[[-8.021686, 12.628566], [-8.021584, 12.62847], [-8.021549, 12.628505], [-8.021528, 12.628486], [-8.021574, 12.62844], [-8.021464, 12.628336], [-8.021317, 12.628484], [-8.02159, 12.628743], [-8.021686, 12.628566]]]}, "properties": {"display_name": "Commissariat de police du 14e Arrondissement, Rue 562, ACI 2000, Para Djicoroni, Bamako, Mali", "type": "police", "osm_type": "way", "osm_id": 490153387, "class": null, "keyword": "arrondissement"}}, {"type": "Feature", "geometry": {"type": "Polygon", "coordinates": [[[-7.931867, 12.52708], [-7.931827, 12.526814], [-7.931609, 12.526845], [-7.931648, 12.527112], [-7.931867, 12.52708]]]}, "properties": {"display_name": "Commissariat du 10eme arrondissement - poste de police de Senou, Route Trans-Sahélienne, Sénou, Bamako, Mali", "type": "police", "osm_type": "way", "osm_id": 427049445, "class": null, "keyword": "arrondissement"}}, {"type": "Feature", "geometry": {"type": "Polygon", "coordinates": [[[-8.071467, 12.581339], [-8.071347, 12.58123], [-8.071326, 12.581251], [-8.071304, 12.581231], [-8.071267, 12.58127], [-8.071258, 12.581266], [-8.07122, 12.581305], [-8.071245, 12.581329], [-8.071221, 12.581355], [-8.071345, 12.581468], [-8.071467, 12.581339]]]}, "properties": {"display_name": "Commissariat de Police du 9ème Arrondissement, RN5, Sébénikoro, Bamako, Mali", "type": "police", "osm_type": "way", "osm_id": 579211865, "class": null, "keyword": "arrondissement"}}, {"type": "Feature", "geometry": {"type": "Polygon", "coordinates": [[[-8.001499, 12.606493], [-8.001473, 12.606471], [-8.001481, 12.606457], [-8.001473, 12.606448], [-8.001481, 12.606432], [-8.001454, 12.606409], [-8.001449, 12.606416], [-8.001406, 12.606383], [-8.00139, 12.606401], [-8.001364, 12.606381], [-8.001263, 12.606498], [-8.001401, 12.606612], [-8.001499, 12.606493]]]}, "properties": {"display_name": "Commissariat de Police du 4ème arrondissement, RN6, 300 Logement, Torokorobougou, Sabalibougou, Bamako, Mali", "type": "police", "osm_type": "way", "osm_id": 579197261, "class": null, "keyword": "arrondissement"}}]}