{"type": "FeatureCollection", "features": [{"type": "Feature", "geometry": {"type": "Polygon", "coordinates": [[[-116.294309, 43.648461], [-116.294176, 43.647948], [-116.294136, 43.61944], [-116.274206, 43.619373], [-116.274235, 43.633937], [-116.257596, 43.633856], [-116.257619, 43.633876], [-116.257631, 43.633885], [-116.257682, 43.633953], [-116.257815, 43.634248], [-116.257836, 43.634295], [-116.257851, 43.634322], [-116.257906, 43.634424], [-116.258126, 43.634712], [-116.258444, 43.634959], [-116.258503, 43.635038], [-116.259062, 43.635511], [-116.259186, 43.635616], [-116.259358, 43.635749], [-116.259587, 43.635893], [-116.259745, 43.635953], [-116.259801, 43.635975], [-116.259884, 43.635993], [-116.260073, 43.636036], [-116.26034, 43.635973], [-116.26077, 43.636006], [-116.261312, 43.636002], [-116.261675, 43.63609], [-116.261804, 43.636121], [-116.262021, 43.636152], [-116.262279, 43.636218], [-116.26261, 43.63635], [-116.262933, 43.636494], [-116.263298, 43.636576], [-116.26401, 43.636765], [-116.264362, 43.636865], [-116.26472, 43.636955], [-116.265059, 43.637077], [-116.26538, 43.637228], [-116.265606, 43.637362], [-116.265821, 43.637504], [-116.266022, 43.637638], [-116.266104, 43.637823], [-116.26612, 43.638018], [-116.26612, 43.638023], [-116.266092, 43.638567], [-116.266092, 43.638576], [-116.266095, 43.638841], [-116.26617, 43.639115], [-116.266221, 43.63941], [-116.266281, 43.639433], [-116.266397, 43.640238], [-116.266617, 43.640802], [-116.266997, 43.641265], [-116.267342, 43.641554], [-116.267674, 43.641936], [-116.268422, 43.642303], [-116.268956, 43.642772], [-116.270301, 43.642956], [-116.271107, 43.643176], [-116.271465, 43.643273], [-116.271486, 43.64328], [-116.271852, 43.643331], [-116.272357, 43.643401], [-116.272944, 43.643599], [-116.273605, 43.64369], [-116.273869, 43.643726], [-116.274271, 43.643745], [-116.27437, 43.643723], [-116.275113, 43.643561], [-116.27603, 43.6439], [-116.276076, 43.643917], [-116.27766, 43.644105], [-116.278054, 43.644242], [-116.282731, 43.645143], [-116.284319, 43.645236], [-116.287224, 43.645088], [-116.288268, 43.645391], [-116.288825, 43.646044], [-116.289169, 43.646727], [-116.291141, 43.647845], [-116.292772, 43.648435], [-116.293887, 43.648528], [-116.294309, 43.648461]]]}, "properties": {"display_name": "West Bench Neighborhood Association, Boise, Ada County, Idaho, 83704, United States", "type": "administrative", "osm_type": "way", "osm_id": 155027759, "class": null, "keyword": "neighborhood"}}, {"type": "Feature", "geometry": {"type": "Polygon", "coordinates": [[[-116.221326, 43.615637], [-116.221052, 43.61543], [-116.220797, 43.615053], [-116.220665, 43.614861], [-116.220641, 43.614772], [-116.22043, 43.61454], [-116.220101, 43.61431], [-116.21975, 43.614137], [-116.219507, 43.613951], [-116.219219, 43.613663], [-116.218887, 43.613401], [-116.218471, 43.613154], [-116.218153, 43.612964], [-116.217782, 43.612761], [-116.217309, 43.612526], [-116.216931, 43.612351], [-116.216547, 43.612213], [-116.216045, 43.612051], [-116.215498, 43.611865], [-116.214645, 43.611665], [-116.212861, 43.611186], [-116.212268, 43.61104], [-116.210976, 43.610531], [-116.209769, 43.60977], [-116.209552, 43.609653], [-116.209328, 43.609532], [-116.208433, 43.609047], [-116.208293, 43.609032], [-116.208258, 43.609007], [-116.208082, 43.608879], [-116.2053, 43.60688], [-116.203779, 43.605575], [-116.203433, 43.605528], [-116.202645, 43.605458], [-116.201508, 43.605677], [-116.201015, 43.605745], [-116.199378, 43.605893], [-116.198068, 43.605671], [-116.196803, 43.60565], [-116.19573, 43.605369], [-116.195223, 43.605148], [-116.195097, 43.605093], [-116.194351, 43.604716], [-116.193657, 43.604161], [-116.19355, 43.604162], [-116.193436, 43.610152], [-116.193365, 43.610467], [-116.1932, 43.610711], [-116.192074, 43.611478], [-116.19089, 43.612689], [-116.190817, 43.612929], [-116.190808, 43.613365], [-116.190949, 43.613741], [-116.191082, 43.613832], [-116.19239, 43.614521], [-116.192298, 43.614693], [-116.192285, 43.614839], [-116.192336, 43.614981], [-116.192758, 43.615536], [-116.194003, 43.617623], [-116.206153, 43.623716], [-116.206942, 43.622932], [-116.207089, 43.623009], [-116.20755, 43.623243], [-116.207863, 43.623402], [-116.208022, 43.62348], [-116.208904, 43.623925], [-116.209221, 43.624093], [-116.214404, 43.618703], [-116.219387, 43.616866], [-116.220001, 43.616476], [-116.220663, 43.616056], [-116.221326, 43.615637]]]}, "properties": {"display_name": "Downtown, Boise, Ada County, Idaho, United States", "type": "neighbourhood", "osm_type": "way", "osm_id": 766803588, "class": null, "keyword": "downtown"}}, {"type": "Feature", "geometry": {"type": "Polygon", "coordinates": [[[-116.205817, 43.614797], [-116.205788, 43.614705], [-116.205731, 43.614655], [-116.20523, 43.614401], [-116.205219, 43.614416], [-116.204978, 43.614293], [-116.204925, 43.614343], [-116.204857, 43.61431], [-116.204498, 43.614691], [-116.204468, 43.614735], [-116.204487, 43.614756], [-116.204504, 43.614782], [-116.204524, 43.614818], [-116.204538, 43.61489], [-116.204526, 43.614947], [-116.204551, 43.614955], [-116.204516, 43.614993], [-116.204707, 43.615091], [-116.204621, 43.615184], [-116.204779, 43.61526], [-116.204825, 43.615209], [-116.204863, 43.615171], [-116.205115, 43.615295], [-116.205299, 43.615385], [-116.205799, 43.614865], [-116.205817, 43.614797]]]}, "properties": {"display_name": "Boise Centre, 850, West Front Street, Downtown, Boise, Ada County, Idaho, 83702, United States", "type": "commercial", "osm_type": "way", "osm_id": 392883246, "class": null, "keyword": "city centre"}}, {"type": "Feature", "geometry": {"type": "Polygon", "coordinates": [[[-116.20647, 43.619545], [-116.205682, 43.619138], [-116.205123, 43.619704], [-116.205911, 43.620112], [-116.20647, 43.619545]]]}, "properties": {"display_name": "Boise Plaza, 1111, West Jefferson Street, Downtown, North End, Boise, Ada County, Idaho, 83702, United States", "type": "office", "osm_type": "way", "osm_id": 492879445, "class": null, "keyword": "district"}}, {"type": "Feature", "geometry": {"type": "Polygon", "coordinates": [[[-116.216851, 43.620825], [-116.21641, 43.62082], [-116.216404, 43.621144], [-116.215573, 43.621136], [-116.215569, 43.621361], [-116.216224, 43.621367], [-116.216221, 43.62153], [-116.216838, 43.621536], [-116.216851, 43.620825]]]}, "properties": {"display_name": "Red Lion Boise Downtowner, 1800, West Fairview Avenue, West Downtown, North End, Boise, Ada County, Idaho, 83702, United States", "type": "hotel", "osm_type": "way", "osm_id": 608233962, "class": null, "keyword": "district"}}, {"type": "Feature", "geometry": {"type": "MultiPolygon", "coordinates": [[[[-116.215418, 43.618245], [-116.215251, 43.617987], [-116.215192, 43.617897], [-116.214327, 43.618198], [-116.214658, 43.618513], [-116.214859, 43.618441], [-116.21481, 43.618353], [-116.215129, 43.618259], [-116.215156, 43.618305], [-116.215202, 43.618316], [-116.215418, 43.618245]]], [[[-116.214571, 43.618039], [-116.214282, 43.61772], [-116.213971, 43.617827], [-116.214274, 43.618141], [-116.214571, 43.618039]]]]}, "properties": {"display_name": "Boise Cold Storage, South Americana Boulevard, Linen District, Boise, Ada County, Idaho, 83702, United States", "type": "storage_rental", "osm_type": "relation", "osm_id": 13695403, "class": null, "keyword": "district"}}, {"type": "Feature", "geometry": {"type": "Polygon", "coordinates": [[[-116.276419, 43.634667], [-116.276418, 43.634507], [-116.276358, 43.634507], [-116.276352, 43.634054], [-116.275816, 43.634057], [-116.275819, 43.634247], [-116.275769, 43.634247], [-116.275771, 43.634421], [-116.275773, 43.634595], [-116.275828, 43.634595], [-116.275828, 43.634671], [-116.276276, 43.634668], [-116.276419, 43.634667]]]}, "properties": {"display_name": "Walmart Neighborhood Market, 3233, North Cole Road, West Bench Neighborhood Association, Boise, Ada County, Idaho, 83704, United States", "type": "supermarket", "osm_type": "way", "osm_id": 558399690, "class": null, "keyword": "neighborhood"}}, {"type": "Feature", "geometry": {"type": "Polygon", "coordinates": [[[-116.203978, 43.614632], [-116.203244, 43.614261], [-116.203216, 43.614292], [-116.203017, 43.614504], [-116.203097, 43.614553], [-116.203041, 43.614616], [-116.203046, 43.614642], [-116.202963, 43.614726], [-116.203225, 43.614686], [-116.203307, 43.614728], [-116.203323, 43.614711], [-116.203398, 43.614813], [-116.203453, 43.61486], [-116.203448, 43.614868], [-116.203456, 43.61488], [-116.2035, 43.614879], [-116.203515, 43.614859], [-116.203546, 43.61487], [-116.203553, 43.614864], [-116.203768, 43.614991], [-116.203795, 43.615007], [-116.203828, 43.614854], [-116.203852, 43.6148], [-116.203892, 43.614722], [-116.203944, 43.614668], [-116.203978, 43.614632]]]}, "properties": {"display_name": "Boise Centre East, 195, South Capitol Boulevard, Downtown, Boise, Ada County, Idaho, 83702, United States", "type": "parking", "osm_type": "way", "osm_id": 663680210, "class": null, "keyword": "city centre"}}, {"type": "Feature", "geometry": {"type": "Polygon", "coordinates": [[[-116.206401, 43.614234], [-116.206339, 43.614168], [-116.20629, 43.614092], [-116.206224, 43.614058], [-116.205721, 43.613798], [-116.205479, 43.614048], [-116.205418, 43.614017], [-116.205371, 43.614069], [-116.205316, 43.614042], [-116.205264, 43.614096], [-116.205359, 43.614143], [-116.205416, 43.614077], [-116.206031, 43.614383], [-116.205969, 43.614448], [-116.206046, 43.614486], [-116.206107, 43.614421], [-116.206184, 43.614459], [-116.206401, 43.614234]]]}, "properties": {"display_name": "City Center Parking Garage, 321, South 9th Street, Downtown, Boise, Ada County, Idaho, 83702, United States", "type": "parking", "osm_type": "way", "osm_id": 231862177, "class": null, "keyword": "city center"}}, {"type": "Feature", "geometry": {"type": "Polygon", "coordinates": [[[-116.205117, 43.618874], [-116.205005, 43.618821], [-116.205009, 43.618809], [-116.20488, 43.618748], [-116.204869, 43.618759], [-116.204758, 43.618706], [-116.204774, 43.618689], [-116.204639, 43.618625], [-116.20463, 43.618635], [-116.204565, 43.618604], [-116.204591, 43.618576], [-116.204488, 43.618527], [-116.204454, 43.618565], [-116.20438, 43.61853], [-116.204178, 43.618752], [-116.204277, 43.618799], [-116.204306, 43.618767], [-116.204394, 43.618809], [-116.204438, 43.618761], [-116.204671, 43.618872], [-116.204683, 43.61886], [-116.204805, 43.618918], [-116.204717, 43.619014], [-116.204804, 43.619056], [-116.204774, 43.619089], [-116.204876, 43.619138], [-116.205117, 43.618874]]]}, "properties": {"display_name": "Hyatt Place Boise/Downtown, 1024, West Bannock Street, Downtown, Boise, Ada County, Idaho, 83702, United States", "type": "hotel", "osm_type": "way", "osm_id": 668199480, "class": null, "keyword": "district"}}, {"type": "Feature", "geometry": {"type": "Polygon", "coordinates": [[[-116.219546, 43.61975], [-116.219098, 43.619747], [-116.219093, 43.620159], [-116.219541, 43.620161], [-116.219546, 43.61975]]]}, "properties": {"display_name": "Boise Rescue Mission, 308, South 24th Street, West End, North End, Boise, Ada County, Idaho, 83702, United States", "type": "social_facility", "osm_type": "way", "osm_id": 668199511, "class": null, "keyword": "district"}}, {"type": "Feature", "geometry": {"type": "Polygon", "coordinates": [[[-116.32041, 43.618713], [-116.32041, 43.618619], [-116.319856, 43.61862], [-116.319857, 43.618887], [-116.320262, 43.618887], [-116.320394, 43.618792], [-116.320394, 43.618713], [-116.32041, 43.618713]]]}, "properties": {"display_name": "Uptown Cheapskate, North Wildwood Way, Boise, Ada County, Idaho, 83713, United States", "type": "clothes", "osm_type": "way", "osm_id": 951823891, "class": null, "keyword": "uptown"}}, {"type": "Feature", "geometry": {"type": "Polygon", "coordinates": [[[-116.244376, 43.594369], [-116.243718, 43.594368], [-116.243721, 43.594558], [-116.244366, 43.594561], [-116.244376, 43.594369]]]}, "properties": {"display_name": "Orchard Row Apartments, 1011, Central Bench, Boise, Ada County, Idaho, 83705, United States", "type": "construction", "osm_type": "way", "osm_id": 1021521239, "class": null, "keyword": "uptown"}}, {"type": "Feature", "geometry": {"type": "Polygon", "coordinates": [[[-116.207916, 43.61266], [-116.207825, 43.612614], [-116.207834, 43.612603], [-116.207807, 43.612577], [-116.207785, 43.612555], [-116.207754, 43.612536], [-116.207727, 43.612521], [-116.207697, 43.612507], [-116.20766, 43.612498], [-116.207621, 43.612493], [-116.207611, 43.612504], [-116.207536, 43.612465], [-116.207337, 43.612668], [-116.207717, 43.612863], [-116.207916, 43.61266]]]}, "properties": {"display_name": "Boise Philharmonic Orchestra, 516, South 9th Street, Downtown, Boise, Ada County, Idaho, 83702, United States", "type": "arts_centre", "osm_type": "way", "osm_id": 492879305, "class": null, "keyword": "district"}}, {"type": "Feature", "geometry": {"type": "Polygon", "coordinates": [[[-116.201937, 43.616102], [-116.201628, 43.615947], [-116.201368, 43.616232], [-116.201598, 43.616351], [-116.201731, 43.616219], [-116.201793, 43.616252], [-116.201937, 43.616102]]]}, "properties": {"display_name": "Key Financial Center, 702, West Idaho Street, Downtown, Boise, Ada County, Idaho, 83702, United States", "type": "yes", "osm_type": "way", "osm_id": 878757708, "class": null, "keyword": "financial district"}}, {"type": "Feature", "geometry": {"type": "Polygon", "coordinates": [[[-116.222534, 43.618876], [-116.222471, 43.618274], [-116.222285, 43.618284], [-116.222349, 43.618887], [-116.222534, 43.618876]]]}, "properties": {"display_name": "City of Boise Machine Shop, 825, South 17th Street, Linen District, Boise, Ada County, Idaho, 83702, United States", "type": "yes", "osm_type": "way", "osm_id": 664339103, "class": null, "keyword": "district"}}, {"type": "Feature", "geometry": {"type": "Polygon", "coordinates": [[[-116.24224, 43.646199], [-116.241978, 43.646027], [-116.241732, 43.646222], [-116.241988, 43.646393], [-116.24219, 43.646232], [-116.24224, 43.646199]]]}, "properties": {"display_name": "Neighborhood Housing, Boise, Ada County, Idaho, United States", "type": "residential", "osm_type": "way", "osm_id": 1373179173, "class": null, "keyword": "neighborhood"}}, {"type": "Feature", "geometry": {"type": "Polygon", "coordinates": [[[-116.20353, 43.616412], [-116.203438, 43.616366], [-116.203422, 43.616383], [-116.203328, 43.616335], [-116.203324, 43.61634], [-116.20326, 43.616307], [-116.20328, 43.616287], [-116.203208, 43.616251], [-116.203188, 43.616272], [-116.20311, 43.616233], [-116.20298, 43.616368], [-116.203379, 43.616569], [-116.20353, 43.616412]]]}, "properties": {"display_name": "Boise City National Bank, West Idaho Street, Downtown, Boise, Ada County, Idaho, 83701, United States", "type": "yes", "osm_type": "way", "osm_id": 492879322, "class": null, "keyword": "district"}}, {"type": "Feature", "geometry": {"type": "Polygon", "coordinates": [[[-116.207017, 43.611018], [-116.206856, 43.610939], [-116.206736, 43.611063], [-116.206491, 43.610938], [-116.206414, 43.611017], [-116.206818, 43.611223], [-116.207017, 43.611018]]]}, "properties": {"display_name": "Boise Gear Collective, 671, South Capitol Boulevard, Downtown, Boise, Ada County, Idaho, 83702, United States", "type": "outdoor", "osm_type": "way", "osm_id": 1030737957, "class": null, "keyword": "district"}}, {"type": "Feature", "geometry": {"type": "Polygon", "coordinates": [[[-116.279857, 43.612111], [-116.27978, 43.612023], [-116.279804, 43.612012], [-116.279778, 43.611982], [-116.27976, 43.61199], [-116.279743, 43.61197], [-116.279388, 43.612132], [-116.279468, 43.612225], [-116.279542, 43.612191], [-116.279582, 43.612237], [-116.279857, 43.612111]]]}, "properties": {"display_name": "Applebee's, 7845, West Emerald Street, Boise, Ada County, Idaho, 83704, United States", "type": "restaurant", "osm_type": "way", "osm_id": 675926371, "class": null, "keyword": "neighborhood"}}, {"type": "Feature", "geometry": {"type": "Polygon", "coordinates": [[[-116.21625, 43.574125], [-116.216248, 43.573956], [-116.215914, 43.573958], [-116.215914, 43.57398], [-116.215888, 43.57398], [-116.215888, 43.574022], [-116.21591, 43.574022], [-116.215912, 43.574127], [-116.21625, 43.574125]]]}, "properties": {"display_name": "Applebee's, 2810, West Elder Street, Elder, Boise, Ada County, Idaho, 83705, United States", "type": "restaurant", "osm_type": "way", "osm_id": 448846832, "class": null, "keyword": "neighborhood"}}, {"type": "Feature", "geometry": {"type": "Polygon", "coordinates": [[[-116.214011, 43.618975], [-116.213744, 43.61884], [-116.213679, 43.618907], [-116.213615, 43.618973], [-116.213865, 43.6191], [-116.213943, 43.61902], [-116.21396, 43.619028], [-116.214011, 43.618975]]]}, "properties": {"display_name": "Boise Fire Station #5, 212, South 16th Street, West Downtown, North End, Boise, Ada County, Idaho, 83702, United States", "type": "fire_station", "osm_type": "way", "osm_id": 667538187, "class": null, "keyword": "district"}}, {"type": "Feature", "geometry": {"type": "Polygon", "coordinates": [[[-116.220984, 43.621944], [-116.220817, 43.621943], [-116.220816, 43.622062], [-116.220815, 43.622277], [-116.220898, 43.622277], [-116.220898, 43.622117], [-116.220984, 43.622117], [-116.220984, 43.621944]]]}, "properties": {"display_name": "Boise Electric Bikes, 2422, West Main Street, West Downtown, North End, Boise, Ada County, Idaho, 83702, United States", "type": "bicycle", "osm_type": "way", "osm_id": 764058914, "class": null, "keyword": "district"}}]}