{"type": "FeatureCollection", "features": [{"type": "Feature", "geometry": {"type": "Polygon", "coordinates": [[[16.607805, 49.193174], [16.607824, 49.193113], [16.607861, 49.192996], [16.607866, 49.192995], [16.607884, 49.192942], [16.608064, 49.192972], [16.608066, 49.192967], [16.60807, 49.192968], [16.608076, 49.192949], [16.608085, 49.192919], [16.607891, 49.192896], [16.607925, 49.192748], [16.608109, 49.192775], [16.608111, 49.192771], [16.608249, 49.192789], [16.608206, 49.192937], [16.608226, 49.192939], [16.60822, 49.192957], [16.608202, 49.192955], [16.608199, 49.192966], [16.608192, 49.192993], [16.608385, 49.193035], [16.608384, 49.193037], [16.6084, 49.193041], [16.608397, 49.193047], [16.608381, 49.193043], [16.608369, 49.193063], [16.608474, 49.193091], [16.608482, 49.193081], [16.608497, 49.19306], [16.608454, 49.193047], [16.608457, 49.193042], [16.608453, 49.193042], [16.608463, 49.193026], [16.608487, 49.193], [16.608432, 49.192987], [16.608437, 49.192976], [16.608453, 49.192979], [16.60846, 49.192965], [16.608445, 49.192962], [16.608451, 49.192949], [16.608469, 49.192953], [16.608502, 49.192911], [16.608619, 49.192945], [16.608785, 49.192994], [16.608751, 49.193044], [16.608714, 49.193114], [16.608696, 49.193145], [16.608638, 49.193245], [16.608439, 49.193191], [16.608478, 49.193127], [16.608451, 49.193119], [16.60841, 49.193108], [16.60839, 49.193139], [16.608376, 49.193134], [16.608355, 49.193158], [16.608327, 49.193148], [16.608313, 49.193166], [16.608427, 49.193207], [16.608431, 49.193207], [16.608393, 49.193261], [16.60836, 49.193303], [16.608218, 49.193245], [16.608171, 49.19328], [16.608167, 49.193283], [16.60804, 49.193237], [16.60808, 49.193178], [16.608071, 49.193176], [16.608079, 49.193163], [16.608089, 49.193166], [16.608122, 49.193116], [16.607926, 49.193072], [16.607882, 49.19319], [16.607809, 49.193174], [16.607805, 49.193174]]]}, "properties": {"display_name": "Stará radnice, Radnická, Město Brno, Brno, okres Brno-město, Jihomoravský kraj, Jihovýchod, 659 37, Česko", "type": "civic", "osm_type": "way", "osm_id": 50002035, "class": null, "keyword": "old town"}}, {"type": "Feature", "geometry": {"type": "Polygon", "coordinates": [[[16.62346, 49.202625], [16.623476, 49.202579], [16.623542, 49.202383], [16.623553, 49.202255], [16.623741, 49.202261], [16.623732, 49.202374], [16.623602, 49.202373], [16.623601, 49.202398], [16.623631, 49.202399], [16.623548, 49.202639], [16.62346, 49.202625]]]}, "properties": {"display_name": "Old Town Hotel, Francouzská, Zábrdovice, Brno, okres Brno-město, Jihomoravský kraj, Jihovýchod, 601 47, Česko", "type": "hotel", "osm_type": "way", "osm_id": 50593314, "class": null, "keyword": "old town"}}]}