{"type": "FeatureCollection", "features": [{"type": "Feature", "geometry": {"type": "Polygon", "coordinates": [[[129.092465, 35.12688], [129.09309, 35.126457], [129.093509, 35.126773], [129.093916, 35.126536], [129.094238, 35.126529], [129.094721, 35.126926], [129.095231, 35.127099], [129.095129, 35.12735], [129.095007, 35.127628], [129.094924, 35.127814], [129.09513, 35.127902], [129.094855, 35.128271], [129.094702, 35.128719], [129.094321, 35.128748], [129.094133, 35.128763], [129.094002, 35.128532], [129.093772, 35.128644], [129.09358, 35.12845], [129.093136, 35.127828], [129.092465, 35.12688]]]}, "properties": {"display_name": "부산문화회관, 유엔평화로76번길, 대연4동, 남구, 부산광역시, 48534, 대한민국", "type": "theatre", "osm_type": "way", "osm_id": 494102327, "class": null, "keyword": "city center"}}, {"type": "Feature", "geometry": {"type": "Polygon", "coordinates": [[[129.038035, 35.097279], [129.039284, 35.095079], [129.039492, 35.095197], [129.038257, 35.09736], [129.038035, 35.097279]]]}, "properties": {"display_name": "부산대교, Busandaegyo Bridge, 봉래동1가, 봉래1동, 영도구, 부산광역시, 49037, 대한민국", "type": "bridge", "osm_type": "way", "osm_id": 496277559, "class": null, "keyword": "中央区"}}, {"type": "Feature", "geometry": {"type": "Polygon", "coordinates": [[[129.053565, 35.171722], [129.053713, 35.17165], [129.05366, 35.171576], [129.053797, 35.171509], [129.053834, 35.17156], [129.053914, 35.171473], [129.053971, 35.171439], [129.054069, 35.171417], [129.054167, 35.17142], [129.054197, 35.171329], [129.053897, 35.171263], [129.053971, 35.171038], [129.05418, 35.171084], [129.05428, 35.170778], [129.05448, 35.170822], [129.054274, 35.171446], [129.054344, 35.171495], [129.054403, 35.171582], [129.054419, 35.171644], [129.054408, 35.171714], [129.054369, 35.17179], [129.054301, 35.171848], [129.054237, 35.171876], [129.054105, 35.171896], [129.054125, 35.171924], [129.053958, 35.172004], [129.053911, 35.171939], [129.05377, 35.172007], [129.053565, 35.171722]]]}, "properties": {"display_name": "국립부산국악원, 연지로, 연지동, 부산진구, 부산광역시, 47130, 대한민국", "type": "arts_centre", "osm_type": "way", "osm_id": 221062835, "class": null, "keyword": "city center"}}, {"type": "Feature", "geometry": {"type": "Polygon", "coordinates": [[[129.046188, 35.183946], [129.046637, 35.183878], [129.046641, 35.183899], [129.0467, 35.18389], [129.046694, 35.183863], [129.047034, 35.183812], [129.047141, 35.184286], [129.046293, 35.184413], [129.046188, 35.183946]]]}, "properties": {"display_name": "부산학생문화회관, 성지곡로, 초읍동, 부산진구, 부산광역시, 47124, 대한민국", "type": "yes", "osm_type": "way", "osm_id": 784727419, "class": null, "keyword": "city center"}}, {"type": "Feature", "geometry": {"type": "Polygon", "coordinates": [[[129.043536, 35.119771], [129.043589, 35.119756], [129.043592, 35.119763], [129.044101, 35.119619], [129.044164, 35.119752], [129.044138, 35.11976], [129.04433, 35.120166], [129.04423, 35.120199], [129.044055, 35.119805], [129.043728, 35.119904], [129.044254, 35.120912], [129.04452, 35.120829], [129.044501, 35.120786], [129.044466, 35.120796], [129.044308, 35.120434], [129.044431, 35.120406], [129.044654, 35.120877], [129.04418, 35.121028], [129.043617, 35.119938], [129.043667, 35.119923], [129.0436, 35.11979], [129.043552, 35.119804], [129.043536, 35.119771]]]}, "properties": {"display_name": "부산과학체험관, 11, 중앙대로260번길, 초량동, 초량3동, 동구, 부산광역시, 48731, 대한민국", "type": "public", "osm_type": "way", "osm_id": 457907599, "class": null, "keyword": "city center"}}, {"type": "Feature", "geometry": {"type": "Polygon", "coordinates": [[[129.102138, 35.130727], [129.102642, 35.130513], [129.102719, 35.130533], [129.10274, 35.130454], [129.103077, 35.130531], [129.103116, 35.13058], [129.10312, 35.130687], [129.103094, 35.130747], [129.103038, 35.130786], [129.10235, 35.131062], [129.102138, 35.130727]]]}, "properties": {"display_name": "부산예술회관, 용소로, 대연3동, 남구, 부산광역시, 48513, 대한민국", "type": "theatre", "osm_type": "way", "osm_id": 1229940546, "class": null, "keyword": "city center"}}, {"type": "Feature", "geometry": {"type": "Polygon", "coordinates": [[[129.107124, 35.1341], [129.107136, 35.134063], [129.10716, 35.13404], [129.107205, 35.134029], [129.107263, 35.13403], [129.107325, 35.134035], [129.107462, 35.134045], [129.107456, 35.134137], [129.107809, 35.134166], [129.10782, 35.134081], [129.107802, 35.134067], [129.107807, 35.133985], [129.107949, 35.133996], [129.10795, 35.133988], [129.108296, 35.134016], [129.108291, 35.134057], [129.108327, 35.13406], [129.108322, 35.134106], [129.108286, 35.134103], [129.108278, 35.134173], [129.108254, 35.134366], [129.108163, 35.134359], [129.107888, 35.134339], [129.107415, 35.134306], [129.107418, 35.134284], [129.107367, 35.13428], [129.107365, 35.134302], [129.107166, 35.134288], [129.107169, 35.134267], [129.107179, 35.134198], [129.107145, 35.134172], [129.107124, 35.134144], [129.107124, 35.1341]]]}, "properties": {"display_name": "인문사회경영관, 신선로, 대연3동, 남구, 부산광역시, 48513, 대한민국", "type": "university", "osm_type": "way", "osm_id": 360099705, "class": null, "keyword": "business district"}}, {"type": "Feature", "geometry": {"type": "Polygon", "coordinates": [[[129.067505, 35.091221], [129.067599, 35.091194], [129.067574, 35.091134], [129.068051, 35.091001], [129.06809, 35.091096], [129.06818, 35.091071], [129.068271, 35.091289], [129.068193, 35.091311], [129.068231, 35.091401], [129.067726, 35.091542], [129.06769, 35.091453], [129.067611, 35.091475], [129.067505, 35.091221]]]}, "properties": {"display_name": "영도구청, 태종로, 청학동, 청학2동, 영도구, 부산광역시, 49016, 대한민국", "type": "government", "osm_type": "way", "osm_id": 471483837, "class": null, "keyword": "borough"}}, {"type": "Feature", "geometry": {"type": "Polygon", "coordinates": [[[129.077854, 35.267516], [129.078017, 35.267469], [129.078059, 35.267565], [129.078119, 35.267702], [129.078165, 35.267689], [129.078317, 35.267645], [129.078327, 35.267642], [129.078368, 35.26763], [129.07838, 35.267658], [129.078406, 35.267718], [129.078617, 35.267657], [129.078715, 35.267882], [129.078389, 35.267977], [129.078092, 35.268063], [129.077897, 35.267615], [129.077854, 35.267516]]]}, "properties": {"display_name": "I동, 65, 금샘로485번길, 남산동, 금정구, 부산광역시, 46234, 대한민국", "type": "university", "osm_type": "way", "osm_id": 471334034, "class": null, "keyword": "city center"}}, {"type": "Feature", "geometry": {"type": "Polygon", "coordinates": [[[129.075199, 35.180402], [129.075633, 35.180172], [129.075908, 35.180518], [129.075475, 35.180748], [129.075199, 35.180402]]]}, "properties": {"display_name": "부산광역시의회, 1001, 중앙대로, 연산5동, 연제구, 부산광역시, 47545, 대한민국", "type": "government", "osm_type": "way", "osm_id": 468977726, "class": null, "keyword": "中央区"}}, {"type": "Feature", "geometry": {"type": "Polygon", "coordinates": [[[129.035518, 35.107202], [129.035523, 35.10715], [129.035547, 35.107102], [129.035779, 35.106947], [129.035867, 35.107028], [129.035884, 35.10702], [129.035925, 35.107068], [129.035897, 35.107087], [129.035925, 35.107116], [129.035941, 35.107106], [129.036032, 35.107205], [129.036103, 35.107408], [129.035797, 35.107513], [129.035533, 35.107248], [129.035518, 35.107202]]]}, "properties": {"display_name": "부산중부경찰서, 105, 중앙대로, 대창동1가, 중앙동, 중구, 부산광역시, 48924, 대한민국", "type": "police", "osm_type": "way", "osm_id": 483714776, "class": null, "keyword": "中央区"}}, {"type": "Feature", "geometry": {"type": "Polygon", "coordinates": [[[129.105688, 35.278825], [129.105767, 35.278689], [129.106934, 35.279137], [129.106855, 35.279273], [129.105688, 35.278825]]]}, "properties": {"display_name": "부산 요금소, 경부고속도로, 선동, 선두구동, 금정구, 부산광역시, 46213, 대한민국", "type": "roof", "osm_type": "way", "osm_id": 244516981, "class": null, "keyword": "district"}}, {"type": "Feature", "geometry": {"type": "Polygon", "coordinates": [[[129.07905, 35.267632], [129.079201, 35.267588], [129.079396, 35.26753], [129.079756, 35.267422], [129.079842, 35.267613], [129.07948, 35.267721], [129.079136, 35.267824], [129.07905, 35.267632]]]}, "properties": {"display_name": "대학본부, 65, 금샘로485번길, 남산동, 금정구, 부산광역시, 46234, 대한민국", "type": "university", "osm_type": "way", "osm_id": 471334029, "class": null, "keyword": "city center"}}, {"type": "Feature", "geometry": {"type": "Polygon", "coordinates": [[[129.061659, 35.161941], [129.061914, 35.161582], [129.06212, 35.161844], [129.061939, 35.162073], [129.061659, 35.161941]]]}, "properties": {"display_name": "Ibis, 중앙대로, 범전동, 부전1동, 부산진구, 부산광역시, 47253, 대한민국", "type": "hotel", "osm_type": "way", "osm_id": 220995073, "class": null, "keyword": "city centre"}}, {"type": "Feature", "geometry": {"type": "Polygon", "coordinates": [[[129.080322, 35.265982], [129.080372, 35.265967], [129.080406, 35.265957], [129.080395, 35.26593], [129.080496, 35.265898], [129.080744, 35.266447], [129.080635, 35.266482], [129.08062, 35.266447], [129.080588, 35.266456], [129.080551, 35.266468], [129.08049, 35.266338], [129.080322, 35.265982]]]}, "properties": {"display_name": "A동, 65, 금샘로485번길, 남산동, 금정구, 부산광역시, 46234, 대한민국", "type": "university", "osm_type": "way", "osm_id": 471334031, "class": null, "keyword": "city center"}}, {"type": "Feature", "geometry": {"type": "Polygon", "coordinates": [[[129.036425, 35.107091], [129.036609, 35.107034], [129.036692, 35.107259], [129.036975, 35.107164], [129.036993, 35.107277], [129.036522, 35.107418], [129.036425, 35.107091]]]}, "properties": {"display_name": "부산 중부 소방서, 110, 중앙대로, 중앙동4가, 중앙동, 중구, 부산광역시, 48938, 대한민국", "type": "fire_station", "osm_type": "way", "osm_id": 825455699, "class": null, "keyword": "中央区"}}, {"type": "Feature", "geometry": {"type": "Polygon", "coordinates": [[[129.01354, 35.240377], [129.013629, 35.240377], [129.013623, 35.240352], [129.01383, 35.240344], [129.013836, 35.240503], [129.013546, 35.24051], [129.01354, 35.240377]]]}, "properties": {"display_name": "부산 인도네시아 센터, 357, 금곡대로, 금곡동, 화명2동, 북구, 부산광역시, 46523, 대한민국", "type": "yes", "osm_type": "way", "osm_id": 470883411, "class": null, "keyword": "city center"}}]}