{"type": "FeatureCollection", "features": [{"type": "Feature", "geometry": {"type": "Polygon", "coordinates": [[[116.669232, 23.668614], [116.669838, 23.668212], [116.670058, 23.668217], [116.670228, 23.668131], [116.670371, 23.667902], [116.670372, 23.667569], [116.670578, 23.667212], [116.671448, 23.66657], [116.672111, 23.667248], [116.672638, 23.66765], [116.672929, 23.667805], [116.673324, 23.667956], [116.673845, 23.668059], [116.673952, 23.668159], [116.673962, 23.668243], [116.67359, 23.668383], [116.670691, 23.670358], [116.669232, 23.668614]]]}, "properties": {"display_name": "潮州市中心医院, 意东三路, 桥东街道, 湘桥区, 潮州市, 广东省, 521000, 中国", "type": "hospital", "osm_type": "way", "osm_id": 1318134111, "class": null, "keyword": "市中心"}}, {"type": "Feature", "geometry": {"type": "Polygon", "coordinates": [[[116.637096, 23.669207], [116.637374, 23.668949], [116.637777, 23.668328], [116.638104, 23.668416], [116.638345, 23.667952], [116.638703, 23.668169], [116.639033, 23.66838], [116.639038, 23.668755], [116.638882, 23.668927], [116.638759, 23.668907], [116.638603, 23.669276], [116.637916, 23.669356], [116.637641, 23.669444], [116.637354, 23.669394], [116.637096, 23.669207]]]}, "properties": {"display_name": "潮州市中心医院, 环城西路, 西新街道, 湘桥区, 潮州市, 广东省, 521000, 中国", "type": "hospital", "osm_type": "way", "osm_id": 622295489, "class": null, "keyword": "市中心"}}, {"type": "Feature", "geometry": {"type": "Polygon", "coordinates": [[[116.988674, 23.707943], [116.988705, 23.707898], [116.988907, 23.707982], [116.989016, 23.708006], [116.989379, 23.708037], [116.989728, 23.708119], [116.989981, 23.708192], [116.990047, 23.708253], [116.990052, 23.708361], [116.990052, 23.708475], [116.990057, 23.708615], [116.990093, 23.708697], [116.990099, 23.708737], [116.99005, 23.708731], [116.990015, 23.708725], [116.989996, 23.708867], [116.989974, 23.708928], [116.989942, 23.708953], [116.989886, 23.708967], [116.989826, 23.708963], [116.989369, 23.708815], [116.988807, 23.708676], [116.988803, 23.708603], [116.988799, 23.708543], [116.988764, 23.708517], [116.988759, 23.708097], [116.988682, 23.707982], [116.988674, 23.707943]]]}, "properties": {"display_name": "鸿运机动车驾驶员培训中心, 摩托车考试路线, 大坑后园, 联饶镇, 饶平县, 潮州市, 广东省, 中国", "type": "driving_school", "osm_type": "way", "osm_id": 1020287085, "class": null, "keyword": "市中心"}}, {"type": "Feature", "geometry": {"type": "Polygon", "coordinates": [[[116.82603, 23.983165], [116.827374, 23.982649], [116.827484, 23.982861], [116.82742, 23.982896], [116.827457, 23.982996], [116.827511, 23.983141], [116.827518, 23.983237], [116.827291, 23.983278], [116.827312, 23.98334], [116.826752, 23.983534], [116.826658, 23.983404], [116.826588, 23.983421], [116.826467, 23.983404], [116.826397, 23.98328], [116.826112, 23.983369], [116.82603, 23.983165]]]}, "properties": {"display_name": "三饶中心市场, 三饶镇, 饶平县, 潮州市, 广东省, 中国", "type": "commercial", "osm_type": "way", "osm_id": 291883076, "class": null, "keyword": "市中心"}}, {"type": "Feature", "geometry": {"type": "Polygon", "coordinates": [[[116.610921, 23.654725], [116.611249, 23.65409], [116.61183, 23.654479], [116.611567, 23.655041], [116.610921, 23.654725]]]}, "properties": {"display_name": "潮州市中心医院（第一分院）, 枫春路, 潮安区, 潮州市, 广东省, 521031, 中国", "type": "hospital", "osm_type": "way", "osm_id": 1212406678, "class": null, "keyword": "市中心"}}, {"type": "Feature", "geometry": {"type": "Polygon", "coordinates": [[[117.120699, 23.619752], [117.120775, 23.619496], [117.121479, 23.61947], [117.121493, 23.619983], [117.120701, 23.62001], [117.120699, 23.619752]]]}, "properties": {"display_name": "高埕小学（并入所城镇中心小学）, 碧铁公路, 市西, 所城镇, 饶平县, 潮州市, 广东省, 中国", "type": "school", "osm_type": "way", "osm_id": 1204343148, "class": null, "keyword": "中心城区"}}, {"type": "Feature", "geometry": {"type": "Polygon", "coordinates": [[[116.989326, 23.709102], [116.98933, 23.709073], [116.989351, 23.708925], [116.989369, 23.708815], [116.989826, 23.708963], [116.989886, 23.708967], [116.989942, 23.708953], [116.989974, 23.708928], [116.989996, 23.708867], [116.990015, 23.708725], [116.99005, 23.708731], [116.990099, 23.708737], [116.990092, 23.708837], [116.990082, 23.708955], [116.990056, 23.70903], [116.99, 23.709148], [116.989886, 23.709272], [116.989777, 23.709346], [116.989676, 23.709386], [116.989611, 23.709395], [116.989543, 23.709358], [116.989444, 23.709258], [116.989326, 23.709102]]]}, "properties": {"display_name": "饶平县摩托车驾驶员考试中心, 摩托车考试路线, 大坑后园, 联饶镇, 饶平县, 潮州市, 广东省, 中国", "type": "driving_school", "osm_type": "way", "osm_id": 1020287084, "class": null, "keyword": "市中心"}}, {"type": "Feature", "geometry": {"type": "Polygon", "coordinates": [[[116.621094, 23.657127], [116.621286, 23.656893], [116.621335, 23.656928], [116.621352, 23.656907], [116.621499, 23.656898], [116.621492, 23.656799], [116.62167, 23.656782], [116.621692, 23.657092], [116.621752, 23.657133], [116.621719, 23.657173], [116.621813, 23.657238], [116.621612, 23.657483], [116.621094, 23.657127]]]}, "properties": {"display_name": "潮州市文化艺术中心大剧院, 新春路, 城西街道, 湘桥区, 潮州市, 广东省, 521000, 中国", "type": "theatre", "osm_type": "way", "osm_id": 1160812439, "class": null, "keyword": "市中心"}}, {"type": "Feature", "geometry": {"type": "Polygon", "coordinates": [[[117.000164, 23.679677], [117.000186, 23.679235], [117.000566, 23.679237], [117.000566, 23.679315], [117.000623, 23.679314], [117.000658, 23.679314], [117.000656, 23.679349], [117.000605, 23.67943], [117.000603, 23.679481], [117.000602, 23.679528], [117.000669, 23.679632], [117.000541, 23.679634], [117.000541, 23.679677], [117.000164, 23.679677]]]}, "properties": {"display_name": "黄冈镇中心幼儿园, 拥军路, 教师村, 黄冈镇, 饶平县, 潮州市, 广东省, 515700, 中国", "type": "school", "osm_type": "way", "osm_id": 1023827217, "class": null, "keyword": "中心商圈"}}, {"type": "Feature", "geometry": {"type": "Polygon", "coordinates": [[[116.969659, 23.74494], [116.969776, 23.744847], [116.970074, 23.745163], [116.969957, 23.745255], [116.969659, 23.74494]]]}, "properties": {"display_name": "科目一、科目四考试中心, 科目二考试路线, 联饶工业区（规划）, 联饶镇, 饶平县, 潮州市, 广东省, 中国", "type": "yes", "osm_type": "way", "osm_id": 1021627986, "class": null, "keyword": "市中心"}}, {"type": "Feature", "geometry": {"type": "Polygon", "coordinates": [[[116.929559, 24.192471], [116.929702, 24.192435], [116.929767, 24.192651], [116.929624, 24.192687], [116.929559, 24.192471]]]}, "properties": {"display_name": "中央苏区饶北革命史资料展览馆, 上饶大道, 福头坑, 上饶镇, 饶平县, 潮州市, 广东省, 中国", "type": "museum", "osm_type": "way", "osm_id": 1090768767, "class": null, "keyword": "中央区"}}]}