{"type": "FeatureCollection", "features": [{"type": "Feature", "geometry": {"type": "Polygon", "coordinates": [[[-80.862492, 35.225746], [-80.862318, 35.225259], [-80.861878, 35.224984], [-80.861348, 35.2249], [-80.85959, 35.224752], [-80.857624, 35.224839], [-80.855993, 35.22476], [-80.854004, 35.224367], [-80.852617, 35.223784], [-80.851217, 35.22305], [-80.850015, 35.222173], [-80.849954, 35.222128], [-80.848615, 35.221152], [-80.84786, 35.22074], [-80.846852, 35.220305], [-80.846256, 35.219973], [-80.845577, 35.219252], [-80.844882, 35.218359], [-80.844006, 35.217774], [-80.843042, 35.216977], [-80.841786, 35.215908], [-80.841282, 35.215612], [-80.840424, 35.215293], [-80.839241, 35.215147], [-80.838574, 35.215217], [-80.837932, 35.215366], [-80.837054, 35.215848], [-80.836046, 35.216645], [-80.835403, 35.217283], [-80.83448, 35.218212], [-80.833454, 35.219219], [-80.833439, 35.219233], [-80.833342, 35.219329], [-80.832537, 35.220282], [-80.831968, 35.220856], [-80.831371, 35.221248], [-80.830736, 35.221623], [-80.829927, 35.221868], [-80.829801, 35.222109], [-80.829587, 35.223056], [-80.829431, 35.223595], [-80.829007, 35.224397], [-80.828508, 35.22572], [-80.82867, 35.227048], [-80.829319, 35.227885], [-80.832076, 35.230312], [-80.833956, 35.231863], [-80.835101, 35.232808], [-80.835167, 35.232863], [-80.836314, 35.233809], [-80.839489, 35.235698], [-80.839972, 35.23632], [-80.841249, 35.23788], [-80.843438, 35.240526], [-80.844038, 35.241179], [-80.844688, 35.241626], [-80.845347, 35.241889], [-80.846142, 35.242066], [-80.846923, 35.242135], [-80.848274, 35.242], [-80.8489, 35.241807], [-80.850159, 35.241091], [-80.850462, 35.240857], [-80.852352, 35.239089], [-80.853917, 35.237797], [-80.855139, 35.236363], [-80.855618, 35.235911], [-80.855675, 35.235857], [-80.856232, 35.23533], [-80.857563, 35.234259], [-80.8584, 35.233387], [-80.858911, 35.232532], [-80.859668, 35.230266], [-80.860179, 35.22911], [-80.860765, 35.228042], [-80.861554, 35.227144], [-80.862371, 35.226258], [-80.862492, 35.225746]]]}, "properties": {"display_name": "Uptown, Charlotte, Mecklenburg County, North Carolina, United States", "type": "yes", "osm_type": "relation", "osm_id": 12345346, "class": null, "keyword": "uptown"}}, {"type": "Feature", "geometry": {"type": "MultiPolygon", "coordinates": [[[[-80.836526, 35.211293], [-80.836515, 35.211156], [-80.836408, 35.211141], [-80.836219, 35.211099], [-80.836092, 35.211055], [-80.835946, 35.211021], [-80.835848, 35.211003], [-80.835376, 35.211404], [-80.834689, 35.211922], [-80.834577, 35.21203], [-80.834484, 35.212135], [-80.834413, 35.212243], [-80.834354, 35.212353], [-80.834329, 35.212411], [-80.834077, 35.213174], [-80.834081, 35.213213], [-80.834092, 35.213238], [-80.834101, 35.213258], [-80.83413, 35.213289], [-80.834168, 35.213307], [-80.834174, 35.21331], [-80.834218, 35.213321], [-80.834337, 35.213348], [-80.83453, 35.213394], [-80.834564, 35.213401], [-80.834592, 35.213394], [-80.834607, 35.21339], [-80.834691, 35.213409], [-80.834696, 35.21341], [-80.834704, 35.213411], [-80.834735, 35.213418], [-80.83475, 35.213422], [-80.834814, 35.213436], [-80.834828, 35.213439], [-80.834873, 35.213449], [-80.834877, 35.21345], [-80.834884, 35.213451], [-80.834999, 35.213477], [-80.835002, 35.213477], [-80.835008, 35.213479], [-80.835035, 35.213504], [-80.835347, 35.213582], [-80.835426, 35.213604], [-80.835457, 35.213595], [-80.835665, 35.213645], [-80.835689, 35.213666], [-80.835743, 35.213679], [-80.83581, 35.213695], [-80.835823, 35.213698], [-80.835896, 35.213456], [-80.83593, 35.213333], [-80.835958, 35.21326], [-80.836005, 35.213179], [-80.836076, 35.213097], [-80.836121, 35.213045], [-80.836143, 35.21301], [-80.836169, 35.212985], [-80.836222, 35.212942], [-80.836273, 35.212906], [-80.836319, 35.212866], [-80.836343, 35.212823], [-80.836356, 35.212779], [-80.836353, 35.212742], [-80.836344, 35.212713], [-80.83633, 35.212692], [-80.836304, 35.212653], [-80.836249, 35.212518], [-80.836248, 35.212512], [-80.836243, 35.212478], [-80.836246, 35.212369], [-80.836253, 35.212306], [-80.836256, 35.212296], [-80.836274, 35.212244], [-80.836335, 35.212127], [-80.836365, 35.212047], [-80.836376, 35.211981], [-80.836376, 35.211951], [-80.836381, 35.21186], [-80.836379, 35.211836], [-80.836375, 35.211716], [-80.836447, 35.211487], [-80.836519, 35.211332], [-80.836526, 35.211293]]], [[[-80.83601, 35.21009], [-80.835, 35.210203], [-80.834925, 35.210362], [-80.834341, 35.210136], [-80.834193, 35.21044], [-80.834155, 35.210519], [-80.833875, 35.211105], [-80.833637, 35.211593], [-80.833582, 35.211713], [-80.833113, 35.212644], [-80.832873, 35.213166], [-80.832964, 35.213173], [-80.833144, 35.213168], [-80.833203, 35.213171], [-80.833546, 35.213197], [-80.833737, 35.213219], [-80.833798, 35.213228], [-80.83384, 35.213223], [-80.833872, 35.213196], [-80.834073, 35.212531], [-80.834123, 35.212385], [-80.83416, 35.212308], [-80.834194, 35.212243], [-80.83424, 35.212164], [-80.834305, 35.212067], [-80.834433, 35.211922], [-80.834533, 35.21183], [-80.834806, 35.211628], [-80.835247, 35.211265], [-80.835417, 35.211131], [-80.835435, 35.211132], [-80.835455, 35.211148], [-80.835476, 35.211137], [-80.835496, 35.211121], [-80.83557, 35.211053], [-80.835703, 35.210903], [-80.835798, 35.210765], [-80.835893, 35.21058], [-80.835935, 35.210447], [-80.835958, 35.210368], [-80.835996, 35.210191], [-80.836006, 35.210128], [-80.83601, 35.21009]]], [[[-80.83581, 35.213856], [-80.835623, 35.213817], [-80.8356, 35.213811], [-80.83554, 35.213826], [-80.835296, 35.213771], [-80.835289, 35.213769], [-80.835263, 35.213766], [-80.835248, 35.213766], [-80.835229, 35.213771], [-80.835089, 35.21374], [-80.835085, 35.213726], [-80.835078, 35.213713], [-80.835067, 35.213701], [-80.835051, 35.213692], [-80.83497, 35.213671], [-80.834938, 35.213683], [-80.834167, 35.213512], [-80.834125, 35.213504], [-80.834096, 35.213502], [-80.834067, 35.213505], [-80.834024, 35.213519], [-80.833971, 35.213553], [-80.833949, 35.213586], [-80.833711, 35.21416], [-80.833348, 35.214939], [-80.833306, 35.215027], [-80.833143, 35.215367], [-80.833139, 35.215375], [-80.833143, 35.215393], [-80.833152, 35.215409], [-80.833179, 35.215427], [-80.834061, 35.215902], [-80.834567, 35.216246], [-80.83502, 35.215857], [-80.835124, 35.215752], [-80.835195, 35.215489], [-80.835288, 35.215275], [-80.83545, 35.214905], [-80.835527, 35.214726], [-80.835532, 35.214712], [-80.835541, 35.214689], [-80.835736, 35.214085], [-80.835799, 35.213892], [-80.83581, 35.213856]]], [[[-80.833771, 35.213508], [-80.833766, 35.213473], [-80.833752, 35.213445], [-80.833725, 35.213418], [-80.83369, 35.213402], [-80.833655, 35.213396], [-80.833411, 35.213368], [-80.833299, 35.213361], [-80.833061, 35.213357], [-80.832905, 35.213357], [-80.832852, 35.213343], [-80.83281, 35.213347], [-80.832553, 35.213378], [-80.832528, 35.213398], [-80.832261, 35.213445], [-80.832043, 35.21351], [-80.831918, 35.213547], [-80.831505, 35.213729], [-80.831151, 35.213921], [-80.831125, 35.213948], [-80.831117, 35.213969], [-80.831115, 35.214002], [-80.831128, 35.21403], [-80.831501, 35.214351], [-80.832124, 35.214791], [-80.832874, 35.215292], [-80.8329, 35.215294], [-80.832929, 35.215286], [-80.832948, 35.215271], [-80.833001, 35.215173], [-80.832992, 35.215129], [-80.833235, 35.214676], [-80.833264, 35.21467], [-80.833478, 35.21424], [-80.833558, 35.214071], [-80.833655, 35.213844], [-80.833726, 35.213656], [-80.833757, 35.213573], [-80.833771, 35.213508]]]]}, "properties": {"display_name": "Midtown, Elizabeth, Charlotte, Mecklenburg County, North Carolina, 28204, United States", "type": "neighbourhood", "osm_type": "relation", "osm_id": 13338948, "class": null, "keyword": "midtown"}}, {"type": "Feature", "geometry": {"type": "Polygon", "coordinates": [[[-80.74237, 35.295873], [-80.741994, 35.295172], [-80.74148, 35.294746], [-80.740884, 35.294294], [-80.740215, 35.293838], [-80.739413, 35.293343], [-80.736489, 35.296324], [-80.736174, 35.296988], [-80.73686, 35.297199], [-80.737048, 35.297302], [-80.737185, 35.297448], [-80.737598, 35.298082], [-80.738495, 35.297678], [-80.74007, 35.296921], [-80.74237, 35.295873]]]}, "properties": {"display_name": "Town Center Plaza, 8548, University City, Charlotte, Mecklenburg County, North Carolina, 28213, United States", "type": "retail", "osm_type": "way", "osm_id": 1089513171, "class": null, "keyword": "town center"}}, {"type": "Feature", "geometry": {"type": "Polygon", "coordinates": [[[-80.863128, 35.258032], [-80.862964, 35.257461], [-80.862944, 35.257389], [-80.862857, 35.257087], [-80.862847, 35.257052], [-80.862774, 35.256824], [-80.86181, 35.256948], [-80.861827, 35.256877], [-80.861283, 35.256811], [-80.861221, 35.256806], [-80.860643, 35.256756], [-80.860602, 35.256979], [-80.86046, 35.256937], [-80.860159, 35.256848], [-80.860149, 35.256934], [-80.859925, 35.256937], [-80.859531, 35.256944], [-80.859507, 35.256579], [-80.858797, 35.256569], [-80.858665, 35.257717], [-80.858104, 35.257706], [-80.857844, 35.257735], [-80.857577, 35.257764], [-80.857659, 35.25815], [-80.858002, 35.258088], [-80.858247, 35.258044], [-80.858176, 35.258266], [-80.858007, 35.258789], [-80.857819, 35.258774], [-80.857676, 35.258763], [-80.857661, 35.258863], [-80.857794, 35.258877], [-80.858002, 35.2589], [-80.857995, 35.259079], [-80.858391, 35.259024], [-80.858444, 35.259252], [-80.858497, 35.259477], [-80.858605, 35.259463], [-80.858559, 35.259233], [-80.858514, 35.259006], [-80.861065, 35.258704], [-80.861053, 35.258549], [-80.861468, 35.258452], [-80.862244, 35.258269], [-80.862256, 35.258081], [-80.863053, 35.258142], [-80.863128, 35.258032]]]}, "properties": {"display_name": "L.C. Coleman Neighborhood Park, 1501, Washington Heights, Charlotte, Mecklenburg County, North Carolina, 28216, United States", "type": "park", "osm_type": "way", "osm_id": 564371713, "class": null, "keyword": "neighborhood"}}, {"type": "Feature", "geometry": {"type": "Polygon", "coordinates": [[[-80.900605, 35.205369], [-80.900586, 35.205255], [-80.900486, 35.204647], [-80.900427, 35.204402], [-80.900395, 35.204268], [-80.900353, 35.204102], [-80.900288, 35.203936], [-80.900254, 35.203841], [-80.900112, 35.203447], [-80.899938, 35.202966], [-80.899432, 35.201653], [-80.899279, 35.201257], [-80.898914, 35.201334], [-80.89847, 35.201428], [-80.89843, 35.201445], [-80.898417, 35.201476], [-80.898417, 35.201515], [-80.898949, 35.205433], [-80.898962, 35.20555], [-80.898925, 35.205657], [-80.898835, 35.205745], [-80.898751, 35.205788], [-80.898647, 35.205813], [-80.898697, 35.206169], [-80.898493, 35.206188], [-80.898577, 35.206893], [-80.898818, 35.208911], [-80.899327, 35.208869], [-80.898924, 35.206861], [-80.899407, 35.206816], [-80.899273, 35.205683], [-80.899651, 35.205641], [-80.899682, 35.205638], [-80.899672, 35.205556], [-80.900154, 35.205508], [-80.900141, 35.205414], [-80.900323, 35.205396], [-80.900605, 35.205369]]]}, "properties": {"display_name": "Reid Neighborhood Park, 3207, Dalton Village, Reid Park, Charlotte, Mecklenburg County, North Carolina, 28208, United States", "type": "park", "osm_type": "way", "osm_id": 561390121, "class": null, "keyword": "neighborhood"}}, {"type": "Feature", "geometry": {"type": "Polygon", "coordinates": [[[-80.850609, 35.043475], [-80.850186, 35.041893], [-80.849997, 35.041951], [-80.849805, 35.041992], [-80.848687, 35.042157], [-80.848547, 35.042176], [-80.848301, 35.042175], [-80.847906, 35.042164], [-80.847565, 35.042126], [-80.847261, 35.042081], [-80.847143, 35.042061], [-80.84709, 35.042062], [-80.847048, 35.042081], [-80.847009, 35.042106], [-80.846988, 35.042134], [-80.846983, 35.042164], [-80.846981, 35.042193], [-80.84698, 35.042302], [-80.847008, 35.042426], [-80.84713, 35.042739], [-80.847234, 35.043064], [-80.847272, 35.043331], [-80.847395, 35.043707], [-80.847531, 35.044181], [-80.847653, 35.044556], [-80.847765, 35.044518], [-80.848072, 35.044215], [-80.84829, 35.04402], [-80.848545, 35.043863], [-80.848897, 35.043739], [-80.849338, 35.043657], [-80.850116, 35.043535], [-80.850609, 35.043475]]]}, "properties": {"display_name": "Ballantyne Town Center, Ballantyne, Charlotte, Mecklenburg County, North Carolina, United States", "type": "retail", "osm_type": "way", "osm_id": 635996061, "class": null, "keyword": "town center"}}, {"type": "Feature", "geometry": {"type": "Polygon", "coordinates": [[[-80.767818, 35.209749], [-80.767453, 35.209157], [-80.767416, 35.209097], [-80.765829, 35.208643], [-80.765864, 35.208714], [-80.765862, 35.208755], [-80.765832, 35.208812], [-80.765794, 35.208843], [-80.765742, 35.208863], [-80.765656, 35.208864], [-80.765561, 35.208812], [-80.765535, 35.20877], [-80.765542, 35.208676], [-80.765574, 35.208637], [-80.765673, 35.208593], [-80.766728, 35.206286], [-80.766738, 35.206221], [-80.766722, 35.206109], [-80.766641, 35.205953], [-80.766503, 35.205827], [-80.766358, 35.205763], [-80.76503, 35.208649], [-80.764617, 35.209547], [-80.76571, 35.209948], [-80.765814, 35.210614], [-80.766012, 35.210596], [-80.766705, 35.210532], [-80.767818, 35.209749]]]}, "properties": {"display_name": "Winterfield Neighborhood Park, 3010, Eastland, Charlotte, Mecklenburg County, North Carolina, 28205, United States", "type": "park", "osm_type": "way", "osm_id": 563408651, "class": null, "keyword": "neighborhood"}}, {"type": "Feature", "geometry": {"type": "Polygon", "coordinates": [[[-80.850526, 35.26317], [-80.850005, 35.263113], [-80.850039, 35.262936], [-80.85011, 35.262562], [-80.849602, 35.262465], [-80.849539, 35.262356], [-80.848428, 35.262194], [-80.848397, 35.262335], [-80.848348, 35.262329], [-80.847778, 35.262259], [-80.847811, 35.26209], [-80.846664, 35.26191], [-80.846642, 35.262014], [-80.846087, 35.261927], [-80.846063, 35.262051], [-80.846616, 35.262133], [-80.84653, 35.262538], [-80.845977, 35.262463], [-80.845949, 35.26261], [-80.845874, 35.262997], [-80.847081, 35.263161], [-80.848105, 35.263296], [-80.849256, 35.263455], [-80.850414, 35.263606], [-80.850433, 35.263601], [-80.850435, 35.263589], [-80.850526, 35.26317]]]}, "properties": {"display_name": "Lincoln Heights Neighborhood Park, 1800, Lincoln Heights, Charlotte, Mecklenburg County, North Carolina, 28216, United States", "type": "park", "osm_type": "way", "osm_id": 564320121, "class": null, "keyword": "neighborhood"}}, {"type": "Feature", "geometry": {"type": "Polygon", "coordinates": [[[-80.729442, 35.246601], [-80.728277, 35.245534], [-80.728332, 35.24508], [-80.728529, 35.244948], [-80.727955, 35.244353], [-80.727804, 35.244283], [-80.727544, 35.244751], [-80.725593, 35.243951], [-80.725961, 35.24505], [-80.726254, 35.244974], [-80.726259, 35.244931], [-80.726455, 35.245061], [-80.72649, 35.245057], [-80.72646, 35.245328], [-80.726242, 35.24536], [-80.727622, 35.246195], [-80.728769, 35.247047], [-80.729031, 35.246889], [-80.729442, 35.246601]]]}, "properties": {"display_name": "Delta Creek Neighborhood Park, 7300, Devonshire, Charlotte, Mecklenburg County, North Carolina, 28215, United States", "type": "park", "osm_type": "way", "osm_id": 38619468, "class": null, "keyword": "neighborhood"}}, {"type": "Feature", "geometry": {"type": "Polygon", "coordinates": [[[-80.946389, 35.26256], [-80.943869, 35.262313], [-80.94383, 35.263867], [-80.943258, 35.26387], [-80.943276, 35.264078], [-80.943841, 35.264075], [-80.943914, 35.264952], [-80.944785, 35.264818], [-80.944748, 35.264523], [-80.944246, 35.263949], [-80.944986, 35.263875], [-80.944986, 35.263823], [-80.945119, 35.263809], [-80.945347, 35.26379], [-80.945287, 35.263164], [-80.945455, 35.263145], [-80.946389, 35.26256]]]}, "properties": {"display_name": "Forest Pawtuckett Neighborhood Park, 1102, White Oak Park, Town Park, Charlotte, Mecklenburg County, North Carolina, 28214, United States", "type": "park", "osm_type": "way", "osm_id": 564181041, "class": null, "keyword": "neighborhood"}}, {"type": "Feature", "geometry": {"type": "Polygon", "coordinates": [[[-80.782522, 35.278164], [-80.782405, 35.277838], [-80.782339, 35.277656], [-80.782273, 35.277472], [-80.782206, 35.277284], [-80.782138, 35.277095], [-80.782072, 35.276912], [-80.782006, 35.276731], [-80.781937, 35.276537], [-80.781872, 35.276357], [-80.781805, 35.276169], [-80.781742, 35.275996], [-80.78167, 35.275794], [-80.781456, 35.275842], [-80.781199, 35.275898], [-80.780935, 35.275957], [-80.780602, 35.276031], [-80.780637, 35.276495], [-80.780641, 35.276642], [-80.780677, 35.277306], [-80.780679, 35.277346], [-80.780728, 35.278267], [-80.781091, 35.278229], [-80.781354, 35.278212], [-80.782045, 35.278194], [-80.782141, 35.278198], [-80.782237, 35.278197], [-80.782333, 35.278191], [-80.782428, 35.27818], [-80.782522, 35.278164]]]}, "properties": {"display_name": "Tom Hunter Neighborhood Park, 919, Virginia Manor, Hidden Valley, Charlotte, Mecklenburg County, North Carolina, 28213, United States", "type": "park", "osm_type": "way", "osm_id": 563728341, "class": null, "keyword": "neighborhood"}}, {"type": "Feature", "geometry": {"type": "Polygon", "coordinates": [[[-80.769319, 35.207321], [-80.76902, 35.206553], [-80.768928, 35.206315], [-80.769019, 35.205655], [-80.769109, 35.205544], [-80.769205, 35.205177], [-80.769079, 35.2047], [-80.768902, 35.204793], [-80.768887, 35.2048], [-80.76868, 35.204836], [-80.768615, 35.204831], [-80.768624, 35.204919], [-80.768379, 35.205005], [-80.766852, 35.204718], [-80.767791, 35.206038], [-80.768751, 35.207387], [-80.769183, 35.207998], [-80.769319, 35.207321]]]}, "properties": {"display_name": "Sheffield Neighborhood Park, 1311, Eastland, Charlotte, Mecklenburg County, North Carolina, 28205, United States", "type": "park", "osm_type": "way", "osm_id": 563408653, "class": null, "keyword": "neighborhood"}}, {"type": "Feature", "geometry": {"type": "Polygon", "coordinates": [[[-80.929027, 35.269087], [-80.928588, 35.268992], [-80.928558, 35.269333], [-80.927915, 35.27011], [-80.926951, 35.270107], [-80.92692, 35.269989], [-80.926843, 35.269693], [-80.926769, 35.269714], [-80.926843, 35.270012], [-80.926869, 35.270116], [-80.926409, 35.270426], [-80.926245, 35.270364], [-80.926183, 35.270446], [-80.926075, 35.270591], [-80.926103, 35.270626], [-80.926106, 35.270674], [-80.926083, 35.270725], [-80.926044, 35.270755], [-80.926242, 35.270952], [-80.926061, 35.271355], [-80.927152, 35.270979], [-80.927279, 35.270935], [-80.928526, 35.271199], [-80.929013, 35.269743], [-80.929027, 35.269087]]]}, "properties": {"display_name": "Eagles Landing Neighborhood Park ​, 1204, Woodford Green, Town Park, Charlotte, Mecklenburg County, North Carolina, 28214, United States", "type": "park", "osm_type": "way", "osm_id": 564181048, "class": null, "keyword": "neighborhood"}}, {"type": "Feature", "geometry": {"type": "Polygon", "coordinates": [[[-80.85887, 35.198771], [-80.85879, 35.198701], [-80.858626, 35.19825], [-80.85852, 35.198273], [-80.858476, 35.198277], [-80.8584, 35.198284], [-80.858323, 35.198287], [-80.858226, 35.198285], [-80.858129, 35.198276], [-80.858033, 35.19826], [-80.85794, 35.198238], [-80.857848, 35.19821], [-80.857697, 35.19815], [-80.857664, 35.198196], [-80.857593, 35.19816], [-80.857283, 35.198583], [-80.857172, 35.198684], [-80.857041, 35.198766], [-80.85686, 35.198838], [-80.856672, 35.198873], [-80.856489, 35.198876], [-80.856258, 35.198844], [-80.856229, 35.198961], [-80.856196, 35.199078], [-80.856459, 35.199131], [-80.856725, 35.199185], [-80.856968, 35.199234], [-80.857188, 35.199279], [-80.857384, 35.199319], [-80.857573, 35.199357], [-80.857761, 35.199396], [-80.857965, 35.199437], [-80.85815, 35.199475], [-80.858432, 35.199532], [-80.858751, 35.198978], [-80.85887, 35.198771]]]}, "properties": {"display_name": "Sedgefield Neighborhood Park, 620, Sedgefield, Charlotte, Mecklenburg County, North Carolina, 28209, United States", "type": "park", "osm_type": "way", "osm_id": 255557588, "class": null, "keyword": "neighborhood"}}, {"type": "Feature", "geometry": {"type": "Polygon", "coordinates": [[[-80.875866, 35.111643], [-80.875159, 35.110489], [-80.875596, 35.110307], [-80.875561, 35.110273], [-80.875134, 35.110442], [-80.875115, 35.110419], [-80.874748, 35.110067], [-80.874315, 35.109891], [-80.873642, 35.109802], [-80.873585, 35.110041], [-80.873513, 35.11016], [-80.873302, 35.110257], [-80.872971, 35.110267], [-80.87291, 35.110402], [-80.872767, 35.110676], [-80.872583, 35.110772], [-80.872325, 35.110793], [-80.871872, 35.110633], [-80.871897, 35.110777], [-80.872954, 35.111153], [-80.872815, 35.110882], [-80.8729, 35.110554], [-80.873137, 35.11041], [-80.873374, 35.110377], [-80.873649, 35.110481], [-80.873755, 35.11068], [-80.873886, 35.111048], [-80.87392, 35.11139], [-80.874531, 35.111717], [-80.874581, 35.112016], [-80.874696, 35.11201], [-80.874625, 35.111693], [-80.874031, 35.111213], [-80.874081, 35.111008], [-80.874253, 35.11086], [-80.874641, 35.110663], [-80.875049, 35.110582], [-80.87579, 35.111668], [-80.875866, 35.111643]]]}, "properties": {"display_name": "Pine Valley Neighborhood Park, Pine Valley, Sharonbrook, Charlotte, Mecklenburg County, North Carolina, United States", "type": "park", "osm_type": "way", "osm_id": 639082045, "class": null, "keyword": "neighborhood"}}, {"type": "Feature", "geometry": {"type": "Polygon", "coordinates": [[[-80.954988, 35.248866], [-80.954693, 35.248859], [-80.953359, 35.248825], [-80.953264, 35.249819], [-80.954925, 35.249859], [-80.954968, 35.249223], [-80.954988, 35.248866]]]}, "properties": {"display_name": "West Mecklenburg Neighborhood Park, Charlotte, Mecklenburg County, North Carolina, United States", "type": "park", "osm_type": "way", "osm_id": 556390878, "class": null, "keyword": "neighborhood"}}, {"type": "Feature", "geometry": {"type": "Polygon", "coordinates": [[[-80.915447, 35.187829], [-80.915353, 35.187767], [-80.915414, 35.187706], [-80.915305, 35.187633], [-80.915267, 35.187672], [-80.915104, 35.187564], [-80.915087, 35.187581], [-80.915021, 35.187537], [-80.914488, 35.188069], [-80.914695, 35.188207], [-80.91441, 35.188493], [-80.91476, 35.188727], [-80.914798, 35.188688], [-80.914936, 35.188781], [-80.915357, 35.188361], [-80.915312, 35.18833], [-80.91541, 35.188232], [-80.915364, 35.188201], [-80.915412, 35.188153], [-80.915239, 35.188037], [-80.915447, 35.187829]]]}, "properties": {"display_name": "Hilton Charlotte Airport, 2800, Coliseum Centre Drive, Coliseum Centre, Charlotte, Mecklenburg County, North Carolina, 28217, United States", "type": "hotel", "osm_type": "way", "osm_id": 838824054, "class": null, "keyword": "city centre"}}, {"type": "Feature", "geometry": {"type": "Polygon", "coordinates": [[[-80.842858, 35.22549], [-80.842434, 35.225105], [-80.841912, 35.224631], [-80.841566, 35.224898], [-80.841585, 35.224932], [-80.84124, 35.225189], [-80.841297, 35.225278], [-80.84127, 35.225313], [-80.84126, 35.225326], [-80.841251, 35.22534], [-80.841247, 35.225344], [-80.841221, 35.225327], [-80.841165, 35.22535], [-80.841469, 35.225507], [-80.841499, 35.225468], [-80.841522, 35.225438], [-80.841558, 35.225457], [-80.841701, 35.22533], [-80.841875, 35.225237], [-80.841884, 35.225247], [-80.841861, 35.225266], [-80.841917, 35.225316], [-80.841938, 35.2253], [-80.841952, 35.225313], [-80.841989, 35.225285], [-80.84197, 35.225272], [-80.842005, 35.225241], [-80.841966, 35.225213], [-80.842049, 35.225195], [-80.842149, 35.225263], [-80.842501, 35.225499], [-80.842563, 35.22555], [-80.84254, 35.225568], [-80.842564, 35.22559], [-80.84264, 35.225658], [-80.842858, 35.22549]]]}, "properties": {"display_name": "Aloft Charlotte City Center, 210, East Trade Street, First Ward, Uptown, Charlotte, Mecklenburg County, North Carolina, 28202, United States", "type": "retail", "osm_type": "way", "osm_id": 676164662, "class": null, "keyword": "city center"}}, {"type": "Feature", "geometry": {"type": "Polygon", "coordinates": [[[-80.712979, 35.334268], [-80.712923, 35.334083], [-80.71282, 35.33374], [-80.712566, 35.333791], [-80.712589, 35.333864], [-80.712456, 35.333891], [-80.712465, 35.333922], [-80.712053, 35.334004], [-80.71218, 35.334428], [-80.712979, 35.334268]]]}, "properties": {"display_name": "Walmart Neighborhood Market, 11530, North Tryon Street, Withrow Downs, Charlotte, Mecklenburg County, North Carolina, 28262, United States", "type": "supermarket", "osm_type": "way", "osm_id": 577595640, "class": null, "keyword": "neighborhood"}}, {"type": "Feature", "geometry": {"type": "Polygon", "coordinates": [[[-80.727721, 35.200481], [-80.727621, 35.200484], [-80.72762, 35.200367], [-80.727082, 35.200371], [-80.727093, 35.201041], [-80.727626, 35.201034], [-80.727628, 35.200688], [-80.72772, 35.200688], [-80.727721, 35.200481]]]}, "properties": {"display_name": "Walmart Neighborhood Market, 8800, East W T Harris Boulevard, Silverstone, Charlotte, Mecklenburg County, North Carolina, 28227, United States", "type": "supermarket", "osm_type": "way", "osm_id": 417743462, "class": null, "keyword": "neighborhood"}}, {"type": "Feature", "geometry": {"type": "Polygon", "coordinates": [[[-80.843943, 35.228156], [-80.843362, 35.227603], [-80.843259, 35.227675], [-80.843261, 35.227692], [-80.84326, 35.227772], [-80.84326, 35.227874], [-80.843164, 35.227946], [-80.843158, 35.228026], [-80.843139, 35.22804], [-80.843583, 35.228449], [-80.843876, 35.228237], [-80.843938, 35.228191], [-80.843943, 35.228156]]]}, "properties": {"display_name": "Charlotte Marriott City Center, 100, West Trade Street, Uptown, Charlotte, Mecklenburg County, North Carolina, 28202, United States", "type": "hotel", "osm_type": "way", "osm_id": 397369787, "class": null, "keyword": "city center"}}, {"type": "Feature", "geometry": {"type": "Polygon", "coordinates": [[[-80.834258, 35.221927], [-80.833924, 35.221623], [-80.833489, 35.221907], [-80.833504, 35.221924], [-80.833471, 35.221952], [-80.833479, 35.221991], [-80.833541, 35.222053], [-80.833524, 35.222064], [-80.833609, 35.222144], [-80.833625, 35.222131], [-80.833775, 35.222272], [-80.833845, 35.222222], [-80.833853, 35.222211], [-80.833872, 35.222217], [-80.833888, 35.222236], [-80.834198, 35.222022], [-80.834172, 35.221998], [-80.834258, 35.221927]]]}, "properties": {"display_name": "Downtown Charlotte Post Office, 201, North McDowell Street, First Ward, Uptown, Charlotte, Mecklenburg County, North Carolina, 28204, United States", "type": "post_office", "osm_type": "way", "osm_id": 380090202, "class": null, "keyword": "downtown"}}, {"type": "Feature", "geometry": {"type": "Polygon", "coordinates": [[[-80.845074, 35.225585], [-80.844754, 35.225311], [-80.844705, 35.225269], [-80.844636, 35.225316], [-80.844619, 35.225328], [-80.844603, 35.225339], [-80.84429, 35.225557], [-80.844709, 35.225919], [-80.845036, 35.225694], [-80.845069, 35.225672], [-80.845074, 35.225585]]]}, "properties": {"display_name": "Courtyard Charlotte City Center, 237, South Tryon Street, Uptown, Charlotte, Mecklenburg County, North Carolina, 28202, United States", "type": "hotel", "osm_type": "way", "osm_id": 948973303, "class": null, "keyword": "city center"}}, {"type": "Feature", "geometry": {"type": "Polygon", "coordinates": [[[-80.786361, 35.33452], [-80.786288, 35.334198], [-80.785626, 35.33431], [-80.785717, 35.334634], [-80.786361, 35.33452]]]}, "properties": {"display_name": "Radbourne Neighborhood Tennis Court, Radbourne Boulevard, Radbourne, Mallard, Charlotte, Mecklenburg County, North Carolina, 28269, United States", "type": "pitch", "osm_type": "way", "osm_id": 307080667, "class": null, "keyword": "neighborhood"}}, {"type": "Feature", "geometry": {"type": "Polygon", "coordinates": [[[-80.841468, 35.222473], [-80.841262, 35.22229], [-80.841188, 35.222346], [-80.8412, 35.222357], [-80.841157, 35.222389], [-80.84114, 35.222374], [-80.841045, 35.222446], [-80.841064, 35.222463], [-80.840953, 35.222547], [-80.840935, 35.222531], [-80.840819, 35.222619], [-80.840839, 35.222636], [-80.840801, 35.222665], [-80.840786, 35.222651], [-80.840708, 35.22271], [-80.840722, 35.222722], [-80.840706, 35.222734], [-80.840771, 35.222792], [-80.840785, 35.222782], [-80.840848, 35.222837], [-80.840833, 35.222848], [-80.840895, 35.222904], [-80.84115, 35.222711], [-80.841259, 35.22263], [-80.841378, 35.22254], [-80.84144, 35.222494], [-80.841468, 35.222473]]]}, "properties": {"display_name": "Hyatt Place Charlotte Downtown, 222, South Caldwell Street, Second Ward, Uptown, Charlotte, Mecklenburg County, North Carolina, 28202, United States", "type": "hotel", "osm_type": "way", "osm_id": 120628262, "class": null, "keyword": "downtown"}}, {"type": "Feature", "geometry": {"type": "Polygon", "coordinates": [[[-80.86806, 35.209471], [-80.868025, 35.209442], [-80.868052, 35.20942], [-80.867956, 35.209342], [-80.867927, 35.209366], [-80.867907, 35.20935], [-80.867956, 35.209311], [-80.86775, 35.209141], [-80.867461, 35.209376], [-80.867817, 35.209668], [-80.86806, 35.209471]]]}, "properties": {"display_name": "Inner Peaks Climbing Center, 2220, South Tryon Street, Wilmore, Charlotte, Mecklenburg County, North Carolina, 28203, United States", "type": "sports_centre", "osm_type": "way", "osm_id": 432915335, "class": null, "keyword": "inner city"}}, {"type": "Feature", "geometry": {"type": "Polygon", "coordinates": [[[-80.841781, 35.235189], [-80.841715, 35.235185], [-80.841726, 35.235055], [-80.84163, 35.23505], [-80.84164, 35.234941], [-80.841557, 35.234936], [-80.841548, 35.235041], [-80.841395, 35.235032], [-80.841391, 35.235089], [-80.841355, 35.235087], [-80.841332, 35.235354], [-80.841567, 35.235368], [-80.841561, 35.235442], [-80.841758, 35.235453], [-80.841781, 35.235189]]]}, "properties": {"display_name": "Mecklenburg County – Creative Campus Center City, 601, North Graham Street, Fourth Ward, Uptown, Charlotte, Mecklenburg County, North Carolina, 28202, United States", "type": "school", "osm_type": "way", "osm_id": 341639853, "class": null, "keyword": "city center"}}, {"type": "Feature", "geometry": {"type": "Polygon", "coordinates": [[[-80.835339, 35.228529], [-80.835271, 35.228437], [-80.835147, 35.228268], [-80.835123, 35.228236], [-80.835116, 35.228226], [-80.835086, 35.228241], [-80.835064, 35.228252], [-80.835054, 35.228257], [-80.835027, 35.228231], [-80.834848, 35.228356], [-80.834785, 35.2284], [-80.834815, 35.228429], [-80.835098, 35.228698], [-80.835339, 35.228529]]]}, "properties": {"display_name": "UNC Charlotte Center City, 320, East 9th Street, First Ward, Uptown, Charlotte, Mecklenburg County, North Carolina, 28202, United States", "type": "university", "osm_type": "way", "osm_id": 1004213300, "class": null, "keyword": "city center"}}, {"type": "Feature", "geometry": {"type": "Polygon", "coordinates": [[[-80.839356, 35.224236], [-80.839282, 35.224174], [-80.839118, 35.224036], [-80.839137, 35.224023], [-80.839082, 35.223976], [-80.838996, 35.224042], [-80.839003, 35.224048], [-80.838789, 35.224202], [-80.838792, 35.224206], [-80.838822, 35.22423], [-80.839034, 35.224399], [-80.839143, 35.224353], [-80.839182, 35.224376], [-80.83927, 35.224315], [-80.839296, 35.224339], [-80.839336, 35.224307], [-80.839301, 35.224277], [-80.839356, 35.224236]]]}, "properties": {"display_name": "Hyatt House Charlotte/Center City, 435, East Trade Street, Uptown, Charlotte, Mecklenburg County, North Carolina, 28202, United States", "type": "hotel", "osm_type": "way", "osm_id": 500736208, "class": null, "keyword": "city center"}}, {"type": "Feature", "geometry": {"type": "Polygon", "coordinates": [[[-80.840502, 35.227208], [-80.840465, 35.227172], [-80.840372, 35.227083], [-80.839818, 35.227471], [-80.839913, 35.227561], [-80.839949, 35.227595], [-80.840502, 35.227208]]]}, "properties": {"display_name": "Holiday Inn Center City, North College Street, First Ward, Uptown, Charlotte, Mecklenburg County, North Carolina, 28246, United States", "type": "hotel", "osm_type": "way", "osm_id": 500736212, "class": null, "keyword": "city center"}}, {"type": "Feature", "geometry": {"type": "Polygon", "coordinates": [[[-80.851901, 35.210401], [-80.851883, 35.210156], [-80.851851, 35.210157], [-80.85185, 35.21011], [-80.851763, 35.21011], [-80.851761, 35.210049], [-80.851602, 35.210055], [-80.851607, 35.210127], [-80.851646, 35.210126], [-80.85165, 35.21018], [-80.851666, 35.210393], [-80.851714, 35.210389], [-80.851715, 35.210408], [-80.851901, 35.210401]]]}, "properties": {"display_name": "Charlotte Bridge Associate, 510, East Park Avenue, Dilworth Historic District, South End, Charlotte, Mecklenburg County, North Carolina, 28203, United States", "type": "civic", "osm_type": "way", "osm_id": 837197784, "class": null, "keyword": "district"}}, {"type": "Feature", "geometry": {"type": "Polygon", "coordinates": [[[-80.906015, 35.236112], [-80.905756, 35.235922], [-80.905664, 35.236006], [-80.90581, 35.236113], [-80.905694, 35.236219], [-80.905807, 35.236302], [-80.906015, 35.236112]]]}, "properties": {"display_name": "The CORE Church of Charlotte, 2300, Alleghany Street, Westerly Hill, Ashley Park, Charlotte, Mecklenburg County, North Carolina, 28208, United States", "type": "place_of_worship", "osm_type": "way", "osm_id": 695506749, "class": null, "keyword": "city core"}}, {"type": "Feature", "geometry": {"type": "Polygon", "coordinates": [[[-80.804128, 35.247452], [-80.804095, 35.247416], [-80.80405, 35.247372], [-80.804012, 35.247332], [-80.803721, 35.247519], [-80.803837, 35.247639], [-80.804128, 35.247452]]]}, "properties": {"display_name": "Neighborhood Theatre, 511, East 36th Street, NoDa, Charlotte, Mecklenburg County, North Carolina, 28205, United States", "type": "music_venue", "osm_type": "way", "osm_id": 967830177, "class": null, "keyword": "neighborhood"}}, {"type": "Feature", "geometry": {"type": "Polygon", "coordinates": [[[-80.752474, 35.310941], [-80.752097, 35.310919], [-80.752093, 35.310959], [-80.752136, 35.310962], [-80.752128, 35.311056], [-80.752302, 35.311066], [-80.752299, 35.311105], [-80.752419, 35.311112], [-80.752421, 35.311086], [-80.752461, 35.311088], [-80.752474, 35.310941]]]}, "properties": {"display_name": "Applebee's, 8700, J W Clay Boulevard, The Shoppes at University Place, University City, Charlotte, Mecklenburg County, North Carolina, 28262, United States", "type": "restaurant", "osm_type": "way", "osm_id": 577320932, "class": null, "keyword": "neighborhood"}}, {"type": "Feature", "geometry": {"type": "Polygon", "coordinates": [[[-80.793556, 35.217904], [-80.793406, 35.217849], [-80.79329, 35.218064], [-80.793423, 35.218112], [-80.793472, 35.218022], [-80.793488, 35.218029], [-80.793556, 35.217904]]]}, "properties": {"display_name": "Inner Harbor Seafood Market, 3019, Central Avenue, Chantilly, Charlotte, Mecklenburg County, North Carolina, 28205, United States", "type": "seafood", "osm_type": "way", "osm_id": 836546667, "class": null, "keyword": "inner city"}}, {"type": "Feature", "geometry": {"type": "Polygon", "coordinates": [[[-80.96801, 35.108071], [-80.967945, 35.108043], [-80.967966, 35.107905], [-80.967821, 35.107889], [-80.967792, 35.108115], [-80.967957, 35.108132], [-80.96801, 35.108071]]]}, "properties": {"display_name": "Yorkshire Neighborhood Pool, Cassington Court, Yorkshire, Charlotte, Mecklenburg County, North Carolina, 28273, United States", "type": "swimming_pool", "osm_type": "way", "osm_id": 242651308, "class": null, "keyword": "neighborhood"}}, {"type": "Feature", "geometry": {"type": "Polygon", "coordinates": [[[-80.943708, 35.104825], [-80.9437, 35.104797], [-80.943668, 35.104785], [-80.943618, 35.104766], [-80.943588, 35.104755], [-80.943555, 35.104742], [-80.943524, 35.104743], [-80.943516, 35.104728], [-80.943509, 35.104695], [-80.943449, 35.104696], [-80.943447, 35.104634], [-80.943507, 35.104633], [-80.9435, 35.104608], [-80.943478, 35.104604], [-80.943434, 35.104609], [-80.943421, 35.104614], [-80.943418, 35.104655], [-80.943422, 35.104704], [-80.943421, 35.104727], [-80.943419, 35.104754], [-80.943414, 35.104797], [-80.943397, 35.104857], [-80.943388, 35.104891], [-80.943395, 35.104918], [-80.943413, 35.104949], [-80.943451, 35.104978], [-80.943499, 35.104976], [-80.94361, 35.104909], [-80.943629, 35.104898], [-80.943669, 35.104873], [-80.943679, 35.104863], [-80.943693, 35.104845], [-80.943708, 35.104825]], [[-80.943695, 35.104823], [-80.943683, 35.10484], [-80.943668, 35.104857], [-80.943627, 35.104861], [-80.943613, 35.104834], [-80.943621, 35.1048], [-80.943663, 35.104794], [-80.943689, 35.104805], [-80.943695, 35.104823]], [[-80.943602, 35.104901], [-80.943494, 35.104966], [-80.943446, 35.104954], [-80.943433, 35.104926], [-80.943486, 35.104874], [-80.943547, 35.104863], [-80.943579, 35.104865], [-80.943601, 35.104879], [-80.943602, 35.104901]], [[-80.943588, 35.104793], [-80.943574, 35.104829], [-80.943461, 35.104831], [-80.943442, 35.104819], [-80.943463, 35.104752], [-80.943493, 35.104753], [-80.943553, 35.104753], [-80.943583, 35.104764], [-80.943588, 35.104793]]]}, "properties": {"display_name": "Carowinds Footways Thrill Zone Streets Inner Area, Charlotte, Mecklenburg County, North Carolina, 28273, United States", "type": "pedestrian", "osm_type": "relation", "osm_id": 12166390, "class": null, "keyword": "inner city"}}, {"type": "Feature", "geometry": {"type": "Polygon", "coordinates": [[[-80.842428, 35.199857], [-80.842354, 35.199802], [-80.842328, 35.199826], [-80.842294, 35.199801], [-80.842161, 35.199919], [-80.842153, 35.199984], [-80.842145, 35.199998], [-80.842214, 35.200049], [-80.842428, 35.199857]]]}, "properties": {"display_name": "Lebowski's Neighborhood Grill, 1524, East Boulevard, Myers Park, Charlotte, Mecklenburg County, North Carolina, 28203, United States", "type": "restaurant", "osm_type": "way", "osm_id": 432823865, "class": null, "keyword": "neighborhood"}}, {"type": "Feature", "geometry": {"type": "Polygon", "coordinates": [[[-80.779774, 35.185643], [-80.779713, 35.185573], [-80.779592, 35.185649], [-80.779646, 35.185704], [-80.779743, 35.185643], [-80.779753, 35.185655], [-80.779774, 35.185643]]]}, "properties": {"display_name": "Anthem Neighborhood Pool, Ross Moore Avenue, Anthem, Eastfield, Charlotte, Mecklenburg County, North Carolina, 28205, United States", "type": "swimming_pool", "osm_type": "way", "osm_id": 922066937, "class": null, "keyword": "neighborhood"}}, {"type": "Feature", "geometry": {"type": "Polygon", "coordinates": [[[-80.813296, 35.218497], [-80.813276, 35.218497], [-80.813276, 35.218465], [-80.813202, 35.218465], [-80.813202, 35.218588], [-80.813277, 35.218588], [-80.813277, 35.218562], [-80.813295, 35.218562], [-80.813296, 35.218497]]]}, "properties": {"display_name": "City Center Church, 1900, Commonwealth Avenue, Plaza Midwood, Charlotte, Mecklenburg County, North Carolina, 28205, United States", "type": "church", "osm_type": "way", "osm_id": 323201030, "class": null, "keyword": "city center"}}, {"type": "Feature", "geometry": {"type": "Polygon", "coordinates": [[[-80.825677, 35.142507], [-80.825627, 35.142463], [-80.825575, 35.142477], [-80.82557, 35.142515], [-80.825623, 35.14257], [-80.825655, 35.142564], [-80.825677, 35.142507]]]}, "properties": {"display_name": "Neighborhood Pool, SouthPark, Charlotte, Mecklenburg County, North Carolina, United States", "type": "pool", "osm_type": "way", "osm_id": 1392741165, "class": null, "keyword": "neighborhood"}}]}