{"type": "FeatureCollection", "features": [{"type": "Feature", "geometry": {"type": "Polygon", "coordinates": [[[98.974954, 18.8387], [98.975083, 18.838377], [98.975331, 18.838466], [98.975202, 18.838788], [98.975172, 18.838778], [98.975154, 18.838823], [98.975111, 18.838808], [98.975098, 18.838839], [98.974992, 18.838801], [98.975005, 18.838771], [98.974962, 18.838756], [98.974981, 18.838709], [98.974954, 18.8387]]]}, "properties": {"display_name": "องค์การบริหารส่วนตำบล จังหวัดเชียงใหม่, ถนนโชตนา ซอย 26, เทศบาลนครเชียงใหม่, เหมืองแก้ว, Mueang Chiang Mai, จังหวัดเชียงใหม่, 50300, ประเทศไทย", "type": "government", "osm_type": "way", "osm_id": 217506407, "class": null, "keyword": "subdistrict"}}, {"type": "Feature", "geometry": {"type": "Polygon", "coordinates": [[[98.984361, 18.790567], [98.984386, 18.790282], [98.9845, 18.790291], [98.984486, 18.790457], [98.984563, 18.790463], [98.984569, 18.79039], [98.984642, 18.790396], [98.984637, 18.790452], [98.984729, 18.790459], [98.984717, 18.790595], [98.984361, 18.790567]]]}, "properties": {"display_name": "ที่ว่าการอำเภอเมืองเชียงใหม่, ถนนข้างเรือนจำ, เทศบาลนครเชียงใหม่, ฟ้าฮ่าม, Mueang Chiang Mai, จังหวัดเชียงใหม่, 55520, ประเทศไทย", "type": "government", "osm_type": "way", "osm_id": 260322244, "class": null, "keyword": "district"}}, {"type": "Feature", "geometry": {"type": "Polygon", "coordinates": [[[98.98578, 18.784514], [98.985804, 18.784299], [98.985967, 18.784315], [98.985949, 18.784479], [98.986066, 18.784487], [98.98607, 18.784454], [98.986141, 18.784463], [98.986129, 18.784554], [98.986058, 18.784545], [98.985943, 18.78453], [98.98578, 18.784514]]]}, "properties": {"display_name": "El Barrio Lanna, ถนนพระปกเกล้า ซอย7, เทศบาลนครเชียงใหม่, ฟ้าฮ่าม, Mueang Chiang Mai, จังหวัดเชียงใหม่, 50200, ประเทศไทย", "type": "hotel", "osm_type": "relation", "osm_id": 18891859, "class": null, "keyword": "barrio"}}, {"type": "Feature", "geometry": {"type": "Polygon", "coordinates": [[[98.974366, 18.788563], [98.974417, 18.78856], [98.974416, 18.78854], [98.97466, 18.788528], [98.974661, 18.788553], [98.974718, 18.78855], [98.974722, 18.788623], [98.974675, 18.788625], [98.974676, 18.788642], [98.974579, 18.788647], [98.974582, 18.788701], [98.974583, 18.78872], [98.974505, 18.788723], [98.974504, 18.788707], [98.974501, 18.788652], [98.974371, 18.788658], [98.974366, 18.788563]]]}, "properties": {"display_name": "สำนักงานทางหลวงที่ ๑, ถนนสุเทพ, เทศบาลนครเชียงใหม่, ฟ้าฮ่าม, Mueang Chiang Mai, จังหวัดเชียงใหม่, 50200, ประเทศไทย", "type": "public_building", "osm_type": "way", "osm_id": 381146245, "class": null, "keyword": "district"}}]}