{"type": "FeatureCollection", "features": [{"type": "Feature", "geometry": {"type": "Polygon", "coordinates": [[[28.83642, 47.025264], [28.836439, 47.025249], [28.836465, 47.025232], [28.836861, 47.024965], [28.836913, 47.025], [28.836938, 47.024982], [28.836958, 47.024994], [28.836973, 47.024983], [28.837207, 47.025146], [28.837247, 47.025121], [28.837399, 47.025228], [28.837383, 47.025237], [28.837446, 47.02534], [28.837355, 47.025403], [28.837386, 47.025424], [28.837226, 47.025531], [28.837183, 47.025561], [28.837057, 47.025483], [28.836999, 47.025522], [28.83698, 47.025509], [28.836946, 47.025486], [28.836853, 47.025548], [28.83642, 47.025264]]]}, "properties": {"display_name": "Sun City, 32, Strada Alexandr Pușkin, sectorul Centru, Chișinău, Municipiul Chișinău, MD-2012, Moldova", "type": "mall", "osm_type": "way", "osm_id": 32977885, "class": null, "keyword": "city centre"}}, {"type": "Feature", "geometry": {"type": "Polygon", "coordinates": [[[28.833861, 47.022982], [28.833878, 47.02297], [28.833953, 47.02292], [28.834016, 47.022962], [28.834041, 47.022947], [28.834103, 47.02299], [28.83461, 47.022653], [28.834649, 47.022652], [28.834663, 47.022646], [28.834665, 47.022625], [28.83465, 47.022616], [28.834606, 47.022619], [28.834346, 47.022433], [28.834273, 47.022381], [28.834212, 47.022337], [28.834206, 47.022333], [28.834258, 47.022298], [28.834371, 47.022222], [28.83439, 47.022208], [28.834471, 47.022267], [28.83446, 47.022273], [28.834799, 47.022508], [28.834805, 47.022505], [28.834894, 47.022563], [28.834884, 47.02257], [28.834944, 47.022611], [28.834951, 47.022637], [28.834954, 47.022661], [28.834518, 47.022951], [28.834461, 47.02299], [28.834165, 47.023187], [28.834033, 47.023096], [28.833861, 47.022982]]]}, "properties": {"display_name": "Primăria Municipiului Chișinău, 83, Bulevardul Ștefan cel Mare și Sfânt, sectorul Centru, Chișinău, Municipiul Chișinău, MD-2012, Moldova", "type": "townhall", "osm_type": "way", "osm_id": 25187121, "class": null, "keyword": "city centre"}}, {"type": "Feature", "geometry": {"type": "Polygon", "coordinates": [[[28.838953, 47.016456], [28.838954, 47.01645], [28.838958, 47.016444], [28.838963, 47.016439], [28.838972, 47.016435], [28.838972, 47.016402], [28.838995, 47.016385], [28.838988, 47.016377], [28.838987, 47.016372], [28.839001, 47.016361], [28.83904, 47.016348], [28.839064, 47.016343], [28.839046, 47.016331], [28.839061, 47.01632], [28.839081, 47.01628], [28.839114, 47.016239], [28.839185, 47.016192], [28.839319, 47.016154], [28.839325, 47.016158], [28.839333, 47.016153], [28.839337, 47.016156], [28.839364, 47.016116], [28.839374, 47.016106], [28.839389, 47.016106], [28.839403, 47.016114], [28.839421, 47.016099], [28.839473, 47.016099], [28.839491, 47.016089], [28.839514, 47.01609], [28.839531, 47.016098], [28.839588, 47.016098], [28.839588, 47.016107], [28.839631, 47.016106], [28.839649, 47.016118], [28.839658, 47.016134], [28.839669, 47.016162], [28.839673, 47.01616], [28.839708, 47.016159], [28.839772, 47.016179], [28.839762, 47.016185], [28.839796, 47.016209], [28.839814, 47.016197], [28.839884, 47.016247], [28.839865, 47.016259], [28.839897, 47.016282], [28.839911, 47.016277], [28.839951, 47.016334], [28.839931, 47.016347], [28.839931, 47.016362], [28.839921, 47.016375], [28.839902, 47.016362], [28.839864, 47.016387], [28.839886, 47.016403], [28.839867, 47.016404], [28.839847, 47.016407], [28.839822, 47.016424], [28.839803, 47.01641], [28.839781, 47.01641], [28.839749, 47.016388], [28.839758, 47.016382], [28.839721, 47.016357], [28.839734, 47.016348], [28.839662, 47.0163], [28.839647, 47.016311], [28.839611, 47.016287], [28.839601, 47.016294], [28.839578, 47.016278], [28.83957, 47.016259], [28.839572, 47.016241], [28.839561, 47.016233], [28.839535, 47.016234], [28.839535, 47.016232], [28.839464, 47.016233], [28.839464, 47.01623], [28.839445, 47.01623], [28.839427, 47.016242], [28.839431, 47.016259], [28.83942, 47.016277], [28.8394, 47.016291], [28.839392, 47.016285], [28.839353, 47.016311], [28.839339, 47.016301], [28.839276, 47.016343], [28.83929, 47.016353], [28.839251, 47.01638], [28.839264, 47.016389], [28.839247, 47.0164], [28.839207, 47.01641], [28.839186, 47.016407], [28.83917, 47.016416], [28.839168, 47.016415], [28.839167, 47.016495], [28.839209, 47.0165], [28.839262, 47.016538], [28.839245, 47.016549], [28.839284, 47.016577], [28.839301, 47.016566], [28.839341, 47.016595], [28.839366, 47.016604], [28.83941, 47.01664], [28.839452, 47.016668], [28.839435, 47.016678], [28.839475, 47.016708], [28.839491, 47.016698], [28.839526, 47.016724], [28.839542, 47.016728], [28.839581, 47.016749], [28.839599, 47.016772], [28.839637, 47.016798], [28.839624, 47.016807], [28.839664, 47.016835], [28.839675, 47.016828], [28.839712, 47.016853], [28.839719, 47.016851], [28.839725, 47.016856], [28.839737, 47.016875], [28.839738, 47.01689], [28.839747, 47.016895], [28.839735, 47.016905], [28.839734, 47.016911], [28.839723, 47.01694], [28.839711, 47.016937], [28.839685, 47.016956], [28.839688, 47.016959], [28.839671, 47.016965], [28.839638, 47.016969], [28.839623, 47.016981], [28.839602, 47.016969], [28.839572, 47.016961], [28.839545, 47.016946], [28.839538, 47.016934], [28.839482, 47.016897], [28.839472, 47.016897], [28.839465, 47.016895], [28.83946, 47.016892], [28.839456, 47.016889], [28.839453, 47.016884], [28.839452, 47.01688], [28.839453, 47.016875], [28.839458, 47.016867], [28.839464, 47.016865], [28.839442, 47.016842], [28.839425, 47.016849], [28.83941, 47.016834], [28.839377, 47.016827], [28.839354, 47.016814], [28.839353, 47.016808], [28.839295, 47.016766], [28.839288, 47.016767], [28.839281, 47.016766], [28.839275, 47.016764], [28.83927, 47.016761], [28.839266, 47.016757], [28.839264, 47.016754], [28.839263, 47.016749], [28.839264, 47.016744], [28.839267, 47.01674], [28.839271, 47.016737], [28.839276, 47.016734], [28.839255, 47.016715], [28.839239, 47.016723], [28.839223, 47.016707], [28.839177, 47.016692], [28.839165, 47.016678], [28.839108, 47.016636], [28.839097, 47.016636], [28.83909, 47.016634], [28.839084, 47.016631], [28.83908, 47.016627], [28.839077, 47.016622], [28.839076, 47.016617], [28.839077, 47.016612], [28.83908, 47.016607], [28.839084, 47.016603], [28.839046, 47.016567], [28.839025, 47.016562], [28.838996, 47.016548], [28.838987, 47.016538], [28.83899, 47.016524], [28.838974, 47.016514], [28.838974, 47.016475], [28.838961, 47.016466], [28.838953, 47.016456]]]}, "properties": {"display_name": "Complexul Rezidențial „Lara City”, 46, Strada 31 August 1989, Caucaz, Centrul Istoric, Chișinău, Municipiul Chișinău, MD-2001, Moldova", "type": "residential", "osm_type": "way", "osm_id": 52333832, "class": null, "keyword": "city centre"}}, {"type": "Feature", "geometry": {"type": "Polygon", "coordinates": [[[28.843745, 47.011905], [28.843795, 47.011788], [28.844116, 47.011772], [28.844211, 47.011772], [28.844255, 47.011793], [28.8445, 47.011923], [28.844485, 47.01199], [28.844402, 47.011998], [28.844335, 47.012143], [28.844413, 47.012198], [28.844266, 47.012245], [28.8441, 47.012143], [28.843994, 47.012198], [28.843798, 47.012076], [28.843745, 47.011905]]]}, "properties": {"display_name": "Complexul Locativ „Midtown”, 1, Caucaz, Centrul Istoric, Chișinău, Municipiul Chișinău, Moldova", "type": "residential", "osm_type": "way", "osm_id": 1125944630, "class": null, "keyword": "midtown"}}, {"type": "Feature", "geometry": {"type": "Polygon", "coordinates": [[[28.839278, 47.024921], [28.839595, 47.02478], [28.83974, 47.024894], [28.839952, 47.025056], [28.839583, 47.025267], [28.839278, 47.024921]]]}, "properties": {"display_name": "Old Town Residence (Alexandru cel Bun, 49/2), 49/2, sectorul Rîșcani, Chișinău, Municipiul Chișinău, Moldova", "type": "residential", "osm_type": "way", "osm_id": 879271634, "class": null, "keyword": "old town"}}, {"type": "Feature", "geometry": {"type": "Polygon", "coordinates": [[[28.839037, 47.024667], [28.839246, 47.024528], [28.839295, 47.02456], [28.839525, 47.024726], [28.839595, 47.02478], [28.839278, 47.024921], [28.839037, 47.024667]]]}, "properties": {"display_name": "Old Town Residence (Columna, 88), 88, sectorul Rîșcani, Chișinău, Municipiul Chișinău, Moldova", "type": "residential", "osm_type": "way", "osm_id": 906485188, "class": null, "keyword": "old town"}}, {"type": "Feature", "geometry": {"type": "Polygon", "coordinates": [[[28.836404, 47.031644], [28.836442, 47.031596], [28.836793, 47.031721], [28.836807, 47.031742], [28.836744, 47.031885], [28.836547, 47.031866], [28.836562, 47.03181], [28.836624, 47.031818], [28.836661, 47.031731], [28.836557, 47.031696], [28.836404, 47.031644]]]}, "properties": {"display_name": "Casa-Muzeu „Alexandr Pușkin”, 19, Strada Anton Pann, sectorul Rîșcani, Chișinău, Municipiul Chișinău, MD-2012, Moldova", "type": "museum", "osm_type": "way", "osm_id": 25850982, "class": null, "keyword": "historic centre"}}, {"type": "Feature", "geometry": {"type": "Polygon", "coordinates": [[[28.821006, 47.020976], [28.821151, 47.020873], [28.821291, 47.020964], [28.821146, 47.021067], [28.821006, 47.020976]]]}, "properties": {"display_name": "City Spring Apartments, 3, Strada Nicolae Iorga, sectorul Buiucani, Chișinău, Municipiul Chișinău, MD-2009, Moldova", "type": "residential", "osm_type": "way", "osm_id": 140495394, "class": null, "keyword": "city centre"}}]}