{"type": "FeatureCollection", "features": [{"type": "Feature", "geometry": {"type": "Polygon", "coordinates": [[[172.612288, -43.528756], [172.612436, -43.535917], [172.612456, -43.535991], [172.612522, -43.536052], [172.612593, -43.536104], [172.61266, -43.536172], [172.612685, -43.53625], [172.612677, -43.53634], [172.612649, -43.536401], [172.612628, -43.536441], [172.612445, -43.536681], [172.612464, -43.537326], [172.612466, -43.53827], [172.612469, -43.539578], [172.612476, -43.539668], [172.612504, -43.539736], [172.612535, -43.539776], [172.612565, -43.539808], [172.612662, -43.539877], [172.616748, -43.539932], [172.617981, -43.539791], [172.618765, -43.539776], [172.619762, -43.539791], [172.619825, -43.539569], [172.620031, -43.539364], [172.620192, -43.539473], [172.620535, -43.539251], [172.620487, -43.539146], [172.621055, -43.538773], [172.622514, -43.539593], [172.62289, -43.539336], [172.622965, -43.539331], [172.622965, -43.539255], [172.623035, -43.539224], [172.623131, -43.53922], [172.623684, -43.539216], [172.623697, -43.539342], [172.623355, -43.539354], [172.623353, -43.539471], [172.623724, -43.539479], [172.623756, -43.539774], [172.623855, -43.539741], [172.623843, -43.539369], [172.624219, -43.539363], [172.624216, -43.539578], [172.62449, -43.539581], [172.624495, -43.539738], [172.624653, -43.539773], [172.624641, -43.539212], [172.624676, -43.539165], [172.624767, -43.539158], [172.625197, -43.539156], [172.625953, -43.539158], [172.625964, -43.539321], [172.627249, -43.53931], [172.627249, -43.53949], [172.627433, -43.539492], [172.627438, -43.539614], [172.627754, -43.539613], [172.627786, -43.539745], [172.628047, -43.539764], [172.62804, -43.539581], [172.628635, -43.539581], [172.628678, -43.539784], [172.62915, -43.539745], [172.629155, -43.539426], [172.630186, -43.539426], [172.630207, -43.539768], [172.630711, -43.539725], [172.630733, -43.539523], [172.630947, -43.539547], [172.630985, -43.539391], [172.631924, -43.539391], [172.631902, -43.539768], [172.632127, -43.53976], [172.632114, -43.539041], [172.632894, -43.539025], [172.6329, -43.539393], [172.63301, -43.539422], [172.6332, -43.539414], [172.633211, -43.539634], [172.633493, -43.53963], [172.633498, -43.539757], [172.633745, -43.539757], [172.633747, -43.539595], [172.634126, -43.539587], [172.634131, -43.53951], [172.634246, -43.539512], [172.634254, -43.539377], [172.635523, -43.539385], [172.635622, -43.539366], [172.63563, -43.53909], [172.635869, -43.539092], [172.63588, -43.539389], [172.636017, -43.539406], [172.636019, -43.539758], [172.636161, -43.53976], [172.63616, -43.539631], [172.636518, -43.539632], [172.636528, -43.539743], [172.637024, -43.539746], [172.637017, -43.539455], [172.63706, -43.539393], [172.637667, -43.539389], [172.63769, -43.538742], [172.63901, -43.538726], [172.639085, -43.539379], [172.639439, -43.539379], [172.639503, -43.539721], [172.640308, -43.539737], [172.640297, -43.539379], [172.641145, -43.539395], [172.641183, -43.539737], [172.642733, -43.539753], [172.645829, -43.539741], [172.650136, -43.53976], [172.650254, -43.539727], [172.650345, -43.539692], [172.650812, -43.539783], [172.650861, -43.539825], [172.651438, -43.539823], [172.651438, -43.539383], [172.651368, -43.539383], [172.651367, -43.538987], [172.651193, -43.538977], [172.65126, -43.538839], [172.65105, -43.538837], [172.651128, -43.53865], [172.650809, -43.538637], [172.650793, -43.53843], [172.650855, -43.538255], [172.651034, -43.538304], [172.651129, -43.538107], [172.651084, -43.538097], [172.65108, -43.537839], [172.650828, -43.537843], [172.650865, -43.537587], [172.651343, -43.537579], [172.652062, -43.537482], [172.652083, -43.536739], [172.651316, -43.536723], [172.651273, -43.536645], [172.651064, -43.536622], [172.651042, -43.536478], [172.650836, -43.536474], [172.65086, -43.536294], [172.651399, -43.536298], [172.651388, -43.536109], [172.651289, -43.536091], [172.651297, -43.535749], [172.651074, -43.535736], [172.651072, -43.535559], [172.650801, -43.535568], [172.650789, -43.5354], [172.65116, -43.535378], [172.651171, -43.534958], [172.65079, -43.534952], [172.650806, -43.534812], [172.651206, -43.534818], [172.651297, -43.534789], [172.6513, -43.534314], [172.651292, -43.533818], [172.65083, -43.533805], [172.650817, -43.5337], [172.651021, -43.53369], [172.651012, -43.533547], [172.650782, -43.533542], [172.650788, -43.533023], [172.650793, -43.532885], [172.651085, -43.532899], [172.651091, -43.533011], [172.651136, -43.533013], [172.651128, -43.532805], [172.651278, -43.532792], [172.651289, -43.53235], [172.651056, -43.532329], [172.651034, -43.532212], [172.650924, -43.532183], [172.650914, -43.532128], [172.650857, -43.532097], [172.650804, -43.531922], [172.651281, -43.53192], [172.651286, -43.531475], [172.651273, -43.531014], [172.650991, -43.531012], [172.650788, -43.531005], [172.650796, -43.530812], [172.651265, -43.530818], [172.651289, -43.530392], [172.651273, -43.530054], [172.65079, -43.53005], [172.650779, -43.529748], [172.651268, -43.529731], [172.651278, -43.5292], [172.651179, -43.529196], [172.651171, -43.528827], [172.650782, -43.528838], [172.650774, -43.528523], [172.651115, -43.528511], [172.65112, -43.528082], [172.650763, -43.528082], [172.650769, -43.527934], [172.651144, -43.52793], [172.65115, -43.527588], [172.651292, -43.527582], [172.651286, -43.527454], [172.651528, -43.527452], [172.651512, -43.527191], [172.651362, -43.527185], [172.651353, -43.526907], [172.650766, -43.52686], [172.650771, -43.526833], [172.650855, -43.526829], [172.651034, -43.526771], [172.651233, -43.52673], [172.651343, -43.526724], [172.651337, -43.526691], [172.650922, -43.526682], [172.650857, -43.526443], [172.650852, -43.526228], [172.650546, -43.526193], [172.650444, -43.526166], [172.650374, -43.52609], [172.650272, -43.526003], [172.65025, -43.52586], [172.650372, -43.525711], [172.650592, -43.525513], [172.650779, -43.525406], [172.650943, -43.525342], [172.651069, -43.525229], [172.651147, -43.525069], [172.651155, -43.524892], [172.65116, -43.524756], [172.651133, -43.524614], [172.651026, -43.524383], [172.650868, -43.524186], [172.650678, -43.523947], [172.650973, -43.523893], [172.650975, -43.523832], [172.651013, -43.523802], [172.65106, -43.523787], [172.650899, -43.523613], [172.65083, -43.523598], [172.650798, -43.523555], [172.650776, -43.523411], [172.651389, -43.523408], [172.651388, -43.523119], [172.651253, -43.523116], [172.65125, -43.523029], [172.651214, -43.523024], [172.651214, -43.52294], [172.651217, -43.522845], [172.650769, -43.522846], [172.650817, -43.522671], [172.651498, -43.522652], [172.651579, -43.522345], [172.651804, -43.522341], [172.651836, -43.52266], [172.652024, -43.522675], [172.652008, -43.521201], [172.65137, -43.521201], [172.65137, -43.521026], [172.651091, -43.521041], [172.651096, -43.520851], [172.650827, -43.52086], [172.650755, -43.520658], [172.650289, -43.520658], [172.650291, -43.520394], [172.650085, -43.520398], [172.650077, -43.520273], [172.649926, -43.520267], [172.649894, -43.520211], [172.649548, -43.520217], [172.64953, -43.52037], [172.649291, -43.52037], [172.649293, -43.520658], [172.648787, -43.52066], [172.648797, -43.520289], [172.648537, -43.520275], [172.648537, -43.52019], [172.648304, -43.520188], [172.648288, -43.520291], [172.647845, -43.520291], [172.647859, -43.520409], [172.647655, -43.520407], [172.647636, -43.52066], [172.647405, -43.520633], [172.647384, -43.520479], [172.647083, -43.520479], [172.647089, -43.520289], [172.646483, -43.520287], [172.646493, -43.520464], [172.646332, -43.52047], [172.646348, -43.520674], [172.645611, -43.520637], [172.645772, -43.520289], [172.645359, -43.520287], [172.645343, -43.520676], [172.645184, -43.520664], [172.644927, -43.520627], [172.644932, -43.520263], [172.64446, -43.520261], [172.644447, -43.520192], [172.643985, -43.520193], [172.643985, -43.519668], [172.643516, -43.51967], [172.643519, -43.519956], [172.643271, -43.519953], [172.643285, -43.520318], [172.643019, -43.520315], [172.643019, -43.520677], [172.642516, -43.520681], [172.642521, -43.520424], [172.642184, -43.520425], [172.642196, -43.520319], [172.641948, -43.520316], [172.641947, -43.520193], [172.641706, -43.520195], [172.641708, -43.520342], [172.641445, -43.520345], [172.641447, -43.520683], [172.64093, -43.520681], [172.640939, -43.520334], [172.640245, -43.520336], [172.640248, -43.520378], [172.639757, -43.520378], [172.639753, -43.520683], [172.639273, -43.520686], [172.639272, -43.520318], [172.639057, -43.52032], [172.639051, -43.520177], [172.638821, -43.520183], [172.638822, -43.520683], [172.638797, -43.520686], [172.638794, -43.520295], [172.638516, -43.520297], [172.638515, -43.520403], [172.638216, -43.520403], [172.638217, -43.520688], [172.637964, -43.520642], [172.637965, -43.520344], [172.637067, -43.520356], [172.637069, -43.520331], [172.636902, -43.520331], [172.636896, -43.520692], [172.636723, -43.520688], [172.636482, -43.520641], [172.636479, -43.520657], [172.636468, -43.520672], [172.636452, -43.520684], [172.636434, -43.520691], [172.636414, -43.520694], [172.636393, -43.520693], [172.635924, -43.520692], [172.635925, -43.520526], [172.635828, -43.520528], [172.635833, -43.520698], [172.635318, -43.520697], [172.635316, -43.520427], [172.635086, -43.520433], [172.635079, -43.519913], [172.635052, -43.519911], [172.635052, -43.519869], [172.634442, -43.519872], [172.634441, -43.520069], [172.634136, -43.520068], [172.634134, -43.520156], [172.633704, -43.520158], [172.633704, -43.520652], [172.633463, -43.520703], [172.633442, -43.52033], [172.632599, -43.520326], [172.63261, -43.520695], [172.632406, -43.520656], [172.63239, -43.520376], [172.632058, -43.520372], [172.632058, -43.520205], [172.631704, -43.520174], [172.631693, -43.519906], [172.630883, -43.519882], [172.630887, -43.5203], [172.630431, -43.5203], [172.630435, -43.520466], [172.630212, -43.520464], [172.63021, -43.520701], [172.630012, -43.5207], [172.630002, -43.520441], [172.62968, -43.520447], [172.62968, -43.520301], [172.629326, -43.520304], [172.629321, -43.520251], [172.628542, -43.520251], [172.628539, -43.52044], [172.628343, -43.520437], [172.628343, -43.520701], [172.628091, -43.5207], [172.628223, -43.520885], [172.62834, -43.521049], [172.628087, -43.52108], [172.628158, -43.521203], [172.62743, -43.521514], [172.627118, -43.521078], [172.626653, -43.521061], [172.626609, -43.521062], [172.626565, -43.521069], [172.626524, -43.521081], [172.626487, -43.521099], [172.626454, -43.521121], [172.626426, -43.52115], [172.626406, -43.521183], [172.626396, -43.521218], [172.626395, -43.521254], [172.626405, -43.521289], [172.625914, -43.521369], [172.625758, -43.5211], [172.625723, -43.521049], [172.62568, -43.521002], [172.625628, -43.52096], [172.625583, -43.520929], [172.625533, -43.520902], [172.62548, -43.520879], [172.625367, -43.520852], [172.624871, -43.520781], [172.62458, -43.520741], [172.624537, -43.520738], [172.624494, -43.52074], [172.624452, -43.520748], [172.624402, -43.520764], [172.624357, -43.520789], [172.624251, -43.520873], [172.624187, -43.520953], [172.624074, -43.521031], [172.624027, -43.52108], [172.623994, -43.521212], [172.623978, -43.521265], [172.623955, -43.521316], [172.623922, -43.521365], [172.62388, -43.521414], [172.62383, -43.521458], [172.623755, -43.521521], [172.623699, -43.521544], [172.623508, -43.521603], [172.623288, -43.521699], [172.623242, -43.521724], [172.623202, -43.521754], [172.623167, -43.521788], [172.623138, -43.521829], [172.623118, -43.521872], [172.623107, -43.521917], [172.623094, -43.522079], [172.623094, -43.522109], [172.623087, -43.522139], [172.623073, -43.522167], [172.623035, -43.522192], [172.622979, -43.522222], [172.622869, -43.522265], [172.622777, -43.522296], [172.622698, -43.522315], [172.622661, -43.522323], [172.62259, -43.522334], [172.622553, -43.522335], [172.622504, -43.522333], [172.622489, -43.522335], [172.622467, -43.522338], [172.622443, -43.522341], [172.622412, -43.522341], [172.622383, -43.52234], [172.622353, -43.522336], [172.622299, -43.522328], [172.62223, -43.522324], [172.622146, -43.52232], [172.622083, -43.522316], [172.622044, -43.522313], [172.622019, -43.522312], [172.621967, -43.522305], [172.621857, -43.522288], [172.621768, -43.522284], [172.621693, -43.522292], [172.621634, -43.522293], [172.621588, -43.522283], [172.621457, -43.522265], [172.621233, -43.522235], [172.62108, -43.522213], [172.621026, -43.522216], [172.620955, -43.522224], [172.620783, -43.522237], [172.620302, -43.522253], [172.620188, -43.52226], [172.620093, -43.522266], [172.620055, -43.522264], [172.61999, -43.522268], [172.619927, -43.522277], [172.619851, -43.522292], [172.619806, -43.522292], [172.619785, -43.522295], [172.619629, -43.522309], [172.619546, -43.522316], [172.619469, -43.522315], [172.619226, -43.522352], [172.618904, -43.52237], [172.618894, -43.52238], [172.618875, -43.522387], [172.618861, -43.522387], [172.61882, -43.522385], [172.618801, -43.522387], [172.618772, -43.522388], [172.618712, -43.522384], [172.618671, -43.52238], [172.61857, -43.522375], [172.618489, -43.522366], [172.618441, -43.522364], [172.618419, -43.522365], [172.618401, -43.522367], [172.618387, -43.522367], [172.618346, -43.522373], [172.618329, -43.522373], [172.618288, -43.522378], [172.618241, -43.52239], [172.618209, -43.522396], [172.618163, -43.522408], [172.618147, -43.522412], [172.618134, -43.52242], [172.618099, -43.522437], [172.618051, -43.522465], [172.617964, -43.522526], [172.617956, -43.522532], [172.617946, -43.522537], [172.617897, -43.522563], [172.617896, -43.522564], [172.61789, -43.522567], [172.617885, -43.522568], [172.617882, -43.522569], [172.617881, -43.52257], [172.617879, -43.522572], [172.617872, -43.522573], [172.617861, -43.522575], [172.617848, -43.522579], [172.617837, -43.522583], [172.617829, -43.522586], [172.617816, -43.522593], [172.61779, -43.522615], [172.617762, -43.52264], [172.617754, -43.522643], [172.617741, -43.522645], [172.61773, -43.522649], [172.617721, -43.522656], [172.617635, -43.522653], [172.617602, -43.522649], [172.617571, -43.522648], [172.617541, -43.522645], [172.617512, -43.522638], [172.617497, -43.522636], [172.617473, -43.522635], [172.617448, -43.522634], [172.61741, -43.522631], [172.617389, -43.522628], [172.61736, -43.522628], [172.617291, -43.522632], [172.617255, -43.522637], [172.617224, -43.522643], [172.617211, -43.522647], [172.617197, -43.522652], [172.617163, -43.522662], [172.617129, -43.522674], [172.617096, -43.522684], [172.617067, -43.522693], [172.61704, -43.522701], [172.617015, -43.522708], [172.616984, -43.522721], [172.616956, -43.522732], [172.616928, -43.522741], [172.616899, -43.522751], [172.616874, -43.522757], [172.61685, -43.522761], [172.616848, -43.522761], [172.616822, -43.522767], [172.616816, -43.522768], [172.616798, -43.522774], [172.616767, -43.522786], [172.616748, -43.522794], [172.616746, -43.522795], [172.616725, -43.522803], [172.616702, -43.52281], [172.616678, -43.522818], [172.616659, -43.522827], [172.61662, -43.522851], [172.616601, -43.522861], [172.616584, -43.522873], [172.616568, -43.522886], [172.616542, -43.522906], [172.616524, -43.522919], [172.616504, -43.522926], [172.616468, -43.522949], [172.616429, -43.522983], [172.616404, -43.523014], [172.616396, -43.523046], [172.616337, -43.5231], [172.616303, -43.52312], [172.616285, -43.523131], [172.616266, -43.523153], [172.616236, -43.523171], [172.616121, -43.523265], [172.616087, -43.523307], [172.616062, -43.523359], [172.616064, -43.523374], [172.616066, -43.523392], [172.616029, -43.523426], [172.615951, -43.523462], [172.615796, -43.523511], [172.615764, -43.523491], [172.615578, -43.523525], [172.6155, -43.523536], [172.615442, -43.523537], [172.615361, -43.523533], [172.61534, -43.523532], [172.615323, -43.523534], [172.615309, -43.523533], [172.61529, -43.523533], [172.615222, -43.523535], [172.615204, -43.523534], [172.615192, -43.523533], [172.615142, -43.523527], [172.615125, -43.523522], [172.615117, -43.523516], [172.615102, -43.523511], [172.615096, -43.523507], [172.615079, -43.523499], [172.615061, -43.523494], [172.615036, -43.523489], [172.615028, -43.523487], [172.615005, -43.523477], [172.614994, -43.523476], [172.614984, -43.523475], [172.614958, -43.523472], [172.61492, -43.523463], [172.614912, -43.523462], [172.614907, -43.52346], [172.614891, -43.523452], [172.614825, -43.523428], [172.614779, -43.523407], [172.614728, -43.523379], [172.61471, -43.523362], [172.614662, -43.523341], [172.614632, -43.523328], [172.614609, -43.523315], [172.614588, -43.523308], [172.614562, -43.5233], [172.61454, -43.523294], [172.614503, -43.523291], [172.614481, -43.523286], [172.614465, -43.523285], [172.614447, -43.523282], [172.614424, -43.523281], [172.614386, -43.523284], [172.614356, -43.523283], [172.614339, -43.523283], [172.614308, -43.523286], [172.614298, -43.523287], [172.614284, -43.523287], [172.614258, -43.52328], [172.614243, -43.523279], [172.61423, -43.523283], [172.614214, -43.523286], [172.6142, -43.523287], [172.614193, -43.523286], [172.61419, -43.523284], [172.614171, -43.523282], [172.61415, -43.523284], [172.614142, -43.523287], [172.614134, -43.523289], [172.614123, -43.52329], [172.614114, -43.52329], [172.614099, -43.523292], [172.614086, -43.523294], [172.614077, -43.523293], [172.614069, -43.523293], [172.614046, -43.523294], [172.61403, -43.523295], [172.61401, -43.523296], [172.613988, -43.523301], [172.613984, -43.523304], [172.613975, -43.523308], [172.613967, -43.523315], [172.613963, -43.523317], [172.613961, -43.523319], [172.613953, -43.523324], [172.613941, -43.523327], [172.613933, -43.523327], [172.613909, -43.523323], [172.613901, -43.523322], [172.613894, -43.523324], [172.613884, -43.523328], [172.613869, -43.523333], [172.613867, -43.523333], [172.613848, -43.523336], [172.61384, -43.523334], [172.613835, -43.523334], [172.613825, -43.523337], [172.613823, -43.523339], [172.613819, -43.523341], [172.613819, -43.523343], [172.61382, -43.52335], [172.613819, -43.523352], [172.613819, -43.523353], [172.613823, -43.523396], [172.613824, -43.523442], [172.613821, -43.523488], [172.613804, -43.523651], [172.613801, -43.523668], [172.613794, -43.523686], [172.613784, -43.523699], [172.613765, -43.523717], [172.613743, -43.523733], [172.6137, -43.52376], [172.613646, -43.523796], [172.613598, -43.523825], [172.613572, -43.523838], [172.613543, -43.52385], [172.613513, -43.523858], [172.613469, -43.523876], [172.613437, -43.523884], [172.613402, -43.52389], [172.613355, -43.52389], [172.613314, -43.523878], [172.613241, -43.523879], [172.6132, -43.523891], [172.613271, -43.523963], [172.613189, -43.524017], [172.613262, -43.524199], [172.613276, -43.524237], [172.613311, -43.524313], [172.613333, -43.524388], [172.613194, -43.524459], [172.613019, -43.524647], [172.612781, -43.524989], [172.612623, -43.52544], [172.612598, -43.52567], [172.612288, -43.528756]]]}, "properties": {"display_name": "Christchurch Central, Linwood-Central-Heathcote Community, Christchurch City, Canterbury, 8011, New Zealand / Aotearoa", "type": "suburb", "osm_type": "relation", "osm_id": 2726686, "class": null, "keyword": "suburb"}}, {"type": "Feature", "geometry": {"type": "Polygon", "coordinates": [[[172.513592, -43.504603], [172.513633, -43.504698], [172.514745, -43.505029], [172.514964, -43.504667], [172.517956, -43.502091], [172.519047, -43.502403], [172.519833, -43.501019], [172.520441, -43.501202], [172.521604, -43.499209], [172.521613, -43.499212], [172.521615, -43.499208], [172.523855, -43.499894], [172.524807, -43.500204], [172.52633, -43.498969], [172.526786, -43.49857], [172.52704, -43.498614], [172.527978, -43.496901], [172.530228, -43.497513], [172.530275, -43.497418], [172.530653, -43.496649], [172.529566, -43.496069], [172.528673, -43.495837], [172.530405, -43.494467], [172.531591, -43.49514], [172.5333, -43.492236], [172.533515, -43.492146], [172.540064, -43.495444], [172.541233, -43.495693], [172.54705, -43.497591], [172.547213, -43.497548], [172.548226, -43.495746], [172.549404, -43.493595], [172.54947, -43.493137], [172.549183, -43.492774], [172.549255, -43.492582], [172.549286, -43.492492], [172.54957, -43.492404], [172.5505, -43.490726], [172.549392, -43.49032], [172.549541, -43.490122], [172.549603, -43.489768], [172.549704, -43.489322], [172.551033, -43.486454], [172.552227, -43.486799], [172.552436, -43.486139], [172.552492, -43.486146], [172.552929, -43.486021], [172.551243, -43.485769], [172.551859, -43.483902], [172.551329, -43.483691], [172.548895, -43.482902], [172.54877, -43.482847], [172.549018, -43.482604], [172.548166, -43.482063], [172.548282, -43.481684], [172.547218, -43.481495], [172.549492, -43.479515], [172.548563, -43.479157], [172.548186, -43.478834], [172.550121, -43.477128], [172.552714, -43.472374], [172.548516, -43.472214], [172.547352, -43.473184], [172.546293, -43.474403], [172.543945, -43.47641], [172.543224, -43.476385], [172.543194, -43.476561], [172.533973, -43.47626], [172.534133, -43.476457], [172.534187, -43.476785], [172.527016, -43.48336], [172.524959, -43.482146], [172.522303, -43.484432], [172.524536, -43.485776], [172.522947, -43.488617], [172.525093, -43.489218], [172.524348, -43.490542], [172.522164, -43.489894], [172.513592, -43.504603]]]}, "properties": {"display_name": "Christchurch Airport, Christchurch, Christchurch City, Canterbury, New Zealand / Aotearoa", "type": "suburb", "osm_type": "relation", "osm_id": 12714605, "class": null, "keyword": "suburb"}}, {"type": "Feature", "geometry": {"type": "Polygon", "coordinates": [[[172.634188, -43.538246], [172.634189, -43.538358], [172.634189, -43.538371], [172.63419, -43.538429], [172.63419, -43.53867], [172.634745, -43.538669], [172.634764, -43.538669], [172.634887, -43.538668], [172.634887, -43.538696], [172.634887, -43.538718], [172.634991, -43.538718], [172.634991, -43.538697], [172.634991, -43.538674], [172.635306, -43.538674], [172.635521, -43.538673], [172.635521, -43.538754], [172.635435, -43.538754], [172.635435, -43.538862], [172.63535, -43.538865], [172.635351, -43.538961], [172.63653, -43.538964], [172.636528, -43.538266], [172.636336, -43.538266], [172.636336, -43.538345], [172.636238, -43.538345], [172.636238, -43.538261], [172.636237, -43.538049], [172.635963, -43.538049], [172.635962, -43.537968], [172.635906, -43.537968], [172.635855, -43.537968], [172.635856, -43.538049], [172.635067, -43.53805], [172.635067, -43.537972], [172.635015, -43.537972], [172.634965, -43.537972], [172.634965, -43.538056], [172.63475, -43.538055], [172.63419, -43.538059], [172.634188, -43.538246]]]}, "properties": {"display_name": "South City Shopping Centre, 555, Colombo Street, Christchurch Central, Christchurch, Christchurch City, Canterbury, 8011, New Zealand / Aotearoa", "type": "mall", "osm_type": "way", "osm_id": 101522683, "class": null, "keyword": "city centre"}}, {"type": "Feature", "geometry": {"type": "Polygon", "coordinates": [[[172.63989, -43.533211], [172.63989, -43.53412], [172.640394, -43.534121], [172.640429, -43.534121], [172.640486, -43.534121], [172.640483, -43.533803], [172.640478, -43.533211], [172.640099, -43.533211], [172.63989, -43.533211]]]}, "properties": {"display_name": "Downtown, Christchurch Central, Linwood-Central-Heathcote Community, Christchurch City, Canterbury, New Zealand / Aotearoa", "type": "brownfield", "osm_type": "way", "osm_id": 682608909, "class": null, "keyword": "downtown"}}, {"type": "Feature", "geometry": {"type": "Polygon", "coordinates": [[[172.636012, -43.53367], [172.636015, -43.533711], [172.636018, -43.533946], [172.636018, -43.534133], [172.636484, -43.534132], [172.636519, -43.534078], [172.636516, -43.533906], [172.636511, -43.533685], [172.636485, -43.533673], [172.636012, -43.53367]]]}, "properties": {"display_name": "Mid City Centre, Lichfield Street, Christchurch Central, Linwood-Central-Heathcote Community, Christchurch City, Canterbury, 8011, New Zealand / Aotearoa", "type": "commercial", "osm_type": "way", "osm_id": 101374212, "class": null, "keyword": "city centre"}}, {"type": "Feature", "geometry": {"type": "Polygon", "coordinates": [[[172.645817, -43.531192], [172.645818, -43.531248], [172.646095, -43.531247], [172.646095, -43.531191], [172.645817, -43.531192]]]}, "properties": {"display_name": "Luxury Without Limits in CBD Christchurch 8011 Neuseeland, 278, Barbadoes Street, Christchurch Central, Christchurch, Christchurch City, Canterbury, 8011, New Zealand / Aotearoa", "type": "yes", "osm_type": "way", "osm_id": 101450953, "class": null, "keyword": "CBD"}}, {"type": "Feature", "geometry": {"type": "Polygon", "coordinates": [[[172.636836, -43.522667], [172.636973, -43.522667], [172.636973, -43.52269], [172.637057, -43.52269], [172.637057, -43.522637], [172.637004, -43.522637], [172.637004, -43.522616], [172.636836, -43.522616], [172.636836, -43.522667]]]}, "properties": {"display_name": "City Centre Motel, Colombo Street, Christchurch Central, Linwood-Central-Heathcote Community, Christchurch City, Canterbury, 8013, New Zealand / Aotearoa", "type": "motel", "osm_type": "way", "osm_id": 101735541, "class": null, "keyword": "city centre"}}, {"type": "Feature", "geometry": {"type": "Polygon", "coordinates": [[[172.655374, -43.520166], [172.655377, -43.520266], [172.655497, -43.520264], [172.655494, -43.520165], [172.655374, -43.520166]]]}, "properties": {"display_name": "Richmond Neighbourhood Cottage, Pavitt Street, Richmond, Linwood-Central-Heathcote Community, Christchurch City, Canterbury, 8013, New Zealand / Aotearoa", "type": "events_venue", "osm_type": "way", "osm_id": 1014934735, "class": null, "keyword": "neighbourhood"}}]}