{"type": "FeatureCollection", "features": [{"type": "Feature", "geometry": {"type": "Polygon", "coordinates": [[[121.169881, 30.327949], [121.171024, 30.325323], [121.173341, 30.32605], [121.173245, 30.326478], [121.17321, 30.326902], [121.173129, 30.32715], [121.172963, 30.32749], [121.172515, 30.328078], [121.172244, 30.328588], [121.17052, 30.328041], [121.170487, 30.328143], [121.169881, 30.327949]]]}, "properties": {"display_name": "杭州湾青少年学生实践基地管理中心, 滨海五路, 庵东镇, 慈溪市, 宁波市, 浙江省, 中国", "type": "school", "osm_type": "way", "osm_id": 1249403549, "class": null, "keyword": "市中心"}}, {"type": "Feature", "geometry": {"type": "Polygon", "coordinates": [[[121.342448, 30.292831], [121.342461, 30.29279], [121.345681, 30.291656], [121.346659, 30.2934], [121.343943, 30.294547], [121.343766, 30.294487], [121.343714, 30.294445], [121.342448, 30.292831]]]}, "properties": {"display_name": "慈溪市第七人民医院, 浦东路, 庵东镇, 慈溪市, 宁波市, 浙江省, 中国", "type": "hospital", "osm_type": "way", "osm_id": 1411122466, "class": null, "keyword": "市中心"}}, {"type": "Feature", "geometry": {"type": "Polygon", "coordinates": [[[121.224914, 30.332132], [121.225022, 30.331487], [121.225049, 30.331433], [121.225089, 30.33139], [121.225139, 30.331361], [121.225184, 30.331345], [121.225278, 30.331339], [121.22651, 30.331487], [121.226926, 30.329257], [121.228014, 30.329409], [121.22744, 30.332484], [121.224914, 30.332132]]]}, "properties": {"display_name": "宁波世纪金源购物中心, 金源大道, 庵东镇, 慈溪市, 宁波市, 浙江省, 中国", "type": "mall", "osm_type": "way", "osm_id": 697182390, "class": null, "keyword": "市中心"}}, {"type": "Feature", "geometry": {"type": "Polygon", "coordinates": [[[121.263356, 30.1626], [121.265355, 30.162561], [121.265357, 30.163558], [121.266158, 30.163565], [121.266186, 30.164019], [121.263742, 30.164609], [121.263453, 30.163368], [121.263356, 30.1626]]]}, "properties": {"display_name": "宁波市新城中学, 南二环东路, 白沙路街道, 慈溪市, 宁波市, 浙江省, 315300, 中国", "type": "school", "osm_type": "way", "osm_id": 1423916771, "class": null, "keyword": "市中心"}}, {"type": "Feature", "geometry": {"type": "Polygon", "coordinates": [[[121.233105, 30.204102], [121.234636, 30.203718], [121.235092, 30.205873], [121.23357, 30.206222], [121.233105, 30.204102]]]}, "properties": {"display_name": "慈溪市早期教育中心, 北三环西路, 宗汉街道, 慈溪市, 宁波市, 浙江省, 中国", "type": "kindergarten", "osm_type": "way", "osm_id": 1235075762, "class": null, "keyword": "市中心"}}, {"type": "Feature", "geometry": {"type": "Polygon", "coordinates": [[[121.266036, 30.180176], [121.266037, 30.180026], [121.266065, 30.179862], [121.266125, 30.17973], [121.266229, 30.179555], [121.266084, 30.179478], [121.266174, 30.179394], [121.266305, 30.179306], [121.266504, 30.179186], [121.266711, 30.179121], [121.266886, 30.179102], [121.267075, 30.179104], [121.267267, 30.179137], [121.267473, 30.179199], [121.267637, 30.179273], [121.267795, 30.179369], [121.26773, 30.179425], [121.267874, 30.179635], [121.267972, 30.179828], [121.268036, 30.180056], [121.268044, 30.180323], [121.267978, 30.180526], [121.267856, 30.180769], [121.267732, 30.18088], [121.267531, 30.181013], [121.267343, 30.181074], [121.267132, 30.18111], [121.26694, 30.181111], [121.266726, 30.181083], [121.266553, 30.18103], [121.266375, 30.180946], [121.266231, 30.180845], [121.266098, 30.180731], [121.266198, 30.180657], [121.266112, 30.180484], [121.266061, 30.180342], [121.266036, 30.180176]]]}, "properties": {"display_name": "慈溪市体育中心, 开发大道, 白沙路街道, 慈溪市, 宁波市, 浙江省, 315300, 中国", "type": "stadium", "osm_type": "way", "osm_id": 414265210, "class": null, "keyword": "市中心"}}, {"type": "Feature", "geometry": {"type": "Polygon", "coordinates": [[[121.271607, 30.198045], [121.271953, 30.197987], [121.271615, 30.197283], [121.27254, 30.197141], [121.272615, 30.197368], [121.272773, 30.197336], [121.272736, 30.197243], [121.273353, 30.197095], [121.273551, 30.197705], [121.273248, 30.197739], [121.273189, 30.197913], [121.27339, 30.197874], [121.273645, 30.198539], [121.273111, 30.198685], [121.273055, 30.198521], [121.272883, 30.198565], [121.272902, 30.198636], [121.271886, 30.198877], [121.271607, 30.198045]]]}, "properties": {"display_name": "慈溪环创爱琴海购物中心, 文华南路, 古塘街道, 慈溪市, 宁波市, 浙江省, 315300, 中国", "type": "mall", "osm_type": "way", "osm_id": 1250155382, "class": null, "keyword": "city centre"}}]}