{"type": "FeatureCollection", "features": [{"type": "Feature", "geometry": {"type": "Polygon", "coordinates": [[[23.590948, 46.76566], [23.591158, 46.765035], [23.590954, 46.764984], [23.591246, 46.764302], [23.591361, 46.763936], [23.591091, 46.763846], [23.591265, 46.763191], [23.591716, 46.762259], [23.592538, 46.762364], [23.592553, 46.762305], [23.592733, 46.761564], [23.592661, 46.76145], [23.592873, 46.760233], [23.592892, 46.760056], [23.593161, 46.759585], [23.593708, 46.758935], [23.593824, 46.758589], [23.594496, 46.758798], [23.595205, 46.758139], [23.595759, 46.758343], [23.59583, 46.758235], [23.596019, 46.758267], [23.596374, 46.758414], [23.596793, 46.758705], [23.59684, 46.758857], [23.597821, 46.758283], [23.598505, 46.758713], [23.596168, 46.760469], [23.594428, 46.76141], [23.594589, 46.761688], [23.594428, 46.761726], [23.594314, 46.76175], [23.593882, 46.761801], [23.594687, 46.76295], [23.594724, 46.763105], [23.594762, 46.763376], [23.59474, 46.764017], [23.594746, 46.764709], [23.59491, 46.76511], [23.594992, 46.765262], [23.595007, 46.765323], [23.595023, 46.765413], [23.594666, 46.765586], [23.59525, 46.765596], [23.595594, 46.765515], [23.595527, 46.766134], [23.595395, 46.766576], [23.595567, 46.766646], [23.595712, 46.766734], [23.5957, 46.766814], [23.591502, 46.765893], [23.591463, 46.765942], [23.591394, 46.765928], [23.591472, 46.765715], [23.59143, 46.76571], [23.59133, 46.7657], [23.590948, 46.76566]]]}, "properties": {"display_name": "Cimitirul Central, Strada Ion Mincu, Centru, Cluj-Napoca, Zona Metropolitană Cluj, Cluj, 400489, România", "type": "attraction", "osm_type": "way", "osm_id": 23893411, "class": null, "keyword": "central area"}}, {"type": "Feature", "geometry": {"type": "Polygon", "coordinates": [[[23.574458, 46.769619], [23.57448, 46.769526], [23.574504, 46.769457], [23.57521, 46.767699], [23.57526, 46.767648], [23.575321, 46.767613], [23.575391, 46.767593], [23.575488, 46.76758], [23.575597, 46.767586], [23.578134, 46.768049], [23.579318, 46.768469], [23.580027, 46.768852], [23.579223, 46.769761], [23.583078, 46.771379], [23.583727, 46.771923], [23.583184, 46.772151], [23.583119, 46.772171], [23.583049, 46.772185], [23.582981, 46.772193], [23.582906, 46.772192], [23.582829, 46.772185], [23.582752, 46.772159], [23.581618, 46.771623], [23.581454, 46.771565], [23.581317, 46.771521], [23.581019, 46.771437], [23.57909, 46.770988], [23.578721, 46.770901], [23.578603, 46.770874], [23.578326, 46.770804], [23.577879, 46.770692], [23.576098, 46.770256], [23.575685, 46.770183], [23.574625, 46.770011], [23.574491, 46.769982], [23.574459, 46.769957], [23.574458, 46.769619]]]}, "properties": {"display_name": "Parcul Central Simion Bărnuțiu, Centru, Cluj-Napoca, Zona Metropolitană Cluj, Cluj, România", "type": "park", "osm_type": "way", "osm_id": 23893331, "class": null, "keyword": "central area"}}, {"type": "Feature", "geometry": {"type": "Polygon", "coordinates": [[[23.584285, 46.767017], [23.584523, 46.766627], [23.584732, 46.766686], [23.584781, 46.7667], [23.584844, 46.766718], [23.585235, 46.766829], [23.585334, 46.767027], [23.585306, 46.767066], [23.585287, 46.767093], [23.584994, 46.767504], [23.584458, 46.767338], [23.584506, 46.767234], [23.58453, 46.767182], [23.584477, 46.767076], [23.584285, 46.767017]]]}, "properties": {"display_name": "Biblioteca Centrală Universitară „Lucian Blaga”, Strada Clinicilor, Centru, Cluj-Napoca, Zona Metropolitană Cluj, Cluj, 400013, România", "type": "library", "osm_type": "way", "osm_id": 108068967, "class": null, "keyword": "central area"}}, {"type": "Feature", "geometry": {"type": "Polygon", "coordinates": [[[23.590529, 46.744093], [23.590984, 46.744085], [23.591057, 46.745062], [23.590635, 46.74508], [23.590625, 46.74499], [23.590532, 46.744121], [23.590529, 46.744093]]]}, "properties": {"display_name": "UpTown Residence, Europa, Cluj-Napoca, Zona Metropolitană Cluj, Cluj, România", "type": "residential", "osm_type": "way", "osm_id": 596513383, "class": null, "keyword": "uptown"}}, {"type": "Feature", "geometry": {"type": "Polygon", "coordinates": [[[23.589043, 46.772963], [23.589044, 46.772961], [23.589198, 46.772647], [23.589955, 46.772822], [23.589971, 46.77279], [23.590124, 46.772826], [23.590065, 46.772945], [23.58993, 46.773222], [23.589457, 46.773113], [23.589482, 46.773064], [23.589043, 46.772963]]]}, "properties": {"display_name": "Central, 22-26, Strada Regele Ferdinand, Centru, Cluj-Napoca, Zona Metropolitană Cluj, Cluj, 400110, România", "type": "mall", "osm_type": "way", "osm_id": 154946207, "class": null, "keyword": "central area"}}, {"type": "Feature", "geometry": {"type": "Polygon", "coordinates": [[[23.584487, 46.768371], [23.584551, 46.768273], [23.584715, 46.768023], [23.584715, 46.768022], [23.585084, 46.768098], [23.5851, 46.768072], [23.585116, 46.768045], [23.585017, 46.768018], [23.585066, 46.767937], [23.585336, 46.768016], [23.58527, 46.768116], [23.584968, 46.768567], [23.584487, 46.768371]], [[23.584633, 46.768274], [23.584704, 46.768309], [23.58478, 46.768203], [23.584672, 46.768174], [23.58466, 46.76819], [23.584676, 46.768197], [23.584633, 46.768274]], [[23.584846, 46.768381], [23.584935, 46.768417], [23.585025, 46.768275], [23.584934, 46.768255], [23.584846, 46.768381]]]}, "properties": {"display_name": "Primăria Municipiului Cluj-Napoca, 3, Calea Moților, Centru, Cluj-Napoca, Zona Metropolitană Cluj, Cluj, 400030, România", "type": "townhall", "osm_type": "relation", "osm_id": 3765284, "class": null, "keyword": "city center"}}, {"type": "Feature", "geometry": {"type": "Polygon", "coordinates": [[[23.60152, 46.77113], [23.601878, 46.770654], [23.602024, 46.770705], [23.602141, 46.770746], [23.602216, 46.770773], [23.601916, 46.771172], [23.601827, 46.771141], [23.601714, 46.771101], [23.601656, 46.771178], [23.60152, 46.77113]]]}, "properties": {"display_name": "Cluj City Center, 14-16, Calea Dorobanților, Centru, Cluj-Napoca, Zona Metropolitană Cluj, Cluj, 400117, România", "type": "commercial", "osm_type": "way", "osm_id": 276704871, "class": null, "keyword": "city center"}}, {"type": "Feature", "geometry": {"type": "Polygon", "coordinates": [[[23.583856, 46.769618], [23.584208, 46.769282], [23.584352, 46.769353], [23.584312, 46.769392], [23.58419, 46.769511], [23.584145, 46.769551], [23.584396, 46.769676], [23.584267, 46.769836], [23.584234, 46.769823], [23.584268, 46.769783], [23.584023, 46.769667], [23.584, 46.769689], [23.583889, 46.769634], [23.583856, 46.769618]]]}, "properties": {"display_name": "DoubleTree by Hilton - City Plaza, 9-13, Strada Sindicatelor, Centru, Cluj-Napoca, Zona Metropolitană Cluj, Cluj, 400029, România", "type": "hotel", "osm_type": "relation", "osm_id": 13957612, "class": null, "keyword": "city center"}}, {"type": "Feature", "geometry": {"type": "Polygon", "coordinates": [[[23.59253, 46.773503], [23.592541, 46.773292], [23.593445, 46.773281], [23.593341, 46.773322], [23.593208, 46.773358], [23.593066, 46.773385], [23.592847, 46.773412], [23.592808, 46.773417], [23.59253, 46.773503]]]}, "properties": {"display_name": "City Business Center, 1, Strada Cuza Vodă, Centru, Cluj-Napoca, Zona Metropolitană Cluj, Cluj, 400107, România", "type": "commercial", "osm_type": "way", "osm_id": 54827397, "class": null, "keyword": "city center"}}]}