{"type": "FeatureCollection", "features": [{"type": "Feature", "geometry": {"type": "Polygon", "coordinates": [[[2.378368, 6.38332], [2.378588, 6.383007], [2.379011, 6.38225], [2.379154, 6.381853], [2.379257, 6.381486], [2.379488, 6.379872], [2.379565, 6.379599], [2.379845, 6.379164], [2.380288, 6.378532], [2.381422, 6.377671], [2.382621, 6.37752], [2.389327, 6.377148], [2.389738, 6.377114], [2.389856, 6.377105], [2.395877, 6.376763], [2.39977, 6.379834], [2.405916, 6.384696], [2.402384, 6.388859], [2.401574, 6.389854], [2.400693, 6.390338], [2.399862, 6.390638], [2.395409, 6.390816], [2.392347, 6.390896], [2.389657, 6.390926], [2.389239, 6.39082], [2.387938, 6.390198], [2.387507, 6.389886], [2.386858, 6.38923], [2.38422, 6.386275], [2.383766, 6.385853], [2.383099, 6.385393], [2.378368, 6.38332]]]}, "properties": {"display_name": "10ème Arrondissement, Cotonou, Littoral, Bénin", "type": "administrative", "osm_type": "relation", "osm_id": 3157673, "class": null, "keyword": "arrondissement"}}, {"type": "Feature", "geometry": {"type": "Polygon", "coordinates": [[[2.389738, 6.377114], [2.389779, 6.3767], [2.389932, 6.376536], [2.390367, 6.376144], [2.390472, 6.376028], [2.390921, 6.375236], [2.392086, 6.372536], [2.392843, 6.372065], [2.393233, 6.371689], [2.393407, 6.37142], [2.393558, 6.370918], [2.394263, 6.368284], [2.396777, 6.368817], [2.400107, 6.369388], [2.400448, 6.369398], [2.400907, 6.369364], [2.401478, 6.369275], [2.403014, 6.368557], [2.403505, 6.368183], [2.409667, 6.360512], [2.411008, 6.359413], [2.414219, 6.358658], [2.416847, 6.358099], [2.41824, 6.357889], [2.422111, 6.360979], [2.415656, 6.366463], [2.413963, 6.367888], [2.411043, 6.370385], [2.409798, 6.371473], [2.408997, 6.372137], [2.406994, 6.37385], [2.406231, 6.374501], [2.405776, 6.374831], [2.405273, 6.375164], [2.404901, 6.37538], [2.404565, 6.375556], [2.404151, 6.375746], [2.403707, 6.375932], [2.402747, 6.376218], [2.401838, 6.376393], [2.400722, 6.376508], [2.395877, 6.376763], [2.389856, 6.377105], [2.389738, 6.377114]]]}, "properties": {"display_name": "11ème Arrondissement, Cotonou, Littoral, Bénin", "type": "administrative", "osm_type": "relation", "osm_id": 3157833, "class": null, "keyword": "arrondissement"}}, {"type": "Feature", "geometry": {"type": "Polygon", "coordinates": [[[2.395877, 6.376763], [2.400722, 6.376508], [2.401838, 6.376393], [2.402747, 6.376218], [2.403707, 6.375932], [2.404151, 6.375746], [2.404565, 6.375556], [2.404901, 6.37538], [2.405273, 6.375164], [2.405776, 6.374831], [2.406231, 6.374501], [2.406994, 6.37385], [2.408997, 6.372137], [2.409798, 6.371473], [2.411373, 6.372698], [2.420049, 6.379559], [2.413808, 6.387436], [2.405916, 6.384696], [2.39977, 6.379834], [2.395877, 6.376763]]]}, "properties": {"display_name": "8ème Arrondissement, Cotonou, Littoral, Bénin", "type": "administrative", "osm_type": "relation", "osm_id": 3157674, "class": null, "keyword": "arrondissement"}}, {"type": "Feature", "geometry": {"type": "Polygon", "coordinates": [[[2.409798, 6.371473], [2.411043, 6.370385], [2.413963, 6.367888], [2.415656, 6.366463], [2.422111, 6.360979], [2.429869, 6.367149], [2.427641, 6.369942], [2.420049, 6.379559], [2.411373, 6.372698], [2.409798, 6.371473]]]}, "properties": {"display_name": "7ème Arrondissement, Cotonou, Littoral, Bénin", "type": "administrative", "osm_type": "relation", "osm_id": 3157689, "class": null, "keyword": "arrondissement"}}, {"type": "Feature", "geometry": {"type": "Polygon", "coordinates": [[[2.443516, 6.381455], [2.444606, 6.381444], [2.44463, 6.382233], [2.444576, 6.382278], [2.443516, 6.382276], [2.443516, 6.381455]]]}, "properties": {"display_name": "Bureau d'arrondissement, 3ème Arrondissement, Cotonou, Littoral, Bénin", "type": "commercial", "osm_type": "way", "osm_id": 827044886, "class": null, "keyword": "arrondissement"}}]}