{"type": "FeatureCollection", "features": [{"type": "Feature", "geometry": {"type": "Polygon", "coordinates": [[[108.224715, 16.043882], [108.224863, 16.042395], [108.224898, 16.042096], [108.225438, 16.042153], [108.225483, 16.041764], [108.225659, 16.040265], [108.225712, 16.039871], [108.225722, 16.03979], [108.225908, 16.03826], [108.226676, 16.03835], [108.22769, 16.03847], [108.22769, 16.038524], [108.228314, 16.038587], [108.228387, 16.038594], [108.228529, 16.038608], [108.228583, 16.038614], [108.228626, 16.038618], [108.22867, 16.038623], [108.228694, 16.038625], [108.228751, 16.038631], [108.228792, 16.038636], [108.228936, 16.038654], [108.229009, 16.038661], [108.229578, 16.038715], [108.229548, 16.03913], [108.229583, 16.039311], [108.229485, 16.040302], [108.2292, 16.040295], [108.229195, 16.04038], [108.22915, 16.040377], [108.229069, 16.041024], [108.228994, 16.04103], [108.228851, 16.04101], [108.228806, 16.041003], [108.228416, 16.040964], [108.228372, 16.04096], [108.227982, 16.040918], [108.227938, 16.040912], [108.227813, 16.040901], [108.227784, 16.04112], [108.227752, 16.041324], [108.227729, 16.041496], [108.227724, 16.041562], [108.227723, 16.041582], [108.227657, 16.041633], [108.227691, 16.041731], [108.227677, 16.041966], [108.227636, 16.042131], [108.227598, 16.04225], [108.227551, 16.042356], [108.227452, 16.042502], [108.227396, 16.042561], [108.227334, 16.042614], [108.227167, 16.04271], [108.227094, 16.04276], [108.227025, 16.042829], [108.226965, 16.04291], [108.226681, 16.043117], [108.226633, 16.043161], [108.226604, 16.043218], [108.226593, 16.043268], [108.226588, 16.043322], [108.226568, 16.043493], [108.226539, 16.043546], [108.226411, 16.043549], [108.226351, 16.0436], [108.226253, 16.043601], [108.226204, 16.043622], [108.226167, 16.043659], [108.226152, 16.043709], [108.226114, 16.043961], [108.226013, 16.044067], [108.22599, 16.044083], [108.225885, 16.044157], [108.225805, 16.044007], [108.225737, 16.043872], [108.225674, 16.043823], [108.225473, 16.043977], [108.224715, 16.043882]]]}, "properties": {"display_name": "Da Nang Downtown, Đại lộ Phan Đăng Lưu, Phường Hòa Cường, Thành phố Đà Nẵng, 02363, Việt Nam", "type": "theme_park", "osm_type": "way", "osm_id": 667422708, "class": null, "keyword": "downtown"}}]}