{"type": "FeatureCollection", "features": [{"type": "Feature", "geometry": {"type": "Polygon", "coordinates": [[[128.672223, 35.84358], [128.675894, 35.841901], [128.677045, 35.843369], [128.673194, 35.845216], [128.672223, 35.84358]]]}, "properties": {"display_name": "대구지방법원·고등법원 이전예정지, 고산2동, 수성구, 대구광역시, 42250, 대한민국", "type": "brownfield", "osm_type": "way", "osm_id": 1084540287, "class": null, "keyword": "district"}}, {"type": "Feature", "geometry": {"type": "Polygon", "coordinates": [[[128.567578, 35.941124], [128.568487, 35.941013], [128.570721, 35.94285], [128.570649, 35.943167], [128.567969, 35.943505], [128.567578, 35.941124]]]}, "properties": {"display_name": "함지근린공원, 구암동, 북구, 대구광역시, 대한민국", "type": "park", "osm_type": "way", "osm_id": 634573941, "class": null, "keyword": "neighborhood"}}, {"type": "Feature", "geometry": {"type": "Polygon", "coordinates": [[[128.478165, 35.848508], [128.47837, 35.848516], [128.478388, 35.849466], [128.482978, 35.849474], [128.483006, 35.848492], [128.484777, 35.848386], [128.484867, 35.848385], [128.484929, 35.848408], [128.48496, 35.848459], [128.484976, 35.84852], [128.484928, 35.849725], [128.478203, 35.849703], [128.478165, 35.848508]]]}, "properties": {"display_name": "호산근린공원, 성서산업단지, 신당동, 달서구, 대구광역시, 대한민국", "type": "park", "osm_type": "way", "osm_id": 281252301, "class": null, "keyword": "neighborhood"}}, {"type": "Feature", "geometry": {"type": "Polygon", "coordinates": [[[128.582409, 35.869998], [128.58244, 35.868978], [128.582496, 35.867169], [128.582813, 35.867179], [128.582829, 35.867478], [128.583399, 35.867503], [128.583451, 35.867274], [128.584354, 35.867581], [128.584073, 35.86786], [128.583889, 35.868093], [128.583837, 35.868238], [128.583822, 35.868343], [128.583701, 35.868834], [128.583549, 35.869068], [128.583431, 35.869259], [128.583375, 35.869509], [128.58331, 35.869778], [128.584151, 35.869941], [128.584128, 35.870119], [128.582409, 35.869998]]]}, "properties": {"display_name": "계명대학교 대구동산병원, 달구벌대로405길, 동산동, 성내2동, 중구, 대구광역시, 41931, 대한민국", "type": "hospital", "osm_type": "way", "osm_id": 631222765, "class": null, "keyword": "市中心"}}, {"type": "Feature", "geometry": {"type": "Polygon", "coordinates": [[[128.527193, 35.855554], [128.530409, 35.855559], [128.530392, 35.856011], [128.527199, 35.856029], [128.527193, 35.855554]]]}, "properties": {"display_name": "용산근린공원, 용산동, 용산1동, 달서구, 대구광역시, 42630, 대한민국", "type": "park", "osm_type": "way", "osm_id": 468926775, "class": null, "keyword": "neighborhood"}}, {"type": "Feature", "geometry": {"type": "Polygon", "coordinates": [[[128.528581, 35.853294], [128.528587, 35.85273], [128.529671, 35.852734], [128.529667, 35.852643], [128.529605, 35.852635], [128.529542, 35.852618], [128.529496, 35.852587], [128.52946, 35.852543], [128.530246, 35.852535], [128.530249, 35.852639], [128.529874, 35.852643], [128.529878, 35.852734], [128.53024, 35.85273], [128.530232, 35.853279], [128.528581, 35.853294]]]}, "properties": {"display_name": "대구학생문화센터, 용산로, 용산동, 용산1동, 달서구, 대구광역시, 42685, 대한민국", "type": "community_centre", "osm_type": "way", "osm_id": 472059416, "class": null, "keyword": "city center"}}, {"type": "Feature", "geometry": {"type": "Polygon", "coordinates": [[[128.551645, 35.924593], [128.552089, 35.924357], [128.552266, 35.924574], [128.551821, 35.92481], [128.551645, 35.924593]]]}, "properties": {"display_name": "대구운전면허시험장, 태암남로, 구암동, 북구, 대구광역시, 41466, 대한민국", "type": "commercial", "osm_type": "way", "osm_id": 67142720, "class": null, "keyword": "city centre"}}, {"type": "Feature", "geometry": {"type": "Polygon", "coordinates": [[[128.557951, 35.871507], [128.557989, 35.871364], [128.558491, 35.871453], [128.558452, 35.871596], [128.558175, 35.871547], [128.558188, 35.871573], [128.558188, 35.871582], [128.558154, 35.87164], [128.558071, 35.871668], [128.558043, 35.871665], [128.557988, 35.87164], [128.557954, 35.871573], [128.55796, 35.871542], [128.557983, 35.871513], [128.557951, 35.871507]]]}, "properties": {"display_name": "대구 서부경찰서, 국채보상로, 대신동, 평리3동, 서구, 대구광역시, 41782, 대한민국", "type": "police", "osm_type": "way", "osm_id": 157204849, "class": null, "keyword": "市中心"}}, {"type": "Feature", "geometry": {"type": "Polygon", "coordinates": [[[128.58291, 35.86745], [128.582925, 35.867248], [128.583365, 35.867269], [128.58335, 35.867471], [128.58291, 35.86745]]]}, "properties": {"display_name": "대구 제이교회, 달구벌대로405길, 동산동, 성내2동, 중구, 대구광역시, 41931, 대한민국", "type": "place_of_worship", "osm_type": "way", "osm_id": 474006586, "class": null, "keyword": "市中心"}}, {"type": "Feature", "geometry": {"type": "Polygon", "coordinates": [[[128.569316, 36.240567], [128.569487, 36.240574], [128.569474, 36.240829], [128.56932, 36.240823], [128.569316, 36.240567]]]}, "properties": {"display_name": "대구지방법원군위군법원, 도군로, 군위읍, 군위군, 대구광역시, 43114, 대한민국", "type": "courthouse", "osm_type": "way", "osm_id": 857437360, "class": null, "keyword": "district"}}, {"type": "Feature", "geometry": {"type": "Polygon", "coordinates": [[[128.583519, 35.842307], [128.583605, 35.842192], [128.583814, 35.842291], [128.583758, 35.842364], [128.583702, 35.842336], [128.583671, 35.842379], [128.583519, 35.842307]]]}, "properties": {"display_name": "대구남부경찰서 민원봉사실, 249, 대명로, 대명5동, 남구, 대구광역시, 42421, 대한민국", "type": "public", "osm_type": "way", "osm_id": 1219424423, "class": null, "keyword": "city center"}}, {"type": "Feature", "geometry": {"type": "Polygon", "coordinates": [[[128.461441, 35.861795], [128.461544, 35.861689], [128.461674, 35.861772], [128.461628, 35.861819], [128.461565, 35.861778], [128.461508, 35.861837], [128.461441, 35.861795]]]}, "properties": {"display_name": "맥도날드, 825, 달구벌대로, 다사읍, 달성군, 대구광역시, 42910, 대한민국", "type": "fast_food", "osm_type": "way", "osm_id": 567066836, "class": null, "keyword": "老城"}}]}