{"type": "FeatureCollection", "features": [{"type": "Feature", "geometry": {"type": "MultiPolygon", "coordinates": [[[[127.373035, 36.376408], [127.37328, 36.376143], [127.373797, 36.375876], [127.373932, 36.375666], [127.373849, 36.375307], [127.374018, 36.375089], [127.374204, 36.375209], [127.374597, 36.374984], [127.374709, 36.375029], [127.375005, 36.374942], [127.375169, 36.374629], [127.375678, 36.374333], [127.37591, 36.373847], [127.375945, 36.373266], [127.375878, 36.373224], [127.376027, 36.373052], [127.378046, 36.374151], [127.376782, 36.375792], [127.376599, 36.375967], [127.376138, 36.376545], [127.375736, 36.376945], [127.375605, 36.377059], [127.375371, 36.377204], [127.375229, 36.377259], [127.37476, 36.377327], [127.374413, 36.377351], [127.373183, 36.377448], [127.373035, 36.376408]]], [[[127.376619, 36.376969], [127.377043, 36.37637], [127.377751, 36.375628], [127.378596, 36.374465], [127.379304, 36.374813], [127.379356, 36.374886], [127.379292, 36.375199], [127.379367, 36.375717], [127.379321, 36.375922], [127.379298, 36.376002], [127.379221, 36.37622], [127.379199, 36.376322], [127.379117, 36.376376], [127.378751, 36.37754], [127.378536, 36.37809], [127.378369, 36.378136], [127.378173, 36.378096], [127.37729, 36.377786], [127.377093, 36.377717], [127.376727, 36.377443], [127.376619, 36.376969]]]]}, "properties": {"display_name": "국립중앙과학관, 481, 대덕대로, 도룡동, 신성동, 유성구, 대전광역시, 34143, 대한민국", "type": "museum", "osm_type": "relation", "osm_id": 12662149, "class": null, "keyword": "中心城区"}}, {"type": "Feature", "geometry": {"type": "Polygon", "coordinates": [[[127.324043, 36.365831], [127.324051, 36.364716], [127.324083, 36.364602], [127.324119, 36.364506], [127.32418, 36.364422], [127.324264, 36.364349], [127.324374, 36.364293], [127.324482, 36.364262], [127.324624, 36.364245], [127.325518, 36.364244], [127.325618, 36.364244], [127.32575, 36.364257], [127.325861, 36.364291], [127.325968, 36.364345], [127.326057, 36.364421], [127.326115, 36.36451], [127.326154, 36.364614], [127.326167, 36.364712], [127.326169, 36.365791], [127.326165, 36.365867], [127.326157, 36.365951], [127.326119, 36.36605], [127.326047, 36.366132], [127.325968, 36.366206], [127.325875, 36.366258], [127.325753, 36.366298], [127.325629, 36.366312], [127.324634, 36.36631], [127.324504, 36.366296], [127.324373, 36.366254], [127.324264, 36.366202], [127.324169, 36.36613], [127.324101, 36.36604], [127.324059, 36.365935], [127.324043, 36.365831]]]}, "properties": {"display_name": "대전월드컵경기장, 한밭대로, 노은동, 노은1동, 유성구, 대전광역시, 34091, 대한민국", "type": "stadium", "osm_type": "way", "osm_id": 27770920, "class": null, "keyword": "老城区"}}, {"type": "Feature", "geometry": {"type": "Polygon", "coordinates": [[[127.458213, 36.358609], [127.458245, 36.358406], [127.458289, 36.358245], [127.458412, 36.358082], [127.458541, 36.35796], [127.458668, 36.357889], [127.45868, 36.357654], [127.458663, 36.357535], [127.458712, 36.356833], [127.458827, 36.356835], [127.460267, 36.356812], [127.460373, 36.356848], [127.460483, 36.356906], [127.46054, 36.357001], [127.460571, 36.357107], [127.460576, 36.357205], [127.460547, 36.357309], [127.460492, 36.357431], [127.46035, 36.357608], [127.460182, 36.35775], [127.459667, 36.358144], [127.459474, 36.358239], [127.459384, 36.358289], [127.459228, 36.358563], [127.459108, 36.358751], [127.458984, 36.359036], [127.459004, 36.359129], [127.459022, 36.359231], [127.459138, 36.359442], [127.459217, 36.359642], [127.459232, 36.359695], [127.459228, 36.359802], [127.459172, 36.359939], [127.459022, 36.360118], [127.458778, 36.360309], [127.458619, 36.360367], [127.458424, 36.360379], [127.458276, 36.360371], [127.458334, 36.359293], [127.458372, 36.359052], [127.458303, 36.358915], [127.458213, 36.358609]]]}, "properties": {"display_name": "길치근린공원, 비래동, 대덕구, 대전광역시, 대한민국", "type": "park", "osm_type": "way", "osm_id": 30166819, "class": null, "keyword": "neighborhood"}}, {"type": "Feature", "geometry": {"type": "Polygon", "coordinates": [[[127.373953, 36.325432], [127.374099, 36.325274], [127.37411, 36.325174], [127.374351, 36.325038], [127.375185, 36.325019], [127.375183, 36.325458], [127.375243, 36.325547], [127.37537, 36.325556], [127.375432, 36.325811], [127.375451, 36.326071], [127.375273, 36.326292], [127.375284, 36.327078], [127.375057, 36.327352], [127.374719, 36.327436], [127.374569, 36.327368], [127.374259, 36.327458], [127.374136, 36.327247], [127.374064, 36.326912], [127.374018, 36.326651], [127.373953, 36.325432]]]}, "properties": {"display_name": "도마변동근린공원, 변동, 도마1동, 서구, 대전광역시, 대한민국", "type": "park", "osm_type": "way", "osm_id": 29475694, "class": null, "keyword": "neighborhood"}}, {"type": "Feature", "geometry": {"type": "Polygon", "coordinates": [[[127.435739, 36.368949], [127.435902, 36.368278], [127.43652, 36.368064], [127.436795, 36.367829], [127.437164, 36.36756], [127.437567, 36.367905], [127.437799, 36.368852], [127.436778, 36.369011], [127.435739, 36.368949]]]}, "properties": {"display_name": "소리근린공원, 송촌동, 대덕구, 대전광역시, 대한민국", "type": "park", "osm_type": "way", "osm_id": 30758427, "class": null, "keyword": "neighborhood"}}, {"type": "Feature", "geometry": {"type": "Polygon", "coordinates": [[[127.320487, 36.369413], [127.320514, 36.368577], [127.320523, 36.368542], [127.320532, 36.36854], [127.32056, 36.368534], [127.322193, 36.368528], [127.322237, 36.368572], [127.322229, 36.369466], [127.322206, 36.369502], [127.320589, 36.369508], [127.320487, 36.369413]]]}, "properties": {"display_name": "대전노은초등학교, 노은동로99번길, 노은동, 노은1동, 유성구, 대전광역시, 34091, 대한민국", "type": "school", "osm_type": "way", "osm_id": 68910901, "class": null, "keyword": "老城区"}}, {"type": "Feature", "geometry": {"type": "Polygon", "coordinates": [[[127.388713, 36.374582], [127.389965, 36.374577], [127.390051, 36.374577], [127.389965, 36.375267], [127.389975, 36.375776], [127.389832, 36.375781], [127.389828, 36.375925], [127.388747, 36.375926], [127.388742, 36.374795], [127.388713, 36.374582]]]}, "properties": {"display_name": "대전컨벤션센터 제2전시장, 87, 엑스포로, 신성동, 유성구, 대전광역시, 34126, 대한민국", "type": "conference_centre", "osm_type": "way", "osm_id": 447332911, "class": null, "keyword": "city center"}}, {"type": "Feature", "geometry": {"type": "Polygon", "coordinates": [[[127.37104, 36.37695], [127.371264, 36.377191], [127.371639, 36.377555], [127.371881, 36.37776], [127.372294, 36.377941], [127.37231, 36.377989], [127.37233, 36.378694], [127.371049, 36.378703], [127.37104, 36.37695]]]}, "properties": {"display_name": "대전교육정보원, 대덕대로, 가정동, 신성동, 유성구, 대전광역시, 34143, 대한민국", "type": "research_institute", "osm_type": "way", "osm_id": 632816641, "class": null, "keyword": "city center"}}, {"type": "Feature", "geometry": {"type": "Polygon", "coordinates": [[[127.318768, 36.368564], [127.320339, 36.368563], [127.320368, 36.369412], [127.32029, 36.369492], [127.318819, 36.3695], [127.318776, 36.369459], [127.318768, 36.368564]]]}, "properties": {"display_name": "대전노은고등학교, 노은동로75번길, 노은동, 노은1동, 유성구, 대전광역시, 34091, 대한민국", "type": "school", "osm_type": "way", "osm_id": 68910902, "class": null, "keyword": "老城区"}}, {"type": "Feature", "geometry": {"type": "Polygon", "coordinates": [[[127.32151, 36.385718], [127.322211, 36.38509], [127.322568, 36.384966], [127.322616, 36.384982], [127.322991, 36.385641], [127.323203, 36.385986], [127.323192, 36.386013], [127.321921, 36.386468], [127.32151, 36.385718]]]}, "properties": {"display_name": "대전하기중학교, 송림로48번길, 노은2동, 유성구, 대전광역시, 34061, 대한민국", "type": "school", "osm_type": "way", "osm_id": 562215861, "class": null, "keyword": "老城区"}}, {"type": "Feature", "geometry": {"type": "Polygon", "coordinates": [[[127.33174, 36.389219], [127.332204, 36.388043], [127.332261, 36.388022], [127.333386, 36.388293], [127.333431, 36.38835], [127.333367, 36.388557], [127.332879, 36.389031], [127.332509, 36.38938], [127.332448, 36.38939], [127.331785, 36.389266], [127.33174, 36.389219]]]}, "properties": {"display_name": "대전송림초등학교, 123-14, 노은로410번길, 하기동, 노은2동, 유성구, 대전광역시, 34094, 대한민국", "type": "school", "osm_type": "way", "osm_id": 562253077, "class": null, "keyword": "老城区"}}, {"type": "Feature", "geometry": {"type": "Polygon", "coordinates": [[[127.312334, 36.390315], [127.312627, 36.389411], [127.312776, 36.389403], [127.313029, 36.389405], [127.313455, 36.389425], [127.313654, 36.38943], [127.313912, 36.389418], [127.313958, 36.38946], [127.313606, 36.390543], [127.313565, 36.390568], [127.312334, 36.390315]]]}, "properties": {"display_name": "대전반석초등학교, 30, 반석동로, 노은3동, 유성구, 대전광역시, 34068, 대한민국", "type": "school", "osm_type": "way", "osm_id": 561802722, "class": null, "keyword": "老城区"}}, {"type": "Feature", "geometry": {"type": "Polygon", "coordinates": [[[127.309527, 36.394306], [127.309734, 36.39368], [127.309896, 36.393212], [127.311032, 36.393438], [127.31068, 36.394551], [127.309527, 36.394306]]]}, "properties": {"display_name": "대전외삼중학교, 75, 반석동로, 노은3동, 유성구, 대전광역시, 34068, 대한민국", "type": "school", "osm_type": "way", "osm_id": 561548592, "class": null, "keyword": "老城区"}}, {"type": "Feature", "geometry": {"type": "Polygon", "coordinates": [[[127.323585, 36.369235], [127.324766, 36.369221], [127.324771, 36.370356], [127.32359, 36.37035], [127.323585, 36.369235]]]}, "properties": {"display_name": "대전노은중학교, 북유성대로, 노은동, 노은1동, 유성구, 대전광역시, 34091, 대한민국", "type": "school", "osm_type": "way", "osm_id": 68910907, "class": null, "keyword": "老城区"}}, {"type": "Feature", "geometry": {"type": "Polygon", "coordinates": [[[127.316596, 36.380232], [127.317733, 36.379915], [127.31815, 36.380921], [127.317002, 36.381328], [127.316816, 36.380676], [127.316596, 36.380232]]]}, "properties": {"display_name": "대전 지족초등학교, 노은동로, 노은2동, 유성구, 대전광역시, 34083, 대한민국", "type": "school", "osm_type": "way", "osm_id": 469678276, "class": null, "keyword": "老城区"}}, {"type": "Feature", "geometry": {"type": "Polygon", "coordinates": [[[127.320814, 36.388608], [127.320899, 36.38832], [127.321113, 36.388273], [127.321404, 36.388174], [127.321654, 36.388107], [127.322007, 36.387993], [127.322506, 36.388932], [127.321349, 36.389364], [127.321324, 36.389338], [127.321282, 36.389271], [127.321263, 36.389207], [127.321271, 36.389102], [127.32129, 36.388993], [127.321293, 36.388938], [127.321265, 36.388844], [127.321204, 36.38876], [127.321119, 36.388703], [127.321007, 36.388659], [127.320889, 36.388624], [127.320814, 36.388608]]]}, "properties": {"display_name": "대전하기초등학교, 32, 송림로19번길, 노은2동, 유성구, 대전광역시, 34061, 대한민국", "type": "school", "osm_type": "way", "osm_id": 562136586, "class": null, "keyword": "老城区"}}, {"type": "Feature", "geometry": {"type": "Polygon", "coordinates": [[[127.312927, 36.386285], [127.312939, 36.386266], [127.313329, 36.386213], [127.313402, 36.3862], [127.31352, 36.386155], [127.313711, 36.386065], [127.313796, 36.386039], [127.31395, 36.386021], [127.314205, 36.387234], [127.313168, 36.387362], [127.313139, 36.387296], [127.312927, 36.386285]]]}, "properties": {"display_name": "대전반석고등학교, 332, 지족로, 노은3동, 유성구, 대전광역시, 34068, 대한민국", "type": "school", "osm_type": "way", "osm_id": 561803661, "class": null, "keyword": "老城区"}}, {"type": "Feature", "geometry": {"type": "Polygon", "coordinates": [[[127.31512, 36.377361], [127.316343, 36.377365], [127.316332, 36.378374], [127.315345, 36.378397], [127.315201, 36.37822], [127.315131, 36.378052], [127.31512, 36.377361]]]}, "properties": {"display_name": "대전 지족고등학교, 노은서로, 노은2동, 유성구, 대전광역시, 34134, 대한민국", "type": "school", "osm_type": "way", "osm_id": 469676853, "class": null, "keyword": "老城区"}}, {"type": "Feature", "geometry": {"type": "Polygon", "coordinates": [[[127.302535, 36.379748], [127.302536, 36.379572], [127.302538, 36.379395], [127.302542, 36.37883], [127.303859, 36.378837], [127.303851, 36.379755], [127.302535, 36.379748]]]}, "properties": {"display_name": "대전새미래초등학교, 168, 지족로, 지족동, 노은3동, 유성구, 대전광역시, 34073, 대한민국", "type": "school", "osm_type": "way", "osm_id": 471425620, "class": null, "keyword": "老城区"}}, {"type": "Feature", "geometry": {"type": "Polygon", "coordinates": [[[127.383002, 36.366689], [127.383196, 36.366537], [127.383195, 36.366386], [127.383031, 36.366387], [127.38303, 36.366162], [127.383197, 36.366161], [127.383197, 36.366079], [127.38378, 36.366077], [127.383782, 36.366309], [127.38427, 36.366307], [127.384273, 36.366796], [127.384656, 36.366794], [127.384658, 36.367103], [127.383903, 36.367106], [127.383854, 36.367066], [127.383758, 36.367142], [127.383587, 36.367002], [127.383483, 36.367084], [127.383002, 36.366689]]]}, "properties": {"display_name": "대전예술의전당, 둔산대로117번길, 만년동, 서구, 대전광역시, 35203, 대한민국", "type": "arts_centre", "osm_type": "way", "osm_id": 32660185, "class": null, "keyword": "city center"}}, {"type": "Feature", "geometry": {"type": "Polygon", "coordinates": [[[127.304451, 36.379629], [127.304455, 36.378833], [127.305819, 36.378835], [127.305819, 36.379633], [127.304451, 36.379629]]]}, "properties": {"display_name": "대전새미래중학교, 55, 지족동로, 지족동, 노은3동, 유성구, 대전광역시, 34073, 대한민국", "type": "school", "osm_type": "way", "osm_id": 471425622, "class": null, "keyword": "老城区"}}, {"type": "Feature", "geometry": {"type": "Polygon", "coordinates": [[[127.390884, 36.375382], [127.390968, 36.375104], [127.391015, 36.375105], [127.390971, 36.374596], [127.391586, 36.374609], [127.391625, 36.374877], [127.391874, 36.374858], [127.391884, 36.374729], [127.39255, 36.374722], [127.392549, 36.375175], [127.392531, 36.37527], [127.39248, 36.375271], [127.392507, 36.375305], [127.392525, 36.375341], [127.392532, 36.37538], [127.392512, 36.375419], [127.392465, 36.375439], [127.392397, 36.375436], [127.392338, 36.375407], [127.392289, 36.375374], [127.392249, 36.375319], [127.392247, 36.375288], [127.391919, 36.37529], [127.390884, 36.375382]]]}, "properties": {"display_name": "대전컨벤션센터, 엑스포로, 신성동, 유성구, 대전광역시, 34125, 대한민국", "type": "conference_centre", "osm_type": "way", "osm_id": 367584484, "class": null, "keyword": "city center"}}, {"type": "Feature", "geometry": {"type": "Polygon", "coordinates": [[[127.427392, 36.362685], [127.428478, 36.362866], [127.428154, 36.363901], [127.427465, 36.363861], [127.427392, 36.362685]]]}, "properties": {"display_name": "중리근린공원, 중리동, 대덕구, 대전광역시, 대한민국", "type": "park", "osm_type": "way", "osm_id": 30758711, "class": null, "keyword": "neighborhood"}}, {"type": "Feature", "geometry": {"type": "Polygon", "coordinates": [[[127.411746, 36.312465], [127.411795, 36.312447], [127.412315, 36.312373], [127.412354, 36.312512], [127.412684, 36.312489], [127.412721, 36.312562], [127.412713, 36.312675], [127.412872, 36.312718], [127.412952, 36.312691], [127.41319, 36.313085], [127.413144, 36.313106], [127.412385, 36.313325], [127.411746, 36.312465]]]}, "properties": {"display_name": "대전기독교사회복지관, 과례로, 문화동, 문화1동, 중구, 대전광역시, 35015, 대한민국", "type": "social_facility", "osm_type": "way", "osm_id": 486566916, "class": null, "keyword": "city center"}}, {"type": "Feature", "geometry": {"type": "Polygon", "coordinates": [[[127.388735, 36.354619], [127.388736, 36.354356], [127.388805, 36.354356], [127.388805, 36.354254], [127.389259, 36.354255], [127.389712, 36.354256], [127.389712, 36.354359], [127.389772, 36.354359], [127.389771, 36.354619], [127.3897, 36.354619], [127.3897, 36.354722], [127.389657, 36.354722], [127.38954, 36.354721], [127.389492, 36.354721], [127.389492, 36.354787], [127.389014, 36.354786], [127.389014, 36.35471], [127.388804, 36.354709], [127.388805, 36.354619], [127.388735, 36.354619]]]}, "properties": {"display_name": "대전광역시고등법원 / 지방법원, 45, 둔산중로78번길, 둔산동, 둔산1동, 서구, 대전광역시, 35237, 대한민국", "type": "courthouse", "osm_type": "way", "osm_id": 503891715, "class": null, "keyword": "district"}}, {"type": "Feature", "geometry": {"type": "Polygon", "coordinates": [[[127.367596, 36.368212], [127.367786, 36.367974], [127.368121, 36.368148], [127.3681, 36.368174], [127.368423, 36.368341], [127.368405, 36.368363], [127.36874, 36.368536], [127.368673, 36.36862], [127.368471, 36.368515], [127.368348, 36.368669], [127.367878, 36.368426], [127.367919, 36.368374], [127.367871, 36.368349], [127.367946, 36.368255], [127.367846, 36.368204], [127.367817, 36.36824], [127.367731, 36.368195], [127.367682, 36.368257], [127.367596, 36.368212]]]}, "properties": {"display_name": "대전질환모델동물센터 (E18), 대학로, 구성동, 온천2동, 유성구, 대전광역시, 35201, 대한민국", "type": "university", "osm_type": "way", "osm_id": 78058717, "class": null, "keyword": "city center"}}, {"type": "Feature", "geometry": {"type": "Polygon", "coordinates": [[[127.38847, 36.377081], [127.388658, 36.376773], [127.388658, 36.376714], [127.38892, 36.376712], [127.38892, 36.376741], [127.388971, 36.376741], [127.388971, 36.376773], [127.388938, 36.376773], [127.389036, 36.376983], [127.388886, 36.376985], [127.388837, 36.376986], [127.388838, 36.377035], [127.38847, 36.377081]]]}, "properties": {"display_name": "Daejeon Expo Commemorate Center / World Expo Souvenirs Museum, 엑스포로97번길, 도룡동, 신성동, 유성구, 대전광역시, 34125, 대한민국", "type": "museum", "osm_type": "way", "osm_id": 1190791842, "class": null, "keyword": "city center"}}, {"type": "Feature", "geometry": {"type": "Polygon", "coordinates": [[[127.3827, 36.353641], [127.382701, 36.353524], [127.382735, 36.353522], [127.382781, 36.35351], [127.382804, 36.353498], [127.38283, 36.353476], [127.38284, 36.353468], [127.382845, 36.353459], [127.382853, 36.353437], [127.382859, 36.353408], [127.383068, 36.353406], [127.383073, 36.353437], [127.383079, 36.353467], [127.383086, 36.353476], [127.383124, 36.353505], [127.383141, 36.353512], [127.383168, 36.353522], [127.383194, 36.353523], [127.383193, 36.353639], [127.383165, 36.353648], [127.383125, 36.353667], [127.383108, 36.353678], [127.383091, 36.353695], [127.383084, 36.353715], [127.38307, 36.353765], [127.382852, 36.353764], [127.382851, 36.353736], [127.382845, 36.353705], [127.382836, 36.353697], [127.38283, 36.353687], [127.382806, 36.353668], [127.382782, 36.353659], [127.382769, 36.35365], [127.382741, 36.353644], [127.3827, 36.353641]]]}, "properties": {"display_name": "서대전세무서사거리, 대덕대로234번길, 둔산2동, 서구, 대전광역시, 35233, 대한민국", "type": "yes", "osm_type": "way", "osm_id": 1294774806, "class": null, "keyword": "district"}}, {"type": "Feature", "geometry": {"type": "Polygon", "coordinates": [[[127.415609, 36.316423], [127.415612, 36.316226], [127.416145, 36.316231], [127.416142, 36.316437], [127.415776, 36.316434], [127.415756, 36.316424], [127.415609, 36.316423]]]}, "properties": {"display_name": "암센터·종합건강증진센터, 과례로, 대사동, 문화1동, 중구, 대전광역시, 35015, 대한민국", "type": "hospital", "osm_type": "way", "osm_id": 551838584, "class": null, "keyword": "city center"}}, {"type": "Feature", "geometry": {"type": "Polygon", "coordinates": [[[127.355605, 36.397998], [127.355693, 36.39796], [127.355729, 36.398016], [127.355642, 36.398051], [127.355605, 36.397998]]]}, "properties": {"display_name": "충렬사, 1235, 유성대로, 장동, 신성동, 유성구, 대전광역시, 34104, 대한민국", "type": "monument", "osm_type": "way", "osm_id": 774882430, "class": null, "keyword": "中心城区"}}]}