{"type": "FeatureCollection", "features": [{"type": "Feature", "geometry": {"type": "MultiPolygon", "coordinates": [[[[113.740713, 23.064947], [113.742293, 23.060904], [113.74133, 23.060408], [113.742227, 23.058309], [113.744487, 23.060144], [113.748202, 23.057643], [113.747201, 23.056062], [113.748049, 23.055215], [113.748722, 23.05602], [113.748915, 23.056411], [113.74942, 23.056365], [113.749698, 23.055875], [113.750224, 23.055426], [113.749698, 23.05389], [113.754367, 23.051926], [113.754243, 23.051471], [113.755047, 23.051016], [113.755542, 23.049963], [113.756266, 23.050604], [113.756964, 23.050276], [113.757196, 23.050675], [113.758417, 23.049736], [113.758883, 23.050289], [113.759469, 23.050504], [113.759717, 23.049688], [113.761819, 23.050788], [113.762637, 23.050916], [113.762783, 23.051507], [113.762949, 23.051953], [113.763277, 23.052975], [113.764153, 23.052823], [113.764183, 23.05358], [113.764194, 23.053844], [113.765357, 23.053474], [113.765745, 23.054373], [113.768144, 23.056629], [113.766395, 23.058356], [113.768738, 23.058929], [113.771437, 23.05936], [113.770569, 23.061799], [113.769363, 23.063761], [113.771033, 23.065298], [113.77261, 23.063989], [113.774156, 23.064018], [113.772795, 23.061912], [113.77372, 23.060275], [113.775915, 23.061235], [113.776073, 23.060831], [113.77504, 23.060362], [113.776196, 23.057702], [113.777742, 23.057844], [113.77828, 23.056307], [113.777492, 23.055182], [113.777898, 23.054082], [113.77786, 23.052899], [113.775882, 23.052764], [113.775075, 23.051827], [113.77427, 23.051915], [113.773608, 23.051672], [113.773406, 23.047399], [113.773311, 23.045189], [113.773307, 23.044853], [113.772819, 23.040492], [113.771673, 23.036209], [113.769301, 23.036249], [113.768899, 23.035395], [113.768095, 23.035452], [113.767879, 23.036277], [113.761699, 23.036173], [113.761107, 23.033973], [113.761892, 23.033649], [113.76253, 23.034599], [113.76556, 23.034456], [113.765529, 23.033149], [113.764045, 23.033261], [113.764539, 23.031184], [113.764032, 23.030429], [113.764539, 23.030017], [113.764008, 23.028589], [113.765978, 23.026676], [113.765331, 23.025935], [113.761134, 23.021896], [113.757556, 23.018439], [113.756651, 23.017174], [113.751887, 23.01075], [113.747558, 23.004205], [113.753248, 23.001415], [113.753017, 23.00112], [113.750403, 22.997772], [113.751083, 22.997089], [113.751269, 22.996121], [113.757082, 22.992706], [113.754052, 22.988493], [113.761163, 22.984109], [113.761843, 22.985362], [113.762895, 22.985077], [113.762709, 22.983199], [113.762895, 22.98075], [113.758133, 22.98001], [113.758144, 22.977255], [113.758009, 22.976196], [113.758178, 22.973765], [113.75842, 22.972992], [113.755888, 22.972182], [113.755829, 22.971125], [113.757132, 22.970233], [113.760464, 22.96964], [113.76062, 22.968827], [113.760361, 22.967849], [113.76106, 22.966719], [113.760421, 22.966631], [113.758381, 22.968168], [113.757329, 22.968339], [113.756649, 22.968168], [113.756525, 22.966346], [113.755916, 22.966341], [113.755435, 22.967227], [113.753599, 22.96767], [113.751368, 22.966865], [113.748832, 22.968153], [113.748089, 22.964046], [113.747389, 22.963966], [113.746646, 22.96453], [113.745422, 22.96453], [113.745465, 22.963442], [113.746296, 22.962033], [113.746384, 22.960785], [113.742361, 22.960986], [113.742361, 22.959899], [113.744678, 22.960302], [113.74564, 22.960141], [113.746034, 22.959376], [113.745422, 22.957846], [113.745903, 22.957604], [113.746602, 22.957725], [113.747039, 22.95845], [113.749663, 22.958812], [113.751412, 22.95853], [113.753686, 22.95849], [113.753599, 22.95551], [113.752199, 22.956316], [113.750669, 22.957242], [113.749007, 22.957242], [113.749138, 22.956477], [113.750319, 22.956557], [113.752505, 22.955591], [113.752855, 22.955068], [113.751806, 22.954222], [113.751981, 22.953135], [113.7515, 22.952209], [113.751981, 22.951162], [113.752899, 22.949914], [113.753467, 22.949873], [113.753861, 22.950195], [113.752986, 22.951162], [113.752505, 22.95237], [113.753336, 22.954464], [113.754167, 22.952531], [113.754998, 22.952652], [113.754561, 22.95386], [113.754823, 22.954464], [113.756266, 22.954746], [113.757359, 22.954705], [113.757272, 22.952732], [113.757053, 22.950034], [113.758103, 22.950075], [113.758365, 22.949189], [113.759895, 22.949914], [113.760595, 22.949511], [113.760245, 22.948947], [113.759458, 22.948102], [113.759371, 22.947417], [113.761863, 22.948665], [113.761994, 22.949189], [113.761251, 22.949511], [113.761207, 22.950236], [113.761601, 22.953095], [113.763, 22.953054], [113.76335, 22.951564], [113.764705, 22.950961], [113.764837, 22.948786], [113.765011, 22.945887], [113.767154, 22.945444], [113.767023, 22.94488], [113.764312, 22.944719], [113.763612, 22.944035], [113.763569, 22.942907], [113.764443, 22.942464], [113.765318, 22.942222], [113.76558, 22.94033], [113.766192, 22.939484], [113.76593, 22.938075], [113.766323, 22.936424], [113.76781, 22.936585], [113.767941, 22.937672], [113.768772, 22.937108], [113.771221, 22.936263], [113.771702, 22.936907], [113.77262, 22.936786], [113.773538, 22.937149], [113.774369, 22.937229], [113.775375, 22.937994], [113.775856, 22.93731], [113.776162, 22.933323], [113.77778, 22.932397], [113.778917, 22.933242], [113.780185, 22.933323], [113.780579, 22.939404], [113.780986, 22.940127], [113.781854, 22.941425], [113.782903, 22.941192], [113.787243, 22.946421], [113.787821, 22.946421], [113.788038, 22.947353], [113.788472, 22.947986], [113.788147, 22.949118], [113.788653, 22.949684], [113.790534, 22.950217], [113.791076, 22.95065], [113.791148, 22.951383], [113.791727, 22.951516], [113.79292, 22.952082], [113.794548, 22.952049], [113.795994, 22.950983], [113.797622, 22.951016], [113.798562, 22.95105], [113.800081, 22.950517], [113.800876, 22.950683], [113.802721, 22.95035], [113.80706, 22.952482], [113.807784, 22.953747], [113.808145, 22.95448], [113.808543, 22.956944], [113.809881, 22.956611], [113.810604, 22.955745], [113.811942, 22.955479], [113.813968, 22.954446], [113.814546, 22.95428], [113.814799, 22.952781], [113.815667, 22.952582], [113.81715, 22.952049], [113.817729, 22.952382], [113.820477, 22.951316], [113.821345, 22.951116], [113.821634, 22.951882], [113.823153, 22.952848], [113.823876, 22.952781], [113.8246, 22.952315], [113.827529, 22.952115], [113.827757, 22.954113], [113.827413, 22.954363], [113.826617, 22.954396], [113.826147, 22.95373], [113.825713, 22.953714], [113.825225, 22.953647], [113.825261, 22.954047], [113.825713, 22.954413], [113.825623, 22.954763], [113.824773, 22.955179], [113.824321, 22.954846], [113.824429, 22.954263], [113.82405, 22.95403], [113.823616, 22.95433], [113.822983, 22.95403], [113.822657, 22.954363], [113.823091, 22.955628], [113.822929, 22.955961], [113.821482, 22.956095], [113.818788, 22.957343], [113.818408, 22.957227], [113.818173, 22.957393], [113.817757, 22.95751], [113.817341, 22.957327], [113.816727, 22.95691], [113.816745, 22.957327], [113.81698, 22.957959], [113.817269, 22.957993], [113.818481, 22.957593], [113.818679, 22.957993], [113.818553, 22.958176], [113.817558, 22.958709], [113.817215, 22.959691], [113.815696, 22.960174], [113.815551, 22.962238], [113.815696, 22.962438], [113.815859, 22.962255], [113.81604, 22.960324], [113.816781, 22.96024], [113.817812, 22.960007], [113.818264, 22.959824], [113.818155, 22.959558], [113.817721, 22.959308], [113.818155, 22.958908], [113.818481, 22.959142], [113.818462, 22.959608], [113.81877, 22.960424], [113.818444, 22.961606], [113.818535, 22.962188], [113.818933, 22.961972], [113.818878, 22.961106], [113.819095, 22.959991], [113.818896, 22.959441], [113.821699, 22.958808], [113.822603, 22.958975], [113.822965, 22.959674], [113.822766, 22.96019], [113.823001, 22.960923], [113.822983, 22.962188], [113.822639, 22.962488], [113.822621, 22.962788], [113.822802, 22.962904], [113.823272, 22.962838], [113.823616, 22.962371], [113.82405, 22.962371], [113.824032, 22.961972], [113.823815, 22.961822], [113.823507, 22.961456], [113.823516, 22.960742], [113.823525, 22.959974], [113.823724, 22.959691], [113.824158, 22.959841], [113.82508, 22.960573], [113.825551, 22.96034], [113.824339, 22.959375], [113.824249, 22.959008], [113.824339, 22.958442], [113.823959, 22.95736], [113.824466, 22.95716], [113.824791, 22.957626], [113.825243, 22.95736], [113.824954, 22.956477], [113.825424, 22.956211], [113.825713, 22.956311], [113.826238, 22.956344], [113.82669, 22.957576], [113.826868, 22.958174], [113.827458, 22.958879], [113.827283, 22.959724], [113.826824, 22.96059], [113.828332, 22.961697], [113.827961, 22.962804], [113.828464, 22.962844], [113.828638, 22.963207], [113.828179, 22.963569], [113.823763, 22.968622], [113.821013, 22.969085], [113.817559, 22.970615], [113.815941, 22.972266], [113.815985, 22.973232], [113.817603, 22.974198], [113.822019, 22.974963], [113.821232, 22.978264], [113.824162, 22.979472], [113.825561, 22.980277], [113.827441, 22.975527], [113.830327, 22.973111], [113.83247, 22.97299], [113.83379, 22.973417], [113.83505, 22.973876], [113.835881, 22.974762], [113.833388, 22.97762], [113.830109, 22.985269], [113.826742, 22.991991], [113.82132, 22.991146], [113.821276, 22.992474], [113.822544, 22.993038], [113.822937, 22.994004], [113.822413, 22.996218], [113.821145, 22.996218], [113.820226, 22.996983], [113.82027, 22.99811], [113.823593, 22.998915], [113.821407, 23.003423], [113.819745, 23.00294], [113.81804, 23.003745], [113.816772, 23.004791], [113.814498, 23.004751], [113.813011, 23.004349], [113.811568, 23.004147], [113.812093, 23.005516], [113.812005, 23.008495], [113.810781, 23.009018], [113.810606, 23.010185], [113.809688, 23.010547], [113.808726, 23.014371], [113.806583, 23.014008], [113.805446, 23.01425], [113.80326, 23.0159], [113.802954, 23.018275], [113.801642, 23.017993], [113.80068, 23.018637], [113.800768, 23.021615], [113.801074, 23.024191], [113.798669, 23.024593], [113.796395, 23.02576], [113.796438, 23.026605], [113.797488, 23.026525], [113.797532, 23.027531], [113.798275, 23.028175], [113.798056, 23.029664], [113.798756, 23.029704], [113.798188, 23.030831], [113.798931, 23.035298], [113.798537, 23.036143], [113.797313, 23.036947], [113.798625, 23.036505], [113.801555, 23.034573], [113.804643, 23.034027], [113.804965, 23.03397], [113.808026, 23.03405], [113.810475, 23.035056], [113.811918, 23.034372], [113.814323, 23.034372], [113.814626, 23.035207], [113.815285, 23.037028], [113.825285, 23.03947], [113.824993, 23.038477], [113.827398, 23.037471], [113.82696, 23.036062], [113.829322, 23.035177], [113.831158, 23.034895], [113.831683, 23.035821], [113.833826, 23.036102], [113.836755, 23.037028], [113.83916, 23.03904], [113.839554, 23.041012], [113.840385, 23.043185], [113.840341, 23.048295], [113.838592, 23.053083], [113.837936, 23.058112], [113.83658, 23.0594], [113.836143, 23.062739], [113.834831, 23.067004], [113.834963, 23.068251], [113.837061, 23.072073], [113.83881, 23.073481], [113.837674, 23.07505], [113.83916, 23.076337], [113.837455, 23.079716], [113.831289, 23.08756], [113.830327, 23.087359], [113.830196, 23.087922], [113.830765, 23.088083], [113.830633, 23.089572], [113.832339, 23.092226], [113.83317, 23.091985], [113.835443, 23.09291], [113.836143, 23.093674], [113.835925, 23.096651], [113.834001, 23.100545], [113.831231, 23.099373], [113.820978, 23.097919], [113.806524, 23.094338], [113.788793, 23.085261], [113.772951, 23.074623], [113.769828, 23.073488], [113.767708, 23.073453], [113.764008, 23.0748], [113.760924, 23.075084], [113.758419, 23.0748], [113.756299, 23.073985], [113.75337, 23.072815], [113.748185, 23.071401], [113.746065, 23.06977], [113.744176, 23.068883], [113.741792, 23.066649], [113.742611, 23.065878], [113.740713, 23.064947]], [[113.796559, 23.077796], [113.80333, 23.080726], [113.803547, 23.079645], [113.804474, 23.07828], [113.806608, 23.072989], [113.806639, 23.071794], [113.806206, 23.070514], [113.805278, 23.069717], [113.801877, 23.067925], [113.8003, 23.070372], [113.798723, 23.069603], [113.797301, 23.069831], [113.796992, 23.07114], [113.797487, 23.071566], [113.797487, 23.072022], [113.796806, 23.071993], [113.797023, 23.073387], [113.797734, 23.076118], [113.796559, 23.077796]]], [[[113.750811, 23.041456], [113.751893, 23.040602], [113.751739, 23.040033], [113.752975, 23.038753], [113.753006, 23.038298], [113.752666, 23.03807], [113.752759, 23.037729], [113.753656, 23.037842], [113.754429, 23.036107], [113.755356, 23.036021], [113.756438, 23.036277], [113.75684, 23.036619], [113.756964, 23.037273], [113.756346, 23.038098], [113.755789, 23.038411], [113.755634, 23.03881], [113.755233, 23.039066], [113.755882, 23.039976], [113.754398, 23.040972], [113.753532, 23.040261], [113.751151, 23.041797], [113.750811, 23.041456]]], [[[113.75146, 23.051272], [113.752233, 23.050191], [113.754336, 23.051073], [113.751739, 23.052154], [113.75146, 23.051727], [113.7518, 23.0515], [113.75146, 23.051272]]]]}, "properties": {"display_name": "东城街道, 东莞市, 广东省, 中国", "type": "administrative", "osm_type": "relation", "osm_id": 5665476, "class": null, "keyword": "subdistrict"}}, {"type": "Feature", "geometry": {"type": "Polygon", "coordinates": [[[113.681076, 22.979275], [113.681737, 22.978727], [113.683899, 22.978561], [113.684409, 22.979087], [113.684319, 22.97975], [113.68468, 22.980137], [113.688206, 22.977639], [113.691586, 22.975935], [113.692547, 22.977013], [113.69552, 22.975133], [113.69606, 22.975603], [113.696751, 22.975465], [113.697591, 22.974359], [113.698374, 22.974327], [113.699033, 22.975133], [113.699153, 22.974221], [113.700804, 22.97223], [113.700624, 22.970986], [113.703477, 22.970157], [113.705098, 22.970185], [113.710053, 22.966922], [113.710537, 22.966752], [113.711371, 22.966701], [113.711798, 22.966043], [113.712515, 22.965678], [113.712995, 22.964794], [113.713686, 22.964738], [113.713866, 22.964462], [113.713506, 22.963826], [113.713145, 22.962526], [113.712425, 22.961116], [113.711974, 22.96084], [113.712185, 22.960397], [113.711854, 22.960176], [113.711614, 22.96048], [113.711134, 22.9599], [113.712064, 22.959457], [113.712815, 22.959457], [113.713116, 22.95896], [113.712215, 22.958296], [113.711614, 22.958656], [113.710743, 22.958656], [113.709993, 22.959153], [113.709812, 22.958766], [113.709902, 22.957716], [113.710623, 22.957246], [113.709963, 22.955393], [113.710413, 22.954287], [113.709993, 22.953928], [113.709032, 22.953651], [113.708221, 22.953098], [113.708581, 22.952545], [113.708371, 22.951882], [113.709152, 22.951246], [113.709182, 22.950084], [113.708311, 22.949421], [113.70672, 22.949531], [113.706599, 22.948978], [113.70717, 22.948176], [113.70735, 22.94696], [113.7072, 22.946545], [113.70747, 22.945467], [113.708882, 22.945522], [113.709572, 22.946268], [113.709933, 22.947292], [113.710593, 22.946573], [113.711674, 22.946407], [113.712545, 22.946075], [113.714917, 22.945937], [113.716929, 22.94519], [113.71846, 22.945079], [113.719001, 22.944416], [113.719631, 22.944443], [113.719691, 22.945052], [113.719631, 22.945688], [113.721523, 22.9466], [113.723389, 22.94633], [113.724646, 22.945964], [113.726898, 22.946379], [113.727679, 22.946932], [113.72924, 22.947181], [113.72894, 22.9466], [113.72879, 22.945854], [113.72927, 22.945079], [113.730741, 22.944526], [113.730651, 22.944167], [113.729871, 22.944056], [113.72894, 22.944443], [113.728369, 22.944029], [113.729691, 22.943033], [113.729991, 22.941734], [113.729811, 22.941264], [113.730374, 22.940389], [113.730822, 22.938448], [113.73173, 22.937066], [113.731829, 22.936569], [113.730321, 22.936397], [113.730321, 22.935733], [113.731432, 22.935954], [113.732273, 22.935705], [113.732213, 22.93258], [113.732633, 22.932], [113.734165, 22.931557], [113.74038, 22.931502], [113.742032, 22.929981], [113.743893, 22.931585], [113.744974, 22.931336], [113.745395, 22.92987], [113.747887, 22.926966], [113.753022, 22.926137], [113.756024, 22.926911], [113.758817, 22.925307], [113.761339, 22.925501], [113.763051, 22.926579], [113.764462, 22.926856], [113.765333, 22.925611], [113.7671, 22.923241], [113.767968, 22.923774], [113.769559, 22.923973], [113.769993, 22.924373], [113.771005, 22.924307], [113.771114, 22.92474], [113.770246, 22.925039], [113.76992, 22.925639], [113.770246, 22.926172], [113.770825, 22.926405], [113.771873, 22.926671], [113.771584, 22.927504], [113.772777, 22.92787], [113.774549, 22.92877], [113.775417, 22.929236], [113.776972, 22.929402], [113.777804, 22.929236], [113.779504, 22.929436], [113.780733, 22.930435], [113.780444, 22.932866], [113.780589, 22.933566], [113.781674, 22.934265], [113.782288, 22.93603], [113.781927, 22.937662], [113.78142, 22.938195], [113.781529, 22.939161], [113.780986, 22.940127], [113.780579, 22.939404], [113.780185, 22.933323], [113.778917, 22.933242], [113.77778, 22.932397], [113.776162, 22.933323], [113.775856, 22.93731], [113.775375, 22.937994], [113.774369, 22.937229], [113.773538, 22.937149], [113.77262, 22.936786], [113.771702, 22.936907], [113.771221, 22.936263], [113.768772, 22.937108], [113.767941, 22.937672], [113.76781, 22.936585], [113.766323, 22.936424], [113.76593, 22.938075], [113.766192, 22.939484], [113.76558, 22.94033], [113.765318, 22.942222], [113.764443, 22.942464], [113.763569, 22.942907], [113.763612, 22.944035], [113.764312, 22.944719], [113.767023, 22.94488], [113.767154, 22.945444], [113.765011, 22.945887], [113.764837, 22.948786], [113.764705, 22.950961], [113.76335, 22.951564], [113.763, 22.953054], [113.761601, 22.953095], [113.761207, 22.950236], [113.761251, 22.949511], [113.761994, 22.949189], [113.761863, 22.948665], [113.759371, 22.947417], [113.759458, 22.948102], [113.760245, 22.948947], [113.760595, 22.949511], [113.759895, 22.949914], [113.758365, 22.949189], [113.758103, 22.950075], [113.757053, 22.950034], [113.757272, 22.952732], [113.757359, 22.954705], [113.756266, 22.954746], [113.754823, 22.954464], [113.754561, 22.95386], [113.754998, 22.952652], [113.754167, 22.952531], [113.753336, 22.954464], [113.752505, 22.95237], [113.752986, 22.951162], [113.753861, 22.950195], [113.753467, 22.949873], [113.752899, 22.949914], [113.751981, 22.951162], [113.7515, 22.952209], [113.751981, 22.953135], [113.751806, 22.954222], [113.752855, 22.955068], [113.752505, 22.955591], [113.750319, 22.956557], [113.749138, 22.956477], [113.749007, 22.957242], [113.750669, 22.957242], [113.752199, 22.956316], [113.753599, 22.95551], [113.753686, 22.95849], [113.751412, 22.95853], [113.749663, 22.958812], [113.747039, 22.95845], [113.746602, 22.957725], [113.745903, 22.957604], [113.745422, 22.957846], [113.746034, 22.959376], [113.74564, 22.960141], [113.744678, 22.960302], [113.742361, 22.959899], [113.742361, 22.960986], [113.746384, 22.960785], [113.746296, 22.962033], [113.745465, 22.963442], [113.745422, 22.96453], [113.746646, 22.96453], [113.747389, 22.963966], [113.748089, 22.964046], [113.748832, 22.968153], [113.751368, 22.966865], [113.753599, 22.96767], [113.755435, 22.967227], [113.755916, 22.966341], [113.756525, 22.966346], [113.756649, 22.968168], [113.757329, 22.968339], [113.758381, 22.968168], [113.760421, 22.966631], [113.76106, 22.966719], [113.760361, 22.967849], [113.76062, 22.968827], [113.760464, 22.96964], [113.757132, 22.970233], [113.755829, 22.971125], [113.755888, 22.972182], [113.75842, 22.972992], [113.758178, 22.973765], [113.758009, 22.976196], [113.758144, 22.977255], [113.758133, 22.98001], [113.762895, 22.98075], [113.762709, 22.983199], [113.762895, 22.985077], [113.761843, 22.985362], [113.761163, 22.984109], [113.754052, 22.988493], [113.757082, 22.992706], [113.751269, 22.996121], [113.751083, 22.997089], [113.750403, 22.997772], [113.753017, 23.00112], [113.753248, 23.001415], [113.747558, 23.004205], [113.751887, 23.01075], [113.756651, 23.017174], [113.757556, 23.018439], [113.756382, 23.019348], [113.757996, 23.022504], [113.757384, 23.023059], [113.756652, 23.023318], [113.755097, 23.025696], [113.752777, 23.024877], [113.752397, 23.026131], [113.75095, 23.027638], [113.751115, 23.029355], [113.750599, 23.029254], [113.750139, 23.030461], [113.749802, 23.031054], [113.74815, 23.030711], [113.747861, 23.031789], [113.746951, 23.031727], [113.746329, 23.032621], [113.746793, 23.033902], [113.746051, 23.034016], [113.745958, 23.032536], [113.744814, 23.032195], [113.744869, 23.030536], [113.743856, 23.0308], [113.743763, 23.032052], [113.742681, 23.032451], [113.74234, 23.032073], [113.741196, 23.032508], [113.741135, 23.03302], [113.739372, 23.033617], [113.738803, 23.035058], [113.738352, 23.03376], [113.73662, 23.032593], [113.735666, 23.031448], [113.734607, 23.031074], [113.733951, 23.031048], [113.731936, 23.031463], [113.731963, 23.028804], [113.731462, 23.027846], [113.728771, 23.028277], [113.728467, 23.02626], [113.72798, 23.024754], [113.727427, 23.023318], [113.724639, 23.024122], [113.722828, 23.021106], [113.718434, 23.024725], [113.715774, 23.022738], [113.717162, 23.020681], [113.716738, 23.020113], [113.719551, 23.017417], [113.719359, 23.016885], [113.718819, 23.016282], [113.718434, 23.014898], [113.7172, 23.013514], [113.716583, 23.013869], [113.716391, 23.01465], [113.714772, 23.013763], [113.714463, 23.014756], [113.712035, 23.01323], [113.710917, 23.011244], [113.712498, 23.009363], [113.710956, 23.00837], [113.710069, 23.009328], [113.709299, 23.008618], [113.7098, 23.007696], [113.708797, 23.007235], [113.708682, 23.006312], [113.706215, 23.004574], [113.704211, 23.003651], [113.703555, 23.004325], [113.702977, 23.003758], [113.70448, 23.00209], [113.699701, 23.0006], [113.697735, 22.999571], [113.695345, 22.997548], [113.694168, 22.996763], [113.692878, 22.996236], [113.689747, 22.995617], [113.689101, 22.995313], [113.688321, 22.994802], [113.687907, 22.994363], [113.687548, 22.993709], [113.684791, 22.986793], [113.684024, 22.983263], [113.683648, 22.982234], [113.682554, 22.980723], [113.681076, 22.979275]], [[113.735816, 23.024625], [113.736187, 23.025877], [113.738135, 23.025422], [113.738012, 23.024511], [113.738445, 23.024341], [113.738352, 23.023772], [113.735816, 23.024625]]]}, "properties": {"display_name": "南城街道, 塘贝, 东莞市, 广东省, 中国", "type": "administrative", "osm_type": "relation", "osm_id": 5665398, "class": null, "keyword": "subdistrict"}}, {"type": "Feature", "geometry": {"type": "Polygon", "coordinates": [[[113.647794, 23.038715], [113.650378, 23.038136], [113.651258, 23.03764], [113.651599, 23.037143], [113.651003, 23.036489], [113.652082, 23.036594], [113.6539, 23.038136], [113.654922, 23.037378], [113.655519, 23.037692], [113.655832, 23.037012], [113.65657, 23.037326], [113.656485, 23.038006], [113.657081, 23.038136], [113.658076, 23.037979], [113.658843, 23.037613], [113.659041, 23.036306], [113.659979, 23.036045], [113.661683, 23.036908], [113.663245, 23.036829], [113.663473, 23.037117], [113.66387, 23.036019], [113.663444, 23.035862], [113.663444, 23.035575], [113.663984, 23.035365], [113.664524, 23.034738], [113.666342, 23.035183], [113.666597, 23.035575], [113.667506, 23.035026], [113.668926, 23.035679], [113.669381, 23.035235], [113.669836, 23.035444], [113.67099, 23.034973], [113.672354, 23.035392], [113.67332, 23.033954], [113.673803, 23.034032], [113.674314, 23.03317], [113.674967, 23.033065], [113.675223, 23.031862], [113.674598, 23.031104], [113.674825, 23.02985], [113.673888, 23.029379], [113.672808, 23.029013], [113.673547, 23.027366], [113.672269, 23.027209], [113.672212, 23.026869], [113.671417, 23.026817], [113.673291, 23.024987], [113.675194, 23.024569], [113.675961, 23.024856], [113.681728, 23.032281], [113.683631, 23.034869], [113.684597, 23.033954], [113.685449, 23.033666], [113.683972, 23.03181], [113.685278, 23.030843], [113.686273, 23.030085], [113.687295, 23.03134], [113.688204, 23.030869], [113.688147, 23.029667], [113.688914, 23.028882], [113.689341, 23.029013], [113.689596, 23.02836], [113.690619, 23.028386], [113.690732, 23.027654], [113.691386, 23.026321], [113.69184, 23.026556], [113.692295, 23.026216], [113.692948, 23.026007], [113.693971, 23.026817], [113.697891, 23.023889], [113.69701, 23.019209], [113.694539, 23.015314], [113.688687, 23.011314], [113.68667, 23.010373], [113.688034, 23.008699], [113.687239, 23.007392], [113.684763, 23.00494], [113.684166, 23.003999], [113.6832, 23.004261], [113.68303, 23.002927], [113.68249, 23.002979], [113.681808, 23.002012], [113.683314, 23.001123], [113.683484, 23.000312], [113.682121, 22.998064], [113.680729, 22.994455], [113.678826, 22.99184], [113.679991, 22.990402], [113.679735, 22.990088], [113.680303, 22.989278], [113.679564, 22.988598], [113.681638, 22.987343], [113.682973, 22.987735], [113.684791, 22.986793], [113.687548, 22.993709], [113.687907, 22.994363], [113.688321, 22.994802], [113.689101, 22.995313], [113.689747, 22.995617], [113.692878, 22.996236], [113.694168, 22.996763], [113.695345, 22.997548], [113.697735, 22.999571], [113.699701, 23.0006], [113.70448, 23.00209], [113.702977, 23.003758], [113.703555, 23.004325], [113.704211, 23.003651], [113.706215, 23.004574], [113.708682, 23.006312], [113.708797, 23.007235], [113.7098, 23.007696], [113.709299, 23.008618], [113.710069, 23.009328], [113.710956, 23.00837], [113.712498, 23.009363], [113.710917, 23.011244], [113.712035, 23.01323], [113.714463, 23.014756], [113.714772, 23.013763], [113.716391, 23.01465], [113.716583, 23.013869], [113.7172, 23.013514], [113.718434, 23.014898], [113.718819, 23.016282], [113.719359, 23.016885], [113.719551, 23.017417], [113.716738, 23.020113], [113.717162, 23.020681], [113.715774, 23.022738], [113.718434, 23.024725], [113.722828, 23.021106], [113.724639, 23.024122], [113.727427, 23.023318], [113.72798, 23.024754], [113.728467, 23.02626], [113.728771, 23.028277], [113.731462, 23.027846], [113.731963, 23.028804], [113.731936, 23.031463], [113.729758, 23.031744], [113.729499, 23.032092], [113.728519, 23.032422], [113.728363, 23.033276], [113.725879, 23.034158], [113.725437, 23.034838], [113.732376, 23.041308], [113.733222, 23.04328], [113.733318, 23.044611], [113.734956, 23.046546], [113.736103, 23.048304], [113.736703, 23.05157], [113.73684, 23.054282], [113.738013, 23.055764], [113.740334, 23.057171], [113.742227, 23.058309], [113.74133, 23.060408], [113.742293, 23.060904], [113.740713, 23.064947], [113.742611, 23.065878], [113.741792, 23.066649], [113.741368, 23.067039], [113.736936, 23.063741], [113.732503, 23.062394], [113.729149, 23.063103], [113.724832, 23.066401], [113.71986, 23.069167], [113.715735, 23.071295], [113.714078, 23.072643], [113.7135, 23.074026], [113.711187, 23.077182], [113.711765, 23.081153], [113.711534, 23.082997], [113.710879, 23.084061], [113.706176, 23.084415], [113.704866, 23.084806], [113.701589, 23.086507], [113.698737, 23.087288], [113.697002, 23.087181], [113.694883, 23.087075], [113.693379, 23.087713], [113.692186, 23.089196], [113.69192, 23.089922], [113.691382, 23.090491], [113.688016, 23.092801], [113.686308, 23.093848], [113.681453, 23.094926], [113.681554, 23.092308], [113.681453, 23.091723], [113.681219, 23.09009], [113.680784, 23.089505], [113.681822, 23.088273], [113.679612, 23.086825], [113.680482, 23.084053], [113.681018, 23.084115], [113.681319, 23.083406], [113.68229, 23.083499], [113.68229, 23.083068], [113.682993, 23.083068], [113.683328, 23.080942], [113.684132, 23.081158], [113.684165, 23.08276], [113.687145, 23.081989], [113.687715, 23.081743], [113.687112, 23.081158], [113.686007, 23.080973], [113.685605, 23.080388], [113.682993, 23.079895], [113.68373, 23.078601], [113.681386, 23.076722], [113.680248, 23.078416], [113.676096, 23.075675], [113.672413, 23.07395], [113.672614, 23.073272], [113.671743, 23.073334], [113.67094, 23.07395], [113.670605, 23.073303], [113.669667, 23.07244], [113.669935, 23.072194], [113.669701, 23.071793], [113.669165, 23.071917], [113.669165, 23.0713], [113.668797, 23.071424], [113.668763, 23.070992], [113.669366, 23.070654], [113.668998, 23.069914], [113.669428, 23.069037], [113.669156, 23.065376], [113.670246, 23.064523], [113.671009, 23.061313], [113.670627, 23.060761], [113.670791, 23.059909], [113.669755, 23.059257], [113.668992, 23.058906], [113.668992, 23.056548], [113.668284, 23.054592], [113.665503, 23.051683], [113.660488, 23.045764], [113.653784, 23.044008], [113.650676, 23.041601], [113.647794, 23.038715]]]}, "properties": {"display_name": "万江街道, 东莞市, 广东省, 中国", "type": "administrative", "osm_type": "relation", "osm_id": 5665119, "class": null, "keyword": "subdistrict"}}, {"type": "Feature", "geometry": {"type": "MultiPolygon", "coordinates": [[[[113.725437, 23.034838], [113.725879, 23.034158], [113.728363, 23.033276], [113.728519, 23.032422], [113.729499, 23.032092], [113.729758, 23.031744], [113.731936, 23.031463], [113.733951, 23.031048], [113.734607, 23.031074], [113.735666, 23.031448], [113.73662, 23.032593], [113.738352, 23.03376], [113.738803, 23.035058], [113.739372, 23.033617], [113.741135, 23.03302], [113.741196, 23.032508], [113.74234, 23.032073], [113.742681, 23.032451], [113.743763, 23.032052], [113.743856, 23.0308], [113.744869, 23.030536], [113.744814, 23.032195], [113.745958, 23.032536], [113.746051, 23.034016], [113.746793, 23.033902], [113.746329, 23.032621], [113.746951, 23.031727], [113.747861, 23.031789], [113.74815, 23.030711], [113.749802, 23.031054], [113.750139, 23.030461], [113.750599, 23.029254], [113.751115, 23.029355], [113.75095, 23.027638], [113.752397, 23.026131], [113.752777, 23.024877], [113.755097, 23.025696], [113.756652, 23.023318], [113.757384, 23.023059], [113.757996, 23.022504], [113.756382, 23.019348], [113.757556, 23.018439], [113.761134, 23.021896], [113.765331, 23.025935], [113.765978, 23.026676], [113.764008, 23.028589], [113.764539, 23.030017], [113.764032, 23.030429], [113.764539, 23.031184], [113.764045, 23.033261], [113.765529, 23.033149], [113.76556, 23.034456], [113.76253, 23.034599], [113.761892, 23.033649], [113.761107, 23.033973], [113.761699, 23.036173], [113.767879, 23.036277], [113.768095, 23.035452], [113.768899, 23.035395], [113.769301, 23.036249], [113.771673, 23.036209], [113.772819, 23.040492], [113.773307, 23.044853], [113.773311, 23.045189], [113.773406, 23.047399], [113.773608, 23.051672], [113.77427, 23.051915], [113.775075, 23.051827], [113.775882, 23.052764], [113.77786, 23.052899], [113.777898, 23.054082], [113.777492, 23.055182], [113.77828, 23.056307], [113.777742, 23.057844], [113.776196, 23.057702], [113.77504, 23.060362], [113.776073, 23.060831], [113.775915, 23.061235], [113.77372, 23.060275], [113.772795, 23.061912], [113.774156, 23.064018], [113.77261, 23.063989], [113.771033, 23.065298], [113.769363, 23.063761], [113.770569, 23.061799], [113.771437, 23.05936], [113.768738, 23.058929], [113.766395, 23.058356], [113.768144, 23.056629], [113.765745, 23.054373], [113.765357, 23.053474], [113.764194, 23.053844], [113.764183, 23.05358], [113.764153, 23.052823], [113.763277, 23.052975], [113.762949, 23.051953], [113.762783, 23.051507], [113.762637, 23.050916], [113.761819, 23.050788], [113.759717, 23.049688], [113.759469, 23.050504], [113.758883, 23.050289], [113.758417, 23.049736], [113.757196, 23.050675], [113.756964, 23.050276], [113.756266, 23.050604], [113.755542, 23.049963], [113.755047, 23.051016], [113.754243, 23.051471], [113.754367, 23.051926], [113.749698, 23.05389], [113.750224, 23.055426], [113.749698, 23.055875], [113.74942, 23.056365], [113.748915, 23.056411], [113.748722, 23.05602], [113.748049, 23.055215], [113.747201, 23.056062], [113.748202, 23.057643], [113.744487, 23.060144], [113.742227, 23.058309], [113.740334, 23.057171], [113.738013, 23.055764], [113.73684, 23.054282], [113.736703, 23.05157], [113.736103, 23.048304], [113.734956, 23.046546], [113.733318, 23.044611], [113.733222, 23.04328], [113.732376, 23.041308], [113.725437, 23.034838]], [[113.750811, 23.041456], [113.751151, 23.041797], [113.753532, 23.040261], [113.754398, 23.040972], [113.755882, 23.039976], [113.755233, 23.039066], [113.755634, 23.03881], [113.755789, 23.038411], [113.756346, 23.038098], [113.756964, 23.037273], [113.75684, 23.036619], [113.756438, 23.036277], [113.755356, 23.036021], [113.754429, 23.036107], [113.753656, 23.037842], [113.752759, 23.037729], [113.752666, 23.03807], [113.753006, 23.038298], [113.752975, 23.038753], [113.751739, 23.040033], [113.751893, 23.040602], [113.750811, 23.041456]], [[113.75146, 23.051272], [113.7518, 23.0515], [113.75146, 23.051727], [113.751739, 23.052154], [113.754336, 23.051073], [113.752233, 23.050191], [113.75146, 23.051272]]], [[[113.735816, 23.024625], [113.738352, 23.023772], [113.738445, 23.024341], [113.738012, 23.024511], [113.738135, 23.025422], [113.736187, 23.025877], [113.735816, 23.024625]]], [[[113.796559, 23.077796], [113.797734, 23.076118], [113.797023, 23.073387], [113.796806, 23.071993], [113.797487, 23.072022], [113.797487, 23.071566], [113.796992, 23.07114], [113.797301, 23.069831], [113.798723, 23.069603], [113.8003, 23.070372], [113.801877, 23.067925], [113.805278, 23.069717], [113.806206, 23.070514], [113.806639, 23.071794], [113.806608, 23.072989], [113.804474, 23.07828], [113.803547, 23.079645], [113.80333, 23.080726], [113.796559, 23.077796]]]]}, "properties": {"display_name": "莞城街道, 东莞市, 广东省, 523107, 中国", "type": "administrative", "osm_type": "relation", "osm_id": 4424333, "class": null, "keyword": "subdistrict"}}, {"type": "Feature", "geometry": {"type": "Polygon", "coordinates": [[[113.619363, 23.100991], [113.621611, 23.100934], [113.621521, 23.101894], [113.626555, 23.101811], [113.631419, 23.101658], [113.632742, 23.10192], [113.6333, 23.102132], [113.63395, 23.102925], [113.634162, 23.103667], [113.634017, 23.103885], [113.631917, 23.104036], [113.630132, 23.104309], [113.628457, 23.104571], [113.627073, 23.104616], [113.623899, 23.104789], [113.621514, 23.104884], [113.621508, 23.104605], [113.621235, 23.104566], [113.621308, 23.103824], [113.619681, 23.103583], [113.619594, 23.103045], [113.619363, 23.100991]]]}, "properties": {"display_name": "东莞市鱼珠木材加工交易中心, 中堂镇, 东莞市, 广东省, 中国", "type": "commercial", "osm_type": "way", "osm_id": 1154076615, "class": null, "keyword": "市中心"}}, {"type": "Feature", "geometry": {"type": "Polygon", "coordinates": [[[113.832192, 22.998592], [113.832204, 22.99836], [113.832255, 22.998173], [113.832356, 22.997997], [113.832468, 22.997818], [113.832701, 22.997584], [113.833494, 22.9971], [113.834152, 22.996586], [113.835284, 22.995835], [113.835703, 22.995919], [113.836185, 22.996539], [113.836443, 22.996771], [113.838876, 22.998838], [113.838918, 22.99921], [113.838364, 22.999828], [113.837738, 23.000462], [113.836082, 23.002065], [113.835939, 23.002097], [113.8341, 23.000855], [113.833487, 23.000394], [113.833032, 22.999961], [113.832559, 22.99945], [113.832424, 22.999274], [113.832337, 22.999131], [113.832255, 22.998966], [113.832195, 22.998762], [113.832192, 22.998592]]]}, "properties": {"display_name": "东莞篮球中心, 长圣路, 寮步镇, 东莞市, 广东省, 523413, 中国", "type": "sports_centre", "osm_type": "way", "osm_id": 1146949320, "class": null, "keyword": "town centre"}}, {"type": "Feature", "geometry": {"type": "Polygon", "coordinates": [[[113.741699, 23.026706], [113.74171, 23.026637], [113.741742, 23.026608], [113.746608, 23.02544], [113.746927, 23.025546], [113.747117, 23.025618], [113.747219, 23.025665], [113.747334, 23.025741], [113.74741, 23.025808], [113.747493, 23.025927], [113.747707, 23.026452], [113.747745, 23.026628], [113.747734, 23.026637], [113.748166, 23.026541], [113.748327, 23.026544], [113.748525, 23.026603], [113.748609, 23.026672], [113.749011, 23.028684], [113.748838, 23.028679], [113.748627, 23.028659], [113.74844, 23.028649], [113.748161, 23.028681], [113.745536, 23.029041], [113.745454, 23.029043], [113.745379, 23.029038], [113.745289, 23.029022], [113.745186, 23.029], [113.74357, 23.028246], [113.743507, 23.028241], [113.743443, 23.028247], [113.743369, 23.028264], [113.742442, 23.028565], [113.742399, 23.028564], [113.742288, 23.028545], [113.742226, 23.02849], [113.741699, 23.026706]]]}, "properties": {"display_name": "东莞市体育中心, 体育路, 南城街道, 豪岗, 东莞市, 广东省, 523058, 中国", "type": "sports_centre", "osm_type": "way", "osm_id": 619355191, "class": null, "keyword": "市中心"}}, {"type": "Feature", "geometry": {"type": "Polygon", "coordinates": [[[113.751595, 23.040936], [113.753464, 23.040122], [113.754108, 23.040623], [113.755375, 23.039679], [113.756034, 23.040369], [113.757124, 23.042753], [113.75774, 23.044252], [113.757552, 23.04447], [113.756802, 23.045166], [113.756495, 23.045244], [113.756218, 23.045224], [113.755783, 23.044791], [113.755012, 23.043753], [113.754667, 23.043458], [113.754303, 23.043333], [113.753775, 23.043376], [113.753369, 23.043213], [113.753243, 23.042994], [113.753228, 23.042707], [113.752684, 23.041786], [113.751976, 23.041831], [113.751595, 23.040936]]]}, "properties": {"display_name": "东莞人民公园, 莞城街道, 何屋塘, 东莞市, 广东省, 中国", "type": "park", "osm_type": "way", "osm_id": 520269517, "class": null, "keyword": "district"}}, {"type": "Feature", "geometry": {"type": "Polygon", "coordinates": [[[114.052828, 22.784089], [114.053056, 22.781835], [114.053087, 22.781836], [114.053104, 22.781635], [114.053475, 22.781661], [114.053478, 22.781619], [114.056256, 22.781795], [114.056024, 22.784314], [114.055942, 22.784411], [114.052863, 22.784235], [114.052828, 22.784089]]]}, "properties": {"display_name": "东莞市东南部中心医院, 113号, 蛟坪大道, 鹤湖围, 塘厦镇, 东莞市, 广东省, 523710, 中国", "type": "hospital", "osm_type": "way", "osm_id": 824883032, "class": null, "keyword": "市中心"}}, {"type": "Feature", "geometry": {"type": "Polygon", "coordinates": [[[113.781415, 23.000449], [113.781705, 23.000172], [113.784645, 22.999362], [113.784851, 23.000164], [113.784849, 23.000967], [113.784603, 23.001671], [113.784978, 23.001877], [113.78502, 23.002335], [113.781893, 23.002374], [113.781415, 23.000449]]]}, "properties": {"display_name": "东莞市网球中心, 八一路, 东城街道, 立新村, 东莞市, 广东省, 523413, 中国", "type": "sports_centre", "osm_type": "way", "osm_id": 713653712, "class": null, "keyword": "市中心"}}, {"type": "Feature", "geometry": {"type": "Polygon", "coordinates": [[[113.73628, 23.04526], [113.736304, 23.045202], [113.736351, 23.045172], [113.736405, 23.045155], [113.73647, 23.045119], [113.73649, 23.045087], [113.736496, 23.045036], [113.736506, 23.044967], [113.736523, 23.044914], [113.736577, 23.044865], [113.737683, 23.044383], [113.738184, 23.0441], [113.738771, 23.043737], [113.739089, 23.04455], [113.739175, 23.044685], [113.739726, 23.044854], [113.73967, 23.045023], [113.739991, 23.045309], [113.739662, 23.045572], [113.739473, 23.045705], [113.739187, 23.045858], [113.73813, 23.046357], [113.737278, 23.046674], [113.736846, 23.046788], [113.736749, 23.046755], [113.736712, 23.046731], [113.736662, 23.046689], [113.73663, 23.046649], [113.7363, 23.045357], [113.73628, 23.04526]]]}, "properties": {"display_name": "东莞可园, 可园路辅路, 莞城街道, 圳头, 东莞市, 广东省, 523058, 中国", "type": "garden", "osm_type": "way", "osm_id": 619355190, "class": null, "keyword": "district"}}, {"type": "Feature", "geometry": {"type": "Polygon", "coordinates": [[[113.717642, 22.995521], [113.718825, 22.994489], [113.719352, 22.994769], [113.720711, 22.995947], [113.720664, 22.99613], [113.719006, 22.997309], [113.718073, 22.996463], [113.717956, 22.996287], [113.717878, 22.996078], [113.717642, 22.995521]]]}, "properties": {"display_name": "东莞市卷烟配送中心, 南城街道, 周家村, 东莞市, 广东省, 中国", "type": "industrial", "osm_type": "way", "osm_id": 1376726936, "class": null, "keyword": "市中心"}}, {"type": "Feature", "geometry": {"type": "Polygon", "coordinates": [[[113.86175, 23.092923], [113.861803, 23.092599], [113.862039, 23.091858], [113.86338, 23.09219], [113.863745, 23.092506], [113.864414, 23.093622], [113.864123, 23.0946], [113.863627, 23.094652], [113.863268, 23.094566], [113.863254, 23.094376], [113.86305, 23.094307], [113.863045, 23.093971], [113.86271, 23.093954], [113.861825, 23.093152], [113.86175, 23.092923]]]}, "properties": {"display_name": "石龙体育中心, 温泉路, 石龙镇, 东莞市, 广东省, 523000, 中国", "type": "sports_centre", "osm_type": "way", "osm_id": 1364201220, "class": null, "keyword": "市中心"}}, {"type": "Feature", "geometry": {"type": "Polygon", "coordinates": [[[113.74716, 23.012243], [113.748673, 23.011968], [113.749291, 23.014559], [113.747725, 23.014861], [113.74716, 23.012243]]]}, "properties": {"display_name": "东莞市南城阳光中心小学, 石竹路, 南城街道, 火炼树村, 东莞市, 广东省, 523058, 中国", "type": "school", "osm_type": "way", "osm_id": 1315773184, "class": null, "keyword": "市中心"}}, {"type": "Feature", "geometry": {"type": "Polygon", "coordinates": [[[113.877461, 23.118067], [113.878127, 23.117233], [113.878886, 23.117235], [113.879927, 23.117238], [113.879959, 23.118638], [113.880144, 23.118644], [113.880137, 23.11887], [113.880242, 23.118978], [113.879404, 23.119607], [113.879072, 23.119345], [113.878725, 23.119065], [113.877461, 23.118067]]]}, "properties": {"display_name": "广东医科大学附属东莞松山湖中心医院, 1, 祥龙路, 石龙镇, 东莞市, 广东省, 中国", "type": "hospital", "osm_type": "way", "osm_id": 543889290, "class": null, "keyword": "市中心"}}, {"type": "Feature", "geometry": {"type": "Polygon", "coordinates": [[[113.745493, 23.026635], [113.745562, 23.026384], [113.745645, 23.026117], [113.745873, 23.025901], [113.746159, 23.025754], [113.746479, 23.025688], [113.746805, 23.025708], [113.747112, 23.025814], [113.747379, 23.025961], [113.74753, 23.026354], [113.747585, 23.026646], [113.747569, 23.026984], [113.74746, 23.027289], [113.747258, 23.027544], [113.746917, 23.027728], [113.746537, 23.027779], [113.74616, 23.027711], [113.745829, 23.02753], [113.745582, 23.027259], [113.745519, 23.026975], [113.745493, 23.026635]]]}, "properties": {"display_name": "东莞市体育中心, 体育路, 南城街道, 塘贝, 东莞市, 广东省, 523015, 中国", "type": "stadium", "osm_type": "way", "osm_id": 520272169, "class": null, "keyword": "市中心"}}, {"type": "Feature", "geometry": {"type": "Polygon", "coordinates": [[[113.75326, 23.017065], [113.753487, 23.016922], [113.753454, 23.016877], [113.753671, 23.01674], [113.75362, 23.016672], [113.754548, 23.016082], [113.754598, 23.016149], [113.754825, 23.016005], [113.754852, 23.016041], [113.755053, 23.015913], [113.755766, 23.016864], [113.755547, 23.017003], [113.75558, 23.017048], [113.755365, 23.017184], [113.755393, 23.017222], [113.75446, 23.017814], [113.754433, 23.017778], [113.754229, 23.017907], [113.754202, 23.017871], [113.753972, 23.018016], [113.75326, 23.017065]]]}, "properties": {"display_name": "东莞市民服务中心, 东莞大道, 东城街道, 火炼树村, 东莞市, 广东省, 523015, 中国", "type": "government", "osm_type": "way", "osm_id": 339312207, "class": null, "keyword": "市中心"}}, {"type": "Feature", "geometry": {"type": "Polygon", "coordinates": [[[114.012348, 23.073951], [114.013024, 23.073285], [114.013239, 23.073403], [114.013368, 23.07329], [114.01384, 23.07367], [114.014017, 23.073803], [114.014247, 23.073571], [114.014408, 23.073635], [114.014575, 23.073442], [114.014864, 23.07363], [114.014226, 23.074578], [114.014821, 23.074982], [114.014741, 23.07515], [114.014301, 23.075288], [114.014119, 23.075288], [114.012579, 23.074291], [114.012439, 23.074089], [114.012348, 23.073951]]]}, "properties": {"display_name": "企石镇中心小学, 宝石路, 企石镇, 东莞市, 广东省, 中国", "type": "school", "osm_type": "way", "osm_id": 1026045553, "class": null, "keyword": "市中心"}}, {"type": "Feature", "geometry": {"type": "Polygon", "coordinates": [[[113.85049, 23.113085], [113.851429, 23.113186], [113.851947, 23.113251], [113.85196, 23.113176], [113.852066, 23.112808], [113.852211, 23.112834], [113.85235, 23.112408], [113.852665, 23.112475], [113.852821, 23.112508], [113.852868, 23.112598], [113.853324, 23.112862], [113.85324, 23.113248], [113.853378, 23.113273], [113.853301, 23.11368], [113.853098, 23.113653], [113.853043, 23.113879], [113.85231, 23.113756], [113.852005, 23.113696], [113.851315, 23.113643], [113.850815, 23.113608], [113.850496, 23.113661], [113.85049, 23.113085]]]}, "properties": {"display_name": "石龙中心小学, 绿化东路, 石龙镇, 东莞市, 广东省, 中国", "type": "school", "osm_type": "way", "osm_id": 543889289, "class": null, "keyword": "市中心"}}, {"type": "Feature", "geometry": {"type": "Polygon", "coordinates": [[[113.747683, 22.976458], [113.748482, 22.974536], [113.749352, 22.974842], [113.748553, 22.976764], [113.747683, 22.976458]]]}, "properties": {"display_name": "东莞市教师发展中心, 环城南路, 南城街道, 雅园村, 东莞市, 广东省, 523128, 中国", "type": "college", "osm_type": "way", "osm_id": 1164706432, "class": null, "keyword": "市中心"}}, {"type": "Feature", "geometry": {"type": "Polygon", "coordinates": [[[113.834554, 22.999045], [113.834555, 22.998975], [113.834563, 22.998906], [113.834579, 22.998837], [113.834602, 22.99877], [113.834632, 22.998706], [113.834669, 22.998644], [113.834712, 22.998587], [113.834762, 22.998533], [113.834816, 22.998484], [113.834876, 22.998441], [113.83494, 22.998402], [113.835008, 22.99837], [113.835078, 22.998345], [113.835152, 22.998325], [113.835227, 22.998313], [113.835303, 22.998307], [113.835379, 22.998308], [113.835454, 22.998316], [113.835529, 22.998331], [113.835601, 22.998352], [113.835671, 22.99838], [113.835738, 22.998414], [113.8358, 22.998454], [113.835858, 22.998499], [113.835911, 22.99855], [113.835958, 22.998604], [113.835999, 22.998663], [113.836034, 22.998725], [113.836062, 22.99879], [113.836083, 22.998857], [113.836097, 22.998926], [113.836103, 22.998996], [113.836102, 22.999066], [113.836093, 22.999135], [113.836077, 22.999203], [113.836054, 22.99927], [113.836024, 22.999334], [113.835987, 22.999395], [113.835944, 22.999453], [113.835895, 22.999506], [113.835841, 22.999555], [113.835781, 22.999599], [113.835718, 22.999637], [113.83565, 22.999669], [113.83558, 22.999695], [113.835507, 22.999714], [113.835432, 22.999727], [113.835357, 22.999733], [113.835281, 22.999732], [113.835205, 22.999724], [113.835131, 22.99971], [113.835059, 22.999689], [113.834989, 22.999661], [113.834922, 22.999627], [113.834859, 22.999588], [113.834801, 22.999543], [113.834748, 22.999492], [113.8347, 22.999438], [113.834659, 22.999379], [113.834624, 22.999317], [113.834595, 22.999252], [113.834574, 22.999184], [113.83456, 22.999115], [113.834554, 22.999045]]]}, "properties": {"display_name": "东莞银行篮球中心, 东部快速干线, 寮步镇, 东莞市, 广东省, 523413, 中国", "type": "stadium", "osm_type": "way", "osm_id": 344966677, "class": null, "keyword": "town centre"}}, {"type": "Feature", "geometry": {"type": "Polygon", "coordinates": [[[114.196492, 22.724117], [114.198134, 22.724116], [114.198134, 22.724864], [114.196492, 22.724863], [114.196492, 22.724117]]]}, "properties": {"display_name": "世城商业中心, 凤岗镇, 东莞市, 广东省, 中国", "type": "retail", "osm_type": "way", "osm_id": 1414224074, "class": null, "keyword": "市中心"}}, {"type": "Feature", "geometry": {"type": "Polygon", "coordinates": [[[113.876551, 23.001097], [113.877215, 23.000563], [113.878285, 23.001163], [113.878417, 23.001206], [113.877868, 23.001932], [113.876551, 23.001097]]]}, "properties": {"display_name": "东莞市寮步中心小学, 教育路, 寮步镇, 东莞市, 广东省, 中国", "type": "school", "osm_type": "way", "osm_id": 1146725421, "class": null, "keyword": "市中心"}}, {"type": "Feature", "geometry": {"type": "Polygon", "coordinates": [[[114.00297, 22.785049], [114.00309, 22.785028], [114.002991, 22.784572], [114.003487, 22.784481], [114.003556, 22.784798], [114.00364, 22.784782], [114.003713, 22.785122], [114.003661, 22.785132], [114.003695, 22.785288], [114.003877, 22.785255], [114.003901, 22.785259], [114.003927, 22.785268], [114.003947, 22.785284], [114.003961, 22.785306], [114.003967, 22.785331], [114.003963, 22.785356], [114.003951, 22.785378], [114.003931, 22.785395], [114.00391, 22.785408], [114.003728, 22.785441], [114.003794, 22.78575], [114.003631, 22.78578], [114.003738, 22.786274], [114.003254, 22.786363], [114.00297, 22.785049]]]}, "properties": {"display_name": "观澜湖高尔夫球会东莞国际会议中心, 林坪路, 塘厦镇, 东莞市, 广东省, 523722, 中国", "type": "conference_centre", "osm_type": "way", "osm_id": 1274950115, "class": null, "keyword": "town centre"}}, {"type": "Feature", "geometry": {"type": "Polygon", "coordinates": [[[113.992581, 22.981193], [113.992975, 22.980168], [113.993536, 22.980367], [113.993965, 22.980653], [113.993355, 22.9814], [113.992581, 22.981193]]]}, "properties": {"display_name": "东莞市常平镇卫生服务中心, 东兴路, 常平镇, 东莞市, 广东省, 523560, 中国", "type": "hospital", "osm_type": "way", "osm_id": 233083959, "class": null, "keyword": "市中心"}}, {"type": "Feature", "geometry": {"type": "Polygon", "coordinates": [[[114.111067, 22.780447], [114.111121, 22.780129], [114.111101, 22.780116], [114.111077, 22.780086], [114.111067, 22.780031], [114.11108, 22.779966], [114.111104, 22.779928], [114.111137, 22.779899], [114.111164, 22.779897], [114.111202, 22.779596], [114.111676, 22.779678], [114.111654, 22.780156], [114.111789, 22.780217], [114.11198, 22.78025], [114.112176, 22.780355], [114.112167, 22.780577], [114.111067, 22.780447]]]}, "properties": {"display_name": "凤凰岗中心市场, 新围二路, 麻园新村, 塘厦镇, 东莞市, 广东省, 523710, 中国", "type": "marketplace", "osm_type": "way", "osm_id": 981220327, "class": null, "keyword": "市中心"}}, {"type": "Feature", "geometry": {"type": "Polygon", "coordinates": [[[114.010954, 23.07439], [114.011624, 23.073556], [114.012134, 23.073887], [114.011372, 23.074701], [114.010954, 23.07439]]]}, "properties": {"display_name": "企石镇中心幼儿园, 宝石路, 企石镇, 东莞市, 广东省, 中国", "type": "kindergarten", "osm_type": "way", "osm_id": 1026045550, "class": null, "keyword": "市中心"}}, {"type": "Feature", "geometry": {"type": "Polygon", "coordinates": [[[113.746088, 23.024299], [113.746134, 23.024272], [113.746102, 23.024221], [113.746156, 23.024185], [113.74622, 23.024151], [113.746308, 23.024107], [113.746378, 23.024074], [113.746455, 23.024043], [113.746541, 23.02401], [113.746605, 23.023992], [113.746623, 23.024031], [113.746675, 23.024013], [113.746659, 23.023964], [113.746936, 23.023897], [113.746947, 23.023941], [113.746991, 23.023932], [113.746989, 23.023896], [113.747072, 23.023882], [113.747178, 23.023871], [113.747261, 23.023868], [113.747332, 23.023868], [113.747416, 23.023867], [113.747491, 23.023868], [113.747552, 23.023875], [113.747555, 23.023928], [113.747577, 23.023933], [113.747575, 23.023942], [113.747609, 23.023944], [113.747578, 23.024188], [113.747547, 23.024185], [113.74754, 23.024231], [113.747419, 23.024218], [113.747322, 23.024217], [113.747215, 23.024223], [113.74712, 23.024231], [113.747015, 23.024244], [113.746993, 23.024113], [113.746956, 23.024119], [113.746944, 23.024158], [113.746925, 23.024183], [113.746896, 23.024204], [113.746862, 23.024215], [113.746837, 23.024212], [113.746807, 23.024205], [113.746776, 23.024191], [113.746751, 23.024166], [113.746727, 23.024174], [113.746778, 23.024299], [113.746715, 23.024317], [113.74658, 23.024369], [113.746469, 23.02442], [113.746389, 23.024464], [113.746299, 23.024518], [113.746283, 23.024528], [113.746253, 23.024491], [113.746232, 23.024499], [113.746088, 23.024299]]]}, "properties": {"display_name": "东莞市行政办事中心北楼, 体育路, 南城街道, 塘贝, 东莞市, 广东省, 523015, 中国", "type": "government", "osm_type": "relation", "osm_id": 19166414, "class": null, "keyword": "市中心"}}, {"type": "Feature", "geometry": {"type": "Polygon", "coordinates": [[[114.140665, 22.748275], [114.141144, 22.748018], [114.141245, 22.748102], [114.141365, 22.748251], [114.141608, 22.74863], [114.141033, 22.7489], [114.140665, 22.748275]]]}, "properties": {"display_name": "凤岗中心市场, 永盛北路, 凤岗镇, 东莞市, 广东省, 523686, 中国", "type": "marketplace", "osm_type": "way", "osm_id": 1009224343, "class": null, "keyword": "市中心"}}, {"type": "Feature", "geometry": {"type": "Polygon", "coordinates": [[[113.742602, 23.011369], [113.742975, 23.011278], [113.742999, 23.011343], [113.743356, 23.011259], [113.743344, 23.01119], [113.743704, 23.0111], [113.743746, 23.011255], [113.743667, 23.011278], [113.743695, 23.011403], [113.743767, 23.011384], [113.743809, 23.011536], [113.743464, 23.01162], [113.743433, 23.011562], [113.743088, 23.011653], [113.743101, 23.011721], [113.742728, 23.011814], [113.742679, 23.011637], [113.742779, 23.011614], [113.742751, 23.011506], [113.742649, 23.011526], [113.742602, 23.011369]]]}, "properties": {"display_name": "东莞市青少年活动中心, 环湖跑道, 南城街道, 亨美, 东莞市, 广东省, 523058, 中国", "type": "educational_institution", "osm_type": "way", "osm_id": 520282950, "class": null, "keyword": "市中心"}}, {"type": "Feature", "geometry": {"type": "Polygon", "coordinates": [[[113.769721, 22.939605], [113.769739, 22.938617], [113.770164, 22.938624], [113.770146, 22.939611], [113.769721, 22.939605]]]}, "properties": {"display_name": "东莞市公安局法医鉴定中心, 环山路首段, 南城街道, 水濂村, 东莞市, 广东省, 523128, 中国", "type": "yes", "osm_type": "way", "osm_id": 713264936, "class": null, "keyword": "市中心"}}, {"type": "Feature", "geometry": {"type": "Polygon", "coordinates": [[[113.746026, 23.023481], [113.74607, 23.02347], [113.746057, 23.023423], [113.746212, 23.023348], [113.746195, 23.023287], [113.747007, 23.023093], [113.747025, 23.023155], [113.747205, 23.023148], [113.747218, 23.023194], [113.747254, 23.023185], [113.747261, 23.023207], [113.747075, 23.023251], [113.747091, 23.023307], [113.74712, 23.023408], [113.747125, 23.023428], [113.747311, 23.023384], [113.747317, 23.023405], [113.747279, 23.023414], [113.747292, 23.02346], [113.747101, 23.023537], [113.74685, 23.023596], [113.746573, 23.023663], [113.746349, 23.023716], [113.746144, 23.023732], [113.746132, 23.023689], [113.746088, 23.0237], [113.746082, 23.023675], [113.746248, 23.023636], [113.746245, 23.023625], [113.746214, 23.023514], [113.746199, 23.023462], [113.746032, 23.023502], [113.746026, 23.023481]], [[113.746259, 23.023439], [113.746312, 23.023628], [113.746494, 23.023584], [113.746441, 23.023395], [113.746259, 23.023439]], [[113.746832, 23.023302], [113.746885, 23.02349], [113.747067, 23.023447], [113.747014, 23.023258], [113.746832, 23.023302]]]}, "properties": {"display_name": "东莞市行政办事中心主楼, 体育路, 南城街道, 塘贝, 东莞市, 广东省, 523015, 中国", "type": "government", "osm_type": "relation", "osm_id": 19166415, "class": null, "keyword": "市中心"}}, {"type": "Feature", "geometry": {"type": "Polygon", "coordinates": [[[113.757908, 23.014308], [113.758027, 23.013898], [113.758437, 23.013998], [113.758319, 23.014409], [113.757908, 23.014308]]]}, "properties": {"display_name": "Dongguan International Trade Center 1, 鸿福东路, 东城街道, 火炼树村, 东莞市, 广东省, 523128, 中国", "type": "commercial", "osm_type": "way", "osm_id": 1287829518, "class": null, "keyword": "city center"}}, {"type": "Feature", "geometry": {"type": "Polygon", "coordinates": [[[113.74491, 23.023378], [113.744935, 23.023258], [113.744949, 23.023234], [113.745063, 23.023275], [113.745131, 23.023293], [113.745655, 23.023385], [113.74564, 23.02346], [113.745588, 23.02345], [113.745575, 23.023514], [113.745554, 23.023616], [113.745678, 23.023637], [113.74566, 23.023725], [113.744986, 23.023606], [113.745004, 23.023519], [113.745131, 23.023541], [113.745156, 23.023421], [113.745029, 23.023399], [113.74491, 23.023378]], [[113.74521, 23.023553], [113.7454, 23.023586], [113.745425, 23.023466], [113.745235, 23.023432], [113.74521, 23.023553]]]}, "properties": {"display_name": "东莞市行政办事中心西楼, 体育路, 南城街道, 塘贝, 东莞市, 广东省, 523015, 中国", "type": "government", "osm_type": "relation", "osm_id": 19166413, "class": null, "keyword": "市中心"}}, {"type": "Feature", "geometry": {"type": "Polygon", "coordinates": [[[113.747491, 23.022945], [113.747888, 23.022617], [113.747937, 23.022569], [113.748012, 23.022481], [113.748037, 23.022494], [113.748126, 23.022585], [113.748035, 23.022659], [113.747939, 23.022738], [113.748028, 23.02283], [113.748124, 23.022751], [113.748188, 23.022816], [113.747677, 23.023238], [113.747613, 23.023172], [113.747707, 23.023094], [113.747631, 23.023016], [113.747585, 23.022969], [113.747546, 23.023001], [113.747491, 23.022945]], [[113.747733, 23.022905], [113.747822, 23.022996], [113.747966, 23.022877], [113.747877, 23.022786], [113.747733, 23.022905]]]}, "properties": {"display_name": "东莞市行政办事中心东楼, 石竹路, 南城街道, 塘贝, 东莞市, 广东省, 523015, 中国", "type": "government", "osm_type": "relation", "osm_id": 19166412, "class": null, "keyword": "市中心"}}, {"type": "Feature", "geometry": {"type": "Polygon", "coordinates": [[[113.545669, 23.061486], [113.5458, 23.061288], [113.545979, 23.061388], [113.545847, 23.061586], [113.545669, 23.061486]]]}, "properties": {"display_name": "东莞市公安局交通警察支队麻涌服务中心, 广麻大道, 麻涌镇, 东莞市, 广东省, 中国", "type": "government", "osm_type": "way", "osm_id": 1282489409, "class": null, "keyword": "市中心"}}, {"type": "Feature", "geometry": {"type": "Polygon", "coordinates": [[[114.061756, 22.909162], [114.061872, 22.909144], [114.061881, 22.909197], [114.061765, 22.909215], [114.061761, 22.909189], [114.061756, 22.909162]]]}, "properties": {"display_name": "樟木头镇中心区新市场生活垃圾转运站, 樟罗迈豪街, 宝山新村, 樟木头镇, 东莞市, 广东省, 523637, 中国", "type": "waste_transfer_station", "osm_type": "way", "osm_id": 1304681675, "class": null, "keyword": "市中心"}}]}