{"type": "FeatureCollection", "features": [{"type": "Feature", "geometry": {"type": "Polygon", "coordinates": [[[-113.646745, 53.425636], [-113.646322, 53.424966], [-113.64623, 53.424852], [-113.646015, 53.424851], [-113.642049, 53.424844], [-113.641628, 53.42475], [-113.641348, 53.424704], [-113.640943, 53.424629], [-113.640507, 53.424546], [-113.640124, 53.424464], [-113.639668, 53.424352], [-113.639513, 53.424309], [-113.639229, 53.424229], [-113.639221, 53.424058], [-113.639275, 53.421956], [-113.639287, 53.421824], [-113.639273, 53.42121], [-113.636475, 53.421194], [-113.627129, 53.42116], [-113.619252, 53.421141], [-113.614711, 53.421162], [-113.61471, 53.421258], [-113.614735, 53.424858], [-113.614774, 53.425018], [-113.614776, 53.425699], [-113.614777, 53.426233], [-113.614781, 53.427759], [-113.614784, 53.429127], [-113.614789, 53.431104], [-113.614791, 53.432198], [-113.614765, 53.43247], [-113.614712, 53.433004], [-113.614698, 53.433146], [-113.614673, 53.433399], [-113.614575, 53.438505], [-113.611639, 53.438506], [-113.611643, 53.439439], [-113.61187, 53.439466], [-113.611397, 53.439645], [-113.609789, 53.440459], [-113.60693, 53.441804], [-113.605492, 53.44292], [-113.605254, 53.443174], [-113.605099, 53.44344], [-113.605036, 53.443549], [-113.604397, 53.444385], [-113.604247, 53.44545], [-113.60444, 53.446664], [-113.605727, 53.44858], [-113.60684, 53.450093], [-113.608624, 53.452369], [-113.609504, 53.453482], [-113.610157, 53.45413], [-113.614564, 53.454136], [-113.614554, 53.454044], [-113.615644, 53.454037], [-113.616208, 53.453774], [-113.617514, 53.453167], [-113.618115, 53.452523], [-113.618166, 53.452469], [-113.618575, 53.452009], [-113.618711, 53.451482], [-113.618971, 53.450381], [-113.618464, 53.450226], [-113.618259, 53.45008], [-113.617521, 53.449892], [-113.616864, 53.449661], [-113.616658, 53.449587], [-113.615866, 53.449333], [-113.615221, 53.449125], [-113.614908, 53.44909], [-113.614914, 53.448706], [-113.615582, 53.448784], [-113.616672, 53.44916], [-113.617227, 53.449497], [-113.618023, 53.449634], [-113.618392, 53.449642], [-113.619189, 53.449669], [-113.619543, 53.449845], [-113.620021, 53.450171], [-113.620402, 53.450254], [-113.620514, 53.450088], [-113.620348, 53.449689], [-113.620675, 53.449368], [-113.620193, 53.44897], [-113.620643, 53.448797], [-113.620534, 53.448653], [-113.621399, 53.448213], [-113.621845, 53.448302], [-113.622265, 53.448288], [-113.622441, 53.447817], [-113.62292, 53.447311], [-113.62332, 53.446867], [-113.623752, 53.445704], [-113.624878, 53.445031], [-113.625132, 53.44414], [-113.625332, 53.443867], [-113.625697, 53.44365], [-113.62605, 53.443426], [-113.626503, 53.443405], [-113.626698, 53.443044], [-113.627015, 53.443044], [-113.626969, 53.44281], [-113.627326, 53.442742], [-113.62799, 53.442617], [-113.630118, 53.442214], [-113.629937, 53.441933], [-113.630258, 53.44178], [-113.631588, 53.441378], [-113.631805, 53.441099], [-113.632601, 53.440115], [-113.633477, 53.440073], [-113.633523, 53.439654], [-113.633613, 53.439567], [-113.633877, 53.439571], [-113.63404, 53.439566], [-113.634219, 53.439434], [-113.634425, 53.439294], [-113.634544, 53.439155], [-113.634708, 53.439059], [-113.634814, 53.438971], [-113.634893, 53.438829], [-113.634846, 53.438676], [-113.634704, 53.438556], [-113.634276, 53.438358], [-113.633998, 53.438205], [-113.63397, 53.438058], [-113.633575, 53.437833], [-113.633334, 53.437764], [-113.633072, 53.437721], [-113.632833, 53.437649], [-113.632551, 53.43761], [-113.632146, 53.437369], [-113.632053, 53.437197], [-113.631848, 53.437141], [-113.631783, 53.436953], [-113.631691, 53.436842], [-113.63152, 53.436696], [-113.631465, 53.436553], [-113.631441, 53.436341], [-113.631466, 53.43622], [-113.631449, 53.436057], [-113.63149, 53.435931], [-113.631257, 53.435789], [-113.631248, 53.435708], [-113.631441, 53.43535], [-113.631572, 53.435147], [-113.632237, 53.434852], [-113.63281, 53.434703], [-113.632976, 53.434612], [-113.632991, 53.434501], [-113.632879, 53.434416], [-113.632392, 53.434304], [-113.631969, 53.433836], [-113.632035, 53.433588], [-113.63218, 53.433045], [-113.632388, 53.432868], [-113.631923, 53.432539], [-113.631932, 53.432323], [-113.632302, 53.432177], [-113.632334, 53.432067], [-113.63208, 53.431819], [-113.632061, 53.431642], [-113.63238, 53.431056], [-113.632846, 53.430591], [-113.632602, 53.430357], [-113.633043, 53.430019], [-113.633126, 53.430013], [-113.63341, 53.430143], [-113.634978, 53.429803], [-113.635381, 53.429872], [-113.635965, 53.429393], [-113.636543, 53.429332], [-113.637269, 53.429033], [-113.637865, 53.429085], [-113.637689, 53.428857], [-113.636837, 53.428811], [-113.636652, 53.42873], [-113.635438, 53.428641], [-113.63541, 53.428639], [-113.634834, 53.428477], [-113.634283, 53.42808], [-113.634284, 53.427861], [-113.634526, 53.427741], [-113.6353, 53.427726], [-113.635878, 53.427724], [-113.635827, 53.427371], [-113.635051, 53.427075], [-113.63464, 53.426998], [-113.6345, 53.426972], [-113.634521, 53.426705], [-113.634788, 53.426567], [-113.635163, 53.426757], [-113.63552, 53.426867], [-113.635869, 53.426684], [-113.636483, 53.426896], [-113.637214, 53.427131], [-113.637779, 53.427481], [-113.638335, 53.427752], [-113.639096, 53.427934], [-113.639171, 53.427838], [-113.638806, 53.427688], [-113.638401, 53.427254], [-113.638355, 53.426963], [-113.637522, 53.42647], [-113.63668, 53.425975], [-113.636589, 53.425922], [-113.63657, 53.42582], [-113.637017, 53.425663], [-113.637777, 53.425746], [-113.638678, 53.4259], [-113.639391, 53.425962], [-113.640811, 53.427409], [-113.642116, 53.427504], [-113.644107, 53.426422], [-113.64572, 53.425867], [-113.646745, 53.425636]]]}, "properties": {"display_name": "Windermere Neighbourhood, Windermere, Edmonton, Alberta, Canada", "type": "administrative", "osm_type": "relation", "osm_id": 7824684, "class": null, "keyword": "neighbourhood"}}, {"type": "Feature", "geometry": {"type": "Polygon", "coordinates": [[[-113.513965, 53.548262], [-113.513958, 53.547793], [-113.513829, 53.547793], [-113.513887, 53.546232], [-113.512137, 53.546214], [-113.512152, 53.540945], [-113.509858, 53.540943], [-113.509799, 53.540298], [-113.509738, 53.540095], [-113.509635, 53.539909], [-113.509569, 53.539582], [-113.509522, 53.539375], [-113.509504, 53.53921], [-113.509481, 53.538935], [-113.509355, 53.538935], [-113.509307, 53.53873], [-113.509299, 53.537176], [-113.509312, 53.534407], [-113.509584, 53.534074], [-113.508644, 53.53406], [-113.5088, 53.533887], [-113.508957, 53.533588], [-113.509207, 53.532895], [-113.509277, 53.532735], [-113.5093, 53.532701], [-113.509353, 53.53265], [-113.509415, 53.532606], [-113.509582, 53.5325], [-113.509737, 53.532397], [-113.508319, 53.531925], [-113.508139, 53.53188], [-113.507733, 53.53178], [-113.507317, 53.531717], [-113.507175, 53.531712], [-113.50736, 53.531454], [-113.507967, 53.531553], [-113.507763, 53.531442], [-113.507442, 53.531339], [-113.506271, 53.53101], [-113.504661, 53.530717], [-113.503185, 53.530817], [-113.502781, 53.5305], [-113.501268, 53.530723], [-113.501093, 53.530748], [-113.501096, 53.531142], [-113.501093, 53.532419], [-113.501093, 53.532487], [-113.501232, 53.532485], [-113.502018, 53.532482], [-113.502761, 53.532483], [-113.502931, 53.532484], [-113.502922, 53.532558], [-113.50293, 53.532805], [-113.502932, 53.532951], [-113.502937, 53.533395], [-113.502934, 53.533868], [-113.502936, 53.533899], [-113.502934, 53.533964], [-113.502935, 53.534042], [-113.502025, 53.534015], [-113.498812, 53.533999], [-113.49873, 53.534069], [-113.498583, 53.534174], [-113.498073, 53.534556], [-113.497968, 53.534643], [-113.497816, 53.534776], [-113.497633, 53.534957], [-113.497526, 53.535073], [-113.497384, 53.535203], [-113.497322, 53.535268], [-113.49721, 53.535368], [-113.497104, 53.535443], [-113.496952, 53.535522], [-113.496494, 53.535832], [-113.496033, 53.536111], [-113.49588, 53.536219], [-113.495821, 53.536282], [-113.495767, 53.536346], [-113.495721, 53.536412], [-113.495679, 53.536487], [-113.495648, 53.536564], [-113.495627, 53.536642], [-113.495617, 53.536721], [-113.495631, 53.537254], [-113.495489, 53.537254], [-113.495447, 53.537254], [-113.494671, 53.537251], [-113.494466, 53.537253], [-113.494366, 53.53726], [-113.494266, 53.537272], [-113.494175, 53.537288], [-113.494061, 53.537312], [-113.493967, 53.537333], [-113.493883, 53.537357], [-113.493766, 53.537398], [-113.493634, 53.537469], [-113.49342, 53.537585], [-113.493694, 53.538036], [-113.493741, 53.5383], [-113.493737, 53.538354], [-113.493723, 53.538504], [-113.493695, 53.538572], [-113.493666, 53.538623], [-113.493581, 53.538697], [-113.493478, 53.538757], [-113.493397, 53.538792], [-113.493258, 53.538835], [-113.493163, 53.538852], [-113.493024, 53.538863], [-113.493029, 53.53898], [-113.493048, 53.539442], [-113.493051, 53.539525], [-113.492634, 53.539484], [-113.492002, 53.539423], [-113.491861, 53.53941], [-113.491763, 53.539404], [-113.491708, 53.539402], [-113.491603, 53.539401], [-113.491455, 53.539403], [-113.491255, 53.539415], [-113.491134, 53.539426], [-113.491035, 53.539444], [-113.49064, 53.539532], [-113.489978, 53.539678], [-113.489939, 53.539472], [-113.48988, 53.539078], [-113.489606, 53.539116], [-113.488856, 53.539308], [-113.488618, 53.539461], [-113.489446, 53.539727], [-113.488193, 53.540317], [-113.487826, 53.54033], [-113.487423, 53.540546], [-113.48745, 53.540763], [-113.487075, 53.541082], [-113.486344, 53.540372], [-113.485894, 53.540702], [-113.485782, 53.540784], [-113.485326, 53.541108], [-113.485182, 53.541202], [-113.484954, 53.541359], [-113.484322, 53.541779], [-113.485062, 53.542298], [-113.485205, 53.542244], [-113.485408, 53.542178], [-113.485526, 53.542347], [-113.485883, 53.543165], [-113.485921, 53.543276], [-113.485948, 53.543381], [-113.485967, 53.543439], [-113.486104, 53.543873], [-113.486133, 53.543947], [-113.486152, 53.543996], [-113.486166, 53.54403], [-113.486184, 53.544079], [-113.486203, 53.544116], [-113.48654, 53.544856], [-113.486548, 53.544878], [-113.486574, 53.544941], [-113.486606, 53.545014], [-113.486889, 53.545736], [-113.486918, 53.545805], [-113.48695, 53.545876], [-113.487178, 53.546451], [-113.48724, 53.546594], [-113.487258, 53.546636], [-113.487294, 53.546722], [-113.487321, 53.546785], [-113.487523, 53.547268], [-113.487864, 53.548085], [-113.487889, 53.548147], [-113.4879, 53.548173], [-113.487942, 53.548277], [-113.488146, 53.548754], [-113.488381, 53.548722], [-113.488777, 53.548668], [-113.489297, 53.548596], [-113.489431, 53.548577], [-113.490275, 53.548454], [-113.490528, 53.54842], [-113.490685, 53.548408], [-113.49081, 53.548398], [-113.491567, 53.548346], [-113.491618, 53.548359], [-113.491657, 53.548308], [-113.491709, 53.54824], [-113.493587, 53.548116], [-113.49366, 53.548112], [-113.493722, 53.548128], [-113.493734, 53.547719], [-113.493962, 53.547716], [-113.494284, 53.547719], [-113.49499, 53.54778], [-113.495528, 53.547804], [-113.495695, 53.547803], [-113.501446, 53.547781], [-113.506186, 53.547769], [-113.50631, 53.547778], [-113.506437, 53.547811], [-113.506574, 53.54787], [-113.506609, 53.548254], [-113.508439, 53.548262], [-113.508527, 53.548262], [-113.508679, 53.548262], [-113.509377, 53.548261], [-113.510272, 53.548259], [-113.510435, 53.548259], [-113.51122, 53.54826], [-113.512126, 53.54826], [-113.513048, 53.548259], [-113.513965, 53.548262]]]}, "properties": {"display_name": "Downtown, Central Core, Edmonton, Alberta, Canada", "type": "administrative", "osm_type": "relation", "osm_id": 7827299, "class": null, "keyword": "downtown"}}, {"type": "Feature", "geometry": {"type": "Polygon", "coordinates": [[[-113.492828, 53.439484], [-113.490136, 53.439473], [-113.485242, 53.439446], [-113.4839, 53.439475], [-113.479936, 53.43947], [-113.479958, 53.443568], [-113.480045, 53.449052], [-113.479688, 53.449471], [-113.479431, 53.449821], [-113.479174, 53.45041], [-113.479156, 53.451588], [-113.47918, 53.452981], [-113.481211, 53.453441], [-113.483067, 53.453736], [-113.484587, 53.45386], [-113.486066, 53.453919], [-113.487684, 53.453946], [-113.492548, 53.45391], [-113.492658, 53.452117], [-113.492673, 53.446689], [-113.492783, 53.443795], [-113.492828, 53.439484]]]}, "properties": {"display_name": "South Edmonton Common, South Industrial District, Edmonton, Alberta, Canada", "type": "administrative", "osm_type": "relation", "osm_id": 9081612, "class": null, "keyword": "district"}}, {"type": "Feature", "geometry": {"type": "Polygon", "coordinates": [[[-113.553434, 53.424823], [-113.553404, 53.421773], [-113.553396, 53.420981], [-113.553302, 53.419013], [-113.55318, 53.418524], [-113.553173, 53.417637], [-113.553184, 53.414091], [-113.553048, 53.410374], [-113.540888, 53.410408], [-113.540885, 53.411415], [-113.540905, 53.418998], [-113.540995, 53.424816], [-113.543118, 53.424806], [-113.553434, 53.424823]]]}, "properties": {"display_name": "Heritage Valley Neighbourhood 14, Heritage Valley, Edmonton, Alberta, Canada", "type": "administrative", "osm_type": "relation", "osm_id": 7823077, "class": null, "keyword": "neighbourhood"}}, {"type": "Feature", "geometry": {"type": "Polygon", "coordinates": [[[-113.480045, 53.449052], [-113.479958, 53.443568], [-113.479936, 53.43947], [-113.466547, 53.439643], [-113.466558, 53.451833], [-113.466987, 53.451837], [-113.471921, 53.451883], [-113.473002, 53.451934], [-113.475207, 53.452198], [-113.476666, 53.452444], [-113.479054, 53.452957], [-113.47918, 53.452981], [-113.479156, 53.451588], [-113.479174, 53.45041], [-113.479431, 53.449821], [-113.479688, 53.449471], [-113.480045, 53.449052]]]}, "properties": {"display_name": "Edmonton Research and Development Park, South Industrial District, Edmonton, Alberta, Canada", "type": "administrative", "osm_type": "relation", "osm_id": 7908406, "class": null, "keyword": "district"}}, {"type": "Feature", "geometry": {"type": "Polygon", "coordinates": [[[-113.55472, 53.405003], [-113.55126, 53.402986], [-113.550399, 53.402484], [-113.549068, 53.401708], [-113.548779, 53.401587], [-113.548551, 53.401487], [-113.548378, 53.401417], [-113.548347, 53.401404], [-113.548136, 53.401336], [-113.547854, 53.401263], [-113.547549, 53.401196], [-113.547546, 53.401196], [-113.547279, 53.401153], [-113.547046, 53.401124], [-113.546742, 53.401097], [-113.546501, 53.401092], [-113.546041, 53.401098], [-113.54545, 53.401098], [-113.545299, 53.401098], [-113.544564, 53.401102], [-113.544127, 53.401103], [-113.543764, 53.401123], [-113.543213, 53.401157], [-113.542533, 53.401224], [-113.542448, 53.401229], [-113.542293, 53.401238], [-113.542064, 53.401245], [-113.541491, 53.401247], [-113.541268, 53.401248], [-113.541132, 53.401249], [-113.540996, 53.40125], [-113.540828, 53.401251], [-113.540829, 53.401352], [-113.540829, 53.401402], [-113.540813, 53.401522], [-113.540771, 53.401714], [-113.540705, 53.401902], [-113.540619, 53.402083], [-113.54047, 53.402349], [-113.540332, 53.402536], [-113.540203, 53.402686], [-113.539985, 53.402897], [-113.539723, 53.40312], [-113.539374, 53.403372], [-113.539248, 53.403455], [-113.538668, 53.40382], [-113.53834, 53.40399], [-113.538127, 53.404125], [-113.537247, 53.404681], [-113.53721, 53.404659], [-113.537088, 53.404736], [-113.536946, 53.404827], [-113.536436, 53.405153], [-113.535325, 53.405866], [-113.535226, 53.405926], [-113.535118, 53.406], [-113.534558, 53.406354], [-113.533301, 53.40719], [-113.533205, 53.407261], [-113.533091, 53.407336], [-113.531286, 53.408503], [-113.531181, 53.408576], [-113.531182, 53.408577], [-113.531314, 53.408654], [-113.531428, 53.408722], [-113.53195, 53.409061], [-113.532388, 53.409349], [-113.532512, 53.40943], [-113.532671, 53.409581], [-113.532843, 53.409805], [-113.533079, 53.41004], [-113.53321, 53.410163], [-113.533404, 53.41029], [-113.533704, 53.410465], [-113.533793, 53.410517], [-113.534328, 53.410815], [-113.534801, 53.411046], [-113.535071, 53.41115], [-113.535441, 53.411265], [-113.535821, 53.411354], [-113.53622, 53.411414], [-113.536806, 53.411453], [-113.536931, 53.411453], [-113.537037, 53.411454], [-113.537137, 53.411454], [-113.5376, 53.41142], [-113.537897, 53.41138], [-113.538307, 53.411302], [-113.538462, 53.411265], [-113.538528, 53.411249], [-113.538689, 53.411205], [-113.538763, 53.411183], [-113.538855, 53.411155], [-113.538965, 53.411116], [-113.539356, 53.410967], [-113.539538, 53.410878], [-113.539652, 53.410823], [-113.539783, 53.410899], [-113.54046, 53.411286], [-113.540665, 53.411375], [-113.540719, 53.411384], [-113.540762, 53.411391], [-113.540882, 53.411412], [-113.540885, 53.411415], [-113.540888, 53.410408], [-113.553048, 53.410374], [-113.55306, 53.410072], [-113.55318, 53.409567], [-113.553177, 53.409373], [-113.553159, 53.408732], [-113.553179, 53.40762], [-113.553253, 53.407339], [-113.553273, 53.406967], [-113.553323, 53.406593], [-113.553429, 53.406234], [-113.553633, 53.405934], [-113.553957, 53.405594], [-113.554303, 53.40531], [-113.55472, 53.405003]]]}, "properties": {"display_name": "Heritage Valley Town Centre, Heritage Valley, Edmonton, Alberta, Canada", "type": "administrative", "osm_type": "relation", "osm_id": 7909960, "class": null, "keyword": "town centre"}}, {"type": "Feature", "geometry": {"type": "Polygon", "coordinates": [[[-113.538855, 53.461641], [-113.538668, 53.460964], [-113.538601, 53.460641], [-113.538215, 53.460014], [-113.537466, 53.459177], [-113.534767, 53.456251], [-113.53436, 53.455551], [-113.534105, 53.45418], [-113.534093, 53.45407], [-113.533957, 53.453969], [-113.516387, 53.453912], [-113.516367, 53.461648], [-113.538855, 53.461641]]]}, "properties": {"display_name": "Blue Quill, Kaskitayo, Edmonton, Alberta, Canada", "type": "administrative", "osm_type": "relation", "osm_id": 7820455, "class": null, "keyword": "neighbourhood"}}, {"type": "Feature", "geometry": {"type": "MultiPolygon", "coordinates": [[[[-113.492306, 53.446365], [-113.49215, 53.446481], [-113.491934, 53.446582], [-113.491703, 53.446617], [-113.490842, 53.446621], [-113.490724, 53.446629], [-113.490719, 53.446766], [-113.490811, 53.446958], [-113.491197, 53.447699], [-113.491755, 53.448498], [-113.491894, 53.448672], [-113.492114, 53.448677], [-113.492186, 53.447364], [-113.492233, 53.447275], [-113.492306, 53.446365]]], [[[-113.492051, 53.446354], [-113.491975, 53.444765], [-113.491713, 53.445202], [-113.491106, 53.445647], [-113.490742, 53.446014], [-113.490611, 53.446234], [-113.490678, 53.446424], [-113.49083, 53.446438], [-113.491783, 53.446444], [-113.492051, 53.446354]]], [[[-113.491822, 53.4424], [-113.491758, 53.441536], [-113.490136, 53.439473], [-113.485242, 53.439446], [-113.486343, 53.441262], [-113.488949, 53.441239], [-113.489863, 53.4413], [-113.490074, 53.441331], [-113.490325, 53.441377], [-113.490665, 53.441475], [-113.490944, 53.441584], [-113.491173, 53.441698], [-113.491407, 53.441847], [-113.491567, 53.441988], [-113.491704, 53.442164], [-113.491822, 53.4424]]], [[[-113.49167, 53.444495], [-113.491638, 53.44409], [-113.491635, 53.443894], [-113.49142, 53.442373], [-113.490905, 53.441836], [-113.490326, 53.441568], [-113.489618, 53.441465], [-113.486436, 53.441491], [-113.488667, 53.444722], [-113.489947, 53.446574], [-113.490147, 53.446545], [-113.490219, 53.446028], [-113.49064, 53.445593], [-113.491005, 53.445351], [-113.491451, 53.444983], [-113.49162, 53.44473], [-113.49167, 53.444495]]], [[[-113.491611, 53.450992], [-113.4899, 53.450963], [-113.488574, 53.451253], [-113.487957, 53.450392], [-113.488356, 53.450301], [-113.487959, 53.449762], [-113.490801, 53.4491], [-113.489457, 53.447012], [-113.486101, 53.447804], [-113.485549, 53.447945], [-113.485501, 53.448015], [-113.485779, 53.448432], [-113.485895, 53.448656], [-113.485954, 53.448851], [-113.485993, 53.449083], [-113.485972, 53.449381], [-113.486053, 53.44946], [-113.486026, 53.449627], [-113.485959, 53.449676], [-113.485572, 53.449601], [-113.485504, 53.449549], [-113.484745, 53.449536], [-113.484642, 53.449611], [-113.48462, 53.449702], [-113.484608, 53.450071], [-113.484602, 53.450958], [-113.484599, 53.451225], [-113.48466, 53.451315], [-113.484599, 53.451615], [-113.484578, 53.451929], [-113.484566, 53.452343], [-113.484471, 53.452541], [-113.484384, 53.452671], [-113.484422, 53.452739], [-113.484723, 53.452805], [-113.485114, 53.452832], [-113.485704, 53.452826], [-113.485759, 53.452772], [-113.486237, 53.452786], [-113.486298, 53.452816], [-113.48635, 53.452978], [-113.486246, 53.453018], [-113.486231, 53.453646], [-113.486307, 53.453689], [-113.4881, 53.453686], [-113.488917, 53.453624], [-113.488935, 53.453623], [-113.489239, 53.453599], [-113.489627, 53.453557], [-113.490185, 53.453498], [-113.491554, 53.45339], [-113.491611, 53.450992]]], [[[-113.488883, 53.446843], [-113.488311, 53.446012], [-113.487785, 53.445306], [-113.486418, 53.443235], [-113.48603, 53.442694], [-113.485308, 53.441558], [-113.484212, 53.441282], [-113.483205, 53.442036], [-113.482761, 53.442319], [-113.482703, 53.442365], [-113.482692, 53.442414], [-113.482741, 53.442473], [-113.482827, 53.442522], [-113.48335, 53.442786], [-113.484062, 53.44313], [-113.484638, 53.443482], [-113.485035, 53.443914], [-113.485117, 53.444121], [-113.485233, 53.444332], [-113.48523, 53.444546], [-113.485203, 53.447546], [-113.485251, 53.447638], [-113.485337, 53.447664], [-113.48684, 53.447307], [-113.487667, 53.447146], [-113.488883, 53.446843]]], [[[-113.485727, 53.453677], [-113.485708, 53.453009], [-113.485008, 53.452997], [-113.48465, 53.45296], [-113.484204, 53.452853], [-113.484097, 53.452856], [-113.483671, 53.452998], [-113.483489, 53.453077], [-113.483277, 53.453242], [-113.48318, 53.45338], [-113.483175, 53.453452], [-113.483185, 53.453509], [-113.483299, 53.453558], [-113.485659, 53.453708], [-113.485727, 53.453677]]], [[[-113.485651, 53.449296], [-113.485646, 53.449124], [-113.485625, 53.448909], [-113.485527, 53.448664], [-113.485423, 53.448426], [-113.48514, 53.448051], [-113.485054, 53.448016], [-113.484695, 53.448048], [-113.484098, 53.448053], [-113.483989, 53.448121], [-113.484008, 53.448256], [-113.4841, 53.448428], [-113.484425, 53.448869], [-113.484533, 53.449043], [-113.484605, 53.449189], [-113.484627, 53.449315], [-113.484723, 53.449376], [-113.485543, 53.449368], [-113.485651, 53.449296]]], [[[-113.484873, 53.444585], [-113.484681, 53.444089], [-113.484238, 53.4436], [-113.483483, 53.443173], [-113.482392, 53.442659], [-113.481721, 53.443113], [-113.481393, 53.443381], [-113.481223, 53.443559], [-113.480927, 53.443949], [-113.48079, 53.444658], [-113.480756, 53.447689], [-113.480831, 53.44776], [-113.484608, 53.447766], [-113.484726, 53.447715], [-113.484827, 53.447671], [-113.484818, 53.447447], [-113.484873, 53.444585]]], [[[-113.484378, 53.449317], [-113.484324, 53.449109], [-113.484185, 53.44891], [-113.483864, 53.448456], [-113.483787, 53.448302], [-113.483747, 53.448115], [-113.483659, 53.448054], [-113.480751, 53.448046], [-113.480558, 53.44874], [-113.480172, 53.449256], [-113.479558, 53.450034], [-113.47943, 53.450294], [-113.479379, 53.450732], [-113.479343, 53.451183], [-113.479405, 53.45126], [-113.47956, 53.4513], [-113.481681, 53.451318], [-113.483338, 53.451321], [-113.484251, 53.451322], [-113.484349, 53.451282], [-113.484339, 53.450949], [-113.484373, 53.45006], [-113.484372, 53.44957], [-113.48433, 53.449514], [-113.484378, 53.449317]]], [[[-113.484333, 53.451602], [-113.484258, 53.451538], [-113.483332, 53.451532], [-113.481706, 53.451519], [-113.480526, 53.451517], [-113.479515, 53.451516], [-113.479362, 53.451604], [-113.479349, 53.452533], [-113.479585, 53.452738], [-113.479993, 53.452987], [-113.480877, 53.453208], [-113.48255, 53.453414], [-113.482847, 53.453474], [-113.482969, 53.453285], [-113.483175, 53.45308], [-113.483417, 53.452924], [-113.483653, 53.452833], [-113.483918, 53.452723], [-113.484117, 53.452603], [-113.484247, 53.452466], [-113.484323, 53.452306], [-113.484322, 53.45199], [-113.484333, 53.451602]]], [[[-113.483994, 53.440475], [-113.4839, 53.439475], [-113.479936, 53.43947], [-113.479958, 53.443568], [-113.480627, 53.443562], [-113.481164, 53.443012], [-113.48224, 53.442193], [-113.483405, 53.441366], [-113.483796, 53.44086], [-113.483994, 53.440475]]]]}, "properties": {"display_name": "South Edmonton Common, South Industrial District, Edmonton, Alberta, Canada", "type": "retail", "osm_type": "relation", "osm_id": 6409129, "class": null, "keyword": "district"}}, {"type": "Feature", "geometry": {"type": "Polygon", "coordinates": [[[-113.417633, 53.597754], [-113.416389, 53.597408], [-113.415358, 53.597204], [-113.413395, 53.597025], [-113.411375, 53.597007], [-113.40921, 53.597192], [-113.406594, 53.59751], [-113.404822, 53.597831], [-113.402839, 53.598143], [-113.400369, 53.598532], [-113.39649, 53.599166], [-113.396103, 53.599197], [-113.396151, 53.599277], [-113.39618, 53.599344], [-113.396268, 53.599551], [-113.396365, 53.599807], [-113.396406, 53.60002], [-113.396445, 53.600222], [-113.396522, 53.600618], [-113.396385, 53.602009], [-113.39631, 53.602773], [-113.3963, 53.602874], [-113.396292, 53.602935], [-113.396266, 53.603146], [-113.396206, 53.603619], [-113.396181, 53.603823], [-113.396164, 53.603963], [-113.396095, 53.604792], [-113.396062, 53.605191], [-113.395952, 53.6067], [-113.395945, 53.606786], [-113.395944, 53.606843], [-113.402958, 53.60681], [-113.40465, 53.605854], [-113.409216, 53.603023], [-113.409308, 53.602966], [-113.409974, 53.602503], [-113.410496, 53.60212], [-113.410622, 53.602076], [-113.410861, 53.601926], [-113.411843, 53.601309], [-113.413162, 53.60048], [-113.414472, 53.599736], [-113.415376, 53.599167], [-113.417387, 53.597901], [-113.417633, 53.597754]]]}, "properties": {"display_name": "Clareview Town Centre, Clareview, Edmonton, Alberta, Canada", "type": "administrative", "osm_type": "relation", "osm_id": 7910726, "class": null, "keyword": "town centre"}}, {"type": "Feature", "geometry": {"type": "Polygon", "coordinates": [[[-113.590336, 53.531544], [-113.590306, 53.531545], [-113.590243, 53.531547], [-113.589462, 53.531548], [-113.588578, 53.531548], [-113.587702, 53.531547], [-113.58682, 53.531546], [-113.585948, 53.531547], [-113.585055, 53.531545], [-113.584933, 53.531544], [-113.584198, 53.531543], [-113.583436, 53.531542], [-113.583302, 53.531544], [-113.582434, 53.531539], [-113.58155, 53.53154], [-113.580678, 53.531541], [-113.579798, 53.53154], [-113.578929, 53.531541], [-113.578392, 53.531537], [-113.578265, 53.531537], [-113.578191, 53.531536], [-113.577999, 53.531536], [-113.577999, 53.531613], [-113.577998, 53.532002], [-113.578003, 53.533075], [-113.577997, 53.534629], [-113.578011, 53.536177], [-113.578012, 53.537727], [-113.578016, 53.537793], [-113.578017, 53.538036], [-113.578025, 53.53924], [-113.578036, 53.541295], [-113.578048, 53.541749], [-113.579429, 53.541412], [-113.579639, 53.541371], [-113.579859, 53.541357], [-113.580558, 53.541342], [-113.581095, 53.541331], [-113.581514, 53.541322], [-113.582921, 53.541293], [-113.583286, 53.541294], [-113.585053, 53.541294], [-113.586826, 53.541296], [-113.587753, 53.541297], [-113.588568, 53.541298], [-113.590148, 53.5413], [-113.59023, 53.5413], [-113.590326, 53.5413], [-113.590328, 53.537736], [-113.590325, 53.537661], [-113.590325, 53.537492], [-113.590325, 53.536194], [-113.590336, 53.534641], [-113.590333, 53.533088], [-113.590334, 53.532343], [-113.590336, 53.531544]]]}, "properties": {"display_name": "West Jasper Place (Neighbourhood), Jasper Place, Edmonton, Alberta, Canada", "type": "administrative", "osm_type": "relation", "osm_id": 7920055, "class": null, "keyword": "neighbourhood"}}, {"type": "Feature", "geometry": {"type": "Polygon", "coordinates": [[[-113.631123, 53.503007], [-113.631096, 53.502623], [-113.63102, 53.502142], [-113.630926, 53.501562], [-113.630811, 53.501139], [-113.630696, 53.500597], [-113.630547, 53.500147], [-113.630381, 53.499556], [-113.630155, 53.49888], [-113.629857, 53.497892], [-113.629602, 53.497024], [-113.629433, 53.496422], [-113.629335, 53.496435], [-113.629192, 53.496454], [-113.628917, 53.496489], [-113.628534, 53.496534], [-113.628065, 53.49659], [-113.627112, 53.496707], [-113.625247, 53.496931], [-113.624429, 53.497022], [-113.623733, 53.497094], [-113.622739, 53.497177], [-113.620837, 53.497394], [-113.620049, 53.497436], [-113.619048, 53.497504], [-113.617348, 53.497584], [-113.615407, 53.497574], [-113.61538, 53.499622], [-113.61537, 53.500964], [-113.615449, 53.504659], [-113.618562, 53.504613], [-113.62025, 53.504529], [-113.62118, 53.504456], [-113.622739, 53.50426], [-113.624147, 53.504057], [-113.626427, 53.503635], [-113.629056, 53.503222], [-113.631123, 53.503007]]]}, "properties": {"display_name": "Callingwood South, Lessard, West Jasper Place, Edmonton, Alberta, Canada", "type": "administrative", "osm_type": "relation", "osm_id": 7923327, "class": null, "keyword": "town centre"}}, {"type": "Feature", "geometry": {"type": "Polygon", "coordinates": [[[-113.518076, 53.417036], [-113.518032, 53.417018], [-113.517428, 53.416736], [-113.516502, 53.416413], [-113.516505, 53.416325], [-113.516506, 53.416309], [-113.516564, 53.414713], [-113.516312, 53.414707], [-113.51534, 53.414684], [-113.515357, 53.415254], [-113.515364, 53.415436], [-113.513525, 53.415457], [-113.513354, 53.415868], [-113.513179, 53.415992], [-113.512484, 53.416354], [-113.512189, 53.416381], [-113.51178, 53.416418], [-113.511571, 53.416376], [-113.511254, 53.416239], [-113.510558, 53.416268], [-113.509991, 53.416496], [-113.509668, 53.416552], [-113.509324, 53.416843], [-113.509056, 53.416909], [-113.508347, 53.416899], [-113.508158, 53.416873], [-113.507747, 53.416773], [-113.507484, 53.416592], [-113.507157, 53.416519], [-113.506536, 53.416595], [-113.506306, 53.416588], [-113.506181, 53.416669], [-113.506124, 53.416939], [-113.505717, 53.417219], [-113.505175, 53.417352], [-113.504631, 53.417332], [-113.504239, 53.417144], [-113.504166, 53.417523], [-113.504124, 53.417733], [-113.504126, 53.418533], [-113.504086, 53.418844], [-113.504505, 53.419146], [-113.504821, 53.419232], [-113.504956, 53.419346], [-113.505081, 53.41952], [-113.505093, 53.419638], [-113.505344, 53.419889], [-113.505459, 53.419903], [-113.505868, 53.419822], [-113.506272, 53.419875], [-113.50683, 53.420091], [-113.506961, 53.420165], [-113.507244, 53.420186], [-113.507552, 53.42008], [-113.507686, 53.420341], [-113.506648, 53.420579], [-113.506138, 53.42102], [-113.505984, 53.421122], [-113.504282, 53.422246], [-113.504148, 53.422334], [-113.504133, 53.423526], [-113.504123, 53.424392], [-113.504111, 53.424653], [-113.504118, 53.424825], [-113.507355, 53.424809], [-113.511923, 53.424823], [-113.514734, 53.424831], [-113.51646, 53.424848], [-113.516462, 53.423194], [-113.516476, 53.422522], [-113.516532, 53.421342], [-113.516484, 53.419757], [-113.516542, 53.419288], [-113.516679, 53.41887], [-113.516885, 53.418446], [-113.517077, 53.418113], [-113.517297, 53.417813], [-113.517458, 53.41762], [-113.517665, 53.417408], [-113.517875, 53.417207], [-113.518033, 53.417074], [-113.518076, 53.417036]]]}, "properties": {"display_name": "Blackmud Creek Neighbourhood, Blackmud, Heritage Valley, Edmonton, Alberta, T6W 1S4, Canada", "type": "administrative", "osm_type": "relation", "osm_id": 7820674, "class": null, "keyword": "neighbourhood"}}, {"type": "Feature", "geometry": {"type": "Polygon", "coordinates": [[[-113.590415, 53.507044], [-113.590398, 53.504909], [-113.590397, 53.504819], [-113.590391, 53.504379], [-113.590383, 53.504059], [-113.590389, 53.503722], [-113.590391, 53.503659], [-113.590396, 53.503557], [-113.590286, 53.503558], [-113.590327, 53.503], [-113.589825, 53.502752], [-113.589127, 53.50327], [-113.589002, 53.503669], [-113.588966, 53.503783], [-113.588944, 53.503853], [-113.586402, 53.504546], [-113.583725, 53.505302], [-113.581105, 53.505838], [-113.58097, 53.506003], [-113.581197, 53.506391], [-113.581219, 53.50644], [-113.581239, 53.506486], [-113.581144, 53.506665], [-113.581168, 53.506813], [-113.579497, 53.507092], [-113.579365, 53.50712], [-113.578975, 53.507242], [-113.578164, 53.507503], [-113.578116, 53.50753], [-113.578092, 53.507551], [-113.578079, 53.507576], [-113.578066, 53.507609], [-113.578055, 53.508917], [-113.578053, 53.509207], [-113.57804, 53.509749], [-113.578034, 53.51043], [-113.578034, 53.510726], [-113.578089, 53.510808], [-113.578088, 53.511141], [-113.578441, 53.511213], [-113.580758, 53.511922], [-113.582598, 53.511931], [-113.585286, 53.511928], [-113.585775, 53.511866], [-113.585838, 53.511858], [-113.586032, 53.511858], [-113.588437, 53.511641], [-113.590184, 53.511594], [-113.590363, 53.511598], [-113.590369, 53.509843], [-113.59037, 53.509676], [-113.590372, 53.509348], [-113.590373, 53.509076], [-113.590371, 53.508813], [-113.590372, 53.50874], [-113.590377, 53.507902], [-113.590415, 53.507044]]]}, "properties": {"display_name": "Rio Terrace Neighbourhood, Greater Rio Terrace, Jasper Place, Edmonton, Alberta, Canada", "type": "administrative", "osm_type": "relation", "osm_id": 7923253, "class": null, "keyword": "neighbourhood"}}, {"type": "Feature", "geometry": {"type": "Polygon", "coordinates": [[[-113.404315, 53.613506], [-113.403533, 53.613249], [-113.403259, 53.61316], [-113.402473, 53.612901], [-113.401636, 53.612625], [-113.399686, 53.611981], [-113.399341, 53.611854], [-113.399149, 53.611828], [-113.399102, 53.611806], [-113.398117, 53.611237], [-113.397994, 53.611166], [-113.397516, 53.610906], [-113.396803, 53.610498], [-113.393371, 53.612639], [-113.393669, 53.612791], [-113.393624, 53.614074], [-113.393621, 53.614624], [-113.393614, 53.615001], [-113.393619, 53.615151], [-113.393626, 53.615357], [-113.393628, 53.61542], [-113.393624, 53.61555], [-113.393618, 53.616031], [-113.393608, 53.616871], [-113.39358, 53.619067], [-113.39358, 53.619371], [-113.393579, 53.620059], [-113.39358, 53.620527], [-113.39358, 53.620774], [-113.39358, 53.620929], [-113.393704, 53.620929], [-113.39945, 53.620944], [-113.40063, 53.618474], [-113.403538, 53.614312], [-113.404315, 53.613506]]]}, "properties": {"display_name": "Manning Town Centre, Gorman, Pilot Sound, Edmonton, Alberta, Canada", "type": "administrative", "osm_type": "relation", "osm_id": 17676467, "class": null, "keyword": "town centre"}}, {"type": "Feature", "geometry": {"type": "Polygon", "coordinates": [[[-113.434681, 53.453564], [-113.431614, 53.453544], [-113.430313, 53.453577], [-113.430102, 53.453587], [-113.42989, 53.453596], [-113.426478, 53.453909], [-113.424257, 53.454208], [-113.421835, 53.454532], [-113.420081, 53.454773], [-113.420442, 53.456018], [-113.420758, 53.457832], [-113.420867, 53.459302], [-113.422667, 53.45936], [-113.423975, 53.459401], [-113.425471, 53.459355], [-113.42721, 53.459109], [-113.429812, 53.458575], [-113.430976, 53.458421], [-113.431389, 53.458377], [-113.433046, 53.458345], [-113.434385, 53.458329], [-113.434397, 53.457155], [-113.434561, 53.455614], [-113.434681, 53.453564]]]}, "properties": {"display_name": "Mill Woods Town Centre Area, Mill Woods, Edmonton, Alberta, Canada", "type": "administrative", "osm_type": "relation", "osm_id": 7905138, "class": null, "keyword": "town centre"}}, {"type": "Feature", "geometry": {"type": "Polygon", "coordinates": [[[-113.402449, 53.614653], [-113.402337, 53.614554], [-113.401839, 53.614492], [-113.401054, 53.614416], [-113.399932, 53.614362], [-113.399195, 53.614406], [-113.397823, 53.614572], [-113.39758, 53.614582], [-113.396885, 53.614722], [-113.39635, 53.614892], [-113.395549, 53.61513], [-113.394894, 53.615293], [-113.393875, 53.615613], [-113.393867, 53.615825], [-113.39386, 53.616652], [-113.393851, 53.617234], [-113.393824, 53.620256], [-113.393814, 53.620742], [-113.393807, 53.620929], [-113.398885, 53.620942], [-113.399488, 53.619428], [-113.399871, 53.618605], [-113.400598, 53.617484], [-113.401383, 53.616136], [-113.402247, 53.615016], [-113.402438, 53.614749], [-113.402449, 53.614653]]]}, "properties": {"display_name": "Manning Town Centre, Pilot Sound, Edmonton, Alberta, Canada", "type": "retail", "osm_type": "way", "osm_id": 132864813, "class": null, "keyword": "town centre"}}, {"type": "Feature", "geometry": {"type": "Polygon", "coordinates": [[[-113.491465, 53.454777], [-113.488737, 53.454471], [-113.488552, 53.45431], [-113.48839, 53.454302], [-113.488299, 53.454377], [-113.487857, 53.454326], [-113.487785, 53.454345], [-113.484952, 53.454151], [-113.484867, 53.454194], [-113.484858, 53.454369], [-113.484766, 53.454359], [-113.484682, 53.454372], [-113.484676, 53.455151], [-113.484987, 53.455435], [-113.482809, 53.456666], [-113.482921, 53.456734], [-113.481474, 53.457581], [-113.481715, 53.457729], [-113.482811, 53.457736], [-113.485493, 53.457752], [-113.485656, 53.457745], [-113.485868, 53.45762], [-113.485905, 53.45762], [-113.485957, 53.45762], [-113.486152, 53.457735], [-113.489789, 53.457749], [-113.49135, 53.457745], [-113.491465, 53.454777]]]}, "properties": {"display_name": "Edmonton Ethane Extraction Plant, South Industrial District, Edmonton, Alberta, Canada", "type": "industrial", "osm_type": "way", "osm_id": 626291928, "class": null, "keyword": "district"}}, {"type": "Feature", "geometry": {"type": "Polygon", "coordinates": [[[-113.490901, 53.469135], [-113.489208, 53.469154], [-113.48922, 53.469597], [-113.48633, 53.469584], [-113.486342, 53.469872], [-113.486387, 53.473886], [-113.486592, 53.473989], [-113.487754, 53.47398], [-113.487761, 53.474024], [-113.488617, 53.474034], [-113.488963, 53.473968], [-113.490507, 53.473958], [-113.490671, 53.47023], [-113.490901, 53.469135]]]}, "properties": {"display_name": "Edmonton Intermodal Terminal, Strathcona Industrial Park, South Industrial District, Edmonton, Alberta, T6E 6C8, Canada", "type": "railway", "osm_type": "way", "osm_id": 514245532, "class": null, "keyword": "district"}}, {"type": "Feature", "geometry": {"type": "Polygon", "coordinates": [[[-113.513729, 53.547094], [-113.513711, 53.54643], [-113.508158, 53.546469], [-113.503139, 53.546414], [-113.502034, 53.546441], [-113.501448, 53.546439], [-113.501406, 53.546447], [-113.501373, 53.546472], [-113.50136, 53.54762], [-113.501411, 53.547678], [-113.50672, 53.547732], [-113.506817, 53.54816], [-113.507527, 53.548161], [-113.513701, 53.548146], [-113.513729, 53.547094]]]}, "properties": {"display_name": "MacEwan University City Centre Campus, 110 Street NW, Downtown, Central Core, Edmonton, Alberta, T5H 3C5, Canada", "type": "university", "osm_type": "way", "osm_id": 169998562, "class": null, "keyword": "city core"}}, {"type": "Feature", "geometry": {"type": "Polygon", "coordinates": [[[-113.413156, 53.599615], [-113.412571, 53.597457], [-113.41225, 53.59733], [-113.411386, 53.597355], [-113.410691, 53.597376], [-113.408763, 53.597419], [-113.407454, 53.597578], [-113.406722, 53.597713], [-113.4066, 53.597811], [-113.406709, 53.598118], [-113.406836, 53.598445], [-113.406905, 53.598634], [-113.407027, 53.599095], [-113.407119, 53.599675], [-113.407183, 53.600093], [-113.407283, 53.600166], [-113.408315, 53.600082], [-113.409516, 53.600278], [-113.409821, 53.600014], [-113.411631, 53.599843], [-113.411911, 53.600061], [-113.413156, 53.599615]]]}, "properties": {"display_name": "Clareview Town Centre, Clareview, Edmonton, Alberta, Canada", "type": "retail", "osm_type": "way", "osm_id": 50330852, "class": null, "keyword": "town centre"}}, {"type": "Feature", "geometry": {"type": "MultiPolygon", "coordinates": [[[[-113.489615, 53.448623], [-113.489378, 53.448273], [-113.48954, 53.448234], [-113.489032, 53.447484], [-113.489176, 53.447449], [-113.489019, 53.447217], [-113.48808, 53.447443], [-113.488291, 53.447754], [-113.488274, 53.447758], [-113.488348, 53.447868], [-113.488378, 53.44786], [-113.488517, 53.448066], [-113.488499, 53.44807], [-113.488746, 53.448437], [-113.488817, 53.448421], [-113.488924, 53.44858], [-113.488908, 53.448584], [-113.488975, 53.448683], [-113.488991, 53.448679], [-113.489046, 53.44876], [-113.489615, 53.448623]]], [[[-113.488349, 53.453007], [-113.488217, 53.452835], [-113.487959, 53.452905], [-113.487978, 53.452928], [-113.487555, 53.453043], [-113.48768, 53.453207], [-113.488112, 53.45309], [-113.488101, 53.453075], [-113.488223, 53.453041], [-113.488349, 53.453007]]], [[[-113.488089, 53.445876], [-113.488046, 53.445815], [-113.48793, 53.445844], [-113.48752, 53.44526], [-113.487528, 53.445258], [-113.487321, 53.444968], [-113.487211, 53.444996], [-113.487096, 53.444834], [-113.487066, 53.444842], [-113.486819, 53.444498], [-113.486999, 53.444453], [-113.486757, 53.444116], [-113.486834, 53.444093], [-113.486866, 53.444048], [-113.486415, 53.443402], [-113.486431, 53.443398], [-113.486367, 53.443306], [-113.486266, 53.443331], [-113.486169, 53.443033], [-113.486172, 53.443032], [-113.485698, 53.442355], [-113.485652, 53.442342], [-113.485018, 53.442497], [-113.485137, 53.442698], [-113.485305, 53.442978], [-113.485269, 53.442987], [-113.485402, 53.443175], [-113.485434, 53.443167], [-113.485929, 53.443799], [-113.485907, 53.443805], [-113.486043, 53.443998], [-113.486067, 53.443992], [-113.48624, 53.444248], [-113.486227, 53.44444], [-113.486339, 53.444601], [-113.486244, 53.444624], [-113.486388, 53.444832], [-113.486331, 53.444846], [-113.486395, 53.444938], [-113.486449, 53.444925], [-113.486496, 53.444993], [-113.486456, 53.445003], [-113.486568, 53.445164], [-113.48654, 53.445172], [-113.486628, 53.4453], [-113.486653, 53.445294], [-113.48678, 53.445479], [-113.486761, 53.445484], [-113.486985, 53.445811], [-113.486902, 53.445831], [-113.487153, 53.446198], [-113.487276, 53.446168], [-113.487261, 53.446146], [-113.488029, 53.44596], [-113.488089, 53.445876]]], [[[-113.488027, 53.450158], [-113.487799, 53.449833], [-113.487343, 53.449946], [-113.487347, 53.449953], [-113.487329, 53.449957], [-113.487369, 53.450015], [-113.487382, 53.450011], [-113.487435, 53.450087], [-113.487422, 53.450091], [-113.487544, 53.450265], [-113.487564, 53.45026], [-113.487573, 53.450272], [-113.487696, 53.450242], [-113.487692, 53.450235], [-113.487894, 53.450185], [-113.487898, 53.45019], [-113.488027, 53.450158]]], [[[-113.487882, 53.452112], [-113.487582, 53.451603], [-113.487449, 53.451556], [-113.487254, 53.451597], [-113.487331, 53.451727], [-113.487319, 53.45173], [-113.487582, 53.452175], [-113.487675, 53.452155], [-113.48782, 53.452125], [-113.487882, 53.452112]]], [[[-113.487674, 53.449675], [-113.487591, 53.449548], [-113.487575, 53.449552], [-113.487345, 53.449206], [-113.487296, 53.449218], [-113.487021, 53.448805], [-113.486578, 53.44891], [-113.486636, 53.448997], [-113.486597, 53.449006], [-113.486647, 53.449081], [-113.486205, 53.449185], [-113.48625, 53.449253], [-113.486338, 53.449232], [-113.486465, 53.449422], [-113.486569, 53.449397], [-113.486646, 53.449514], [-113.486824, 53.449472], [-113.486911, 53.449601], [-113.486925, 53.449598], [-113.487071, 53.449818], [-113.487674, 53.449675]]], [[[-113.487226, 53.451058], [-113.486516, 53.450037], [-113.486191, 53.450117], [-113.486901, 53.451138], [-113.487226, 53.451058]]], [[[-113.485169, 53.449212], [-113.484552, 53.44828], [-113.484154, 53.448374], [-113.48477, 53.449306], [-113.485169, 53.449212]]], [[[-113.485159, 53.449869], [-113.484776, 53.449867], [-113.484767, 53.450403], [-113.484756, 53.451016], [-113.485139, 53.451018], [-113.485159, 53.449869]]], [[[-113.484643, 53.444254], [-113.484238, 53.443716], [-113.483878, 53.443813], [-113.483918, 53.443866], [-113.483898, 53.443872], [-113.483977, 53.443978], [-113.483997, 53.443972], [-113.484169, 53.444201], [-113.48418, 53.444198], [-113.484228, 53.444262], [-113.484207, 53.444268], [-113.484272, 53.444353], [-113.484643, 53.444254]]], [[[-113.484275, 53.450676], [-113.484264, 53.450676], [-113.484265, 53.450542], [-113.483225, 53.450541], [-113.483225, 53.450729], [-113.483285, 53.450729], [-113.483285, 53.450739], [-113.483373, 53.450739], [-113.483373, 53.450729], [-113.484159, 53.45073], [-113.484159, 53.450741], [-113.484275, 53.450741], [-113.484275, 53.450676]]], [[[-113.484179, 53.44916], [-113.484007, 53.449158], [-113.484007, 53.449122], [-113.483918, 53.449122], [-113.483922, 53.448885], [-113.48386, 53.448807], [-113.483568, 53.448889], [-113.483593, 53.448918], [-113.483579, 53.449368], [-113.484172, 53.449374], [-113.484179, 53.44916]]], [[[-113.484014, 53.44356], [-113.483186, 53.443105], [-113.482908, 53.443285], [-113.483071, 53.443374], [-113.483085, 53.443365], [-113.483305, 53.443486], [-113.483292, 53.443494], [-113.483467, 53.44359], [-113.483479, 53.443583], [-113.483589, 53.443643], [-113.483574, 53.443653], [-113.483662, 53.443701], [-113.48367, 53.443696], [-113.483755, 53.443743], [-113.483841, 53.443687], [-113.483829, 53.44368], [-113.484014, 53.44356]]], [[[-113.483745, 53.448729], [-113.483494, 53.448416], [-113.483502, 53.448089], [-113.483124, 53.448086], [-113.483116, 53.448412], [-113.483147, 53.448451], [-113.483159, 53.448448], [-113.483346, 53.448681], [-113.483332, 53.448685], [-113.483398, 53.448768], [-113.483411, 53.448764], [-113.483451, 53.448814], [-113.483745, 53.448729]]], [[[-113.483552, 53.447126], [-113.483151, 53.447125], [-113.483143, 53.447779], [-113.483544, 53.447781], [-113.483552, 53.447126]]], [[[-113.483324, 53.452818], [-113.483122, 53.452721], [-113.482802, 53.452956], [-113.483004, 53.453053], [-113.483324, 53.452818]]], [[[-113.483297, 53.451292], [-113.483297, 53.451218], [-113.483282, 53.451218], [-113.48328, 53.450946], [-113.483019, 53.450946], [-113.483019, 53.450908], [-113.482957, 53.450908], [-113.482959, 53.451281], [-113.483176, 53.45128], [-113.483176, 53.451292], [-113.483297, 53.451292]]], [[[-113.482661, 53.443079], [-113.482272, 53.442885], [-113.481512, 53.443428], [-113.481517, 53.44343], [-113.481268, 53.443698], [-113.481256, 53.443696], [-113.481009, 53.444184], [-113.481511, 53.444275], [-113.481704, 53.443893], [-113.481919, 53.443609], [-113.482661, 53.443079]]], [[[-113.482615, 53.446559], [-113.482012, 53.446549], [-113.481793, 53.446581], [-113.48155, 53.44665], [-113.481332, 53.446771], [-113.481186, 53.446884], [-113.481074, 53.447017], [-113.481028, 53.447157], [-113.481021, 53.447684], [-113.481491, 53.447686], [-113.481497, 53.447204], [-113.481538, 53.447097], [-113.481624, 53.447001], [-113.481763, 53.446904], [-113.481921, 53.44686], [-113.482219, 53.446847], [-113.482601, 53.446849], [-113.482615, 53.446559]]], [[[-113.482041, 53.45016], [-113.48204, 53.450006], [-113.482031, 53.450006], [-113.48203, 53.449961], [-113.481965, 53.449962], [-113.481958, 53.44949], [-113.480753, 53.449496], [-113.480756, 53.449717], [-113.480422, 53.449719], [-113.480433, 53.450512], [-113.480348, 53.450512], [-113.480349, 53.450626], [-113.480434, 53.450626], [-113.480435, 53.4509], [-113.480745, 53.450899], [-113.480746, 53.451116], [-113.481032, 53.451115], [-113.481031, 53.450896], [-113.48132, 53.450895], [-113.481321, 53.451023], [-113.481825, 53.451023], [-113.481825, 53.450985], [-113.48188, 53.450985], [-113.481879, 53.450511], [-113.48183, 53.450512], [-113.48183, 53.450454], [-113.481972, 53.450454], [-113.481972, 53.450402], [-113.482009, 53.450402], [-113.482009, 53.450271], [-113.48197, 53.450271], [-113.481969, 53.450209], [-113.482028, 53.450209], [-113.482028, 53.45016], [-113.482041, 53.45016]]]]}, "properties": {"display_name": "South Edmonton Common, 99 Street NW, South Edmonton Common, South Industrial District, Edmonton, Alberta, T6N 1M5, Canada", "type": "mall", "osm_type": "relation", "osm_id": 17730841, "class": null, "keyword": "district"}}, {"type": "Feature", "geometry": {"type": "Polygon", "coordinates": [[[-113.390174, 53.597754], [-113.38982, 53.597613], [-113.38974, 53.597581], [-113.38953, 53.597495], [-113.388396, 53.597044], [-113.387658, 53.596755], [-113.386514, 53.59675], [-113.386542, 53.599264], [-113.386803, 53.599374], [-113.387366, 53.599384], [-113.389772, 53.599407], [-113.389764, 53.598764], [-113.38907, 53.598757], [-113.39004, 53.597871], [-113.390174, 53.597754]]]}, "properties": {"display_name": "Belmont Town Centre, Clareview, Edmonton, Alberta, Canada", "type": "retail", "osm_type": "relation", "osm_id": 3930930, "class": null, "keyword": "town centre"}}, {"type": "Feature", "geometry": {"type": "Polygon", "coordinates": [[[-113.472636, 53.481309], [-113.472567, 53.481237], [-113.472397, 53.481149], [-113.472178, 53.481074], [-113.472018, 53.48104], [-113.471265, 53.480983], [-113.470618, 53.480878], [-113.470147, 53.480804], [-113.469612, 53.480658], [-113.468893, 53.480367], [-113.468542, 53.480089], [-113.468284, 53.479799], [-113.468154, 53.479656], [-113.468061, 53.47961], [-113.467944, 53.479598], [-113.467756, 53.479644], [-113.467639, 53.47974], [-113.467575, 53.480007], [-113.467532, 53.480451], [-113.467518, 53.480761], [-113.46752, 53.481118], [-113.467534, 53.481689], [-113.467595, 53.481813], [-113.467744, 53.48192], [-113.467923, 53.481949], [-113.468113, 53.481965], [-113.469772, 53.481917], [-113.471359, 53.481772], [-113.471974, 53.481673], [-113.472189, 53.481632], [-113.472398, 53.48156], [-113.472571, 53.481428], [-113.472636, 53.481309]]]}, "properties": {"display_name": "City of Edmonton Southeast Storage Yard, South Industrial District, Edmonton, Alberta, Canada", "type": "industrial", "osm_type": "way", "osm_id": 578607818, "class": null, "keyword": "district"}}, {"type": "Feature", "geometry": {"type": "Polygon", "coordinates": [[[-113.432266, 53.456253], [-113.432181, 53.456206], [-113.432165, 53.45602], [-113.432101, 53.456021], [-113.432078, 53.455728], [-113.432066, 53.455575], [-113.432063, 53.455527], [-113.432061, 53.45551], [-113.432054, 53.45542], [-113.432049, 53.455351], [-113.432047, 53.455327], [-113.431988, 53.455329], [-113.431992, 53.45537], [-113.431684, 53.45538], [-113.431222, 53.455392], [-113.431199, 53.455097], [-113.431198, 53.455091], [-113.431195, 53.455049], [-113.431174, 53.454785], [-113.431163, 53.454754], [-113.430102, 53.454787], [-113.430099, 53.454759], [-113.429725, 53.454771], [-113.42972, 53.454711], [-113.429719, 53.454706], [-113.429547, 53.454711], [-113.429536, 53.454711], [-113.429537, 53.454712], [-113.429542, 53.45478], [-113.429147, 53.454789], [-113.429149, 53.454824], [-113.428607, 53.454837], [-113.428605, 53.4548], [-113.428549, 53.454801], [-113.428494, 53.454802], [-113.427997, 53.454814], [-113.427073, 53.454836], [-113.425892, 53.454864], [-113.425897, 53.454898], [-113.425894, 53.454896], [-113.425873, 53.454897], [-113.425872, 53.454897], [-113.425874, 53.454921], [-113.425902, 53.45492], [-113.425922, 53.45521], [-113.425934, 53.455403], [-113.42758, 53.455364], [-113.427589, 53.455498], [-113.427768, 53.455494], [-113.427769, 53.455517], [-113.427972, 53.455512], [-113.427963, 53.455371], [-113.427769, 53.455376], [-113.42776, 53.455241], [-113.428026, 53.455235], [-113.42804, 53.455449], [-113.428637, 53.455434], [-113.428637, 53.455444], [-113.42882, 53.45544], [-113.428832, 53.455616], [-113.428792, 53.455617], [-113.428802, 53.455767], [-113.428809, 53.45587], [-113.428898, 53.455923], [-113.428902, 53.455933], [-113.429027, 53.456001], [-113.429236, 53.456114], [-113.429256, 53.456126], [-113.429292, 53.456145], [-113.429484, 53.45625], [-113.429454, 53.456269], [-113.429541, 53.456317], [-113.429575, 53.456295], [-113.429766, 53.456399], [-113.429739, 53.456417], [-113.429809, 53.456455], [-113.429846, 53.456431], [-113.430007, 53.456518], [-113.430364, 53.456285], [-113.43042, 53.456316], [-113.430503, 53.456262], [-113.430575, 53.456216], [-113.430675, 53.456214], [-113.43087, 53.456084], [-113.430622, 53.455952], [-113.430723, 53.455885], [-113.430962, 53.455876], [-113.431069, 53.455807], [-113.431183, 53.45587], [-113.431287, 53.455927], [-113.431295, 53.455927], [-113.431318, 53.455926], [-113.431319, 53.455949], [-113.431293, 53.45595], [-113.431233, 53.455996], [-113.431245, 53.456114], [-113.431272, 53.456133], [-113.431338, 53.456132], [-113.431344, 53.456341], [-113.431968, 53.456335], [-113.432064, 53.456387], [-113.432102, 53.456362], [-113.432115, 53.456369], [-113.432186, 53.456322], [-113.432239, 53.456286], [-113.432226, 53.456279], [-113.432266, 53.456253]]]}, "properties": {"display_name": "Mill Woods Town Centre, 2331, 66 Street NW, Mill Woods Town Centre Area, Mill Woods, Edmonton, Alberta, T6K 4B5, Canada", "type": "mall", "osm_type": "way", "osm_id": 23239655, "class": null, "keyword": "town centre"}}, {"type": "Feature", "geometry": {"type": "Polygon", "coordinates": [[[-113.550537, 53.599759], [-113.550428, 53.599677], [-113.547448, 53.599678], [-113.547445, 53.600414], [-113.547417, 53.601528], [-113.550511, 53.601522], [-113.550537, 53.599759]]]}, "properties": {"display_name": "North City Centre, The Palisades, Edmonton, Alberta, T6V 0E4, Canada", "type": "retail", "osm_type": "way", "osm_id": 92507665, "class": null, "keyword": "city centre"}}, {"type": "Feature", "geometry": {"type": "MultiPolygon", "coordinates": [[[[-113.497224, 53.543222], [-113.497189, 53.543202], [-113.497197, 53.543192], [-113.497197, 53.543185], [-113.497126, 53.543141], [-113.497102, 53.54314], [-113.497093, 53.543143], [-113.497061, 53.543123], [-113.496225, 53.543171], [-113.495463, 53.543214], [-113.494989, 53.543235], [-113.494154, 53.543273], [-113.494085, 53.543315], [-113.494053, 53.543297], [-113.493942, 53.543366], [-113.493974, 53.543384], [-113.493933, 53.54341], [-113.493932, 53.543604], [-113.493931, 53.543716], [-113.494464, 53.543713], [-113.494462, 53.543887], [-113.494619, 53.543885], [-113.494617, 53.543969], [-113.495761, 53.543968], [-113.495761, 53.543997], [-113.496123, 53.543998], [-113.496122, 53.544054], [-113.496289, 53.544055], [-113.49629, 53.543999], [-113.497187, 53.543999], [-113.497199, 53.543997], [-113.497208, 53.543993], [-113.497212, 53.543988], [-113.497212, 53.543953], [-113.497203, 53.543945], [-113.497221, 53.543933], [-113.497224, 53.543222]]], [[[-113.493533, 53.543677], [-113.49353, 53.543313], [-113.493335, 53.543323], [-113.492662, 53.543366], [-113.490951, 53.543474], [-113.491106, 53.544319], [-113.492226, 53.544247], [-113.492275, 53.544244], [-113.492806, 53.544205], [-113.493001, 53.544193], [-113.49352, 53.544163], [-113.493533, 53.543677]]]]}, "properties": {"display_name": "Edmonton City Centre, 10025, 102 Avenue NW, Downtown, Central Core, Edmonton, Alberta, T5J 2Z2, Canada", "type": "mall", "osm_type": "relation", "osm_id": 6488345, "class": null, "keyword": "city centre"}}, {"type": "Feature", "geometry": {"type": "MultiPolygon", "coordinates": [[[[-113.491149, 53.600549], [-113.491095, 53.600549], [-113.491095, 53.600538], [-113.49101, 53.600538], [-113.49101, 53.600548], [-113.490913, 53.600548], [-113.490911, 53.600717], [-113.490955, 53.600717], [-113.490955, 53.600749], [-113.491049, 53.600749], [-113.49105, 53.600718], [-113.491134, 53.600718], [-113.491134, 53.600699], [-113.491148, 53.600699], [-113.491149, 53.600549]]], [[[-113.49112, 53.601017], [-113.490963, 53.601016], [-113.490961, 53.601174], [-113.491118, 53.601175], [-113.49112, 53.601017]]], [[[-113.490538, 53.600634], [-113.49045, 53.600633], [-113.49045, 53.600646], [-113.49036, 53.600645], [-113.49036, 53.60063], [-113.489969, 53.600628], [-113.489969, 53.600642], [-113.489925, 53.600642], [-113.489925, 53.60063], [-113.489423, 53.600628], [-113.489423, 53.600645], [-113.489386, 53.600645], [-113.489386, 53.600635], [-113.488938, 53.600633], [-113.488937, 53.600657], [-113.488788, 53.600656], [-113.488752, 53.600639], [-113.488754, 53.600454], [-113.487277, 53.600448], [-113.487276, 53.600553], [-113.487144, 53.600552], [-113.487145, 53.600536], [-113.486762, 53.600535], [-113.486762, 53.600505], [-113.486328, 53.600504], [-113.486328, 53.600526], [-113.48579, 53.600524], [-113.485786, 53.600886], [-113.486091, 53.600887], [-113.48609, 53.600936], [-113.486541, 53.600938], [-113.486539, 53.601061], [-113.487057, 53.601063], [-113.487057, 53.60109], [-113.48709, 53.60109], [-113.487089, 53.601194], [-113.487137, 53.601194], [-113.487137, 53.601239], [-113.487569, 53.601241], [-113.487569, 53.601183], [-113.488018, 53.601185], [-113.488018, 53.601239], [-113.488238, 53.60124], [-113.488239, 53.601183], [-113.488421, 53.601184], [-113.488421, 53.601197], [-113.488694, 53.601198], [-113.488694, 53.601183], [-113.48921, 53.601185], [-113.489209, 53.601221], [-113.489384, 53.601222], [-113.489384, 53.601185], [-113.489772, 53.601187], [-113.489771, 53.601263], [-113.490054, 53.601264], [-113.490055, 53.601187], [-113.490525, 53.601189], [-113.490526, 53.601078], [-113.490533, 53.601078], [-113.490538, 53.600634]]], [[[-113.489096, 53.600027], [-113.488631, 53.600025], [-113.488629, 53.600214], [-113.489094, 53.600216], [-113.489096, 53.600027]]], [[[-113.487841, 53.599801], [-113.487575, 53.5998], [-113.487575, 53.599792], [-113.487405, 53.599792], [-113.487325, 53.599837], [-113.487324, 53.599913], [-113.487308, 53.599913], [-113.487308, 53.599951], [-113.48733, 53.599951], [-113.48733, 53.599975], [-113.487595, 53.599976], [-113.487595, 53.599992], [-113.487839, 53.599993], [-113.487841, 53.599801]]], [[[-113.485904, 53.599869], [-113.485582, 53.599867], [-113.485576, 53.600372], [-113.485898, 53.600374], [-113.485904, 53.599869]]]]}, "properties": {"display_name": "North Town Centre, 9450;9630, 137 Avenue NW, Northmount, Dickinsfield, Northern Mature Area, Edmonton, Alberta, T5E 6H7, Canada", "type": "mall", "osm_type": "relation", "osm_id": 16848259, "class": null, "keyword": "town centre"}}, {"type": "Feature", "geometry": {"type": "Polygon", "coordinates": [[[-113.497405, 53.515197], [-113.495857, 53.515197], [-113.495388, 53.515197], [-113.495388, 53.516027], [-113.497394, 53.516039], [-113.497405, 53.515197]]]}, "properties": {"display_name": "Strathcona Town Centre, Greater Strathcona, Edmonton, Alberta, T6E 4E1, Canada", "type": "retail", "osm_type": "way", "osm_id": 50197101, "class": null, "keyword": "town centre"}}, {"type": "Feature", "geometry": {"type": "Polygon", "coordinates": [[[-113.396015, 53.620273], [-113.393824, 53.620256], [-113.393814, 53.620742], [-113.396005, 53.620758], [-113.396015, 53.620273]]]}, "properties": {"display_name": "Manning Town Centre Phase 2, Pilot Sound, Edmonton, Alberta, Canada", "type": "construction", "osm_type": "way", "osm_id": 1289429569, "class": null, "keyword": "town centre"}}, {"type": "Feature", "geometry": {"type": "Polygon", "coordinates": [[[-113.398891, 53.615275], [-113.398413, 53.615144], [-113.396893, 53.615246], [-113.396932, 53.615664], [-113.397688, 53.615768], [-113.398246, 53.615928], [-113.398891, 53.615275]]]}, "properties": {"display_name": "Manning Town Centre Phase 2, Pilot Sound, Edmonton, Alberta, Canada", "type": "greenfield", "osm_type": "way", "osm_id": 1211728945, "class": null, "keyword": "town centre"}}, {"type": "Feature", "geometry": {"type": "Polygon", "coordinates": [[[-113.486949, 53.540989], [-113.486853, 53.540886], [-113.486655, 53.540679], [-113.486604, 53.540625], [-113.48618, 53.540768], [-113.486215, 53.540804], [-113.485875, 53.540919], [-113.48549, 53.541048], [-113.4855, 53.541058], [-113.485298, 53.541126], [-113.485215, 53.541039], [-113.485087, 53.541082], [-113.485126, 53.541123], [-113.485256, 53.541259], [-113.485201, 53.541278], [-113.485217, 53.541295], [-113.485154, 53.541317], [-113.485169, 53.541331], [-113.485104, 53.541353], [-113.48513, 53.541381], [-113.485143, 53.541393], [-113.485176, 53.541428], [-113.485057, 53.541465], [-113.485088, 53.541499], [-113.484968, 53.541538], [-113.485019, 53.541587], [-113.485061, 53.541574], [-113.485101, 53.541611], [-113.485213, 53.541586], [-113.485629, 53.541449], [-113.485699, 53.541523], [-113.48579, 53.541493], [-113.48593, 53.541446], [-113.48616, 53.541688], [-113.486328, 53.541632], [-113.486501, 53.541573], [-113.486256, 53.541325], [-113.486481, 53.54125], [-113.486406, 53.541173], [-113.486949, 53.540989]]]}, "properties": {"display_name": "Edmonton Convention Centre, 9797, Jasper Avenue NW, Downtown, Central Core, Edmonton, Alberta, T5J 0C5, Canada", "type": "conference_centre", "osm_type": "way", "osm_id": 1288944252, "class": null, "keyword": "downtown core"}}, {"type": "Feature", "geometry": {"type": "Polygon", "coordinates": [[[-113.490796, 53.545978], [-113.490739, 53.545643], [-113.490509, 53.545656], [-113.490489, 53.545537], [-113.490765, 53.545519], [-113.490732, 53.545344], [-113.490665, 53.545348], [-113.490659, 53.545319], [-113.490781, 53.54531], [-113.490779, 53.545295], [-113.490707, 53.5453], [-113.490702, 53.545271], [-113.490715, 53.54527], [-113.49064, 53.544852], [-113.490549, 53.544858], [-113.490539, 53.544801], [-113.49046, 53.544806], [-113.490469, 53.544852], [-113.490491, 53.54485], [-113.490494, 53.544871], [-113.490401, 53.544877], [-113.490475, 53.54529], [-113.490509, 53.545288], [-113.490514, 53.545314], [-113.489554, 53.545376], [-113.489555, 53.545389], [-113.489604, 53.545386], [-113.489611, 53.545421], [-113.489563, 53.545425], [-113.489603, 53.545601], [-113.489887, 53.545583], [-113.489891, 53.545619], [-113.489901, 53.545664], [-113.489928, 53.545807], [-113.489703, 53.545819], [-113.489737, 53.546052], [-113.490001, 53.546034], [-113.489989, 53.545956], [-113.490035, 53.545953], [-113.490055, 53.546076], [-113.490491, 53.546047], [-113.490474, 53.545927], [-113.490524, 53.545924], [-113.490534, 53.545994], [-113.490796, 53.545978]]]}, "properties": {"display_name": "Edmonton City Hall, 1, 103A Avenue NW, Downtown, Central Core, Edmonton, Alberta, T5J 2R7, Canada", "type": "townhall", "osm_type": "way", "osm_id": 35008768, "class": null, "keyword": "downtown core"}}, {"type": "Feature", "geometry": {"type": "Polygon", "coordinates": [[[-113.496588, 53.546363], [-113.496348, 53.546363], [-113.496347, 53.546351], [-113.495849, 53.54635], [-113.495668, 53.546348], [-113.495667, 53.547151], [-113.496567, 53.547155], [-113.496558, 53.547105], [-113.496561, 53.546595], [-113.496588, 53.546363]]]}, "properties": {"display_name": "Grand Villa Edmonton Casino, 10224, 104 Avenue NW, Downtown, Central Core, Edmonton, Alberta, T5J 4Y8, Canada", "type": "casino", "osm_type": "way", "osm_id": 448626255, "class": null, "keyword": "downtown core"}}, {"type": "Feature", "geometry": {"type": "Polygon", "coordinates": [[[-113.49534, 53.545783], [-113.495322, 53.545783], [-113.495322, 53.545749], [-113.495323, 53.545721], [-113.495337, 53.54572], [-113.495336, 53.545656], [-113.495335, 53.54553], [-113.495065, 53.54553], [-113.495065, 53.54547], [-113.494918, 53.545468], [-113.493947, 53.545472], [-113.493948, 53.54565], [-113.493907, 53.54565], [-113.493912, 53.545907], [-113.49403, 53.545908], [-113.49403, 53.545933], [-113.494733, 53.545934], [-113.494734, 53.545907], [-113.495074, 53.545907], [-113.495074, 53.545898], [-113.495338, 53.5459], [-113.49534, 53.545783]]]}, "properties": {"display_name": "Edmonton Tower, 10111, 104 Avenue NW, Downtown, Central Core, Edmonton, Alberta, T5J 4X1, Canada", "type": "government", "osm_type": "way", "osm_id": 455446660, "class": null, "keyword": "downtown core"}}, {"type": "Feature", "geometry": {"type": "Polygon", "coordinates": [[[-113.493419, 53.544478], [-113.493429, 53.544472], [-113.493134, 53.544436], [-113.493082, 53.544436], [-113.492969, 53.544436], [-113.492518, 53.54447], [-113.492593, 53.544874], [-113.493038, 53.544833], [-113.493065, 53.544958], [-113.492528, 53.544996], [-113.492449, 53.545002], [-113.49245, 53.545017], [-113.492499, 53.545352], [-113.492656, 53.545341], [-113.492603, 53.545012], [-113.49313, 53.544982], [-113.493183, 53.545311], [-113.493478, 53.545301], [-113.493477, 53.544991], [-113.493477, 53.544949], [-113.493477, 53.544936], [-113.493505, 53.544936], [-113.493505, 53.544866], [-113.493477, 53.544866], [-113.493477, 53.544859], [-113.493506, 53.544859], [-113.493505, 53.544786], [-113.493483, 53.544786], [-113.493483, 53.544779], [-113.493506, 53.544779], [-113.493505, 53.544706], [-113.493486, 53.544706], [-113.493504, 53.544643], [-113.493566, 53.544641], [-113.493551, 53.544515], [-113.493422, 53.544495], [-113.493419, 53.544478]], [[-113.493419, 53.544478], [-113.49299, 53.544503], [-113.493109, 53.544494], [-113.493419, 53.544478]]]}, "properties": {"display_name": "The Sandman Signature Edmonton Downtown Hotel, 10235, 101 Street NW, Downtown, Central Core, Edmonton, Alberta, T5J 3E8, Canada", "type": "hotel", "osm_type": "relation", "osm_id": 17174557, "class": null, "keyword": "downtown core"}}, {"type": "Feature", "geometry": {"type": "Polygon", "coordinates": [[[-113.492593, 53.544874], [-113.492518, 53.54447], [-113.492266, 53.544485], [-113.491603, 53.544524], [-113.491209, 53.544551], [-113.491163, 53.544589], [-113.49122, 53.544959], [-113.491672, 53.544931], [-113.491699, 53.54493], [-113.492509, 53.544879], [-113.492593, 53.544874]]]}, "properties": {"display_name": "Edmonton City Centre;Edmonton City Centre Parkade, 15, Pedway, Downtown, Central Core, Edmonton, Alberta, T5J 0H1, Canada", "type": "parking", "osm_type": "relation", "osm_id": 17174558, "class": null, "keyword": "downtown core"}}, {"type": "Feature", "geometry": {"type": "Polygon", "coordinates": [[[-113.496735, 53.545775], [-113.496569, 53.545763], [-113.496546, 53.545715], [-113.496552, 53.545549], [-113.496497, 53.545471], [-113.496467, 53.545461], [-113.496324, 53.545461], [-113.496246, 53.545449], [-113.496074, 53.545448], [-113.495759, 53.545447], [-113.49573, 53.545447], [-113.495718, 53.545745], [-113.49571, 53.546058], [-113.496601, 53.54606], [-113.496647, 53.54606], [-113.496657, 53.546009], [-113.496684, 53.545913], [-113.496713, 53.545827], [-113.496735, 53.545775]]]}, "properties": {"display_name": "JW Marriott Edmonton Ice District & Residences, 10360, 102 Street NW, Downtown, Central Core, Edmonton, Alberta, T5J 4Y8, Canada", "type": "hotel", "osm_type": "way", "osm_id": 476797583, "class": null, "keyword": "downtown core"}}, {"type": "Feature", "geometry": {"type": "Polygon", "coordinates": [[[-113.490247, 53.541877], [-113.490246, 53.54186], [-113.49023, 53.541774], [-113.490075, 53.541784], [-113.489619, 53.541813], [-113.48891, 53.541858], [-113.48893, 53.541974], [-113.488981, 53.542262], [-113.489653, 53.542222], [-113.489791, 53.542213], [-113.490185, 53.541965], [-113.490206, 53.541948], [-113.490222, 53.54193], [-113.490234, 53.541914], [-113.490243, 53.541897], [-113.490247, 53.541877]]]}, "properties": {"display_name": "The Westin Edmonton, 10135, 100 Street NW, Downtown, Central Core, Edmonton, Alberta, T5J 0N7, Canada", "type": "hotel", "osm_type": "way", "osm_id": 323689488, "class": null, "keyword": "downtown core"}}, {"type": "Feature", "geometry": {"type": "Polygon", "coordinates": [[[-113.530089, 53.549874], [-113.529597, 53.549881], [-113.529599, 53.549619], [-113.529068, 53.549611], [-113.52906, 53.549851], [-113.529446, 53.549857], [-113.529456, 53.549979], [-113.529413, 53.549979], [-113.529422, 53.550364], [-113.530089, 53.550358], [-113.530089, 53.549874]]]}, "properties": {"display_name": "Pointe Uptown Courtyard, Queen Mary Park, Central Core, Edmonton, Alberta, Canada", "type": "park", "osm_type": "way", "osm_id": 632373455, "class": null, "keyword": "uptown"}}, {"type": "Feature", "geometry": {"type": "Polygon", "coordinates": [[[-113.492689, 53.540161], [-113.492676, 53.540068], [-113.49268, 53.540066], [-113.492683, 53.540064], [-113.492685, 53.540061], [-113.492687, 53.540058], [-113.492687, 53.540055], [-113.492687, 53.540053], [-113.492686, 53.54005], [-113.492685, 53.540047], [-113.492682, 53.540045], [-113.492679, 53.540042], [-113.492676, 53.540041], [-113.492672, 53.540039], [-113.492655, 53.539951], [-113.492531, 53.539959], [-113.492521, 53.539871], [-113.492639, 53.539864], [-113.492623, 53.539773], [-113.492628, 53.539771], [-113.492632, 53.539769], [-113.492635, 53.539767], [-113.492637, 53.539764], [-113.492639, 53.539761], [-113.49264, 53.539758], [-113.492639, 53.539754], [-113.492638, 53.539751], [-113.492637, 53.539748], [-113.492634, 53.539746], [-113.492631, 53.539743], [-113.492627, 53.539741], [-113.492622, 53.539739], [-113.492617, 53.539738], [-113.492606, 53.539662], [-113.492471, 53.539669], [-113.492471, 53.539657], [-113.492411, 53.539659], [-113.492387, 53.53965], [-113.492478, 53.539592], [-113.492392, 53.539553], [-113.492321, 53.539608], [-113.492287, 53.539593], [-113.492303, 53.53958], [-113.492249, 53.539557], [-113.49219, 53.539539], [-113.492126, 53.539528], [-113.49206, 53.539522], [-113.491993, 53.539524], [-113.491996, 53.53954], [-113.491958, 53.539543], [-113.491954, 53.539521], [-113.491911, 53.539524], [-113.491943, 53.539699], [-113.49197, 53.539697], [-113.491984, 53.539773], [-113.49198, 53.539775], [-113.491977, 53.539777], [-113.491975, 53.53978], [-113.491973, 53.539783], [-113.491972, 53.539786], [-113.491972, 53.539789], [-113.491973, 53.539792], [-113.491975, 53.539795], [-113.491978, 53.539797], [-113.491981, 53.5398], [-113.491985, 53.539802], [-113.49199, 53.539803], [-113.492007, 53.539896], [-113.492126, 53.539889], [-113.492143, 53.539983], [-113.49202, 53.539991], [-113.492037, 53.540081], [-113.492033, 53.540083], [-113.49203, 53.540085], [-113.492028, 53.540087], [-113.492026, 53.54009], [-113.492025, 53.540092], [-113.492025, 53.540095], [-113.492025, 53.540097], [-113.492027, 53.5401], [-113.492029, 53.540102], [-113.492031, 53.540104], [-113.492034, 53.540106], [-113.492038, 53.540108], [-113.492042, 53.540109], [-113.492054, 53.540199], [-113.492179, 53.540191], [-113.49218, 53.540201], [-113.492334, 53.540191], [-113.492333, 53.540182], [-113.492357, 53.54018], [-113.49236, 53.540183], [-113.492364, 53.540184], [-113.492368, 53.540186], [-113.492373, 53.540187], [-113.492378, 53.540187], [-113.492382, 53.540187], [-113.492387, 53.540186], [-113.492392, 53.540185], [-113.492396, 53.540184], [-113.4924, 53.540182], [-113.492403, 53.54018], [-113.492405, 53.540177], [-113.492433, 53.540176], [-113.492435, 53.540185], [-113.492587, 53.540175], [-113.492586, 53.540165], [-113.492689, 53.540161]]]}, "properties": {"display_name": "MacEwan University City Centre Campus, 10050, MacDonald Drive NW, Downtown, Central Core, Edmonton, Alberta, T5J 2B7, Canada", "type": "university", "osm_type": "way", "osm_id": 224805102, "class": null, "keyword": "city core"}}, {"type": "Feature", "geometry": {"type": "Polygon", "coordinates": [[[-113.530625, 53.566368], [-113.529822, 53.566367], [-113.52982, 53.566702], [-113.529766, 53.566702], [-113.529766, 53.566821], [-113.530622, 53.566823], [-113.530625, 53.566368]]]}, "properties": {"display_name": "Edmonton's Food Bank, 11508, 120 Street NW, Prince Rupert, Western Mature Area, Edmonton, Alberta, T5G 2Y2, Canada", "type": "social_facility", "osm_type": "way", "osm_id": 325236312, "class": null, "keyword": "central area"}}, {"type": "Feature", "geometry": {"type": "Polygon", "coordinates": [[[-113.492412, 53.545918], [-113.49239, 53.545819], [-113.49238, 53.545762], [-113.492377, 53.545739], [-113.492365, 53.545675], [-113.492344, 53.545579], [-113.491335, 53.545638], [-113.491395, 53.545976], [-113.491874, 53.545951], [-113.491895, 53.545967], [-113.491921, 53.545981], [-113.491949, 53.545992], [-113.491981, 53.546], [-113.492014, 53.546005], [-113.492048, 53.546007], [-113.492085, 53.546005], [-113.49212, 53.546], [-113.492153, 53.545991], [-113.492182, 53.545979], [-113.492209, 53.545965], [-113.49223, 53.545947], [-113.492247, 53.545928], [-113.492412, 53.545918]]]}, "properties": {"display_name": "City Square Tower, 10020, 103 Avenue NW, Downtown, Central Core, Edmonton, Alberta, T5J 0G8, Canada", "type": "apartments", "osm_type": "way", "osm_id": 324786158, "class": null, "keyword": "city core"}}, {"type": "Feature", "geometry": {"type": "Polygon", "coordinates": [[[-113.504522, 53.540568], [-113.504518, 53.540394], [-113.50411, 53.540392], [-113.504111, 53.540363], [-113.504112, 53.54033], [-113.503912, 53.54033], [-113.503896, 53.54038], [-113.503665, 53.540382], [-113.503669, 53.540433], [-113.50358, 53.540433], [-113.503586, 53.540767], [-113.503642, 53.540768], [-113.503642, 53.540803], [-113.504254, 53.540803], [-113.50425, 53.540602], [-113.504305, 53.540565], [-113.504522, 53.540568]]]}, "properties": {"display_name": "First Edmonton Place, 10665, Jasper Avenue NW, Downtown, Central Core, Edmonton, Alberta, T5J 3S9, Canada", "type": "office", "osm_type": "way", "osm_id": 49743160, "class": null, "keyword": "downtown core"}}, {"type": "Feature", "geometry": {"type": "Polygon", "coordinates": [[[-113.530637, 53.565952], [-113.530637, 53.565618], [-113.529652, 53.565619], [-113.529653, 53.565787], [-113.529667, 53.565787], [-113.529667, 53.565842], [-113.529734, 53.565842], [-113.529734, 53.565953], [-113.530637, 53.565952]]]}, "properties": {"display_name": "Edmonton's Food Bank Annex, 11434, 120 Street NW, Prince Rupert, Western Mature Area, Edmonton, Alberta, T5G 2Y2, Canada", "type": "social_facility", "osm_type": "way", "osm_id": 325236839, "class": null, "keyword": "central area"}}, {"type": "Feature", "geometry": {"type": "Polygon", "coordinates": [[[-113.521089, 53.549976], [-113.520588, 53.549976], [-113.520587, 53.550435], [-113.520586, 53.550475], [-113.521002, 53.550475], [-113.521021, 53.550486], [-113.521061, 53.550486], [-113.521087, 53.550471], [-113.521087, 53.550423], [-113.521071, 53.550423], [-113.521071, 53.550332], [-113.521085, 53.550322], [-113.521083, 53.5503], [-113.521056, 53.550283], [-113.520917, 53.550282], [-113.520917, 53.550318], [-113.520843, 53.550318], [-113.520819, 53.550302], [-113.52082, 53.550152], [-113.520846, 53.550136], [-113.520916, 53.550136], [-113.520916, 53.550172], [-113.521059, 53.550172], [-113.521088, 53.550156], [-113.521088, 53.550136], [-113.521071, 53.550125], [-113.521072, 53.550034], [-113.521089, 53.550034], [-113.521089, 53.549976]]]}, "properties": {"display_name": "Midtown Estates, 10611, 116 Street NW, Queen Mary Park, Central Core, Edmonton, Alberta, T5H 3K6, Canada", "type": "apartments", "osm_type": "way", "osm_id": 323339206, "class": null, "keyword": "midtown"}}, {"type": "Feature", "geometry": {"type": "Polygon", "coordinates": [[[-113.500878, 53.542337], [-113.500796, 53.542337], [-113.500599, 53.542338], [-113.500599, 53.542348], [-113.500567, 53.542348], [-113.500567, 53.542314], [-113.500492, 53.542314], [-113.500492, 53.542297], [-113.500217, 53.542298], [-113.500219, 53.542633], [-113.500229, 53.542633], [-113.50043, 53.542632], [-113.500837, 53.542631], [-113.500876, 53.54263], [-113.500878, 53.542337]]]}, "properties": {"display_name": "Coast Edmonton Parking - Lot #161, 105 Street NW, Downtown, Central Core, Edmonton, Alberta, T5J 3N1, Canada", "type": "parking", "osm_type": "way", "osm_id": 225923556, "class": null, "keyword": "downtown core"}}, {"type": "Feature", "geometry": {"type": "Polygon", "coordinates": [[[-113.503742, 53.538984], [-113.503146, 53.538981], [-113.503142, 53.539235], [-113.503738, 53.539239], [-113.503742, 53.538984]]]}, "properties": {"display_name": "City University of Seattle in Canada, 100 Avenue NW Protected Bike Lane, Downtown, Central Core, Edmonton, Alberta, T5K 2N2, Canada", "type": "university", "osm_type": "way", "osm_id": 225999775, "class": null, "keyword": "city core"}}, {"type": "Feature", "geometry": {"type": "Polygon", "coordinates": [[[-113.488163, 53.540696], [-113.488123, 53.540437], [-113.488055, 53.540441], [-113.487732, 53.540463], [-113.487742, 53.540538], [-113.487488, 53.540554], [-113.487519, 53.540736], [-113.488163, 53.540696]]]}, "properties": {"display_name": "Courtyard Marriott Edmonton, 1, Thornton Court NW, Downtown, Central Core, Edmonton, Alberta, T5J 2E7, Canada", "type": "hotel", "osm_type": "way", "osm_id": 44164795, "class": null, "keyword": "downtown core"}}, {"type": "Feature", "geometry": {"type": "Polygon", "coordinates": [[[-113.493444, 53.561439], [-113.493442, 53.561172], [-113.492986, 53.561173], [-113.492987, 53.56144], [-113.493444, 53.561439]]]}, "properties": {"display_name": "Inner City High School, 11205, 101 Street NW, Spruce Avenue, Avenue District, Edmonton, Alberta, T5G 2E7, Canada", "type": "school", "osm_type": "way", "osm_id": 325035816, "class": null, "keyword": "inner city"}}, {"type": "Feature", "geometry": {"type": "Polygon", "coordinates": [[[-113.534905, 53.542022], [-113.534589, 53.542022], [-113.534589, 53.542081], [-113.534436, 53.54208], [-113.534435, 53.54214], [-113.534435, 53.542186], [-113.534386, 53.542186], [-113.534385, 53.542292], [-113.534876, 53.542293], [-113.534878, 53.542071], [-113.534905, 53.542071], [-113.534905, 53.542022]]]}, "properties": {"display_name": "Edmonton Fire Station #22, 123 Street NW, Wîhkwêntôwin, Central Core, Edmonton, Alberta, T5N 3Y5, Canada", "type": "fire_station", "osm_type": "way", "osm_id": 323315896, "class": null, "keyword": "central area"}}, {"type": "Feature", "geometry": {"type": "Polygon", "coordinates": [[[-113.485706, 53.451632], [-113.485166, 53.45163], [-113.485165, 53.451711], [-113.48509, 53.45171], [-113.485089, 53.451797], [-113.485162, 53.451797], [-113.485162, 53.451803], [-113.48522, 53.451803], [-113.485219, 53.451824], [-113.485333, 53.451824], [-113.485334, 53.4518], [-113.48548, 53.4518], [-113.48548, 53.451789], [-113.485704, 53.451791], [-113.485706, 53.451632]]]}, "properties": {"display_name": "ATB Financial, 21 Avenue NW, South Edmonton Common, South Industrial District, Edmonton, Alberta, T6N 1J6, Canada", "type": "bank", "osm_type": "way", "osm_id": 42505020, "class": null, "keyword": "financial district"}}, {"type": "Feature", "geometry": {"type": "Polygon", "coordinates": [[[-113.495298, 53.538472], [-113.495296, 53.538414], [-113.495247, 53.538412], [-113.495182, 53.53836], [-113.495227, 53.53833], [-113.495122, 53.538297], [-113.495098, 53.538322], [-113.494993, 53.538326], [-113.494962, 53.538293], [-113.494864, 53.538328], [-113.4949, 53.538358], [-113.494844, 53.538406], [-113.494792, 53.53841], [-113.494793, 53.53847], [-113.494847, 53.538474], [-113.494901, 53.538527], [-113.494873, 53.538554], [-113.49497, 53.538582], [-113.494994, 53.538558], [-113.49509, 53.538559], [-113.495112, 53.538583], [-113.49522, 53.538558], [-113.495186, 53.538527], [-113.49524, 53.538473], [-113.495298, 53.538472]]]}, "properties": {"display_name": "Edmonton House, 10205, 100 Avenue NW, Downtown, Central Core, Edmonton, Alberta, T5J 4B5, Canada", "type": "hotel", "osm_type": "way", "osm_id": 226322810, "class": null, "keyword": "downtown core"}}, {"type": "Feature", "geometry": {"type": "Polygon", "coordinates": [[[-113.510067, 53.548979], [-113.51001, 53.548979], [-113.510011, 53.548907], [-113.509603, 53.548905], [-113.509601, 53.549085], [-113.509927, 53.549087], [-113.509926, 53.549171], [-113.510065, 53.549172], [-113.510067, 53.548979]]]}, "properties": {"display_name": "City Centre Bottle Depot, 10545, 110 Street NW, Queen Mary Park, Central Core, Edmonton, Alberta, T5H 3C6, Canada", "type": "recycling", "osm_type": "way", "osm_id": 324832313, "class": null, "keyword": "city core"}}, {"type": "Feature", "geometry": {"type": "Polygon", "coordinates": [[[-113.523765, 53.540085], [-113.523685, 53.540085], [-113.523685, 53.540091], [-113.523456, 53.54009], [-113.523454, 53.540218], [-113.52347, 53.540218], [-113.523468, 53.540342], [-113.523762, 53.540344], [-113.523765, 53.540085]]]}, "properties": {"display_name": "Uptown Estates, 117 Street NW, Government Centre, Central Core, Edmonton, Alberta, T5K 2V4, Canada", "type": "apartments", "osm_type": "way", "osm_id": 323319678, "class": null, "keyword": "uptown"}}, {"type": "Feature", "geometry": {"type": "Polygon", "coordinates": [[[-113.498226, 53.543696], [-113.497607, 53.543694], [-113.497604, 53.543809], [-113.498226, 53.54381], [-113.498226, 53.543696]]]}, "properties": {"display_name": "International Buddhist Progress Society Edmonton, 10232, 103 Street NW, Downtown, Central Core, Edmonton, Alberta, T5J 0Y8, Canada", "type": "place_of_worship", "osm_type": "way", "osm_id": 1243704692, "class": null, "keyword": "downtown core"}}, {"type": "Feature", "geometry": {"type": "Polygon", "coordinates": [[[-113.491264, 53.628242], [-113.491224, 53.628242], [-113.491169, 53.628242], [-113.491169, 53.628231], [-113.491127, 53.628231], [-113.491128, 53.628216], [-113.490998, 53.628215], [-113.490998, 53.62823], [-113.490931, 53.628229], [-113.490927, 53.628473], [-113.490967, 53.628473], [-113.490967, 53.628487], [-113.491098, 53.628488], [-113.491098, 53.628474], [-113.491169, 53.628474], [-113.491172, 53.62829], [-113.491223, 53.62829], [-113.491263, 53.62829], [-113.491264, 53.628242]]]}, "properties": {"display_name": "ATB Financial, 167 Avenue NW, Eaux Claires, Lake District, Edmonton, Alberta, T5X 5L1, Canada", "type": "bank", "osm_type": "way", "osm_id": 321937639, "class": null, "keyword": "financial district"}}, {"type": "Feature", "geometry": {"type": "Polygon", "coordinates": [[[-113.496453, 53.55769], [-113.496142, 53.557687], [-113.496144, 53.557868], [-113.496453, 53.55787], [-113.496453, 53.55769]]]}, "properties": {"display_name": "Edmonton (Royal Alexandra Hospital) Heliport, 102 Street NW, Central McDougall, Central Core, Edmonton, Alberta, T5H 3V9, Canada", "type": "helipad", "osm_type": "way", "osm_id": 1127825231, "class": null, "keyword": "district"}}, {"type": "Feature", "geometry": {"type": "Polygon", "coordinates": [[[-113.490525, 53.543811], [-113.490505, 53.543683], [-113.490418, 53.543688], [-113.490426, 53.543659], [-113.490257, 53.543642], [-113.490204, 53.54383], [-113.490373, 53.543847], [-113.490408, 53.543725], [-113.490435, 53.543816], [-113.490525, 53.543811]]]}, "properties": {"display_name": "Edmonton Arts Council Shop & Services, Sir Winston Churchill Square, Downtown, Central Core, Edmonton, Alberta, T5J 5H7, Canada", "type": "ticket", "osm_type": "way", "osm_id": 222646872, "class": null, "keyword": "downtown core"}}, {"type": "Feature", "geometry": {"type": "Polygon", "coordinates": [[[-113.500731, 53.536464], [-113.500671, 53.536401], [-113.500539, 53.536446], [-113.500559, 53.536467], [-113.500538, 53.536474], [-113.500557, 53.536494], [-113.500579, 53.536487], [-113.5006, 53.536509], [-113.500731, 53.536464]]]}, "properties": {"display_name": "Edmonton Settlement School, 10425, 99 Avenue NW, Downtown, Central Core, Edmonton, Alberta, T5K 0E5, Canada", "type": "protected_building", "osm_type": "way", "osm_id": 322974079, "class": null, "keyword": "downtown core"}}, {"type": "Feature", "geometry": {"type": "Polygon", "coordinates": [[[-113.469537, 53.550796], [-113.469528, 53.550768], [-113.469362, 53.550784], [-113.469379, 53.55085], [-113.469424, 53.550847], [-113.469415, 53.550808], [-113.469537, 53.550796]]]}, "properties": {"display_name": "City of Edmonton Floating Dock, Dawson Gravel, River Valley Kinnaird, Central Core, Edmonton, Alberta, T5H 1P7, Canada", "type": "pier", "osm_type": "way", "osm_id": 913999781, "class": null, "keyword": "city core"}}]}