{"type": "FeatureCollection", "features": [{"type": "Feature", "geometry": {"type": "Polygon", "coordinates": [[[113.091635, 22.865177], [113.092066, 22.864128], [113.093627, 22.862188], [113.094985, 22.86257], [113.096583, 22.86306], [113.097677, 22.863072], [113.099276, 22.862642], [113.102523, 22.861348], [113.103174, 22.86153], [113.104774, 22.86123], [113.105454, 22.860488], [113.106106, 22.859259], [113.106745, 22.85883], [113.108351, 22.857954], [113.108731, 22.857581], [113.10935, 22.856193], [113.107953, 22.853928], [113.107629, 22.853247], [113.107538, 22.852644], [113.107325, 22.851274], [113.107332, 22.848678], [113.107578, 22.845522], [113.108431, 22.845521], [113.109951, 22.845459], [113.110057, 22.84498], [113.110558, 22.843978], [113.111491, 22.844182], [113.112338, 22.84122], [113.113146, 22.8413], [113.113098, 22.84271], [113.113916, 22.842187], [113.114426, 22.842009], [113.115802, 22.842559], [113.116164, 22.842172], [113.116583, 22.841985], [113.11621, 22.84144], [113.11688, 22.8415], [113.116868, 22.841873], [113.117063, 22.841904], [113.117159, 22.841459], [113.117361, 22.841468], [113.117265, 22.841885], [113.11817, 22.842045], [113.118314, 22.842293], [113.117207, 22.84232], [113.117005, 22.842506], [113.118208, 22.843543], [113.118458, 22.842382], [113.119243, 22.842283], [113.119064, 22.842052], [113.118506, 22.842], [113.118256, 22.84114], [113.12022, 22.84161], [113.1202, 22.841796], [113.120604, 22.841912], [113.120807, 22.841371], [113.121913, 22.841566], [113.121769, 22.842125], [113.121393, 22.842036], [113.121268, 22.842435], [113.122981, 22.842612], [113.123668, 22.843485], [113.131335, 22.838712], [113.138223, 22.833432], [113.142557, 22.829477], [113.146355, 22.82388], [113.153866, 22.823425], [113.159058, 22.823504], [113.166032, 22.820498], [113.171633, 22.814188], [113.175109, 22.808156], [113.179271, 22.800382], [113.182082, 22.795694], [113.187517, 22.791033], [113.18803, 22.790593], [113.189655, 22.785961], [113.191441, 22.783701], [113.191728, 22.782785], [113.192253, 22.781741], [113.192656, 22.781212], [113.192886, 22.781078], [113.193262, 22.780767], [113.193632, 22.780346], [113.193493, 22.780302], [113.193732, 22.780089], [113.194215, 22.779555], [113.194329, 22.779467], [113.19449, 22.779342], [113.195488, 22.778749], [113.195767, 22.778625], [113.196293, 22.778457], [113.197312, 22.778215], [113.19809, 22.778121], [113.198841, 22.778081], [113.199667, 22.778239], [113.199951, 22.778358], [113.200536, 22.778685], [113.201287, 22.778902], [113.201553, 22.778877], [113.202398, 22.779342], [113.202846, 22.779416], [113.204568, 22.780336], [113.204645, 22.780396], [113.204817, 22.78045], [113.204822, 22.780856], [113.204769, 22.781113], [113.204681, 22.781217], [113.204629, 22.781321], [113.204608, 22.782092], [113.204694, 22.78234], [113.204876, 22.782547], [113.204972, 22.782706], [113.204876, 22.783922], [113.206226, 22.783898], [113.207054, 22.783833], [113.208125, 22.783937], [113.208545, 22.78411], [113.209328, 22.784298], [113.209328, 22.784842], [113.209854, 22.784941], [113.209639, 22.785683], [113.209328, 22.785752], [113.209414, 22.787216], [113.208996, 22.787216], [113.208964, 22.78684], [113.208449, 22.78689], [113.208481, 22.787553], [113.208309, 22.78779], [113.208352, 22.788611], [113.208202, 22.788888], [113.20818, 22.789135], [113.209489, 22.789175], [113.209702, 22.788547], [113.210099, 22.788566], [113.210026, 22.789402], [113.210144, 22.789996], [113.211505, 22.79005], [113.212363, 22.790386], [113.212279, 22.790639], [113.212663, 22.790733], [113.212708, 22.790431], [113.213073, 22.79055], [113.213051, 22.790807], [113.213781, 22.790995], [113.213845, 22.790718], [113.214146, 22.790371], [113.214189, 22.790015], [113.215712, 22.790184], [113.215195, 22.790851], [113.215208, 22.791361], [113.215455, 22.791341], [113.215605, 22.792053], [113.216107, 22.792236], [113.216161, 22.79188], [113.216452, 22.791865], [113.216581, 22.791588], [113.217375, 22.791717], [113.217352, 22.79281], [113.21716, 22.79321], [113.217062, 22.793829], [113.218523, 22.794645], [113.21774, 22.795713], [113.219188, 22.796652], [113.221548, 22.7987], [113.224424, 22.80134], [113.224874, 22.801706], [113.226366, 22.802794], [113.228833, 22.80408], [113.230518, 22.804822], [113.232473, 22.805229], [113.232068, 22.806182], [113.231655, 22.806978], [113.231317, 22.806731], [113.230818, 22.806459], [113.230618, 22.80628], [113.229847, 22.805915], [113.229252, 22.805796], [113.2282, 22.805212], [113.227508, 22.80497], [113.226543, 22.804486], [113.226273, 22.804475], [113.225304, 22.803961], [113.224858, 22.8045], [113.225194, 22.804772], [113.225937, 22.805163], [113.226575, 22.80544], [113.227455, 22.805717], [113.227138, 22.806345], [113.227283, 22.806473], [113.227471, 22.806404], [113.229, 22.807077], [113.229279, 22.806755], [113.230003, 22.807265], [113.230158, 22.807191], [113.231033, 22.807784], [113.231017, 22.807942], [113.230716, 22.808753], [113.230636, 22.808783], [113.23018, 22.808812], [113.229236, 22.80905], [113.22829, 22.809714], [113.22799, 22.810241], [113.226998, 22.811975], [113.226718, 22.812221], [113.226124, 22.81215], [113.225701, 22.812516], [113.225422, 22.812719], [113.225277, 22.812872], [113.225196, 22.813055], [113.224644, 22.81356], [113.22444, 22.813406], [113.22422, 22.813678], [113.223603, 22.814138], [113.222911, 22.814405], [113.222337, 22.814781], [113.222428, 22.81486], [113.222638, 22.815493], [113.222582, 22.815641], [113.223448, 22.817995], [113.223168, 22.818084], [113.22334, 22.818336], [113.223566, 22.818272], [113.223748, 22.818138], [113.224268, 22.817901], [113.225851, 22.817397], [113.22628, 22.817342], [113.226698, 22.817367], [113.22635, 22.818346], [113.226226, 22.819083], [113.226004, 22.820467], [113.225674, 22.821491], [113.224987, 22.823567], [113.224679, 22.824047], [113.224113, 22.824853], [113.223657, 22.825387], [113.222196, 22.826504], [113.221956, 22.826756], [113.220941, 22.827815], [113.220014, 22.828586], [113.219242, 22.829115], [113.218877, 22.829436], [113.218408, 22.829767], [113.217799, 22.830016], [113.21795, 22.830389], [113.215865, 22.830773], [113.216313, 22.83272], [113.217828, 22.832091], [113.218554, 22.832366], [113.217059, 22.835145], [113.215617, 22.836192], [113.213023, 22.838749], [113.211401, 22.839862], [113.209221, 22.840061], [113.205563, 22.843013], [113.200609, 22.843529], [113.201241, 22.843869], [113.201967, 22.844189], [113.202561, 22.84487], [113.204196, 22.846943], [113.204292, 22.846988], [113.20481, 22.847359], [113.206212, 22.848332], [113.207055, 22.848762], [113.206864, 22.850501], [113.204139, 22.852103], [113.195492, 22.849334], [113.186909, 22.848504], [113.18339, 22.859419], [113.178175, 22.862108], [113.17603, 22.867347], [113.172318, 22.876521], [113.17088, 22.887374], [113.17339, 22.893305], [113.164507, 22.895063], [113.156589, 22.895854], [113.137578, 22.902674], [113.131838, 22.905174], [113.119532, 22.910224], [113.116334, 22.910323], [113.113588, 22.906093], [113.116377, 22.897416], [113.118952, 22.891663], [113.122214, 22.887848], [113.121892, 22.884329], [113.120905, 22.881186], [113.11921, 22.88004], [113.114725, 22.879644], [113.111421, 22.880405], [113.10752, 22.881876], [113.106074, 22.880832], [113.103654, 22.879391], [113.101927, 22.878008], [113.09843, 22.876326], [113.096419, 22.876482], [113.092498, 22.875412], [113.092139, 22.874976], [113.09257, 22.873613], [113.092538, 22.87138], [113.09179, 22.868174], [113.091635, 22.865177]]]}, "properties": {"display_name": "勒流街道, 顺德区, 佛山市, 广东省, 528399, 中国", "type": "administrative", "osm_type": "relation", "osm_id": 16836313, "class": null, "keyword": "subdistrict"}}, {"type": "Feature", "geometry": {"type": "Polygon", "coordinates": [[[113.023079, 23.029654], [113.036227, 23.013823], [113.045025, 23.00533], [113.047686, 23.003869], [113.051076, 23.002644], [113.053265, 23.002447], [113.05481, 23.002762], [113.059916, 23.004935], [113.06128, 23.005353], [113.060912, 23.006643], [113.061558, 23.006805], [113.063914, 23.007646], [113.064853, 23.007996], [113.065527, 23.008298], [113.065943, 23.008401], [113.066445, 23.008464], [113.06767, 23.008409], [113.069089, 23.008318], [113.069395, 23.008267], [113.069925, 23.008173], [113.07057, 23.007959], [113.071348, 23.008727], [113.071392, 23.008828], [113.072318, 23.013876], [113.084874, 23.014249], [113.086704, 23.014306], [113.08981, 23.014325], [113.093823, 23.014393], [113.096743, 23.014472], [113.096739, 23.014951], [113.096599, 23.024581], [113.096537, 23.029659], [113.096476, 23.034899], [113.096458, 23.037998], [113.096436, 23.04021], [113.096426, 23.041488], [113.096353, 23.042255], [113.096343, 23.04285], [113.096281, 23.045058], [113.096276, 23.046233], [113.094377, 23.046323], [113.093319, 23.046479], [113.091675, 23.046735], [113.090266, 23.046939], [113.089482, 23.047002], [113.088227, 23.047061], [113.086646, 23.047223], [113.08439, 23.047513], [113.082904, 23.047776], [113.081775, 23.04822], [113.080342, 23.048818], [113.079608, 23.049065], [113.079067, 23.049213], [113.078206, 23.049434], [113.07121, 23.052149], [113.062865, 23.053778], [113.05393, 23.054243], [113.050591, 23.05408], [113.049294, 23.053622], [113.048012, 23.053051], [113.047524, 23.051839], [113.048114, 23.045944], [113.047187, 23.042298], [113.043562, 23.037256], [113.039685, 23.035627], [113.035892, 23.035782], [113.030328, 23.037256], [113.028643, 23.037256], [113.026535, 23.035007], [113.025187, 23.030508], [113.023079, 23.029654]]]}, "properties": {"display_name": "张槎街道, 禅城区, 佛山市, 广东省, 中国", "type": "administrative", "osm_type": "relation", "osm_id": 16329267, "class": null, "keyword": "subdistrict"}}, {"type": "Feature", "geometry": {"type": "Polygon", "coordinates": [[[113.060912, 23.006643], [113.06128, 23.005353], [113.064551, 23.006357], [113.067641, 23.006752], [113.06983, 23.00612], [113.071504, 23.004777], [113.072834, 23.002407], [113.075538, 22.996758], [113.078413, 22.989647], [113.080258, 22.986565], [113.083777, 22.9838], [113.088584, 22.982061], [113.093003, 22.979696], [113.094781, 22.979941], [113.09834, 22.979303], [113.100495, 22.977367], [113.102374, 22.975876], [113.105843, 22.975156], [113.110068, 22.975367], [113.116657, 22.976903], [113.125754, 22.977601], [113.129309, 22.980004], [113.132035, 22.983654], [113.136632, 22.986956], [113.141999, 22.989319], [113.146303, 22.989182], [113.15153, 22.988229], [113.153402, 22.987648], [113.154804, 22.987053], [113.155636, 22.986453], [113.158201, 22.984336], [113.159153, 22.984414], [113.160839, 22.985447], [113.161118, 22.987582], [113.160287, 22.988246], [113.160773, 22.991939], [113.161376, 22.993964], [113.162921, 22.997049], [113.163152, 22.997666], [113.163024, 22.99797], [113.162482, 22.99862], [113.162145, 22.998906], [113.159057, 22.998291], [113.158979, 22.998297], [113.158888, 22.998308], [113.158656, 22.998334], [113.158253, 22.998593], [113.157622, 22.998998], [113.15626, 22.998826], [113.154642, 22.999301], [113.154044, 22.999274], [113.153086, 23.000091], [113.152042, 23.00088], [113.150919, 23.000588], [113.15077, 22.999586], [113.150653, 22.998542], [113.150588, 22.998489], [113.149244, 22.998882], [113.148224, 22.999176], [113.146647, 22.999629], [113.146645, 22.997063], [113.145753, 22.997343], [113.145513, 22.997537], [113.145179, 22.998309], [113.144016, 22.998329], [113.144013, 22.999362], [113.144358, 22.99972], [113.144515, 23.000799], [113.144229, 23.000923], [113.142218, 23.000991], [113.141986, 23.002937], [113.141743, 23.003421], [113.14148, 23.003727], [113.14066, 23.00375], [113.140352, 23.003929], [113.140401, 23.004265], [113.140671, 23.004644], [113.140322, 23.004804], [113.139854, 23.004556], [113.139181, 23.004626], [113.139171, 23.006545], [113.139974, 23.006675], [113.139875, 23.007953], [113.139646, 23.00809], [113.138925, 23.008108], [113.138956, 23.010091], [113.138881, 23.014524], [113.138577, 23.0145], [113.133897, 23.014543], [113.130357, 23.014529], [113.12374, 23.014467], [113.12353, 23.014466], [113.116617, 23.014569], [113.106761, 23.014546], [113.103542, 23.014522], [113.097581, 23.014494], [113.096743, 23.014472], [113.093823, 23.014393], [113.08981, 23.014325], [113.086704, 23.014306], [113.084874, 23.014249], [113.072318, 23.013876], [113.071392, 23.008828], [113.071348, 23.008727], [113.07057, 23.007959], [113.069925, 23.008173], [113.069395, 23.008267], [113.069089, 23.008318], [113.06767, 23.008409], [113.066445, 23.008464], [113.065943, 23.008401], [113.065527, 23.008298], [113.064853, 23.007996], [113.063914, 23.007646], [113.061558, 23.006805], [113.060912, 23.006643]]]}, "properties": {"display_name": "石湾镇街道, 禅城区, 佛山市, 广东省, 528200, 中国", "type": "administrative", "osm_type": "relation", "osm_id": 16329266, "class": null, "keyword": "subdistrict"}}, {"type": "Feature", "geometry": {"type": "Polygon", "coordinates": [[[113.078206, 23.049434], [113.079067, 23.049213], [113.079608, 23.049065], [113.080342, 23.048818], [113.081775, 23.04822], [113.082904, 23.047776], [113.08439, 23.047513], [113.086646, 23.047223], [113.088227, 23.047061], [113.089482, 23.047002], [113.090266, 23.046939], [113.091675, 23.046735], [113.093319, 23.046479], [113.094377, 23.046323], [113.096276, 23.046233], [113.096281, 23.045058], [113.096343, 23.04285], [113.096353, 23.042255], [113.096426, 23.041488], [113.096436, 23.04021], [113.096458, 23.037998], [113.096476, 23.034899], [113.096537, 23.029659], [113.096599, 23.024581], [113.096739, 23.014951], [113.096743, 23.014472], [113.097581, 23.014494], [113.103542, 23.014522], [113.106761, 23.014546], [113.116617, 23.014569], [113.12353, 23.014466], [113.12374, 23.014467], [113.130357, 23.014529], [113.133897, 23.014543], [113.138577, 23.0145], [113.138881, 23.014524], [113.145921, 23.014834], [113.145954, 23.015042], [113.148172, 23.015054], [113.14814, 23.016918], [113.145963, 23.016946], [113.145985, 23.01771], [113.147629, 23.017925], [113.147496, 23.019937], [113.149512, 23.020012], [113.14968, 23.023922], [113.151041, 23.02398], [113.151386, 23.024141], [113.151777, 23.02436], [113.150454, 23.026129], [113.150205, 23.026365], [113.150061, 23.026398], [113.149746, 23.026395], [113.14945, 23.026288], [113.147526, 23.024538], [113.145067, 23.022655], [113.144617, 23.022386], [113.144105, 23.022184], [113.143718, 23.022169], [113.14321, 23.02222], [113.142871, 23.022309], [113.14204, 23.022814], [113.140034, 23.024456], [113.137795, 23.025913], [113.137006, 23.026153], [113.13672, 23.026205], [113.135506, 23.026426], [113.134858, 23.026996], [113.134174, 23.028515], [113.13332, 23.032428], [113.132199, 23.034147], [113.131809, 23.034756], [113.131063, 23.035291], [113.129771, 23.035964], [113.129053, 23.036714], [113.1284, 23.037969], [113.128213, 23.039331], [113.130451, 23.041145], [113.130476, 23.042891], [113.133122, 23.043371], [113.13303, 23.046002], [113.132404, 23.045982], [113.131886, 23.046208], [113.131807, 23.046213], [113.131793, 23.046428], [113.130942, 23.046634], [113.130543, 23.046637], [113.130454, 23.046382], [113.129986, 23.046363], [113.130059, 23.044669], [113.129929, 23.04443], [113.12958, 23.044076], [113.12908, 23.044374], [113.128069, 23.04465], [113.127025, 23.044548], [113.126947, 23.044846], [113.126482, 23.045322], [113.126401, 23.045987], [113.126257, 23.046149], [113.126068, 23.046363], [113.127057, 23.046906], [113.12755, 23.046865], [113.127914, 23.046834], [113.128181, 23.047082], [113.128266, 23.047162], [113.12829, 23.04729], [113.128321, 23.047463], [113.128867, 23.047446], [113.128863, 23.047937], [113.128363, 23.047963], [113.128235, 23.049407], [113.12681, 23.049439], [113.124991, 23.048851], [113.12496, 23.050098], [113.1239, 23.050081], [113.123894, 23.04977], [113.123243, 23.049733], [113.123255, 23.049551], [113.123332, 23.04836], [113.121904, 23.048334], [113.120678, 23.048313], [113.120628, 23.050563], [113.120627, 23.050613], [113.120767, 23.052375], [113.120413, 23.052374], [113.118839, 23.051939], [113.118643, 23.052544], [113.118951, 23.052812], [113.119042, 23.053019], [113.11901, 23.053182], [113.11882, 23.053459], [113.118959, 23.054125], [113.118135, 23.053952], [113.117935, 23.054245], [113.117918, 23.054526], [113.117907, 23.05472], [113.117896, 23.054911], [113.11658, 23.054848], [113.117189, 23.057891], [113.116959, 23.058031], [113.116822, 23.058035], [113.116445, 23.060088], [113.115559, 23.062214], [113.114745, 23.065957], [113.1126, 23.067784], [113.112014, 23.068371], [113.111498, 23.067777], [113.112223, 23.067305], [113.112865, 23.066789], [113.113544, 23.066094], [113.112669, 23.065511], [113.112844, 23.064895], [113.111894, 23.064722], [113.111979, 23.063671], [113.109844, 23.063357], [113.109634, 23.062721], [113.109677, 23.062289], [113.10906, 23.06228], [113.109041, 23.061996], [113.107623, 23.062108], [113.107584, 23.062351], [113.105689, 23.064062], [113.104521, 23.065585], [113.103735, 23.066461], [113.103244, 23.06679], [113.103006, 23.066952], [113.100834, 23.066511], [113.100006, 23.066286], [113.100285, 23.064763], [113.100063, 23.06417], [113.09987, 23.064042], [113.099505, 23.060684], [113.097943, 23.060785], [113.097055, 23.055891], [113.089745, 23.056252], [113.089417, 23.052459], [113.085708, 23.053622], [113.082842, 23.057423], [113.078712, 23.0575], [113.079049, 23.053855], [113.078206, 23.049434]]]}, "properties": {"display_name": "祖庙街道, 禅城区, 佛山市, 广东省, 528000, 中国", "type": "administrative", "osm_type": "relation", "osm_id": 16329268, "class": null, "keyword": "subdistrict"}}, {"type": "Feature", "geometry": {"type": "Polygon", "coordinates": [[[112.882873, 23.031284], [112.882908, 23.023141], [112.885517, 23.023118], [112.885615, 23.024943], [112.885672, 23.02546], [112.885834, 23.026193], [112.886235, 23.027437], [112.88677, 23.029239], [112.882873, 23.031284]]]}, "properties": {"display_name": "丹灶世海钢材物流中心, 丹灶镇, 南海区, 佛山市, 广东省, 中国", "type": "industrial", "osm_type": "way", "osm_id": 655149895, "class": null, "keyword": "市中心"}}, {"type": "Feature", "geometry": {"type": "Polygon", "coordinates": [[[113.039715, 22.873019], [113.039768, 22.87268], [113.040121, 22.872289], [113.040204, 22.87171], [113.040068, 22.87131], [113.039996, 22.870824], [113.040219, 22.870473], [113.040616, 22.87017], [113.04066, 22.86995], [113.040647, 22.86953], [113.040955, 22.869337], [113.042354, 22.869076], [113.043014, 22.868928], [113.043479, 22.868838], [113.043905, 22.868809], [113.044357, 22.868951], [113.044936, 22.869638], [113.045312, 22.870399], [113.045543, 22.87095], [113.045657, 22.871654], [113.045275, 22.872221], [113.045466, 22.872359], [113.045226, 22.872508], [113.044899, 22.87263], [113.044616, 22.872823], [113.044554, 22.873033], [113.044388, 22.87309], [113.043664, 22.873164], [113.043542, 22.872656], [113.043198, 22.872532], [113.042637, 22.872624], [113.042178, 22.872653], [113.041937, 22.872928], [113.041132, 22.873134], [113.040569, 22.87305], [113.039715, 22.873019]]]}, "properties": {"display_name": "佛山市机动车驾驶员考试培训中心, G240;G324, 华楼坊, 龙江镇, 顺德区, 佛山市, 广东省, 528318, 中国", "type": "driver_training", "osm_type": "way", "osm_id": 590628023, "class": null, "keyword": "市中心"}}, {"type": "Feature", "geometry": {"type": "Polygon", "coordinates": [[[113.108105, 22.995039], [113.108186, 22.991775], [113.111702, 22.991528], [113.112192, 22.991523], [113.112439, 22.992111], [113.112944, 22.993113], [113.113207, 22.994748], [113.108105, 22.995039]]]}, "properties": {"display_name": "澜石不锈钢交易中心, 石湾镇街道, 禅城区, 佛山市, 广东省, 中国", "type": "retail", "osm_type": "way", "osm_id": 200537940, "class": null, "keyword": "市中心"}}, {"type": "Feature", "geometry": {"type": "Polygon", "coordinates": [[[113.143759, 23.060888], [113.143894, 23.060738], [113.145776, 23.060668], [113.145945, 23.060813], [113.146074, 23.064819], [113.145933, 23.064948], [113.144041, 23.064996], [113.14395, 23.064919], [113.143759, 23.060888]]]}, "properties": {"display_name": "广发金融中心, 6, 锦园路, 桂城街道, 南海区, 佛山市, 广东省, 528000, 中国", "type": "financial", "osm_type": "way", "osm_id": 167681911, "class": null, "keyword": "financial district"}}, {"type": "Feature", "geometry": {"type": "Polygon", "coordinates": [[[113.130862, 22.976913], [113.13276, 22.976042], [113.133021, 22.976366], [113.132973, 22.979621], [113.131067, 22.977686], [113.130918, 22.977678], [113.131114, 22.977506], [113.130862, 22.976913]]]}, "properties": {"display_name": "佛山市艺术中心项目, 陈村镇, 顺德区, 佛山市, 广东省, 中国", "type": "park", "osm_type": "way", "osm_id": 881805191, "class": null, "keyword": "市中心"}}, {"type": "Feature", "geometry": {"type": "Polygon", "coordinates": [[[113.191044, 22.770627], [113.191273, 22.769861], [113.19149, 22.769139], [113.192404, 22.769268], [113.192393, 22.769887], [113.19464, 22.770706], [113.194308, 22.771609], [113.193231, 22.771198], [113.192123, 22.770888], [113.192097, 22.770959], [113.191044, 22.770627]]]}, "properties": {"display_name": "佛山市顺德区顺德西部生态产业新区中小企业园STYШ-D-01b-7地块, 高赞村, 杏坛镇, 顺德区, 佛山市, 广东省, 中国", "type": "construction", "osm_type": "way", "osm_id": 795494830, "class": null, "keyword": "市中心"}}, {"type": "Feature", "geometry": {"type": "Polygon", "coordinates": [[[113.168921, 23.057431], [113.168927, 23.055752], [113.171075, 23.055752], [113.171047, 23.057397], [113.17102, 23.057442], [113.168921, 23.057431]]]}, "properties": {"display_name": "盛世腾飞智造园（夏南二高新产业中心）, 桂城街道, 南海区, 佛山市, 广东省, 中国", "type": "commercial", "osm_type": "way", "osm_id": 1392394127, "class": null, "keyword": "市中心"}}, {"type": "Feature", "geometry": {"type": "Polygon", "coordinates": [[[113.082596, 23.013847], [113.082711, 23.013299], [113.083038, 23.013248], [113.083304, 23.012906], [113.083396, 23.012134], [113.083293, 23.012065], [113.083414, 23.011805], [113.083311, 23.011737], [113.083654, 23.011192], [113.084606, 23.011375], [113.085367, 23.011759], [113.085367, 23.012215], [113.085151, 23.012369], [113.084514, 23.01214], [113.084227, 23.01229], [113.084044, 23.012929], [113.084277, 23.013906], [113.082596, 23.013847]]]}, "properties": {"display_name": "佛山市（国际）陶瓷展览中心, 石湾镇街道, 禅城区, 佛山市, 广东省, 中国", "type": "commercial", "osm_type": "way", "osm_id": 1414189334, "class": null, "keyword": "市中心"}}, {"type": "Feature", "geometry": {"type": "Polygon", "coordinates": [[[113.206149, 22.936455], [113.206836, 22.935865], [113.207012, 22.935886], [113.209174, 22.938086], [113.209157, 22.938159], [113.208442, 22.938666], [113.208329, 22.938666], [113.206172, 22.936644], [113.206149, 22.936455]]]}, "properties": {"display_name": "北滘市民文化活动中心, 天宁路, 北滘镇, 顺德区, 佛山市, 广东省, 528311, 中国", "type": "community_centre", "osm_type": "way", "osm_id": 654155419, "class": null, "keyword": "市中心"}}, {"type": "Feature", "geometry": {"type": "Polygon", "coordinates": [[[113.143901, 23.065595], [113.144063, 23.065455], [113.146077, 23.065348], [113.146248, 23.065465], [113.146328, 23.066772], [113.146241, 23.066824], [113.144002, 23.06686], [113.143906, 23.066827], [113.143901, 23.065595]]]}, "properties": {"display_name": "友邦金融中心, 锦园路, 桂城街道, 南海区, 佛山市, 广东省, 528000, 中国", "type": "financial", "osm_type": "way", "osm_id": 167681915, "class": null, "keyword": "financial district"}}, {"type": "Feature", "geometry": {"type": "Polygon", "coordinates": [[[113.177344, 23.121289], [113.178152, 23.121305], [113.178303, 23.121308], [113.178531, 23.121312], [113.178531, 23.122849], [113.178397, 23.122996], [113.178378, 23.123354], [113.178601, 23.123383], [113.178606, 23.12397], [113.178608, 23.12423], [113.177546, 23.124393], [113.17747, 23.123133], [113.177376, 23.123019], [113.177344, 23.121289]]]}, "properties": {"display_name": "石门中学新校区, 洪湖路, 河畔花园, 大沥镇, 南海区, 佛山市, 广东省, 528248, 中国", "type": "school", "osm_type": "way", "osm_id": 642886248, "class": null, "keyword": "市中心"}}, {"type": "Feature", "geometry": {"type": "Polygon", "coordinates": [[[113.123372, 22.996126], [113.123388, 22.995024], [113.125426, 22.994858], [113.125658, 22.994946], [113.125797, 22.995099], [113.125835, 22.996146], [113.123372, 22.996126]]]}, "properties": {"display_name": "佛山市110城市应急指挥中心, 魁奇二路, 湾华村, 石湾镇街道, 禅城区, 佛山市, 广东省, 528000, 中国", "type": "police", "osm_type": "way", "osm_id": 203218529, "class": null, "keyword": "市中心"}}, {"type": "Feature", "geometry": {"type": "Polygon", "coordinates": [[[113.151215, 23.068056], [113.153881, 23.068124], [113.153858, 23.069021], [113.151235, 23.069049], [113.151215, 23.068056]]]}, "properties": {"display_name": "地铁金融城 地铁金融城, 五胜北路, 桂城街道, 南海区, 佛山市, 广东省, 258251, 中国", "type": "yes", "osm_type": "way", "osm_id": 301182901, "class": null, "keyword": "financial district"}}, {"type": "Feature", "geometry": {"type": "Polygon", "coordinates": [[[113.088881, 22.994503], [113.088951, 22.993515], [113.090412, 22.993624], [113.090356, 22.994305], [113.09023, 22.994513], [113.089744, 22.994861], [113.089546, 22.995105], [113.089146, 22.995081], [113.088881, 22.994503]]]}, "properties": {"display_name": "石湾金瓜岗陶瓷批发中心, 石湾镇街道, 禅城区, 佛山市, 广东省, 中国", "type": "commercial", "osm_type": "way", "osm_id": 1413978388, "class": null, "keyword": "市中心"}}, {"type": "Feature", "geometry": {"type": "Polygon", "coordinates": [[[113.084955, 23.011237], [113.085003, 23.010958], [113.085106, 23.010879], [113.085332, 23.010651], [113.085766, 23.010338], [113.086037, 23.009903], [113.086468, 23.009413], [113.086798, 23.00951], [113.087316, 23.010325], [113.087137, 23.010724], [113.086819, 23.01081], [113.086698, 23.010577], [113.086422, 23.010493], [113.085999, 23.010597], [113.08547, 23.010957], [113.085279, 23.011273], [113.085134, 23.011188], [113.085021, 23.011291], [113.084955, 23.011237]]]}, "properties": {"display_name": "佛山市（国际）陶瓷展览中心榴苑仓库, 石湾镇街道, 禅城区, 佛山市, 广东省, 中国", "type": "commercial", "osm_type": "way", "osm_id": 1414189333, "class": null, "keyword": "市中心"}}, {"type": "Feature", "geometry": {"type": "Polygon", "coordinates": [[[113.023261, 22.952362], [113.023454, 22.951171], [113.023491, 22.951142], [113.024491, 22.951315], [113.024252, 22.952548], [113.02329, 22.952405], [113.023261, 22.952362]]]}, "properties": {"display_name": "劳伦斯五金实业有限公司, 南庄镇, 禅城区, 佛山市, 广东省, 中国", "type": "industrial", "osm_type": "way", "osm_id": 1420976472, "class": null, "keyword": "老城区"}}, {"type": "Feature", "geometry": {"type": "Polygon", "coordinates": [[[113.098299, 23.01252], [113.098318, 23.011117], [113.098361, 23.011066], [113.099208, 23.010999], [113.099173, 23.011537], [113.098924, 23.012159], [113.098833, 23.012566], [113.098595, 23.012909], [113.098546, 23.01295], [113.098448, 23.012906], [113.098323, 23.01271], [113.098299, 23.01252]]]}, "properties": {"display_name": "佛山市公共卫生中心, 紫坊一街, 上麦村, 石湾镇街道, 禅城区, 佛山市, 广东省, 528200, 中国", "type": "government", "osm_type": "way", "osm_id": 207294531, "class": null, "keyword": "市中心"}}, {"type": "Feature", "geometry": {"type": "Polygon", "coordinates": [[[113.091206, 23.030787], [113.091214, 23.029859], [113.092636, 23.029835], [113.092625, 23.030389], [113.09221, 23.030387], [113.092203, 23.030778], [113.091206, 23.030787]]]}, "properties": {"display_name": "佛山市公安局禅城分局智能交通指挥中心, 轻工南六街, 张槎街道, 禅城区, 佛山市, 广东省, 528200, 中国", "type": "police", "osm_type": "way", "osm_id": 672484493, "class": null, "keyword": "市中心"}}, {"type": "Feature", "geometry": {"type": "Polygon", "coordinates": [[[113.292707, 22.803643], [113.292828, 22.803419], [113.293879, 22.803961], [113.293963, 22.804116], [113.293356, 22.805175], [113.29315, 22.805072], [113.292707, 22.803643]]]}, "properties": {"display_name": "市民活动中心（建设中）, 大良街道, 顺德区, 佛山市, 广东省, 中国", "type": "construction", "osm_type": "way", "osm_id": 649816264, "class": null, "keyword": "市中心"}}, {"type": "Feature", "geometry": {"type": "Polygon", "coordinates": [[[113.171925, 23.037266], [113.171929, 23.036436], [113.173009, 23.036417], [113.172997, 23.037363], [113.17216, 23.037456], [113.172027, 23.037434], [113.171951, 23.037369], [113.171925, 23.037266]]]}, "properties": {"display_name": "佛山南海保时捷中心, 深海路, 桂城街道, 南海区, 佛山市, 广东省, 258251, 中国", "type": "car", "osm_type": "way", "osm_id": 963956709, "class": null, "keyword": "市中心"}}, {"type": "Feature", "geometry": {"type": "Polygon", "coordinates": [[[113.097419, 23.011174], [113.098074, 23.011115], [113.098138, 23.011152], [113.098138, 23.012344], [113.098087, 23.012393], [113.097427, 23.012381], [113.097419, 23.011174]]]}, "properties": {"display_name": "佛山市中心血站, 石湾镇街道, 禅城区, 佛山市, 广东省, 中国", "type": "commercial", "osm_type": "way", "osm_id": 207294532, "class": null, "keyword": "市中心"}}, {"type": "Feature", "geometry": {"type": "Polygon", "coordinates": [[[113.249148, 22.840161], [113.249331, 22.839776], [113.249548, 22.83964], [113.249831, 22.839476], [113.250022, 22.83975], [113.250505, 22.839876], [113.25037, 22.840233], [113.250774, 22.840353], [113.250665, 22.840613], [113.249148, 22.840161]]]}, "properties": {"display_name": "新世界中心酒店, 宜新路, 大良街道, 顺德区, 佛山市, 广东省, 528399, 中国", "type": "hotel", "osm_type": "way", "osm_id": 675743918, "class": null, "keyword": "市中心"}}, {"type": "Feature", "geometry": {"type": "Polygon", "coordinates": [[[113.083546, 23.020189], [113.083567, 23.019389], [113.084435, 23.0194], [113.084494, 23.019428], [113.08445, 23.020205], [113.083546, 23.020189]]]}, "properties": {"display_name": "佛山市公路交通工程中心, 马鞍街, 青柯村, 张槎街道, 禅城区, 佛山市, 广东省, 528200, 中国", "type": "government", "osm_type": "way", "osm_id": 1414115610, "class": null, "keyword": "市中心"}}, {"type": "Feature", "geometry": {"type": "Polygon", "coordinates": [[[113.107869, 23.024972], [113.109631, 23.025011], [113.109628, 23.025594], [113.107869, 23.025204], [113.107869, 23.024972]]]}, "properties": {"display_name": "佛山市老年干部大学, 垂虹路, 山紫社区, 祖庙街道, 禅城区, 佛山市, 广东省, 528000, 中国", "type": "government", "osm_type": "way", "osm_id": 987773996, "class": null, "keyword": "老城区"}}, {"type": "Feature", "geometry": {"type": "Polygon", "coordinates": [[[113.062716, 22.990415], [113.062774, 22.99006], [113.063044, 22.990044], [113.063059, 22.989918], [113.063426, 22.989925], [113.063806, 22.990362], [113.063275, 22.990777], [113.063074, 22.990754], [113.062772, 22.990735], [113.062744, 22.990648], [113.062716, 22.990415]]]}, "properties": {"display_name": "怡和之家养老院, 南庄大道东, 上元村, 南庄镇, 禅城区, 佛山市, 广东省, 528200, 中国", "type": "social_facility", "osm_type": "way", "osm_id": 1417711128, "class": null, "keyword": "老城区"}}, {"type": "Feature", "geometry": {"type": "Polygon", "coordinates": [[[113.149943, 22.786282], [113.150463, 22.785705], [113.151093, 22.786155], [113.150637, 22.78672], [113.150538, 22.786742], [113.149943, 22.786282]]]}, "properties": {"display_name": "杏坛中心市场, 建设西一路, 马齐村, 杏坛镇, 顺德区, 佛山市, 广东省, 中国", "type": "marketplace", "osm_type": "way", "osm_id": 723323979, "class": null, "keyword": "市中心"}}, {"type": "Feature", "geometry": {"type": "Polygon", "coordinates": [[[113.161588, 23.024601], [113.161624, 23.023661], [113.162578, 23.024267], [113.162542, 23.024481], [113.161588, 23.024601]]]}, "properties": {"display_name": "佛山市南海区交通安全管理中心, 东海路, 东二村, 桂城街道, 南海区, 佛山市, 广东省, 258251, 中国", "type": "government", "osm_type": "way", "osm_id": 945923866, "class": null, "keyword": "市中心"}}, {"type": "Feature", "geometry": {"type": "Polygon", "coordinates": [[[113.084766, 23.021999], [113.085286, 23.022002], [113.085237, 23.023198], [113.084817, 23.023172], [113.084766, 23.021999]]]}, "properties": {"display_name": "佛山市精神病治疗所（佛山市守住人员托养中心）, 同济西路（规划中）, 青柯村, 张槎街道, 禅城区, 佛山市, 广东省, 528200, 中国", "type": "hospital", "osm_type": "way", "osm_id": 1414115612, "class": null, "keyword": "市中心"}}, {"type": "Feature", "geometry": {"type": "Polygon", "coordinates": [[[113.068696, 23.038156], [113.068773, 23.037784], [113.068731, 23.037382], [113.068789, 23.037323], [113.069543, 23.037516], [113.069307, 23.038124], [113.06916, 23.038114], [113.068922, 23.038201], [113.068696, 23.038156]]]}, "properties": {"display_name": "张槎街道敬老院, 张槎二路, 大江村, 张槎街道, 禅城区, 佛山市, 广东省, 528200, 中国", "type": "social_facility", "osm_type": "way", "osm_id": 1414349888, "class": null, "keyword": "老城区"}}, {"type": "Feature", "geometry": {"type": "Polygon", "coordinates": [[[113.242912, 22.819584], [113.243182, 22.818925], [113.243422, 22.819045], [113.243987, 22.81891], [113.243424, 22.819802], [113.242912, 22.819584]]]}, "properties": {"display_name": "佛山市顺德区教育发展中心, 大门路, 大门村, 大良街道, 顺德区, 佛山市, 广东省, 528399, 中国", "type": "quango", "osm_type": "way", "osm_id": 707226232, "class": null, "keyword": "市中心"}}, {"type": "Feature", "geometry": {"type": "Polygon", "coordinates": [[[113.207487, 22.943944], [113.207856, 22.943454], [113.208048, 22.944219], [113.208052, 22.944361], [113.208051, 22.9445], [113.208089, 22.944602], [113.208192, 22.944731], [113.208286, 22.944834], [113.207861, 22.944705], [113.207763, 22.944834], [113.207487, 22.943944]]]}, "properties": {"display_name": "北滘镇君兰社区户外文体实践中心, 北滘镇, 顺德区, 佛山市, 广东省, 中国", "type": "construction", "osm_type": "way", "osm_id": 968021897, "class": null, "keyword": "市中心"}}, {"type": "Feature", "geometry": {"type": "Polygon", "coordinates": [[[113.007341, 22.979475], [113.008025, 22.979478], [113.00801, 22.98022], [113.007343, 22.980111], [113.007341, 22.979475]]]}, "properties": {"display_name": "南庄镇老年人活动中心, 东堤路, 吉利村, 南庄镇, 禅城区, 佛山市, 广东省, 中国", "type": "social_facility", "osm_type": "way", "osm_id": 1419988984, "class": null, "keyword": "老城区"}}, {"type": "Feature", "geometry": {"type": "Polygon", "coordinates": [[[113.249885, 22.839465], [113.249948, 22.839379], [113.251049, 22.839662], [113.250795, 22.840314], [113.250439, 22.840207], [113.250555, 22.839848], [113.250061, 22.839696], [113.249885, 22.839465]]]}, "properties": {"display_name": "新世界中心商场, 清晖路, 大良街道, 顺德区, 佛山市, 广东省, 528399, 中国", "type": "retail", "osm_type": "way", "osm_id": 675745441, "class": null, "keyword": "市中心"}}, {"type": "Feature", "geometry": {"type": "Polygon", "coordinates": [[[113.042815, 22.878724], [113.043231, 22.878486], [113.043464, 22.878428], [113.043658, 22.879095], [113.042973, 22.879264], [113.042815, 22.878724]]]}, "properties": {"display_name": "仙塘敬老院, 理学路, 仙塘村, 龙江镇, 顺德区, 佛山市, 广东省, 528318, 中国", "type": "social_facility", "osm_type": "way", "osm_id": 590540113, "class": null, "keyword": "老城区"}}, {"type": "Feature", "geometry": {"type": "Polygon", "coordinates": [[[113.137367, 23.059517], [113.138089, 23.059496], [113.138103, 23.060115], [113.137383, 23.060125], [113.137367, 23.059517]]]}, "properties": {"display_name": "佛山市南海区诉前和解中心, 南六路, 桂城街道, 南海区, 佛山市, 广东省, 528000, 中国", "type": "government", "osm_type": "way", "osm_id": 1365666364, "class": null, "keyword": "市中心"}}, {"type": "Feature", "geometry": {"type": "Polygon", "coordinates": [[[113.115899, 22.968525], [113.115903, 22.968187], [113.117035, 22.968197], [113.117032, 22.968536], [113.115899, 22.968525]]]}, "properties": {"display_name": "世纪莲网球中心, 裕和路, 荷村, 乐从镇, 顺德区, 佛山市, 广东省, 中国", "type": "pitch", "osm_type": "way", "osm_id": 647876947, "class": null, "keyword": "市中心"}}, {"type": "Feature", "geometry": {"type": "Polygon", "coordinates": [[[113.136376, 23.042839], [113.136386, 23.04229], [113.137035, 23.04231], [113.137025, 23.042859], [113.136376, 23.042839]]]}, "properties": {"display_name": "佛山市南海区街道社区卫生服务中心, 南四路, 东约村, 桂城街道, 南海区, 佛山市, 广东省, 528000, 中国", "type": "hospital", "osm_type": "way", "osm_id": 945989661, "class": null, "keyword": "市中心"}}, {"type": "Feature", "geometry": {"type": "Polygon", "coordinates": [[[113.076973, 22.998311], [113.077075, 22.997926], [113.077302, 22.997969], [113.077327, 22.997907], [113.077848, 22.998029], [113.077741, 22.998483], [113.076973, 22.998311]]]}, "properties": {"display_name": "劳动小区, 石湾镇街道, 禅城区, 佛山市, 广东省, 中国", "type": "residential", "osm_type": "way", "osm_id": 1414215614, "class": null, "keyword": "老城区"}}, {"type": "Feature", "geometry": {"type": "Polygon", "coordinates": [[[113.280236, 22.76403], [113.280929, 22.763861], [113.281062, 22.764239], [113.280336, 22.764463], [113.280236, 22.76403]]]}, "properties": {"display_name": "上街市环球商务中心, 容桂街道, 顺德区, 佛山市, 广东省, 中国", "type": "commercial", "osm_type": "way", "osm_id": 1243632745, "class": null, "keyword": "市中心"}}, {"type": "Feature", "geometry": {"type": "Polygon", "coordinates": [[[113.151881, 22.707711], [113.152292, 22.706895], [113.152579, 22.707022], [113.15217, 22.707808], [113.151881, 22.707711]]]}, "properties": {"display_name": "均安中心市场, 合安路, 三华村, 均安镇, 顺德区, 佛山市, 广东省, 中国", "type": "marketplace", "osm_type": "way", "osm_id": 798235690, "class": null, "keyword": "市中心"}}, {"type": "Feature", "geometry": {"type": "Polygon", "coordinates": [[[113.13638, 23.031198], [113.136459, 23.030944], [113.136417, 23.030863], [113.136539, 23.030476], [113.136734, 23.030537], [113.136792, 23.030591], [113.13683, 23.030723], [113.136697, 23.031266], [113.13638, 23.031198]]]}, "properties": {"display_name": "佛山市南海区教育发展研究中心, 南新三路, 桂城街道, 南海区, 佛山市, 广东省, 528000, 中国", "type": "government", "osm_type": "way", "osm_id": 1362886068, "class": null, "keyword": "市中心"}}, {"type": "Feature", "geometry": {"type": "Polygon", "coordinates": [[[113.111997, 23.006831], [113.112635, 23.006873], [113.112622, 23.007206], [113.111999, 23.007224], [113.111997, 23.006831]]]}, "properties": {"display_name": "佛山市教师发展中心, 平远北街, 上麦村, 石湾镇街道, 禅城区, 佛山市, 广东省, 528000, 中国", "type": "educational_institution", "osm_type": "way", "osm_id": 1372979314, "class": null, "keyword": "市中心"}}, {"type": "Feature", "geometry": {"type": "Polygon", "coordinates": [[[113.10787, 23.025695], [113.108139, 23.025709], [113.108217, 23.025742], [113.108423, 23.025781], [113.108421, 23.026137], [113.107872, 23.026132], [113.10787, 23.025695]]]}, "properties": {"display_name": "佛山市老年大学, 垂虹路, 山紫社区, 祖庙街道, 禅城区, 佛山市, 广东省, 528000, 中国", "type": "government", "osm_type": "way", "osm_id": 1368779426, "class": null, "keyword": "老城区"}}, {"type": "Feature", "geometry": {"type": "Polygon", "coordinates": [[[113.103321, 23.002654], [113.103327, 23.002121], [113.103725, 23.002121], [113.103715, 23.00266], [113.103321, 23.002654]]]}, "properties": {"display_name": "佛山市环境监测中心站, 惠景二街, 大麦村, 石湾镇街道, 禅城区, 佛山市, 广东省, 528200, 中国", "type": "government", "osm_type": "way", "osm_id": 1373411206, "class": null, "keyword": "市中心"}}, {"type": "Feature", "geometry": {"type": "Polygon", "coordinates": [[[113.192976, 22.867731], [113.193143, 22.867459], [113.193642, 22.867657], [113.193525, 22.86792], [113.193336, 22.867905], [113.193155, 22.867825], [113.192976, 22.867731]]]}, "properties": {"display_name": "仕版城隍庙以东村民活动中心, 彩虹路, 仕版村, 伦教街道, 顺德区, 佛山市, 广东省, 中国", "type": "community_centre", "osm_type": "way", "osm_id": 874935184, "class": null, "keyword": "市中心"}}, {"type": "Feature", "geometry": {"type": "Polygon", "coordinates": [[[113.082655, 23.008789], [113.083246, 23.008533], [113.083367, 23.008771], [113.082777, 23.009027], [113.082655, 23.008789]]]}, "properties": {"display_name": "石湾敬老院, 榴苑四街, 河宕村, 石湾镇街道, 禅城区, 佛山市, 广东省, 528200, 中国", "type": "social_facility", "osm_type": "way", "osm_id": 1414189339, "class": null, "keyword": "老城区"}}, {"type": "Feature", "geometry": {"type": "Polygon", "coordinates": [[[113.100083, 23.041398], [113.100088, 23.04138], [113.100506, 23.041382], [113.100533, 23.041438], [113.100534, 23.041797], [113.100206, 23.041806], [113.100083, 23.041398]]]}, "properties": {"display_name": "佛山市第一人民医院皮肤医学中心, 丝绸直街, 祖庙街道, 禅城区, 佛山市, 广东省, 528000, 中国", "type": "hospital", "osm_type": "way", "osm_id": 1366166988, "class": null, "keyword": "市中心"}}, {"type": "Feature", "geometry": {"type": "Polygon", "coordinates": [[[113.109947, 23.023425], [113.109948, 23.023148], [113.110534, 23.023152], [113.110526, 23.023424], [113.109947, 23.023425]]]}, "properties": {"display_name": "佛山市儿童活动中心幼儿园, 普澜二街, 莺岗社区, 祖庙街道, 禅城区, 佛山市, 广东省, 528000, 中国", "type": "kindergarten", "osm_type": "way", "osm_id": 300747400, "class": null, "keyword": "市中心"}}, {"type": "Feature", "geometry": {"type": "Polygon", "coordinates": [[[113.140671, 23.028772], [113.140745, 23.028501], [113.141249, 23.028539], [113.141164, 23.028862], [113.140671, 23.028772]]]}, "properties": {"display_name": "佛山市南海区交通工程质量监督中心, 天佑四路, 东约村, 桂城街道, 南海区, 佛山市, 广东省, 528000, 中国", "type": "government", "osm_type": "way", "osm_id": 1363363941, "class": null, "keyword": "市中心"}}, {"type": "Feature", "geometry": {"type": "Polygon", "coordinates": [[[113.134143, 23.044117], [113.13415, 23.043572], [113.134409, 23.043572], [113.134376, 23.04412], [113.134143, 23.044117]]]}, "properties": {"display_name": "劳动广场, 西约村, 桂城街道, 南海区, 佛山市, 广东省, 中国", "type": "park", "osm_type": "way", "osm_id": 1364280736, "class": null, "keyword": "老城区"}}, {"type": "Feature", "geometry": {"type": "Polygon", "coordinates": [[[113.131664, 22.994714], [113.132093, 22.994709], [113.13209, 22.995016], [113.131667, 22.995019], [113.131664, 22.994714]]]}, "properties": {"display_name": "佛山市诉前和解中心, 博思街, 湾华村, 石湾镇街道, 禅城区, 佛山市, 广东省, 528000, 中国", "type": "government", "osm_type": "way", "osm_id": 1359581611, "class": null, "keyword": "市中心"}}, {"type": "Feature", "geometry": {"type": "Polygon", "coordinates": [[[113.120564, 23.034996], [113.120578, 23.034802], [113.120761, 23.03482], [113.120847, 23.034745], [113.121112, 23.034807], [113.121068, 23.035079], [113.120564, 23.034996]]]}, "properties": {"display_name": "佛山市南海区老年干部活动中心, 桂园西三路, 福贤社区, 祖庙街道, 禅城区, 佛山市, 广东省, 528000, 中国", "type": "government", "osm_type": "way", "osm_id": 1361200658, "class": null, "keyword": "老城区"}}, {"type": "Feature", "geometry": {"type": "Polygon", "coordinates": [[[113.152616, 23.068646], [113.152658, 23.0685], [113.153441, 23.068691], [113.153399, 23.068837], [113.152616, 23.068646]]]}, "properties": {"display_name": "金融高新区, 五胜北路, 桂城街道, 南海区, 佛山市, 广东省, 258251, 中国", "type": "train_station", "osm_type": "way", "osm_id": 534059025, "class": null, "keyword": "financial district"}}, {"type": "Feature", "geometry": {"type": "Polygon", "coordinates": [[[113.106987, 23.034792], [113.106992, 23.034597], [113.107562, 23.034612], [113.107565, 23.034797], [113.106987, 23.034792]]]}, "properties": {"display_name": "时代中心, 祖庙街道, 禅城区, 佛山市, 广东省, 中国", "type": "commercial", "osm_type": "way", "osm_id": 1367071271, "class": null, "keyword": "市中心"}}, {"type": "Feature", "geometry": {"type": "Polygon", "coordinates": [[[113.041498, 22.877497], [113.041734, 22.877287], [113.041969, 22.877511], [113.041733, 22.87772], [113.041498, 22.877497]]]}, "properties": {"display_name": "仙塘党群活动中心（村史馆）, 红星大街, 仙塘村, 龙江镇, 顺德区, 佛山市, 广东省, 528318, 中国", "type": "kindergarten", "osm_type": "way", "osm_id": 590540114, "class": null, "keyword": "市中心"}}, {"type": "Feature", "geometry": {"type": "Polygon", "coordinates": [[[113.016778, 23.128005], [113.016878, 23.127852], [113.017116, 23.127776], [113.017218, 23.127638], [113.01736, 23.127719], [113.01726, 23.127957], [113.016778, 23.128005]]]}, "properties": {"display_name": "中国石化金建新加油站, 广云路, 穆院村, 狮山镇, 南海区, 佛山市, 广东省, 528225, 中国", "type": "fuel", "osm_type": "way", "osm_id": 1316667001, "class": null, "keyword": "市中心"}}, {"type": "Feature", "geometry": {"type": "Polygon", "coordinates": [[[113.140963, 23.030133], [113.140965, 23.030037], [113.14099, 23.029915], [113.141044, 23.029907], [113.141093, 23.029892], [113.141141, 23.029894], [113.141246, 23.029897], [113.141343, 23.029906], [113.14143, 23.029947], [113.141499, 23.029986], [113.141467, 23.030162], [113.141357, 23.030163], [113.141316, 23.030111], [113.141227, 23.030069], [113.141097, 23.030075], [113.140963, 23.030133]]]}, "properties": {"display_name": "佛山市南海区行政服务中心, 天佑五路, 东约村, 桂城街道, 南海区, 佛山市, 广东省, 528000, 中国", "type": "government", "osm_type": "way", "osm_id": 945993102, "class": null, "keyword": "市中心"}}, {"type": "Feature", "geometry": {"type": "Polygon", "coordinates": [[[113.134521, 23.033397], [113.134545, 23.033283], [113.134641, 23.033283], [113.134732, 23.032985], [113.134867, 23.033009], [113.134774, 23.033459], [113.134521, 23.033397]]]}, "properties": {"display_name": "佛山市南海区生产力促进中心, 天佑三路, 东约村, 桂城街道, 南海区, 佛山市, 广东省, 528000, 中国", "type": "government", "osm_type": "way", "osm_id": 1362886057, "class": null, "keyword": "市中心"}}, {"type": "Feature", "geometry": {"type": "Polygon", "coordinates": [[[113.124086, 22.855363], [113.124348, 22.855174], [113.12447, 22.855329], [113.124236, 22.855515], [113.124086, 22.855363]]]}, "properties": {"display_name": "麦当劳, 龙洲路, 勒流街道, 顺德区, 佛山市, 广东省, 中国", "type": "fast_food", "osm_type": "way", "osm_id": 660102590, "class": null, "keyword": "老城区"}}, {"type": "Feature", "geometry": {"type": "Polygon", "coordinates": [[[113.102505, 23.026164], [113.102507, 23.026077], [113.102606, 23.026066], [113.102608, 23.02586], [113.102731, 23.025857], [113.102723, 23.026263], [113.102607, 23.026265], [113.102604, 23.026164], [113.102505, 23.026164]]]}, "properties": {"display_name": "广东省粤中航道事务中心, 金城街, 山紫社区, 祖庙街道, 禅城区, 佛山市, 广东省, 528000, 中国", "type": "government", "osm_type": "way", "osm_id": 1368418450, "class": null, "keyword": "市中心"}}, {"type": "Feature", "geometry": {"type": "Polygon", "coordinates": [[[113.135789, 23.072818], [113.136198, 23.072713], [113.136221, 23.072815], [113.135822, 23.072917], [113.135789, 23.072818]]]}, "properties": {"display_name": "佛山市南海区社会体育中心, 桂江大桥, 桂城街道, 南海区, 佛山市, 广东省, 528231, 中国", "type": "sports_centre", "osm_type": "way", "osm_id": 1365569380, "class": null, "keyword": "市中心"}}, {"type": "Feature", "geometry": {"type": "Polygon", "coordinates": [[[113.09393, 23.02249], [113.094027, 23.022396], [113.094252, 23.022593], [113.094154, 23.022687], [113.09393, 23.02249]]]}, "properties": {"display_name": "佛山市禅城市场监督举报中心, 江湾二路, 张槎街道, 禅城区, 佛山市, 广东省, 528200, 中国", "type": "government", "osm_type": "way", "osm_id": 1413611352, "class": null, "keyword": "市中心"}}, {"type": "Feature", "geometry": {"type": "Polygon", "coordinates": [[[113.097685, 22.884163], [113.097814, 22.884064], [113.09792, 22.884152], [113.097779, 22.884269], [113.097685, 22.884163]]]}, "properties": {"display_name": "巡视堤围指挥中心, 北华路东延线, 定安村, 龙江镇, 顺德区, 佛山市, 广东省, 528318, 中国", "type": "yes", "osm_type": "way", "osm_id": 757257073, "class": null, "keyword": "市中心"}}, {"type": "Feature", "geometry": {"type": "Polygon", "coordinates": [[[113.107906, 23.024884], [113.107909, 23.024738], [113.108069, 23.024743], [113.108069, 23.024884], [113.107906, 23.024884]]]}, "properties": {"display_name": "佛山市企业离休干部管理服务中心, 垂虹路, 山紫社区, 祖庙街道, 禅城区, 佛山市, 广东省, 528000, 中国", "type": "government", "osm_type": "way", "osm_id": 1368779429, "class": null, "keyword": "市中心"}}, {"type": "Feature", "geometry": {"type": "Polygon", "coordinates": [[[113.163028, 22.795319], [113.163031, 22.795272], [113.16328, 22.795344], [113.163282, 22.79537], [113.163169, 22.795427], [113.163139, 22.795425], [113.16313, 22.795406], [113.163076, 22.7954], [113.163056, 22.795396], [113.163028, 22.795319]]]}, "properties": {"display_name": "麦当劳, 得来速车道, 漂染城片区, 杏坛镇, 顺德区, 佛山市, 广东省, 中国", "type": "fast_food", "osm_type": "way", "osm_id": 819875025, "class": null, "keyword": "老城区"}}]}