{"type": "FeatureCollection", "features": [{"type": "Feature", "geometry": {"type": "Polygon", "coordinates": [[[130.343876, 33.620103], [130.346247, 33.615872], [130.348672, 33.611851], [130.349294, 33.609796], [130.351751, 33.605735], [130.356015, 33.597448], [130.35702, 33.595652], [130.357153, 33.595407], [130.357224, 33.595276], [130.357287, 33.595159], [130.358035, 33.593781], [130.358227, 33.593434], [130.35871, 33.592563], [130.358814, 33.592376], [130.359321, 33.591463], [130.359575, 33.591005], [130.359963, 33.590284], [130.360281, 33.589695], [130.360474, 33.589335], [130.360541, 33.589202], [130.360636, 33.589012], [130.36098, 33.588326], [130.361137, 33.588108], [130.361889, 33.587066], [130.36226, 33.586624], [130.362675, 33.586119], [130.362919, 33.585823], [130.362968, 33.585764], [130.363108, 33.585593], [130.363759, 33.584577], [130.364294, 33.583742], [130.364436, 33.583521], [130.364537, 33.583363], [130.364687, 33.583074], [130.364842, 33.582777], [130.365193, 33.582102], [130.365284, 33.581891], [130.365357, 33.581721], [130.365392, 33.58164], [130.365499, 33.581579], [130.365998, 33.581296], [130.366007, 33.581291], [130.366031, 33.581285], [130.366336, 33.58121], [130.367214, 33.581187], [130.367895, 33.581169], [130.369706, 33.580992], [130.369781, 33.580985], [130.37005, 33.580959], [130.370573, 33.580829], [130.371051, 33.580569], [130.371542, 33.580302], [130.372673, 33.579502], [130.372727, 33.579467], [130.372731, 33.579463], [130.372787, 33.579407], [130.372866, 33.579329], [130.372947, 33.579247], [130.373011, 33.579181], [130.373143, 33.579012], [130.373279, 33.578731], [130.373413, 33.578419], [130.373476, 33.578197], [130.373567, 33.577984], [130.37362, 33.577874], [130.373769, 33.577567], [130.374064, 33.577036], [130.374209, 33.576804], [130.374274, 33.576666], [130.37436, 33.576487], [130.374386, 33.576434], [130.374459, 33.57629], [130.374554, 33.576105], [130.374706, 33.575899], [130.374831, 33.575742], [130.374941, 33.575602], [130.375053, 33.575426], [130.375119, 33.575354], [130.375208, 33.575257], [130.375334, 33.575037], [130.375444, 33.574814], [130.375473, 33.574716], [130.375501, 33.574619], [130.375545, 33.574497], [130.375561, 33.574455], [130.375645, 33.574153], [130.375695, 33.573948], [130.375734, 33.573778], [130.375768, 33.573628], [130.375812, 33.573364], [130.37587, 33.573073], [130.375899, 33.572889], [130.375909, 33.572822], [130.375928, 33.572736], [130.375966, 33.572557], [130.376021, 33.572305], [130.376048, 33.572135], [130.376106, 33.571792], [130.376116, 33.571733], [130.376122, 33.571709], [130.376173, 33.571498], [130.37619, 33.571331], [130.376233, 33.571027], [130.376249, 33.570765], [130.376231, 33.570552], [130.376226, 33.570294], [130.376226, 33.570062], [130.376202, 33.569917], [130.37616, 33.569685], [130.376118, 33.569387], [130.376108, 33.569254], [130.376063, 33.568931], [130.376052, 33.568851], [130.376021, 33.568685], [130.375951, 33.568299], [130.37589, 33.568003], [130.375873, 33.567801], [130.375868, 33.56767], [130.375867, 33.567658], [130.375865, 33.567613], [130.37593, 33.567366], [130.375984, 33.567177], [130.376071, 33.566974], [130.376149, 33.566671], [130.376149, 33.566449], [130.376141, 33.566261], [130.376073, 33.565945], [130.375989, 33.565639], [130.375911, 33.565254], [130.375881, 33.565093], [130.375817, 33.564755], [130.375817, 33.564753], [130.375817, 33.564746], [130.375825, 33.564508], [130.375911, 33.564302], [130.375937, 33.564239], [130.375964, 33.564172], [130.375959, 33.564097], [130.375954, 33.564021], [130.375958, 33.563982], [130.375974, 33.563799], [130.375974, 33.56374], [130.376086, 33.563737], [130.376149, 33.563736], [130.376419, 33.563729], [130.376518, 33.563674], [130.376496, 33.563593], [130.376492, 33.563431], [130.376602, 33.563308], [130.376712, 33.563182], [130.376739, 33.563127], [130.376735, 33.562937], [130.376673, 33.562684], [130.376681, 33.562458], [130.376895, 33.562354], [130.377033, 33.562302], [130.377199, 33.562289], [130.377203, 33.562289], [130.377444, 33.562291], [130.377596, 33.56231], [130.377672, 33.562349], [130.377698, 33.562362], [130.377742, 33.562384], [130.377814, 33.562419], [130.377894, 33.562456], [130.378109, 33.562471], [130.378413, 33.562485], [130.378573, 33.562492], [130.378641, 33.562486], [130.378708, 33.562481], [130.37871, 33.562481], [130.378761, 33.562483], [130.378883, 33.56249], [130.378999, 33.562496], [130.379377, 33.562515], [130.379443, 33.562519], [130.379489, 33.562522], [130.379587, 33.562528], [130.379754, 33.562538], [130.379833, 33.562543], [130.380082, 33.562644], [130.380153, 33.562704], [130.380221, 33.562771], [130.380291, 33.562781], [130.380399, 33.562733], [130.380468, 33.562651], [130.380476, 33.562606], [130.380471, 33.562532], [130.380458, 33.562475], [130.380455, 33.562402], [130.380477, 33.562351], [130.380516, 33.562315], [130.380686, 33.562228], [130.380731, 33.562201], [130.380831, 33.562141], [130.38086, 33.562124], [130.380991, 33.562071], [130.380992, 33.562071], [130.381103, 33.562007], [130.381168, 33.56197], [130.381283, 33.561913], [130.381519, 33.561767], [130.381638, 33.561674], [130.3817, 33.561557], [130.381776, 33.561402], [130.381969, 33.561143], [130.38201, 33.561104], [130.382049, 33.561082], [130.382058, 33.561083], [130.382173, 33.561084], [130.382213, 33.561092], [130.382289, 33.561106], [130.382334, 33.561115], [130.382462, 33.561139], [130.382554, 33.561157], [130.382659, 33.561018], [130.382741, 33.561014], [130.382979, 33.561003], [130.383009, 33.561003], [130.383084, 33.561002], [130.383156, 33.561001], [130.383339, 33.560992], [130.383779, 33.560981], [130.383854, 33.560954], [130.384006, 33.560871], [130.384095, 33.56084], [130.384163, 33.560836], [130.384307, 33.560874], [130.384484, 33.560946], [130.384721, 33.56103], [130.384799, 33.56104], [130.385087, 33.561079], [130.385338, 33.561079], [130.385587, 33.561058], [130.385745, 33.561017], [130.385782, 33.561003], [130.385877, 33.560968], [130.385961, 33.560937], [130.386032, 33.560898], [130.38618, 33.560816], [130.386216, 33.560797], [130.386237, 33.560785], [130.386438, 33.560671], [130.386693, 33.560528], [130.386841, 33.560444], [130.386892, 33.560415], [130.387369, 33.560186], [130.387483, 33.560134], [130.387528, 33.560114], [130.387574, 33.560063], [130.387591, 33.560044], [130.387683, 33.559957], [130.38769, 33.559951], [130.387793, 33.559873], [130.38784, 33.559837], [130.38796, 33.559774], [130.388111, 33.55977], [130.388339, 33.559763], [130.388692, 33.559679], [130.388704, 33.559676], [130.388854, 33.559636], [130.388936, 33.559614], [130.389089, 33.559573], [130.389178, 33.55955], [130.38932, 33.559512], [130.389425, 33.559484], [130.389611, 33.559435], [130.389655, 33.559423], [130.389854, 33.559344], [130.38998, 33.559283], [130.390062, 33.559202], [130.390092, 33.559161], [130.390108, 33.559139], [130.390121, 33.559077], [130.390135, 33.559015], [130.39015, 33.558944], [130.390163, 33.558884], [130.390171, 33.558847], [130.390192, 33.558841], [130.390273, 33.558818], [130.390407, 33.558777], [130.390555, 33.558706], [130.390725, 33.558592], [130.390917, 33.558436], [130.391097, 33.558257], [130.391253, 33.558115], [130.391329, 33.558062], [130.391521, 33.558022], [130.391695, 33.558028], [130.392026, 33.558074], [130.392143, 33.558086], [130.392382, 33.55811], [130.392749, 33.558107], [130.39296, 33.558087], [130.393239, 33.55804], [130.39367, 33.558021], [130.393917, 33.558017], [130.39411, 33.558055], [130.394266, 33.558118], [130.394342, 33.558148], [130.394714, 33.55826], [130.394939, 33.558323], [130.395127, 33.558329], [130.395412, 33.558277], [130.395501, 33.558239], [130.395485, 33.558554], [130.395456, 33.558681], [130.395271, 33.558823], [130.39503, 33.559057], [130.394897, 33.559434], [130.394915, 33.559563], [130.394918, 33.559667], [130.39487, 33.559802], [130.394778, 33.560041], [130.394651, 33.560371], [130.394549, 33.560715], [130.39457, 33.560792], [130.394584, 33.560844], [130.394883, 33.560986], [130.395064, 33.561079], [130.395148, 33.561118], [130.395218, 33.56115], [130.395273, 33.561154], [130.395374, 33.56116], [130.395526, 33.561098], [130.395731, 33.561026], [130.395793, 33.561022], [130.395851, 33.561087], [130.395911, 33.561168], [130.395978, 33.561476], [130.395974, 33.561626], [130.395929, 33.56178], [130.395906, 33.561856], [130.396028, 33.561852], [130.396054, 33.561852], [130.396212, 33.56181], [130.396309, 33.561711], [130.396378, 33.561616], [130.396423, 33.561554], [130.396471, 33.561508], [130.396518, 33.561485], [130.396568, 33.56147], [130.396628, 33.56151], [130.396884, 33.561742], [130.396951, 33.561819], [130.397002, 33.561946], [130.397062, 33.562154], [130.396994, 33.562604], [130.396916, 33.562624], [130.396853, 33.562639], [130.396704, 33.562759], [130.396406, 33.562984], [130.396346, 33.563129], [130.396298, 33.563276], [130.396302, 33.563334], [130.396304, 33.563363], [130.396322, 33.563431], [130.396338, 33.563495], [130.39637, 33.563526], [130.396398, 33.563599], [130.396447, 33.563689], [130.39654, 33.563859], [130.396712, 33.563994], [130.396759, 33.564082], [130.396654, 33.56427], [130.396434, 33.564612], [130.396311, 33.564787], [130.396363, 33.564815], [130.396544, 33.564914], [130.396948, 33.565111], [130.397624, 33.565431], [130.397816, 33.565526], [130.398139, 33.565685], [130.398446, 33.565833], [130.39876, 33.566005], [130.398853, 33.566033], [130.398993, 33.566029], [130.399139, 33.566099], [130.399148, 33.566103], [130.399121, 33.566282], [130.39913, 33.566323], [130.399153, 33.566439], [130.399059, 33.566643], [130.399051, 33.56666], [130.399004, 33.566747], [130.399004, 33.566748], [130.398954, 33.566849], [130.39886, 33.567006], [130.398826, 33.567064], [130.398693, 33.567286], [130.398664, 33.567335], [130.398658, 33.567342], [130.398611, 33.567389], [130.3985, 33.567503], [130.398419, 33.567585], [130.398385, 33.56762], [130.398313, 33.567694], [130.398203, 33.567807], [130.39812, 33.567891], [130.398111, 33.567903], [130.398047, 33.567984], [130.398047, 33.567985], [130.397944, 33.568087], [130.397942, 33.568089], [130.397888, 33.568156], [130.397861, 33.568189], [130.397863, 33.568345], [130.397877, 33.568424], [130.397893, 33.56851], [130.3979, 33.568548], [130.397901, 33.568717], [130.397911, 33.56886], [130.397923, 33.569048], [130.397923, 33.569297], [130.397941, 33.569355], [130.398012, 33.569569], [130.39807, 33.569674], [130.398254, 33.569843], [130.398447, 33.570034], [130.398719, 33.570253], [130.398889, 33.570395], [130.399021, 33.570497], [130.399092, 33.570551], [130.399124, 33.570575], [130.399296, 33.570685], [130.399333, 33.570708], [130.399473, 33.570797], [130.39974, 33.570966], [130.400209, 33.571245], [130.400495, 33.571403], [130.400545, 33.571431], [130.40059, 33.571456], [130.400909, 33.571633], [130.401189, 33.5718], [130.401273, 33.571841], [130.401319, 33.571864], [130.401347, 33.571878], [130.40161, 33.572009], [130.402055, 33.572257], [130.402176, 33.572314], [130.402213, 33.572332], [130.402473, 33.572456], [130.402769, 33.572568], [130.40314, 33.572678], [130.403471, 33.572775], [130.403539, 33.572793], [130.403741, 33.572847], [130.403772, 33.572856], [130.403829, 33.572871], [130.403867, 33.572881], [130.405221, 33.573182], [130.405471, 33.573241], [130.405704, 33.573297], [130.405875, 33.573341], [130.406189, 33.573417], [130.406321, 33.573485], [130.406603, 33.573565], [130.406835, 33.57363], [130.40692, 33.573654], [130.407051, 33.573691], [130.407236, 33.573732], [130.407529, 33.573818], [130.407659, 33.573863], [130.407869, 33.573924], [130.407946, 33.573941], [130.408006, 33.573954], [130.408081, 33.573971], [130.408087, 33.573973], [130.408264, 33.574013], [130.409006, 33.57421], [130.409276, 33.57428], [130.409499, 33.574337], [130.40997, 33.574447], [130.410412, 33.574544], [130.410562, 33.574595], [130.410416, 33.574761], [130.410204, 33.574972], [130.410176, 33.574999], [130.410023, 33.57515], [130.409889, 33.575273], [130.40981, 33.575345], [130.409735, 33.575414], [130.409646, 33.575496], [130.409829, 33.575529], [130.410856, 33.575743], [130.411093, 33.57579], [130.411146, 33.5758], [130.411171, 33.575805], [130.411604, 33.575891], [130.411746, 33.575922], [130.411861, 33.575947], [130.412056, 33.575989], [130.412318, 33.576042], [130.412448, 33.576073], [130.412771, 33.576147], [130.413031, 33.576216], [130.413076, 33.576228], [130.413141, 33.576246], [130.413286, 33.576268], [130.41339, 33.576284], [130.413608, 33.576318], [130.413642, 33.576325], [130.413706, 33.57634], [130.413937, 33.576392], [130.413994, 33.576405], [130.414029, 33.576413], [130.414134, 33.576417], [130.414413, 33.576471], [130.414586, 33.576509], [130.414626, 33.576518], [130.414669, 33.576527], [130.414892, 33.576576], [130.414995, 33.576622], [130.415036, 33.57664], [130.41508, 33.57666], [130.415266, 33.576743], [130.415418, 33.576821], [130.415254, 33.576949], [130.415224, 33.576974], [130.414778, 33.577353], [130.41445, 33.577618], [130.414162, 33.577914], [130.413918, 33.57824], [130.413879, 33.578299], [130.413678, 33.578609], [130.413231, 33.579306], [130.413026, 33.579584], [130.412709, 33.580001], [130.412349, 33.580401], [130.412138, 33.580637], [130.411887, 33.580869], [130.411445, 33.581234], [130.411193, 33.581431], [130.410876, 33.581744], [130.410566, 33.582039], [130.410394, 33.582232], [130.410285, 33.582354], [130.410088, 33.582665], [130.410011, 33.582855], [130.4099, 33.583056], [130.409782, 33.583269], [130.409736, 33.583425], [130.409681, 33.583826], [130.409652, 33.5842], [130.409648, 33.584299], [130.409631, 33.584681], [130.409631, 33.584967], [130.409628, 33.5853], [130.409639, 33.585581], [130.409647, 33.585773], [130.409643, 33.586075], [130.409634, 33.586624], [130.409617, 33.586874], [130.409591, 33.587347], [130.409598, 33.587521], [130.409603, 33.587638], [130.409611, 33.588006], [130.409601, 33.588086], [130.409591, 33.588162], [130.409534, 33.588342], [130.409424, 33.588548], [130.409289, 33.588794], [130.409099, 33.589023], [130.408798, 33.589355], [130.408797, 33.589356], [130.408513, 33.589635], [130.408194, 33.589955], [130.407988, 33.590141], [130.40783, 33.590254], [130.407785, 33.590303], [130.407679, 33.590419], [130.40741, 33.590627], [130.407143, 33.590834], [130.407041, 33.590913], [130.406766, 33.591101], [130.406494, 33.591286], [130.40648, 33.591295], [130.406346, 33.591385], [130.405848, 33.591729], [130.405576, 33.591864], [130.405322, 33.592004], [130.405034, 33.592145], [130.404868, 33.592227], [130.404423, 33.592443], [130.404069, 33.592614], [130.404057, 33.59262], [130.403641, 33.592822], [130.403277, 33.593008], [130.403057, 33.593128], [130.403002, 33.593157], [130.402976, 33.593171], [130.40287, 33.593227], [130.402543, 33.593476], [130.402275, 33.593714], [130.401982, 33.593974], [130.401843, 33.594078], [130.401814, 33.594101], [130.401758, 33.594167], [130.401611, 33.59434], [130.401448, 33.594609], [130.401334, 33.594836], [130.401244, 33.595058], [130.40119, 33.595189], [130.401053, 33.595551], [130.400882, 33.595984], [130.400758, 33.596337], [130.400572, 33.596872], [130.400556, 33.596919], [130.400488, 33.597117], [130.40031, 33.597597], [130.400172, 33.59803], [130.400049, 33.598371], [130.399892, 33.598704], [130.399726, 33.599075], [130.399601, 33.599274], [130.399534, 33.599412], [130.399472, 33.599516], [130.399336, 33.599747], [130.39919, 33.599922], [130.398999, 33.600263], [130.398922, 33.600416], [130.398622, 33.600775], [130.398359, 33.601244], [130.397893, 33.601986], [130.397008, 33.603293], [130.396343, 33.604276], [130.395699, 33.605232], [130.394647, 33.607403], [130.393231, 33.60978], [130.392545, 33.613658], [130.391343, 33.616928], [130.38799, 33.620906], [130.382197, 33.626177], [130.378613, 33.628589], [130.374472, 33.626445], [130.361662, 33.624801], [130.347628, 33.622389], [130.343876, 33.620103]]]}, "properties": {"display_name": "中央区, 福岡市, 福岡県, 日本", "type": "administrative", "osm_type": "relation", "osm_id": 4008554, "class": null, "keyword": "arrondissement"}}, {"type": "Feature", "geometry": {"type": "Polygon", "coordinates": [[[131.146775, 33.595079], [131.148297, 33.594291], [131.148774, 33.594792], [131.148793, 33.594833], [131.148777, 33.594866], [131.14752, 33.595484], [131.147357, 33.595565], [131.147191, 33.595646], [131.146848, 33.595179], [131.146775, 33.595079]]]}, "properties": {"display_name": "D-ACT Co., Ltd. Kyushu Factory District 2 (Buzen), 豊前市, 福岡県, 日本", "type": "industrial", "osm_type": "way", "osm_id": 1096852053, "class": null, "keyword": "district"}}, {"type": "Feature", "geometry": {"type": "Polygon", "coordinates": [[[130.410535, 33.590456], [130.410555, 33.590433], [130.41057, 33.590441], [130.410591, 33.590447], [130.410628, 33.590447], [130.41067, 33.590437], [130.410711, 33.590413], [130.410732, 33.590375], [130.410738, 33.590341], [130.41069, 33.59027], [130.410726, 33.590251], [130.410781, 33.590212], [130.41084, 33.590152], [130.410901, 33.590079], [130.410934, 33.590015], [130.410955, 33.589965], [130.410961, 33.58993], [130.411004, 33.589935], [130.411047, 33.58993], [130.411087, 33.589914], [130.411119, 33.58989], [130.411142, 33.589859], [130.411152, 33.589824], [130.411151, 33.589787], [130.411137, 33.589753], [130.411111, 33.589724], [130.411077, 33.589701], [130.411036, 33.589689], [130.410993, 33.589686], [130.411, 33.589635], [130.410954, 33.589614], [130.410921, 33.589583], [130.410913, 33.589556], [130.410914, 33.589531], [130.410924, 33.58949], [130.410946, 33.589449], [130.410887, 33.589362], [130.410718, 33.589293], [130.410702, 33.589275], [130.410689, 33.58925], [130.410679, 33.58923], [130.410681, 33.589198], [130.410699, 33.58914], [130.410692, 33.589121], [130.41068, 33.5891], [130.41066, 33.589078], [130.410639, 33.589069], [130.410613, 33.589064], [130.410617, 33.589054], [130.410842, 33.589048], [130.410935, 33.589016], [130.411014, 33.589004], [130.4111, 33.589012], [130.411319, 33.589102], [130.411326, 33.589171], [130.411328, 33.589308], [130.411332, 33.589392], [130.411345, 33.589687], [130.411373, 33.589853], [130.41144, 33.589942], [130.411347, 33.589998], [130.411228, 33.590079], [130.411167, 33.590136], [130.411135, 33.590177], [130.411072, 33.590263], [130.411006, 33.59039], [130.410961, 33.59055], [130.410933, 33.590699], [130.410922, 33.590538], [130.410908, 33.590512], [130.410874, 33.590494], [130.410773, 33.59045], [130.41074, 33.590474], [130.410681, 33.590489], [130.410634, 33.59049], [130.4106, 33.590483], [130.41056, 33.590472], [130.410535, 33.590456]]]}, "properties": {"display_name": "キャナルシティ博多ウオーク, 南新橋, 中洲一丁目, 中洲, 博多区, 福岡市, 福岡県, 810-0801, 日本", "type": "retail", "osm_type": "way", "osm_id": 751001484, "class": null, "keyword": "city center"}}, {"type": "Feature", "geometry": {"type": "Polygon", "coordinates": [[[130.411441, 33.589159], [130.411464, 33.589151], [130.411719, 33.589253], [130.411725, 33.589284], [130.411811, 33.589283], [130.411981, 33.589751], [130.411832, 33.589813], [130.411823, 33.589788], [130.411802, 33.589809], [130.411768, 33.589823], [130.411725, 33.589835], [130.411673, 33.589837], [130.411621, 33.589832], [130.411574, 33.589813], [130.411532, 33.589789], [130.411501, 33.589762], [130.411481, 33.589727], [130.411471, 33.589694], [130.411466, 33.589659], [130.411474, 33.58962], [130.411456, 33.589618], [130.411448, 33.589391], [130.411441, 33.589159]]]}, "properties": {"display_name": "キャナルシティ博多ビジネスセンタービル, はかた駅前通り, 中洲四丁目, 祇園町, 博多区, 福岡市, 福岡県, 810-0801, 日本", "type": "office", "osm_type": "way", "osm_id": 209365726, "class": null, "keyword": "city center"}}, {"type": "Feature", "geometry": {"type": "Polygon", "coordinates": [[[130.442802, 33.155486], [130.442851, 33.155485], [130.442964, 33.155505], [130.443033, 33.155513], [130.443154, 33.15551], [130.443232, 33.155511], [130.443241, 33.155834], [130.442813, 33.155845], [130.442802, 33.155486]]]}, "properties": {"display_name": "柳川市垂見コミュニティセンター, 三橋瀬高バイパス, 三橋町棚町, 柳川市, 福岡県, 832-0821, 日本", "type": "community_centre", "osm_type": "way", "osm_id": 372916706, "class": null, "keyword": "city center"}}, {"type": "Feature", "geometry": {"type": "Polygon", "coordinates": [[[130.401742, 33.593211], [130.401747, 33.593202], [130.401755, 33.593195], [130.401765, 33.593191], [130.401784, 33.593144], [130.401805, 33.593151], [130.401854, 33.593033], [130.401994, 33.593076], [130.401963, 33.59315], [130.40194, 33.593143], [130.401928, 33.593173], [130.401924, 33.593182], [130.401914, 33.593187], [130.401905, 33.593189], [130.401894, 33.593188], [130.401886, 33.593208], [130.401865, 33.593217], [130.401846, 33.593211], [130.401843, 33.593216], [130.401837, 33.593219], [130.401782, 33.593217], [130.401776, 33.593222], [130.401766, 33.593226], [130.401753, 33.593225], [130.401746, 33.59322], [130.401742, 33.593211]]]}, "properties": {"display_name": "福岡市赤煉瓦文化館, 赤煉瓦通り, 天神一丁目, 中央区, 福岡市, 福岡県, 810-0802, 日本", "type": "building", "osm_type": "way", "osm_id": 314743807, "class": null, "keyword": "city center"}}, {"type": "Feature", "geometry": {"type": "Polygon", "coordinates": [[[130.691352, 33.64519], [130.69139, 33.645043], [130.691527, 33.645068], [130.691489, 33.645215], [130.691352, 33.64519]]]}, "properties": {"display_name": "麻生商事新飯塚店, 国道201号, 新飯塚, 飯塚市, 福岡県, 820-0011, 日本", "type": "fuel", "osm_type": "way", "osm_id": 672250583, "class": null, "keyword": "市中心"}}, {"type": "Feature", "geometry": {"type": "Polygon", "coordinates": [[[130.44372, 33.71101], [130.443841, 33.710989], [130.443877, 33.711135], [130.443756, 33.711155], [130.44372, 33.71101]]]}, "properties": {"display_name": "新宮町 ボランティアセンター, 小竹下府線, 杜の宮四丁目, 新宮町, 糟屋郡, 福岡県, 811-0119, 日本", "type": "yes", "osm_type": "way", "osm_id": 222208721, "class": null, "keyword": "town center"}}]}