{"type": "FeatureCollection", "features": [{"type": "Feature", "geometry": {"type": "Polygon", "coordinates": [[[25.90055, -24.65539], [25.905646, -24.65754], [25.905931, -24.656796], [25.906688, -24.654824], [25.907024, -24.653946], [25.907397, -24.653002], [25.908029, -24.651399], [25.908901, -24.649189], [25.909454, -24.647788], [25.909686, -24.647191], [25.909751, -24.646134], [25.909619, -24.645958], [25.909375, -24.645781], [25.908883, -24.645664], [25.908186, -24.643268], [25.909056, -24.643147], [25.908828, -24.641996], [25.908622, -24.6418], [25.907146, -24.641065], [25.905862, -24.643031], [25.904564, -24.646176], [25.90055, -24.65539]]]}, "properties": {"display_name": "Central Business District, Gaborone, Botswana", "type": "commercial", "osm_type": "way", "osm_id": 508046358, "class": null, "keyword": "business district"}}]}