{"type": "FeatureCollection", "features": [{"type": "Feature", "geometry": {"type": "MultiPolygon", "coordinates": [[[[114.875874, 25.845214], [114.875967, 25.844118], [114.875957, 25.843151], [114.876149, 25.842325], [114.876397, 25.841095], [114.876553, 25.840933], [114.877871, 25.839511], [114.879147, 25.839455], [114.87988, 25.83824], [114.879744, 25.837092], [114.880083, 25.837003], [114.881039, 25.836721], [114.880695, 25.835218], [114.884986, 25.834765], [114.885094, 25.834451], [114.887112, 25.833714], [114.88845, 25.832682], [114.88964, 25.831172], [114.890808, 25.82926], [114.892826, 25.82385], [114.895523, 25.81993], [114.897753, 25.817655], [114.901067, 25.814959], [114.902032, 25.81445], [114.907687, 25.818833], [114.914925, 25.824318], [114.910018, 25.829821], [114.914251, 25.830926], [114.913829, 25.833247], [114.91128, 25.832625], [114.908669, 25.831953], [114.908564, 25.832574], [114.90874, 25.834305], [114.909001, 25.836542], [114.909243, 25.837606], [114.909268, 25.837801], [114.909136, 25.838384], [114.90912, 25.838522], [114.909102, 25.838605], [114.909085, 25.838676], [114.909055, 25.838752], [114.909017, 25.838828], [114.908962, 25.838898], [114.908802, 25.83908], [114.907945, 25.839966], [114.907816, 25.840118], [114.907681, 25.840312], [114.907588, 25.84048], [114.907509, 25.840633], [114.907404, 25.840891], [114.907231, 25.841333], [114.907011, 25.841905], [114.906485, 25.843221], [114.906503, 25.843385], [114.90664, 25.843371], [114.90836, 25.843371], [114.909523, 25.843591], [114.910399, 25.843823], [114.911442, 25.844055], [114.912151, 25.844259], [114.912621, 25.844478], [114.913456, 25.845061], [114.914316, 25.8461], [114.912469, 25.847843], [114.911739, 25.849508], [114.911455, 25.850261], [114.910442, 25.852021], [114.909977, 25.853683], [114.910442, 25.855815], [114.910849, 25.856927], [114.911576, 25.858249], [114.912492, 25.859465], [114.914203, 25.860921], [114.914824, 25.861465], [114.914419, 25.862565], [114.91251, 25.861939], [114.912242, 25.861288], [114.911452, 25.861493], [114.910585, 25.859718], [114.910045, 25.859778], [114.90978, 25.86017], [114.909496, 25.860239], [114.909892, 25.860793], [114.909674, 25.8611], [114.909008, 25.860666], [114.907861, 25.862097], [114.907836, 25.863299], [114.906387, 25.863785], [114.905563, 25.862711], [114.905847, 25.86173], [114.903829, 25.861483], [114.903014, 25.8615], [114.902834, 25.861014], [114.902346, 25.861643], [114.902845, 25.862184], [114.903214, 25.862554], [114.903503, 25.862874], [114.90313, 25.86348], [114.903559, 25.864094], [114.902635, 25.864709], [114.90313, 25.865312], [114.90234, 25.865312], [114.90171, 25.866518], [114.90108, 25.866638], [114.900236, 25.867554], [114.900571, 25.86823], [114.90041, 25.869001], [114.900558, 25.869459], [114.898655, 25.870026], [114.897208, 25.869086], [114.896377, 25.867892], [114.895292, 25.867627], [114.895654, 25.867289], [114.89544, 25.866819], [114.894957, 25.867205], [114.894033, 25.866638], [114.893443, 25.866494], [114.893604, 25.867241], [114.892117, 25.868531], [114.89075, 25.868531], [114.889946, 25.867458], [114.88973, 25.868145], [114.888711, 25.867832], [114.888323, 25.868893], [114.886876, 25.868483], [114.885429, 25.868331], [114.885466, 25.866832], [114.885138, 25.866256], [114.884677, 25.866642], [114.884672, 25.86104], [114.883121, 25.850082], [114.883082, 25.84672], [114.883037, 25.846095], [114.882476, 25.850083], [114.881816, 25.850041], [114.879759, 25.849947], [114.879711, 25.849148], [114.879656, 25.848784], [114.879946, 25.847038], [114.877112, 25.847245], [114.876314, 25.846939], [114.875874, 25.845214]]], [[[114.883392, 25.779533], [114.883402, 25.779339], [114.883835, 25.7787], [114.884352, 25.778405], [114.885679, 25.77804], [114.886419, 25.778144], [114.887212, 25.77842], [114.889069, 25.77853], [114.890428, 25.778342], [114.890749, 25.778235], [114.891112, 25.777578], [114.891727, 25.777421], [114.891852, 25.777439], [114.891992, 25.777656], [114.892055, 25.777892], [114.89203, 25.778345], [114.892149, 25.778578], [114.892404, 25.778461], [114.892613, 25.777285], [114.893553, 25.776461], [114.893749, 25.776468], [114.893854, 25.776584], [114.893882, 25.777238], [114.89417, 25.778343], [114.89431, 25.778441], [114.894672, 25.778511], [114.895009, 25.778436], [114.896248, 25.777766], [114.896536, 25.777511], [114.8967, 25.776942], [114.897088, 25.776228], [114.897313, 25.775432], [114.897692, 25.774479], [114.897257, 25.774198], [114.897316, 25.77387], [114.897137, 25.773167], [114.897282, 25.772663], [114.897495, 25.772486], [114.89807, 25.77243], [114.898858, 25.771687], [114.899439, 25.771608], [114.900283, 25.773155], [114.900499, 25.772851], [114.902297, 25.774036], [114.902617, 25.773472], [114.903217, 25.773557], [114.903848, 25.774048], [114.903843, 25.774952], [114.904524, 25.775448], [114.904127, 25.775883], [114.90488, 25.775883], [114.904983, 25.77559], [114.904537, 25.774515], [114.905831, 25.775363], [114.906002, 25.775262], [114.906763, 25.775501], [114.906908, 25.775668], [114.907228, 25.775566], [114.907841, 25.77654], [114.907686, 25.776802], [114.906628, 25.777698], [114.907584, 25.778408], [114.909917, 25.780143], [114.910911, 25.778662], [114.910911, 25.778065], [114.911077, 25.777732], [114.912186, 25.777043], [114.913014, 25.777238], [114.914025, 25.77706], [114.914053, 25.778066], [114.913606, 25.778963], [114.913531, 25.77976], [114.913606, 25.779936], [114.914839, 25.780515], [114.915214, 25.78048], [114.915319, 25.77962], [114.915616, 25.779472], [114.915754, 25.779549], [114.915886, 25.780231], [114.915655, 25.780746], [114.915346, 25.781043], [114.915379, 25.78115], [114.915767, 25.781161], [114.916472, 25.780474], [114.916847, 25.780349], [114.917084, 25.780136], [114.91763, 25.7801], [114.919026, 25.780663], [114.919421, 25.781185], [114.920165, 25.781576], [114.920679, 25.78265], [114.920216, 25.783037], [114.919635, 25.783037], [114.918601, 25.782622], [114.918508, 25.782945], [114.919867, 25.783541], [114.921208, 25.783042], [114.921334, 25.783675], [114.922069, 25.783645], [114.922046, 25.784022], [114.922474, 25.784048], [114.922735, 25.783616], [114.923508, 25.7838], [114.923527, 25.783905], [114.923298, 25.784007], [114.923596, 25.784996], [114.922273, 25.784558], [114.921549, 25.786105], [114.921364, 25.787083], [114.921634, 25.788245], [114.920976, 25.789253], [114.920719, 25.789442], [114.919738, 25.789804], [114.91956, 25.79016], [114.920113, 25.791351], [114.920014, 25.791754], [114.91958, 25.791737], [114.919475, 25.793076], [114.91854, 25.794072], [114.918882, 25.794155], [114.919053, 25.79457], [114.918421, 25.795145], [114.91935, 25.795645], [114.919013, 25.79704], [114.917046, 25.796909], [114.914317, 25.798493], [114.914274, 25.798451], [114.911742, 25.796353], [114.911288, 25.796667], [114.91111, 25.796613], [114.911308, 25.796453], [114.911314, 25.796187], [114.910583, 25.796092], [114.910017, 25.796613], [114.910116, 25.796839], [114.909095, 25.7972], [114.909174, 25.79758], [114.907732, 25.79803], [114.907877, 25.798528], [114.90764, 25.798795], [114.907555, 25.798635], [114.906205, 25.798143], [114.90608, 25.797467], [114.906251, 25.797426], [114.906304, 25.797248], [114.906475, 25.79726], [114.906514, 25.797046], [114.90604, 25.796963], [114.906692, 25.795766], [114.906521, 25.795677], [114.906047, 25.796448], [114.905718, 25.796424], [114.905573, 25.796572], [114.905402, 25.796548], [114.905007, 25.796886], [114.904618, 25.797532], [114.904217, 25.797378], [114.904138, 25.796999], [114.90392, 25.796833], [114.902939, 25.796868], [114.902933, 25.797177], [114.902762, 25.797189], [114.90263, 25.797485], [114.902663, 25.797817], [114.90207, 25.797402], [114.901767, 25.798018], [114.9018, 25.798315], [114.902261, 25.79838], [114.902301, 25.798878], [114.902024, 25.799062], [114.901985, 25.798617], [114.901675, 25.79854], [114.901636, 25.799376], [114.901214, 25.799139], [114.899862, 25.800073], [114.899362, 25.800725], [114.899151, 25.801223], [114.899191, 25.80146], [114.901212, 25.802735], [114.901094, 25.803031], [114.900791, 25.802913], [114.900389, 25.803114], [114.900086, 25.804098], [114.899764, 25.804051], [114.899487, 25.80443], [114.898131, 25.803381], [114.897861, 25.803002], [114.898177, 25.802806], [114.898401, 25.803268], [114.898697, 25.80315], [114.898381, 25.802711], [114.898592, 25.802456], [114.898638, 25.802272], [114.898796, 25.802237], [114.899006, 25.801869], [114.899342, 25.801899], [114.898789, 25.801348], [114.898888, 25.800957], [114.898533, 25.800945], [114.898249, 25.800749], [114.897986, 25.800962], [114.897407, 25.80053], [114.897571, 25.799818], [114.897321, 25.799641], [114.897426, 25.7989], [114.89686, 25.798473], [114.895115, 25.799933], [114.895365, 25.800194], [114.895502, 25.799923], [114.896649, 25.800228], [114.896807, 25.801255], [114.897017, 25.801445], [114.89732, 25.801374], [114.89736, 25.802239], [114.897742, 25.803051], [114.897886, 25.80362], [114.896931, 25.803781], [114.896958, 25.804172], [114.897307, 25.804486], [114.897643, 25.804486], [114.897643, 25.804622], [114.897873, 25.804681], [114.897801, 25.804984], [114.897544, 25.804835], [114.897445, 25.805031], [114.897551, 25.805102], [114.897426, 25.805381], [114.896039, 25.8053], [114.896222, 25.805468], [114.895961, 25.805745], [114.89625, 25.806231], [114.896148, 25.806298], [114.896129, 25.806876], [114.896753, 25.80696], [114.896893, 25.807329], [114.896406, 25.807356], [114.895421, 25.807036], [114.894611, 25.807161], [114.894288, 25.806832], [114.894248, 25.806792], [114.894076, 25.80647], [114.89374, 25.806755], [114.893167, 25.806132], [114.892496, 25.806375], [114.892581, 25.806713], [114.892753, 25.806677], [114.89295, 25.80714], [114.892746, 25.807223], [114.892489, 25.806879], [114.89241, 25.806974], [114.892818, 25.80765], [114.892568, 25.807679], [114.892226, 25.807258], [114.892167, 25.806826], [114.891943, 25.806838], [114.891901, 25.80657], [114.891673, 25.804941], [114.891304, 25.804787], [114.890837, 25.804745], [114.890586, 25.804591], [114.890079, 25.804182], [114.889882, 25.803904], [114.888657, 25.803412], [114.888624, 25.803062], [114.888809, 25.802742], [114.889276, 25.802256], [114.889651, 25.801325], [114.889724, 25.80075], [114.888796, 25.799114], [114.888174, 25.798007], [114.887136, 25.79842], [114.886287, 25.798557], [114.886514, 25.797004], [114.886541, 25.796746], [114.886648, 25.795248], [114.886623, 25.79471], [114.886702, 25.79417], [114.886686, 25.793839], [114.88659, 25.791399], [114.886584, 25.790993], [114.88623, 25.790876], [114.886241, 25.790258], [114.885244, 25.7889], [114.885049, 25.788225], [114.885268, 25.787613], [114.885154, 25.787208], [114.886142, 25.785993], [114.885918, 25.785572], [114.885681, 25.785282], [114.885727, 25.784808], [114.885424, 25.784333], [114.884897, 25.784247], [114.884371, 25.782385], [114.884251, 25.780767], [114.883856, 25.780087], [114.883392, 25.779533]]]]}, "properties": {"display_name": "黄金岭街道, 章贡区, 赣州市, 江西省, 中国", "type": "administrative", "osm_type": "relation", "osm_id": 5714877, "class": null, "keyword": "subdistrict"}}, {"type": "Feature", "geometry": {"type": "Polygon", "coordinates": [[[114.902032, 25.81445], [114.904813, 25.812887], [114.906237, 25.810497], [114.907319, 25.808258], [114.908053, 25.80697], [114.909943, 25.803669], [114.911124, 25.801583], [114.914274, 25.798451], [114.914317, 25.798493], [114.917046, 25.796909], [114.919013, 25.79704], [114.920031, 25.797077], [114.922924, 25.79829], [114.928015, 25.801291], [114.928133, 25.801387], [114.924936, 25.804815], [114.936264, 25.813358], [114.928368, 25.821444], [114.930403, 25.823071], [114.930472, 25.836325], [114.927837, 25.836314], [114.926631, 25.836244], [114.921293, 25.835186], [114.916561, 25.833983], [114.916557, 25.84501], [114.915838, 25.845206], [114.914316, 25.8461], [114.913456, 25.845061], [114.912621, 25.844478], [114.912151, 25.844259], [114.911442, 25.844055], [114.910399, 25.843823], [114.909523, 25.843591], [114.90836, 25.843371], [114.90664, 25.843371], [114.906503, 25.843385], [114.906485, 25.843221], [114.907011, 25.841905], [114.907231, 25.841333], [114.907404, 25.840891], [114.907509, 25.840633], [114.907588, 25.84048], [114.907681, 25.840312], [114.907816, 25.840118], [114.907945, 25.839966], [114.908802, 25.83908], [114.908962, 25.838898], [114.909017, 25.838828], [114.909055, 25.838752], [114.909085, 25.838676], [114.909102, 25.838605], [114.90912, 25.838522], [114.909136, 25.838384], [114.909268, 25.837801], [114.909243, 25.837606], [114.909001, 25.836542], [114.90874, 25.834305], [114.908564, 25.832574], [114.908669, 25.831953], [114.91128, 25.832625], [114.913829, 25.833247], [114.914251, 25.830926], [114.910018, 25.829821], [114.914925, 25.824318], [114.907687, 25.818833], [114.902032, 25.81445]]]}, "properties": {"display_name": "水南街道, 章贡区, 赣州市, 江西省, 341000, 中国", "type": "administrative", "osm_type": "relation", "osm_id": 5714922, "class": null, "keyword": "subdistrict"}}, {"type": "Feature", "geometry": {"type": "Polygon", "coordinates": [[[114.916557, 25.84501], [114.916561, 25.833983], [114.921293, 25.835186], [114.926631, 25.836244], [114.927837, 25.836314], [114.930472, 25.836325], [114.930403, 25.823071], [114.928368, 25.821444], [114.936264, 25.813358], [114.924936, 25.804815], [114.928133, 25.801387], [114.929899, 25.802824], [114.934308, 25.806245], [114.935315, 25.807225], [114.936142, 25.807829], [114.938051, 25.809676], [114.939537, 25.810751], [114.941402, 25.811798], [114.94879, 25.814127], [114.949443, 25.814591], [114.951998, 25.8172], [114.953043, 25.81809], [114.953136, 25.818403], [114.952862, 25.819204], [114.952769, 25.819786], [114.952322, 25.822551], [114.950923, 25.826704], [114.950487, 25.827823], [114.949797, 25.828562], [114.948127, 25.83102], [114.946533, 25.833107], [114.945867, 25.834092], [114.943193, 25.836314], [114.939127, 25.840903], [114.936337, 25.84306], [114.935527, 25.843492], [114.934787, 25.843987], [114.928356, 25.844082], [114.924443, 25.843678], [114.920875, 25.843833], [114.916557, 25.84501]]]}, "properties": {"display_name": "章江街道, 章贡区, 赣州市, 江西省, 中国", "type": "administrative", "osm_type": "relation", "osm_id": 13168470, "class": null, "keyword": "subdistrict"}}, {"type": "Feature", "geometry": {"type": "Polygon", "coordinates": [[[114.934785, 25.852195], [114.936309, 25.849638], [114.936354, 25.848775], [114.93644, 25.848665], [114.936485, 25.846906], [114.936357, 25.845123], [114.936337, 25.84306], [114.939127, 25.840903], [114.943193, 25.836314], [114.945867, 25.834092], [114.946533, 25.833107], [114.948127, 25.83102], [114.950146, 25.831862], [114.950258, 25.832266], [114.950258, 25.832948], [114.950782, 25.833335], [114.950857, 25.832897], [114.950679, 25.832594], [114.95066, 25.832199], [114.951417, 25.831862], [114.951268, 25.832603], [114.951492, 25.832788], [114.951838, 25.832931], [114.952436, 25.833646], [114.95252, 25.83389], [114.952427, 25.834521], [114.953128, 25.834824], [114.953352, 25.835379], [114.953408, 25.835648], [114.95353, 25.83585], [114.954044, 25.835901], [114.954521, 25.836456], [114.954894, 25.837937], [114.955539, 25.837179], [114.95639, 25.837011], [114.956549, 25.837112], [114.956811, 25.837634], [114.956418, 25.83829], [114.956913, 25.839863], [114.957119, 25.839846], [114.958399, 25.839367], [114.959109, 25.839383], [114.9594, 25.839752], [114.960266, 25.84009], [114.96209, 25.840928], [114.962334, 25.841309], [114.962268, 25.841892], [114.962605, 25.8426], [114.96209, 25.843319], [114.962163, 25.843504], [114.964899, 25.840714], [114.965446, 25.840239], [114.964885, 25.839616], [114.96384, 25.839143], [114.96324, 25.839143], [114.963356, 25.838885], [114.964011, 25.838854], [114.964653, 25.839211], [114.96509, 25.839266], [114.965322, 25.839647], [114.965773, 25.839548], [114.965827, 25.839708], [114.96568, 25.840079], [114.966119, 25.840028], [114.967075, 25.839585], [114.968013, 25.839502], [114.968608, 25.839811], [114.969732, 25.841298], [114.96915, 25.842761], [114.968754, 25.843368], [114.968568, 25.844998], [114.968899, 25.845295], [114.968886, 25.845771], [114.969388, 25.845629], [114.969837, 25.845069], [114.970564, 25.844843], [114.970366, 25.843975], [114.970974, 25.843487], [114.97141, 25.843487], [114.972243, 25.842726], [114.972679, 25.842666], [114.973076, 25.843273], [114.97256, 25.844808], [114.97256, 25.845069], [114.973314, 25.845307], [114.973461, 25.844953], [114.9739, 25.844945], [114.974844, 25.8455], [114.97519, 25.845382], [114.975461, 25.844575], [114.975695, 25.844575], [114.975872, 25.845197], [114.975732, 25.845685], [114.975386, 25.845946], [114.975461, 25.846063], [114.975919, 25.845887], [114.976153, 25.84592], [114.976639, 25.846652], [114.977069, 25.846736], [114.977901, 25.846434], [114.978134, 25.846476], [114.978377, 25.847014], [114.978574, 25.847073], [114.979807, 25.849193], [114.973745, 25.852308], [114.966287, 25.855016], [114.962716, 25.856244], [114.957268, 25.859292], [114.955791, 25.856493], [114.955586, 25.855422], [114.955061, 25.853764], [114.955234, 25.853302], [114.954416, 25.852851], [114.953891, 25.852759], [114.953028, 25.852745], [114.952557, 25.853066], [114.950309, 25.853018], [114.946841, 25.852864], [114.940044, 25.852616], [114.936283, 25.85252], [114.935019, 25.852442], [114.934785, 25.852195]]]}, "properties": {"display_name": "东外街道, 章贡区, 赣州市, 江西省, 中国", "type": "administrative", "osm_type": "relation", "osm_id": 5715017, "class": null, "keyword": "subdistrict"}}, {"type": "Feature", "geometry": {"type": "Polygon", "coordinates": [[[114.909977, 25.853683], [114.910442, 25.852021], [114.911455, 25.850261], [114.911739, 25.849508], [114.912469, 25.847843], [114.914316, 25.8461], [114.915838, 25.845206], [114.916557, 25.84501], [114.920875, 25.843833], [114.924443, 25.843678], [114.928356, 25.844082], [114.934787, 25.843987], [114.935527, 25.843492], [114.936337, 25.84306], [114.936357, 25.845123], [114.936485, 25.846906], [114.93644, 25.848665], [114.936354, 25.848775], [114.936309, 25.849638], [114.934785, 25.852195], [114.935019, 25.852442], [114.934976, 25.852498], [114.934812, 25.852971], [114.934596, 25.853759], [114.931924, 25.854536], [114.930439, 25.855335], [114.93034, 25.856247], [114.930331, 25.85658], [114.931447, 25.860483], [114.931849, 25.861591], [114.931812, 25.861876], [114.929943, 25.863677], [114.928858, 25.864439], [114.927679, 25.864679], [114.927514, 25.865238], [114.926772, 25.866375], [114.914824, 25.861465], [114.914203, 25.860921], [114.912492, 25.859465], [114.911576, 25.858249], [114.910849, 25.856927], [114.910442, 25.855815], [114.909977, 25.853683]]]}, "properties": {"display_name": "南外街道, 章贡区, 赣州市, 江西省, 341100, 中国", "type": "administrative", "osm_type": "relation", "osm_id": 5714999, "class": null, "keyword": "subdistrict"}}, {"type": "Feature", "geometry": {"type": "Polygon", "coordinates": [[[114.930331, 25.85658], [114.93034, 25.856247], [114.930439, 25.855335], [114.931924, 25.854536], [114.934596, 25.853759], [114.934812, 25.852971], [114.934976, 25.852498], [114.935019, 25.852442], [114.936283, 25.85252], [114.940044, 25.852616], [114.946841, 25.852864], [114.950309, 25.853018], [114.952557, 25.853066], [114.953028, 25.852745], [114.953891, 25.852759], [114.954416, 25.852851], [114.955234, 25.853302], [114.955061, 25.853764], [114.955586, 25.855422], [114.955791, 25.856493], [114.957268, 25.859292], [114.94829, 25.864656], [114.947344, 25.865671], [114.944747, 25.863688], [114.944222, 25.862403], [114.943495, 25.861624], [114.942774, 25.861174], [114.93955, 25.860203], [114.935174, 25.860051], [114.931447, 25.860483], [114.930331, 25.85658]]]}, "properties": {"display_name": "赣江街道, 章贡区, 赣州市, 江西省, 中国", "type": "administrative", "osm_type": "relation", "osm_id": 5714993, "class": null, "keyword": "subdistrict"}}, {"type": "Feature", "geometry": {"type": "Polygon", "coordinates": [[[114.926772, 25.866375], [114.927514, 25.865238], [114.927679, 25.864679], [114.928858, 25.864439], [114.929943, 25.863677], [114.931812, 25.861876], [114.931849, 25.861591], [114.931447, 25.860483], [114.935174, 25.860051], [114.93955, 25.860203], [114.942774, 25.861174], [114.943495, 25.861624], [114.944222, 25.862403], [114.944747, 25.863688], [114.947344, 25.865671], [114.945626, 25.867319], [114.944608, 25.868937], [114.942607, 25.871272], [114.938691, 25.877409], [114.93747, 25.87821], [114.936961, 25.878214], [114.935418, 25.87795], [114.934671, 25.877576], [114.933969, 25.876603], [114.933417, 25.874952], [114.93234, 25.872533], [114.931848, 25.871214], [114.93011, 25.868604], [114.928261, 25.867208], [114.926772, 25.866375]]]}, "properties": {"display_name": "解放街道, 章贡区, 赣州市, 江西省, 中国", "type": "administrative", "osm_type": "relation", "osm_id": 5714977, "class": null, "keyword": "subdistrict"}}, {"type": "Feature", "geometry": {"type": "Polygon", "coordinates": [[[114.916169, 25.782131], [114.916204, 25.781979], [114.917011, 25.7811], [114.917341, 25.780824], [114.917877, 25.780283], [114.919932, 25.781386], [114.919921, 25.781536], [114.920298, 25.781752], [114.920227, 25.781887], [114.920549, 25.782104], [114.920079, 25.782812], [114.920028, 25.782923], [114.919629, 25.78293], [114.919245, 25.782829], [114.919255, 25.783438], [114.919256, 25.783474], [114.919666, 25.783711], [114.920753, 25.783319], [114.921142, 25.783278], [114.921214, 25.783568], [114.922153, 25.783546], [114.922223, 25.783986], [114.921453, 25.784252], [114.921348, 25.784715], [114.920578, 25.785032], [114.919876, 25.785097], [114.919414, 25.78516], [114.918151, 25.785285], [114.917531, 25.784795], [114.916732, 25.784015], [114.91677, 25.783957], [114.916641, 25.783402], [114.916314, 25.782646], [114.916169, 25.782131]]]}, "properties": {"display_name": "赣州市机动车驾驶人考试中心, 和谐大道, 大桥, 黄金岭街道, 章贡区, 赣州蓉江新区, 赣州市, 江西省, 341000, 中国", "type": "driver_training", "osm_type": "way", "osm_id": 788091735, "class": null, "keyword": "市中心"}}, {"type": "Feature", "geometry": {"type": "Polygon", "coordinates": [[[116.022626, 25.896867], [116.023335, 25.896716], [116.025343, 25.896809], [116.026399, 25.896839], [116.027034, 25.896909], [116.027467, 25.896957], [116.02754, 25.899455], [116.027446, 25.899644], [116.023682, 25.899828], [116.023172, 25.899795], [116.022878, 25.899526], [116.022626, 25.896867]]]}, "properties": {"display_name": "瑞金市体育中心, 绵水路, 瑞金市, 赣州市, 江西省, 342500, 中国", "type": "sports_centre", "osm_type": "way", "osm_id": 1337304417, "class": null, "keyword": "市中心"}}, {"type": "Feature", "geometry": {"type": "Polygon", "coordinates": [[[116.043495, 25.89216], [116.043564, 25.89208], [116.043648, 25.892003], [116.045283, 25.891724], [116.045395, 25.891766], [116.045462, 25.891846], [116.046442, 25.896242], [116.04636, 25.896336], [116.046203, 25.896419], [116.04462, 25.896545], [116.044496, 25.89652], [116.044403, 25.896456], [116.044354, 25.896376], [116.044341, 25.896309], [116.043495, 25.89216]]]}, "properties": {"display_name": "瑞金市文化艺术中心, 官兴坝路, 瑞金市, 赣州市, 江西省, 342500, 中国", "type": "community_centre", "osm_type": "way", "osm_id": 1358007606, "class": null, "keyword": "市中心"}}, {"type": "Feature", "geometry": {"type": "Polygon", "coordinates": [[[114.752803, 25.789572], [114.755176, 25.790146], [114.756985, 25.790771], [114.756788, 25.792131], [114.753158, 25.792323], [114.752803, 25.789572]]]}, "properties": {"display_name": "中国南方新能源汽车工程研究中心（在建）, 唐凤大道, 昶洧汽车有限公司, 赣州新能源汽车科技城管理处, 赣州经济技术开发区, 唐江镇, 南康区, 赣州市, 江西省, 341411, 中国", "type": "university", "osm_type": "way", "osm_id": 637743986, "class": null, "keyword": "中心城区"}}, {"type": "Feature", "geometry": {"type": "Polygon", "coordinates": [[[114.900676, 25.786063], [114.902213, 25.783831], [114.904582, 25.784631], [114.904627, 25.784848], [114.902259, 25.787333], [114.902085, 25.787283], [114.900738, 25.786271], [114.900676, 25.786063]]]}, "properties": {"display_name": "新旅中书文旅城, 上村垄, 黄金岭街道, 章贡区, 赣州蓉江新区, 赣州市, 江西省, 中国", "type": "residential", "osm_type": "way", "osm_id": 991426674, "class": null, "keyword": "中心城区"}}, {"type": "Feature", "geometry": {"type": "Polygon", "coordinates": [[[114.965523, 25.934201], [114.965598, 25.933444], [114.965576, 25.932609], [114.965566, 25.932387], [114.965641, 25.932257], [114.96578, 25.932117], [114.966081, 25.931963], [114.967406, 25.931591], [114.967674, 25.932667], [114.967883, 25.934061], [114.967363, 25.934283], [114.966832, 25.934418], [114.96637, 25.934462], [114.965689, 25.934423], [114.965523, 25.934201]]]}, "properties": {"display_name": "江西师范大学附属中学赣江创新研究院分校, X824, 储潭镇, 赣县区, 赣州市, 江西省, 中国", "type": "school", "osm_type": "way", "osm_id": 1265470427, "class": null, "keyword": "市中心"}}, {"type": "Feature", "geometry": {"type": "Polygon", "coordinates": [[[114.881838, 25.810204], [114.882327, 25.807821], [114.88451, 25.80826], [114.884722, 25.808571], [114.884579, 25.80992], [114.883095, 25.810071], [114.882095, 25.810413], [114.881838, 25.810204]]]}, "properties": {"display_name": "赣州市中医院新院区, 武陵大道, 朱屋, 蟠龙镇, 当塘村, 章贡区, 赣州蓉江新区, 赣州市, 江西省, 341000, 中国", "type": "hospital", "osm_type": "way", "osm_id": 1293341300, "class": null, "keyword": "市中心"}}, {"type": "Feature", "geometry": {"type": "Polygon", "coordinates": [[[114.994159, 25.873753], [114.994272, 25.872491], [114.996069, 25.872609], [114.996251, 25.872865], [114.996772, 25.872894], [114.996927, 25.873164], [114.997072, 25.873724], [114.996766, 25.874786], [114.994159, 25.873753]]]}, "properties": {"display_name": "赣州桃沅驾驶员考试中心, 贡江大道, 赣县区, 梅林镇, 赣县区, 赣州市, 江西省, 中国", "type": "driver_training", "osm_type": "way", "osm_id": 746059334, "class": null, "keyword": "市中心"}}, {"type": "Feature", "geometry": {"type": "Polygon", "coordinates": [[[114.879141, 24.921795], [114.879312, 24.921406], [114.879613, 24.920929], [114.879811, 24.920579], [114.87987, 24.920418], [114.880069, 24.919718], [114.881614, 24.919893], [114.881469, 24.920613], [114.881603, 24.921727], [114.881582, 24.921921], [114.880761, 24.922072], [114.879141, 24.921795]]]}, "properties": {"display_name": "里仁镇石油中心, 里仁镇, 龙南市, 赣州市, 江西省, 中国", "type": "industrial", "osm_type": "way", "osm_id": 897998271, "class": null, "keyword": "市中心"}}, {"type": "Feature", "geometry": {"type": "Polygon", "coordinates": [[[114.864497, 25.753133], [114.864609, 25.752944], [114.864583, 25.752645], [114.864904, 25.752349], [114.864984, 25.752326], [114.865049, 25.752157], [114.865201, 25.752055], [114.865635, 25.75222], [114.86567, 25.75234], [114.865819, 25.752301], [114.866083, 25.752419], [114.866163, 25.752388], [114.866229, 25.752416], [114.866262, 25.752477], [114.86629, 25.752676], [114.866601, 25.75281], [114.866471, 25.752902], [114.866448, 25.752974], [114.866364, 25.753202], [114.866429, 25.753274], [114.866401, 25.75333], [114.866249, 25.753257], [114.866131, 25.753354], [114.866122, 25.753491], [114.865872, 25.753494], [114.865485, 25.753442], [114.8654, 25.753364], [114.865077, 25.753297], [114.864791, 25.753227], [114.864607, 25.753193], [114.864497, 25.753133]]]}, "properties": {"display_name": "潭东镇中心小学, G105, 毅德融城, 麻龙子, 高坑村, 章贡区, 赣州蓉江新区, 赣州市, 江西省, 中国", "type": "school", "osm_type": "way", "osm_id": 483628098, "class": null, "keyword": "中心商務區"}}, {"type": "Feature", "geometry": {"type": "Polygon", "coordinates": [[[114.888526, 25.84197], [114.888567, 25.84135], [114.889691, 25.841349], [114.891316, 25.841335], [114.891299, 25.842052], [114.889081, 25.841991], [114.888526, 25.84197]]]}, "properties": {"display_name": "赣州市保健汽车中心, 赣州经济技术开发区, 章贡区, 赣州市, 江西省, 中国", "type": "commercial", "osm_type": "way", "osm_id": 975170079, "class": null, "keyword": "市中心"}}, {"type": "Feature", "geometry": {"type": "Polygon", "coordinates": [[[116.024477, 25.897909], [116.024486, 25.897814], [116.024506, 25.897721], [116.024535, 25.897629], [116.024574, 25.897541], [116.024623, 25.897456], [116.024681, 25.897377], [116.024747, 25.897302], [116.024822, 25.897234], [116.024903, 25.897174], [116.02499, 25.89712], [116.025083, 25.897075], [116.025181, 25.897038], [116.025282, 25.89701], [116.025386, 25.896991], [116.025491, 25.896981], [116.025597, 25.896981], [116.025702, 25.89699], [116.025806, 25.897009], [116.025907, 25.897036], [116.026005, 25.897073], [116.026099, 25.897118], [116.026187, 25.897172], [116.026269, 25.897233], [116.026344, 25.897301], [116.026411, 25.897375], [116.026469, 25.897455], [116.026518, 25.89754], [116.026558, 25.897629], [116.026587, 25.897721], [116.026607, 25.897815], [116.026615, 25.897911], [116.026614, 25.898006], [116.026601, 25.898101], [116.026578, 25.898195], [116.026545, 25.898286], [116.026502, 25.898374], [116.02645, 25.898457], [116.026389, 25.898535], [116.026321, 25.898605], [116.026247, 25.89867], [116.026165, 25.898727], [116.026078, 25.898777], [116.025987, 25.898819], [116.025891, 25.898853], [116.025791, 25.898879], [116.02569, 25.898896], [116.025587, 25.898904], [116.025484, 25.898903], [116.025381, 25.898893], [116.02528, 25.898874], [116.025182, 25.898847], [116.025087, 25.898811], [116.024996, 25.898767], [116.02491, 25.898715], [116.02483, 25.898657], [116.024757, 25.898591], [116.024691, 25.89852], [116.024633, 25.898443], [116.024584, 25.898361], [116.024543, 25.898276], [116.024512, 25.898187], [116.024491, 25.898097], [116.024479, 25.898004], [116.024477, 25.897909]], [[116.025018, 25.897942], [116.025022, 25.898015], [116.025033, 25.898088], [116.025051, 25.898159], [116.025077, 25.898229], [116.025102, 25.89829], [116.025132, 25.898349], [116.025167, 25.898406], [116.025206, 25.89846], [116.025249, 25.898503], [116.025296, 25.898559], [116.025329, 25.898629], [116.02538, 25.898746], [116.025466, 25.898748], [116.025557, 25.89875], [116.025639, 25.898744], [116.025745, 25.898716], [116.025827, 25.89869], [116.025875, 25.898651], [116.025948, 25.898598], [116.026015, 25.898548], [116.026074, 25.898494], [116.026128, 25.898433], [116.026174, 25.898369], [116.026213, 25.8983], [116.026244, 25.898229], [116.026267, 25.898155], [116.026281, 25.898079], [116.026287, 25.898002], [116.02628, 25.897923], [116.026265, 25.897845], [116.026241, 25.897768], [116.026209, 25.897694], [116.026171, 25.897627], [116.026126, 25.897564], [116.026075, 25.897505], [116.026017, 25.897451], [116.025929, 25.89732], [116.025864, 25.8972], [116.025839, 25.897178], [116.025758, 25.897155], [116.025622, 25.897133], [116.02539, 25.89715], [116.02541, 25.897215], [116.025403, 25.897267], [116.02538, 25.897307], [116.025318, 25.89735], [116.025258, 25.897402], [116.025204, 25.897459], [116.025156, 25.89752], [116.025114, 25.897585], [116.02508, 25.897654], [116.025053, 25.897724], [116.025034, 25.897796], [116.025022, 25.897868], [116.025018, 25.897942]]]}, "properties": {"display_name": "瑞金市体育中心体育场, 八一路, 瑞金市, 赣州市, 江西省, 342500, 中国", "type": "stadium", "osm_type": "relation", "osm_id": 13054096, "class": null, "keyword": "市中心"}}, {"type": "Feature", "geometry": {"type": "Polygon", "coordinates": [[[114.872177, 25.760954], [114.872639, 25.76029], [114.874143, 25.76114], [114.873715, 25.761785], [114.872177, 25.760954]]]}, "properties": {"display_name": "赣州毅德国际会展中心, G105, 毅德融城, 麻龙子, 高坑村, 章贡区, 赣州蓉江新区, 赣州市, 江西省, 中国", "type": "yes", "osm_type": "way", "osm_id": 483377546, "class": null, "keyword": "中心商務區"}}, {"type": "Feature", "geometry": {"type": "Polygon", "coordinates": [[[114.529909, 25.881955], [114.529939, 25.880988], [114.529941, 25.880901], [114.530529, 25.880609], [114.530612, 25.880722], [114.530977, 25.880623], [114.531097, 25.880961], [114.530966, 25.881046], [114.531124, 25.881304], [114.531138, 25.881521], [114.530915, 25.88164], [114.530285, 25.881977], [114.530118, 25.881994], [114.529909, 25.881955]]]}, "properties": {"display_name": "油石中心小学, 港口-东山, 油石乡, 上犹县, 赣州市, 江西省, 中国", "type": "school", "osm_type": "way", "osm_id": 916170247, "class": null, "keyword": "市中心"}}, {"type": "Feature", "geometry": {"type": "Polygon", "coordinates": [[[114.919648, 25.835396], [114.92079, 25.835681], [114.920785, 25.836712], [114.919666, 25.836504], [114.919648, 25.835396]]]}, "properties": {"display_name": "章江新区市民中心, 建设路, 水南, 章江街道, 章贡区, 赣州市, 江西省, 341000, 中国", "type": "sports_centre", "osm_type": "way", "osm_id": 974304460, "class": null, "keyword": "市中心"}}, {"type": "Feature", "geometry": {"type": "Polygon", "coordinates": [[[114.554984, 26.124648], [114.555654, 26.124519], [114.555813, 26.124651], [114.55591, 26.124622], [114.555937, 26.124547], [114.5562, 26.124517], [114.556294, 26.124523], [114.556608, 26.124815], [114.556515, 26.125062], [114.556519, 26.125149], [114.556372, 26.125412], [114.556176, 26.125173], [114.555971, 26.125263], [114.55586, 26.125324], [114.555723, 26.125379], [114.555036, 26.125429], [114.554984, 26.124648]]]}, "properties": {"display_name": "坪市中心小学, 遂川-龙布, 大路坪村, 坪市乡, 南康区, 赣州市, 江西省, 中国", "type": "school", "osm_type": "way", "osm_id": 803215799, "class": null, "keyword": "市中心"}}, {"type": "Feature", "geometry": {"type": "Polygon", "coordinates": [[[114.804992, 25.718739], [114.805066, 25.71864], [114.805181, 25.718577], [114.805536, 25.718408], [114.805838, 25.718259], [114.806217, 25.718858], [114.806028, 25.719014], [114.805734, 25.719149], [114.805931, 25.719515], [114.805962, 25.719667], [114.805806, 25.719693], [114.805763, 25.719591], [114.805587, 25.719626], [114.805301, 25.71964], [114.805187, 25.71967], [114.804997, 25.71935], [114.804992, 25.718739]]]}, "properties": {"display_name": "龙岭中心小学, G105, 金龙花园, 油田上, 向阳村, 龙岭镇, 南康区, 赣州市, 江西省, 350011, 中国", "type": "school", "osm_type": "way", "osm_id": 463799146, "class": null, "keyword": "中心商務區"}}, {"type": "Feature", "geometry": {"type": "Polygon", "coordinates": [[[114.703024, 25.586304], [114.703105, 25.586072], [114.703142, 25.5857], [114.703094, 25.585409], [114.703255, 25.585252], [114.703587, 25.585034], [114.703848, 25.584771], [114.704234, 25.584964], [114.704062, 25.585204], [114.704178, 25.585281], [114.703845, 25.585934], [114.703507, 25.586377], [114.703335, 25.586295], [114.703263, 25.586413], [114.703024, 25.586304]]]}, "properties": {"display_name": "南康区浮石中心小学, G323, 浮石乡, 南康区, 赣州市, 江西省, 中国", "type": "school", "osm_type": "way", "osm_id": 712584262, "class": null, "keyword": "市中心"}}, {"type": "Feature", "geometry": {"type": "Polygon", "coordinates": [[[114.725937, 25.753122], [114.726055, 25.752629], [114.727311, 25.752904], [114.727171, 25.75344], [114.725937, 25.753122]]]}, "properties": {"display_name": "太窝中心小学, 康唐公路, 太窝家具集聚区, 太窝乡, 星光村, 唐江镇, 南康区, 赣州市, 江西省, 341409, 中国", "type": "school", "osm_type": "way", "osm_id": 638162484, "class": null, "keyword": "中心商務區"}}, {"type": "Feature", "geometry": {"type": "Polygon", "coordinates": [[[114.737166, 25.702572], [114.737939, 25.702494], [114.738016, 25.703294], [114.737649, 25.70334], [114.737638, 25.703224], [114.737241, 25.70326], [114.737166, 25.702572]]]}, "properties": {"display_name": "镜坝镇社会事业服务中心, 康唐公路, 高墩上, 联民村, 镜坝镇, 南康区, 赣州市, 江西省, 中国", "type": "community_centre", "osm_type": "way", "osm_id": 712593007, "class": null, "keyword": "市中心"}}, {"type": "Feature", "geometry": {"type": "Polygon", "coordinates": [[[114.891912, 25.839139], [114.891913, 25.838782], [114.891968, 25.838782], [114.891968, 25.838747], [114.89224, 25.838747], [114.89224, 25.838777], [114.892784, 25.838778], [114.892784, 25.838737], [114.892985, 25.838737], [114.892985, 25.838774], [114.893017, 25.838774], [114.893016, 25.83913], [114.892971, 25.83913], [114.892971, 25.839163], [114.892769, 25.839163], [114.892769, 25.839134], [114.892224, 25.839134], [114.892224, 25.839184], [114.891951, 25.839183], [114.891951, 25.839139], [114.891912, 25.839139]]]}, "properties": {"display_name": "中国烟草赣州市卷烟配送中心, 华坚南大道, 赣州经济技术开发区, 章贡区, 赣州市, 江西省, 341000, 中国", "type": "warehouse", "osm_type": "way", "osm_id": 974943351, "class": null, "keyword": "市中心"}}, {"type": "Feature", "geometry": {"type": "Polygon", "coordinates": [[[114.7627, 25.758877], [114.762781, 25.758372], [114.763529, 25.758445], [114.763497, 25.75884], [114.763594, 25.758892], [114.76357, 25.758987], [114.7627, 25.758877]]]}, "properties": {"display_name": "南康区太窝乡敬老院, 太窝乡, 赣州经济技术开发区, 洋田村, 南康区, 赣州市, 江西省, 中国", "type": "residential", "osm_type": "way", "osm_id": 637725593, "class": null, "keyword": "老城区"}}, {"type": "Feature", "geometry": {"type": "Polygon", "coordinates": [[[115.894674, 25.848427], [115.894853, 25.847913], [115.895488, 25.848092], [115.895309, 25.848606], [115.894674, 25.848427]]]}, "properties": {"display_name": "云石山中心幼儿园, G323, 梅岗村, 瑞金市, 赣州市, 江西省, 中国", "type": "kindergarten", "osm_type": "way", "osm_id": 1371209203, "class": null, "keyword": "市中心"}}, {"type": "Feature", "geometry": {"type": "Polygon", "coordinates": [[[114.889584, 25.779211], [114.890286, 25.778432], [114.890721, 25.777949], [114.890813, 25.778016], [114.889675, 25.779278], [114.889584, 25.779211]]]}, "properties": {"display_name": "新时代文明实践中心, 飞扬大道辅路, 西麻, 黄金岭街道, 章贡区, 赣州蓉江新区, 赣州市, 江西省, 中国", "type": "university", "osm_type": "way", "osm_id": 871545073, "class": null, "keyword": "市中心"}}, {"type": "Feature", "geometry": {"type": "Polygon", "coordinates": [[[114.89172, 25.833484], [114.891723, 25.833061], [114.892274, 25.833064], [114.892272, 25.833234], [114.891918, 25.833232], [114.891916, 25.833486], [114.89172, 25.833484]]]}, "properties": {"display_name": "赣州市经济开发区综合治理中心, 华坚南大道, 赣州经济技术开发区, 章贡区, 赣州市, 江西省, 341000, 中国", "type": "yes", "osm_type": "way", "osm_id": 722927009, "class": null, "keyword": "市中心"}}, {"type": "Feature", "geometry": {"type": "Polygon", "coordinates": [[[114.934292, 25.840064], [114.934434, 25.839948], [114.934612, 25.840123], [114.93468, 25.840067], [114.934709, 25.840096], [114.934744, 25.840068], [114.934818, 25.840141], [114.934752, 25.840196], [114.934763, 25.840207], [114.934687, 25.840269], [114.934513, 25.840411], [114.934431, 25.840331], [114.934502, 25.840273], [114.934292, 25.840064]]]}, "properties": {"display_name": "赣州市青少年活动中心, 翠微路, 水南, 章江街道, 章贡区, 赣州市, 江西省, 341000, 中国", "type": "yes", "osm_type": "way", "osm_id": 1340496093, "class": null, "keyword": "市中心"}}, {"type": "Feature", "geometry": {"type": "Polygon", "coordinates": [[[114.838374, 25.841639], [114.838451, 25.84149], [114.838675, 25.841584], [114.838771, 25.841624], [114.838962, 25.841704], [114.83885, 25.841921], [114.838728, 25.84187], [114.838763, 25.841802], [114.838374, 25.841639]]]}, "properties": {"display_name": "赣州市食品药品检测中心, 金岭西大道, 栖凤山, 蟠龙镇, 赣州经济技术开发区, 章贡区, 赣州市, 江西省, 中国", "type": "office", "osm_type": "way", "osm_id": 977134694, "class": null, "keyword": "市中心"}}, {"type": "Feature", "geometry": {"type": "Polygon", "coordinates": [[[114.888828, 25.836559], [114.88887, 25.836558], [114.889144, 25.836549], [114.889264, 25.836546], [114.88927, 25.836698], [114.888834, 25.836711], [114.888828, 25.836559]]]}, "properties": {"display_name": "赣州市建设工程质量检测中心, 新雅路, 赣州经济技术开发区, 章贡区, 赣州市, 江西省, 341000, 中国", "type": "office", "osm_type": "way", "osm_id": 974943382, "class": null, "keyword": "市中心"}}, {"type": "Feature", "geometry": {"type": "Polygon", "coordinates": [[[116.066379, 25.909203], [116.06662, 25.909054], [116.066683, 25.909136], [116.066637, 25.909164], [116.066718, 25.909271], [116.066657, 25.909308], [116.066646, 25.909293], [116.066559, 25.909347], [116.06657, 25.909362], [116.066522, 25.909391], [116.066379, 25.909203]], [[116.066501, 25.909246], [116.066525, 25.909278], [116.066539, 25.90927], [116.066514, 25.909238], [116.066501, 25.909246]], [[116.066567, 25.909205], [116.066592, 25.909237], [116.066604, 25.909229], [116.06658, 25.909197], [116.066567, 25.909205]]]}, "properties": {"display_name": "全总苏区中央执行局旧址, 升旗坪, 叶坪镇, 瑞金市, 赣州市, 江西省, 342500, 中国", "type": "museum", "osm_type": "relation", "osm_id": 18664685, "class": null, "keyword": "中央区"}}, {"type": "Feature", "geometry": {"type": "Polygon", "coordinates": [[[116.047135, 25.927011], [116.04722, 25.926992], [116.047226, 25.927015], [116.047257, 25.927009], [116.047325, 25.926994], [116.047371, 25.92717], [116.047187, 25.927209], [116.047135, 25.927011]]]}, "properties": {"display_name": "中央苏区中医药文化馆, 康宁桥, 朱坊村, 瑞金市, 赣州市, 江西省, 342500, 中国", "type": "museum", "osm_type": "way", "osm_id": 1364227505, "class": null, "keyword": "中央区"}}, {"type": "Feature", "geometry": {"type": "Polygon", "coordinates": [[[116.004088, 25.883588], [116.00418, 25.883574], [116.004199, 25.883673], [116.0043, 25.883658], [116.004313, 25.883732], [116.00412, 25.883761], [116.004088, 25.883588]]]}, "properties": {"display_name": "中央苏区消费合作社史展览馆, 红井路, 沙洲坝镇, 瑞金市, 赣州市, 江西省, 342500, 中国", "type": "museum", "osm_type": "way", "osm_id": 1311814934, "class": null, "keyword": "中央区"}}, {"type": "Feature", "geometry": {"type": "Polygon", "coordinates": [[[116.003743, 25.885634], [116.00377, 25.885534], [116.003834, 25.885548], [116.003827, 25.885574], [116.003874, 25.885584], [116.003881, 25.885558], [116.003946, 25.885573], [116.003931, 25.885626], [116.003919, 25.885672], [116.003743, 25.885634]]]}, "properties": {"display_name": "中央苏区调查统计史陈列馆, 群众路线广场, 瑞金市, 赣州市, 江西省, 342500, 中国", "type": "museum", "osm_type": "way", "osm_id": 1312400252, "class": null, "keyword": "中央区"}}, {"type": "Feature", "geometry": {"type": "Polygon", "coordinates": [[[114.938266, 25.83201], [114.93851, 25.832007], [114.938511, 25.832074], [114.938267, 25.832076], [114.938266, 25.83201]]]}, "properties": {"display_name": "赣州市人民检察院举报中心, 兴国路, 水南, 章江街道, 章贡区, 赣州市, 江西省, 341000, 中国", "type": "public", "osm_type": "way", "osm_id": 962143350, "class": null, "keyword": "市中心"}}, {"type": "Feature", "geometry": {"type": "Polygon", "coordinates": [[[116.067437, 25.909484], [116.067572, 25.909367], [116.067633, 25.909423], [116.067499, 25.909541], [116.067437, 25.909484]]]}, "properties": {"display_name": "苏区中央局机要科旧址, 升旗坪, 叶坪镇, 瑞金市, 赣州市, 江西省, 342500, 中国", "type": "museum", "osm_type": "way", "osm_id": 1357794191, "class": null, "keyword": "中央区"}}, {"type": "Feature", "geometry": {"type": "Polygon", "coordinates": [[[116.067314, 25.909381], [116.067361, 25.909341], [116.067473, 25.909447], [116.067427, 25.909487], [116.067314, 25.909381]]]}, "properties": {"display_name": "中央苏区新闻出版史展览, 升旗坪, 叶坪镇, 瑞金市, 赣州市, 江西省, 342500, 中国", "type": "museum", "osm_type": "way", "osm_id": 1357792008, "class": null, "keyword": "市中心"}}]}