{"type": "FeatureCollection", "features": [{"type": "Feature", "geometry": {"type": "Polygon", "coordinates": [[[18.664486, 54.345372], [18.664649, 54.34524], [18.66475, 54.345162], [18.664885, 54.345059], [18.664972, 54.344983], [18.665007, 54.34499], [18.665226, 54.345031], [18.665775, 54.345121], [18.665895, 54.345143], [18.666433, 54.34525], [18.666653, 54.34529], [18.666836, 54.345322], [18.667294, 54.345527], [18.667255, 54.345534], [18.667055, 54.345846], [18.667049, 54.345842], [18.667, 54.345829], [18.666212, 54.345687], [18.66568, 54.345591], [18.665145, 54.345492], [18.664486, 54.345372]]]}, "properties": {"display_name": "Noli Gdansk Old Town, Śródmieście, Gdańsk, województwo pomorskie, Polska", "type": "residential", "osm_type": "way", "osm_id": 1202439040, "class": null, "keyword": "old town"}}, {"type": "Feature", "geometry": {"type": "Polygon", "coordinates": [[[18.6512, 54.349346], [18.651237, 54.349339], [18.651311, 54.349325], [18.651302, 54.349308], [18.651272, 54.349253], [18.651224, 54.349147], [18.651436, 54.349101], [18.65151, 54.349205], [18.651552, 54.349275], [18.651608, 54.349263], [18.651799, 54.349574], [18.651771, 54.34958], [18.651808, 54.349618], [18.651709, 54.349656], [18.651618, 54.349691], [18.651553, 54.349716], [18.651484, 54.349743], [18.65143, 54.349649], [18.651387, 54.349658], [18.651325, 54.349555], [18.6512, 54.349346]]]}, "properties": {"display_name": "Hampton by Hilton Gdansk Old Town, 4, Lektykarska, Główne Miasto, Śródmieście, Gdańsk, województwo pomorskie, 80-831, Polska", "type": "hotel", "osm_type": "way", "osm_id": 96827353, "class": null, "keyword": "old town"}}, {"type": "Feature", "geometry": {"type": "Polygon", "coordinates": [[[18.658513, 54.349186], [18.659223, 54.349105], [18.6592, 54.349353], [18.659162, 54.349437], [18.659149, 54.349466], [18.658912, 54.349494], [18.658856, 54.349501], [18.658737, 54.349517], [18.658513, 54.349186]], [[18.658758, 54.349305], [18.658806, 54.349377], [18.659046, 54.349352], [18.659052, 54.349271], [18.658758, 54.349305]]]}, "properties": {"display_name": "Holiday Inn Gdańsk - City Centre, Pożarnicza, Wyspa Spichrzów, Śródmieście, Gdańsk, województwo pomorskie, 80-750, Polska", "type": "hotel", "osm_type": "relation", "osm_id": 10705249, "class": null, "keyword": "city centre"}}, {"type": "Feature", "geometry": {"type": "Polygon", "coordinates": [[[18.658743, 54.3496], [18.6589, 54.349558], [18.658904, 54.349563], [18.658955, 54.349549], [18.659043, 54.349525], [18.659117, 54.349536], [18.659045, 54.349708], [18.658995, 54.3497], [18.659025, 54.349745], [18.659013, 54.349747], [18.65901, 54.349744], [18.658878, 54.349779], [18.65888, 54.349783], [18.65887, 54.349786], [18.658743, 54.3496]]]}, "properties": {"display_name": "Holiday Inn Gdańsk - City Centre, 1, Chmielna, Granaria, Śródmieście, Gdańsk, województwo pomorskie, 80-748, Polska", "type": "hotel", "osm_type": "way", "osm_id": 771941872, "class": null, "keyword": "city centre"}}]}