{"type": "FeatureCollection", "features": [{"type": "Feature", "geometry": {"type": "Polygon", "coordinates": [[[110.271375, 25.297934], [110.27148, 25.297421], [110.272119, 25.297326], [110.272095, 25.29631], [110.2721, 25.296247], [110.271752, 25.295592], [110.271804, 25.295094], [110.272042, 25.294586], [110.272372, 25.294439], [110.273253, 25.294439], [110.273937, 25.294727], [110.275546, 25.295611], [110.276382, 25.295226], [110.279398, 25.294692], [110.280866, 25.293833], [110.28153, 25.29367], [110.281767, 25.293455], [110.28109, 25.292358], [110.281194, 25.291913], [110.281358, 25.291498], [110.282743, 25.291832], [110.283809, 25.291884], [110.285317, 25.291735], [110.286592, 25.291065], [110.287653, 25.289845], [110.287628, 25.288919], [110.287416, 25.288452], [110.286782, 25.288272], [110.28657, 25.288139], [110.286509, 25.28785], [110.286872, 25.287473], [110.286919, 25.28698], [110.287706, 25.286538], [110.288782, 25.287374], [110.290313, 25.288054], [110.290375, 25.288081], [110.290653, 25.287727], [110.290613, 25.286675], [110.290882, 25.286606], [110.290806, 25.286446], [110.291401, 25.286319], [110.291347, 25.286183], [110.291174, 25.286238], [110.291199, 25.286024], [110.29135, 25.285972], [110.291244, 25.285595], [110.291026, 25.285569], [110.290885, 25.285328], [110.290799, 25.284943], [110.290622, 25.28472], [110.29059, 25.284375], [110.290741, 25.284184], [110.291023, 25.284117], [110.291036, 25.284004], [110.291106, 25.283963], [110.291045, 25.283772], [110.291851, 25.28359], [110.291824, 25.283457], [110.292676, 25.283349], [110.29311, 25.28601], [110.293312, 25.287194], [110.297377, 25.286631], [110.299038, 25.28601], [110.299157, 25.285527], [110.299487, 25.285434], [110.299599, 25.285575], [110.300376, 25.285255], [110.301583, 25.288603], [110.301627, 25.290317], [110.301291, 25.291992], [110.299172, 25.294942], [110.29883, 25.296419], [110.297825, 25.296935], [110.297539, 25.297102], [110.29721, 25.297644], [110.297035, 25.298286], [110.297019, 25.298801], [110.297085, 25.299004], [110.297293, 25.300028], [110.29739, 25.300329], [110.297459, 25.300541], [110.298191, 25.301062], [110.298632, 25.301232], [110.299299, 25.30136], [110.300112, 25.301517], [110.300464, 25.301585], [110.301003, 25.301936], [110.300173, 25.302816], [110.300055, 25.302886], [110.299905, 25.302976], [110.299674, 25.303097], [110.298419, 25.30375], [110.297324, 25.304275], [110.296525, 25.30465], [110.296336, 25.304738], [110.295581, 25.305053], [110.295043, 25.305177], [110.293078, 25.305648], [110.292031, 25.305916], [110.291338, 25.306081], [110.291114, 25.30608], [110.290777, 25.306078], [110.289498, 25.305392], [110.288963, 25.305264], [110.288224, 25.305229], [110.288209, 25.305842], [110.288393, 25.306757], [110.289238, 25.307693], [110.289469, 25.308595], [110.289152, 25.309373], [110.288394, 25.310022], [110.288024, 25.310319], [110.287663, 25.310475], [110.287327, 25.310558], [110.286969, 25.310514], [110.286431, 25.310164], [110.286273, 25.310338], [110.286249, 25.310874], [110.285825, 25.310873], [110.28585, 25.311487], [110.286012, 25.311703], [110.286183, 25.31248], [110.286152, 25.312571], [110.285471, 25.312854], [110.285225, 25.312869], [110.285067, 25.312681], [110.284748, 25.312686], [110.284607, 25.312433], [110.28472, 25.312265], [110.284781, 25.312103], [110.284686, 25.31191], [110.284187, 25.311565], [110.283788, 25.311119], [110.283513, 25.311109], [110.283468, 25.311383], [110.284282, 25.312884], [110.283788, 25.313198], [110.282834, 25.313244], [110.282285, 25.313203], [110.282021, 25.313183], [110.282022, 25.312843], [110.28203, 25.31119], [110.28171, 25.311109], [110.28126, 25.311158], [110.281199, 25.311165], [110.280952, 25.310896], [110.280144, 25.310566], [110.280156, 25.310328], [110.280301, 25.310318], [110.280559, 25.3105], [110.281215, 25.310439], [110.281362, 25.309567], [110.281396, 25.309323], [110.280761, 25.309333], [110.280771, 25.308265], [110.28056, 25.30826], [110.279973, 25.308889], [110.279302, 25.308491], [110.279066, 25.308572], [110.278393, 25.308643], [110.278292, 25.308881], [110.278129, 25.309678], [110.27749, 25.309556], [110.276603, 25.309957], [110.276272, 25.309886], [110.275846, 25.309571], [110.275531, 25.309231], [110.275453, 25.308709], [110.274634, 25.307035], [110.273955, 25.306857], [110.273315, 25.306315], [110.272494, 25.304012], [110.272523, 25.30385], [110.273705, 25.304049], [110.274111, 25.304248], [110.274807, 25.304295], [110.275577, 25.304022], [110.277068, 25.303903], [110.27724, 25.303704], [110.276476, 25.30177], [110.275844, 25.30193], [110.275143, 25.302362], [110.274685, 25.302352], [110.274575, 25.302488], [110.274088, 25.302651], [110.273833, 25.302556], [110.273294, 25.30253], [110.27323, 25.302373], [110.272691, 25.302059], [110.272743, 25.301162], [110.274656, 25.301141], [110.274824, 25.300413], [110.275081, 25.299792], [110.275097, 25.299753], [110.27443, 25.298542], [110.274215, 25.298422], [110.272998, 25.298343], [110.272175, 25.298516], [110.272048, 25.298254], [110.271729, 25.298285], [110.271456, 25.298128], [110.271375, 25.297934]]]}, "properties": {"display_name": "叠彩街道, 叠彩区, 桂林市, 广西壮族自治区, 中国", "type": "administrative", "osm_type": "relation", "osm_id": 11570638, "class": null, "keyword": "subdistrict"}}, {"type": "Feature", "geometry": {"type": "Polygon", "coordinates": [[[110.253667, 25.260824], [110.253685, 25.260625], [110.253752, 25.259893], [110.253689, 25.258611], [110.253687, 25.25857], [110.254003, 25.256839], [110.254247, 25.256829], [110.254598, 25.25693], [110.256056, 25.257496], [110.256313, 25.2575], [110.257018, 25.256934], [110.257392, 25.257016], [110.257673, 25.257119], [110.257833, 25.257335], [110.257746, 25.257738], [110.257682, 25.257918], [110.257509, 25.258021], [110.257425, 25.258071], [110.257369, 25.25818], [110.257364, 25.25828], [110.257301, 25.258806], [110.257521, 25.259055], [110.257335, 25.259467], [110.257185, 25.259821], [110.257786, 25.259904], [110.257795, 25.260272], [110.257446, 25.260876], [110.257295, 25.26099], [110.256752, 25.26091], [110.256167, 25.261687], [110.256016, 25.261989], [110.256017, 25.262339], [110.256165, 25.26244], [110.256387, 25.262411], [110.256946, 25.262038], [110.257266, 25.261953], [110.257382, 25.261986], [110.257458, 25.262007], [110.25779, 25.262101], [110.257783, 25.262673], [110.258849, 25.262816], [110.259069, 25.262791], [110.259599, 25.262561], [110.259757, 25.261958], [110.25997, 25.262287], [110.260527, 25.262474], [110.260898, 25.262866], [110.260874, 25.260893], [110.2659, 25.260858], [110.265758, 25.258221], [110.265533, 25.258239], [110.265226, 25.258263], [110.264933, 25.258307], [110.26459, 25.25786], [110.264234, 25.257779], [110.264134, 25.258052], [110.264131, 25.259004], [110.262955, 25.25901], [110.263006, 25.25799], [110.26301, 25.257917], [110.263019, 25.257747], [110.263043, 25.257336], [110.263602, 25.257365], [110.264247, 25.257407], [110.264234, 25.257691], [110.264607, 25.257784], [110.264978, 25.258232], [110.265478, 25.258182], [110.26553, 25.258177], [110.26581, 25.258149], [110.265907, 25.257849], [110.266291, 25.257889], [110.266354, 25.257577], [110.266766, 25.257201], [110.268759, 25.257365], [110.268144, 25.256636], [110.268111, 25.25585], [110.268187, 25.255563], [110.268562, 25.254582], [110.269029, 25.254472], [110.269578, 25.254199], [110.270055, 25.254274], [110.270167, 25.25419], [110.270278, 25.253962], [110.270278, 25.253715], [110.270074, 25.25354], [110.269787, 25.253447], [110.270185, 25.252869], [110.275059, 25.253577], [110.275572, 25.253689], [110.275814, 25.253756], [110.275837, 25.253629], [110.275897, 25.253508], [110.276059, 25.253445], [110.276323, 25.253263], [110.276561, 25.253089], [110.27674, 25.25292], [110.276909, 25.252669], [110.276983, 25.252491], [110.277145, 25.251988], [110.277267, 25.251925], [110.277712, 25.251935], [110.278042, 25.252236], [110.278274, 25.252243], [110.278671, 25.252368], [110.278824, 25.252357], [110.279244, 25.252317], [110.279308, 25.252233], [110.279346, 25.252025], [110.279407, 25.251977], [110.279506, 25.251828], [110.279521, 25.251616], [110.279689, 25.251513], [110.279965, 25.251514], [110.280184, 25.251528], [110.280518, 25.25184], [110.280941, 25.252059], [110.281507, 25.251969], [110.281864, 25.252284], [110.282237, 25.252622], [110.282317, 25.252808], [110.282666, 25.25315], [110.283447, 25.253826], [110.283689, 25.253978], [110.283866, 25.254109], [110.283986, 25.254164], [110.284329, 25.254135], [110.284646, 25.254026], [110.284863, 25.253864], [110.285045, 25.253682], [110.28511, 25.253483], [110.285045, 25.253379], [110.284715, 25.25299], [110.284696, 25.252765], [110.284863, 25.252602], [110.285174, 25.252425], [110.28552, 25.252355], [110.285984, 25.252243], [110.286164, 25.252187], [110.28633, 25.252066], [110.286418, 25.25195], [110.286472, 25.251777], [110.286536, 25.251576], [110.286638, 25.251343], [110.286783, 25.251183], [110.287113, 25.25103], [110.287658, 25.25094], [110.288527, 25.251209], [110.287792, 25.252282], [110.287717, 25.253908], [110.286587, 25.256408], [110.286397, 25.259065], [110.286418, 25.2598], [110.286697, 25.260576], [110.287148, 25.261432], [110.287384, 25.262174], [110.287368, 25.263455], [110.286939, 25.264668], [110.286534, 25.265468], [110.286282, 25.266468], [110.285925, 25.26681], [110.285493, 25.267098], [110.28482, 25.267399], [110.283951, 25.267601], [110.283551, 25.267799], [110.283342, 25.268241], [110.283294, 25.268726], [110.283519, 25.269434], [110.284259, 25.27063], [110.283077, 25.27153], [110.281663, 25.272032], [110.280772, 25.274115], [110.279893, 25.275379], [110.278545, 25.278098], [110.2784, 25.278134], [110.277928, 25.278162], [110.277533, 25.278001], [110.276554, 25.276728], [110.276096, 25.276509], [110.273377, 25.275672], [110.27085, 25.274923], [110.270722, 25.274301], [110.272643, 25.273866], [110.273011, 25.273783], [110.274865, 25.273542], [110.274249, 25.273208], [110.27427, 25.272503], [110.274107, 25.272466], [110.274078, 25.272269], [110.273938, 25.272226], [110.273989, 25.271623], [110.273142, 25.271554], [110.27314, 25.270953], [110.272775, 25.270921], [110.272651, 25.270564], [110.272037, 25.270489], [110.271703, 25.270712], [110.270876, 25.270656], [110.270823, 25.270424], [110.271017, 25.270043], [110.270842, 25.269929], [110.270876, 25.269663], [110.270383, 25.269461], [110.269749, 25.269383], [110.269659, 25.268868], [110.268777, 25.268801], [110.268879, 25.268114], [110.269774, 25.26809], [110.269758, 25.267274], [110.268528, 25.26734], [110.265735, 25.267306], [110.265753, 25.266835], [110.265921, 25.265987], [110.267, 25.266001], [110.266965, 25.265228], [110.26664, 25.264792], [110.266644, 25.26444], [110.264237, 25.264447], [110.261568, 25.264446], [110.260186, 25.264414], [110.25765, 25.264099], [110.254908, 25.263728], [110.254912, 25.263581], [110.254959, 25.262137], [110.254979, 25.261516], [110.254611, 25.261484], [110.254607, 25.261127], [110.253929, 25.261092], [110.253926, 25.260837], [110.253667, 25.260824]]]}, "properties": {"display_name": "南门街道, 象山区, 桂林市, 广西壮族自治区, 541002, 中国", "type": "administrative", "osm_type": "relation", "osm_id": 9517829, "class": null, "keyword": "subdistrict"}}, {"type": "Feature", "geometry": {"type": "Polygon", "coordinates": [[[110.280605, 25.31545], [110.280611, 25.315363], [110.281234, 25.31513], [110.281217, 25.314968], [110.281873, 25.314826], [110.281929, 25.314897], [110.282434, 25.31476], [110.2834, 25.315059], [110.284218, 25.315021], [110.285927, 25.314103], [110.286342, 25.31323], [110.286152, 25.312571], [110.286183, 25.31248], [110.286012, 25.311703], [110.28585, 25.311487], [110.285825, 25.310873], [110.286249, 25.310874], [110.286273, 25.310338], [110.286431, 25.310164], [110.286969, 25.310514], [110.287327, 25.310558], [110.287663, 25.310475], [110.288024, 25.310319], [110.288394, 25.310022], [110.289152, 25.309373], [110.289469, 25.308595], [110.289238, 25.307693], [110.288393, 25.306757], [110.288209, 25.305842], [110.288224, 25.305229], [110.288963, 25.305264], [110.289498, 25.305392], [110.290777, 25.306078], [110.291114, 25.30608], [110.291338, 25.306081], [110.292031, 25.305916], [110.293078, 25.305648], [110.295043, 25.305177], [110.295581, 25.305053], [110.296336, 25.304738], [110.296525, 25.30465], [110.297324, 25.304275], [110.298419, 25.30375], [110.299674, 25.303097], [110.299905, 25.302976], [110.300066, 25.303234], [110.300246, 25.303231], [110.300392, 25.303395], [110.300399, 25.30383], [110.301024, 25.304031], [110.301143, 25.30369], [110.301336, 25.303613], [110.301138, 25.303255], [110.301444, 25.302862], [110.301676, 25.303006], [110.301822, 25.302841], [110.302431, 25.303247], [110.302008, 25.303775], [110.302781, 25.304146], [110.304122, 25.305014], [110.303909, 25.305279], [110.303812, 25.30545], [110.30372, 25.305731], [110.303632, 25.30606], [110.303619, 25.306267], [110.303617, 25.306303], [110.303624, 25.306556], [110.302885, 25.306593], [110.302418, 25.306554], [110.301954, 25.306521], [110.301912, 25.306518], [110.301971, 25.306254], [110.301106, 25.305961], [110.300974, 25.306116], [110.301607, 25.306542], [110.301856, 25.307078], [110.302607, 25.307224], [110.303141, 25.307196], [110.303806, 25.30756], [110.303856, 25.307839], [110.304307, 25.307926], [110.304445, 25.307877], [110.305254, 25.306861], [110.306068, 25.305825], [110.306444, 25.306173], [110.306541, 25.306162], [110.307572, 25.306812], [110.308052, 25.307036], [110.306341, 25.309118], [110.30618, 25.309103], [110.305668, 25.308687], [110.304531, 25.308017], [110.303808, 25.308325], [110.303575, 25.308512], [110.303144, 25.308317], [110.302924, 25.308443], [110.302791, 25.308265], [110.302014, 25.307741], [110.302112, 25.307586], [110.302082, 25.307466], [110.301584, 25.306885], [110.301338, 25.306407], [110.301201, 25.306307], [110.300864, 25.306169], [110.299296, 25.305508], [110.299062, 25.305812], [110.298681, 25.305575], [110.29847, 25.305534], [110.298346, 25.305596], [110.298512, 25.305735], [110.298515, 25.30582], [110.298776, 25.305983], [110.299313, 25.306178], [110.300057, 25.306632], [110.300267, 25.306469], [110.300112, 25.306284], [110.299637, 25.306047], [110.299738, 25.305899], [110.300286, 25.306195], [110.300374, 25.306345], [110.300353, 25.306446], [110.300506, 25.30654], [110.300182, 25.306857], [110.299688, 25.306857], [110.298947, 25.306469], [110.29874, 25.306652], [110.298962, 25.306858], [110.299415, 25.307278], [110.299406, 25.30748], [110.299279, 25.307551], [110.299295, 25.308425], [110.298754, 25.308455], [110.298728, 25.308664], [110.298664, 25.308923], [110.298948, 25.309105], [110.299084, 25.309311], [110.299132, 25.309587], [110.29914, 25.309634], [110.299607, 25.310083], [110.299392, 25.310107], [110.299625, 25.31097], [110.300224, 25.310842], [110.300864, 25.312775], [110.301068, 25.312758], [110.301238, 25.313031], [110.30088, 25.313183], [110.301222, 25.314017], [110.301443, 25.314116], [110.30156, 25.314315], [110.301589, 25.314558], [110.301345, 25.314663], [110.301346, 25.314808], [110.301526, 25.315353], [110.301625, 25.315355], [110.301642, 25.315435], [110.301217, 25.315587], [110.301221, 25.315774], [110.301367, 25.315827], [110.301367, 25.315945], [110.301492, 25.316121], [110.301682, 25.316111], [110.30177, 25.31648], [110.302305, 25.316617], [110.302498, 25.316783], [110.302499, 25.31687], [110.303056, 25.31687], [110.30347, 25.316747], [110.303688, 25.316776], [110.303692, 25.316876], [110.303836, 25.316963], [110.303868, 25.317066], [110.303923, 25.317245], [110.304088, 25.317458], [110.304407, 25.317662], [110.30453, 25.317828], [110.304742, 25.317865], [110.305518, 25.318569], [110.305829, 25.318808], [110.305945, 25.318788], [110.30611, 25.318957], [110.306062, 25.318998], [110.306417, 25.319338], [110.306386, 25.319374], [110.306692, 25.319713], [110.306688, 25.319821], [110.306878, 25.32006], [110.306485, 25.320295], [110.306122, 25.320412], [110.306603, 25.321278], [110.306912, 25.32166], [110.306466, 25.321935], [110.306437, 25.321964], [110.306177, 25.322226], [110.305787, 25.322424], [110.305741, 25.32235], [110.305495, 25.322335], [110.305295, 25.321947], [110.305003, 25.322082], [110.305025, 25.322218], [110.305121, 25.322814], [110.304565, 25.323261], [110.304118, 25.323621], [110.303369, 25.323732], [110.303347, 25.323834], [110.302087, 25.323833], [110.301454, 25.323088], [110.301401, 25.323109], [110.301021, 25.323254], [110.300455, 25.323882], [110.300314, 25.323742], [110.299912, 25.324094], [110.299679, 25.324053], [110.29952, 25.324137], [110.298519, 25.324181], [110.29749, 25.3246], [110.297495, 25.324647], [110.29788, 25.327425], [110.296911, 25.327443], [110.296125, 25.327833], [110.296664, 25.329414], [110.297973, 25.329229], [110.298051, 25.329218], [110.298161, 25.329203], [110.299116, 25.329069], [110.300356, 25.328895], [110.302474, 25.32911], [110.30246, 25.329228], [110.304145, 25.329379], [110.303953, 25.33099], [110.306416, 25.331067], [110.30637, 25.3315], [110.306176, 25.333332], [110.306154, 25.333539], [110.30899, 25.33362], [110.30916, 25.3337], [110.309099, 25.335062], [110.309052, 25.335668], [110.308983, 25.335839], [110.308764, 25.335912], [110.305755, 25.335826], [110.305699, 25.335886], [110.305481, 25.337226], [110.305305, 25.338615], [110.304224, 25.338327], [110.304276, 25.337755], [110.30424, 25.337725], [110.303488, 25.337068], [110.303408, 25.336993], [110.303391, 25.336975], [110.303349, 25.336931], [110.303296, 25.33684], [110.303266, 25.336747], [110.303257, 25.336666], [110.303263, 25.336552], [110.30328, 25.336389], [110.30319, 25.336384], [110.302031, 25.336299], [110.301639, 25.33627], [110.301735, 25.335533], [110.30031, 25.335391], [110.30006, 25.333549], [110.297536, 25.333822], [110.297585, 25.334189], [110.29634, 25.334349], [110.295109, 25.326589], [110.294918, 25.326592], [110.292342, 25.326636], [110.292259, 25.326637], [110.292349, 25.326478], [110.292446, 25.32619], [110.292501, 25.326064], [110.292611, 25.32581], [110.292654, 25.32563], [110.292624, 25.32516], [110.292537, 25.32465], [110.292405, 25.324367], [110.29214, 25.324147], [110.291719, 25.323949], [110.291155, 25.323727], [110.291024, 25.323638], [110.290931, 25.32358], [110.290764, 25.323367], [110.29067, 25.3231], [110.290494, 25.322257], [110.290638, 25.321221], [110.289944, 25.321118], [110.289832, 25.321212], [110.289626, 25.321212], [110.289197, 25.320817], [110.288626, 25.320781], [110.28853, 25.320724], [110.288244, 25.320551], [110.287784, 25.320275], [110.287496, 25.320263], [110.287103, 25.320385], [110.286188, 25.320405], [110.285734, 25.320557], [110.284774, 25.321328], [110.284516, 25.321424], [110.284303, 25.32144], [110.284179, 25.321338], [110.284122, 25.320228], [110.284111, 25.320027], [110.284101, 25.319827], [110.284226, 25.319815], [110.284583, 25.319781], [110.285279, 25.319213], [110.28478, 25.31911], [110.284292, 25.319152], [110.283231, 25.318645], [110.282575, 25.318538], [110.282322, 25.318549], [110.282143, 25.318802], [110.281951, 25.319701], [110.281731, 25.31991], [110.281579, 25.320059], [110.281492, 25.319994], [110.281037, 25.319426], [110.281054, 25.319193], [110.281368, 25.318858], [110.281503, 25.318173], [110.281952, 25.317859], [110.281453, 25.317321], [110.281301, 25.316637], [110.28097, 25.316535], [110.280605, 25.31545]]]}, "properties": {"display_name": "北门街道, 叠彩区, 桂林市, 广西壮族自治区, 中国", "type": "administrative", "osm_type": "relation", "osm_id": 11570639, "class": null, "keyword": "subdistrict"}}, {"type": "Feature", "geometry": {"type": "Polygon", "coordinates": [[[110.278545, 25.278098], [110.279893, 25.275379], [110.280772, 25.274115], [110.281663, 25.272032], [110.283077, 25.27153], [110.284259, 25.27063], [110.283519, 25.269434], [110.283294, 25.268726], [110.283342, 25.268241], [110.283551, 25.267799], [110.283951, 25.267601], [110.28482, 25.267399], [110.285493, 25.267098], [110.285925, 25.26681], [110.286282, 25.266468], [110.286534, 25.265468], [110.286939, 25.264668], [110.287368, 25.263455], [110.287384, 25.262174], [110.287148, 25.261432], [110.286697, 25.260576], [110.286418, 25.2598], [110.286397, 25.259065], [110.286587, 25.256408], [110.287717, 25.253908], [110.288917, 25.254877], [110.290933, 25.256268], [110.292822, 25.257809], [110.293679, 25.259706], [110.294197, 25.2612], [110.294113, 25.262051], [110.293589, 25.263639], [110.293215, 25.264787], [110.292742, 25.267677], [110.293475, 25.270798], [110.294449, 25.273813], [110.292933, 25.274523], [110.291907, 25.275029], [110.29087, 25.275385], [110.290839, 25.275396], [110.290674, 25.275541], [110.290556, 25.27595], [110.290278, 25.27635], [110.289754, 25.27663], [110.289246, 25.276993], [110.288984, 25.277221], [110.2885, 25.276767], [110.287981, 25.276363], [110.287698, 25.276364], [110.285329, 25.277641], [110.285028, 25.277769], [110.284875, 25.277776], [110.284254, 25.277379], [110.283935, 25.277159], [110.283589, 25.277111], [110.283019, 25.276992], [110.282379, 25.277302], [110.282088, 25.277442], [110.28143, 25.277511], [110.28076, 25.277714], [110.280495, 25.277811], [110.280166, 25.277888], [110.279728, 25.277872], [110.279615, 25.277945], [110.27912, 25.278024], [110.278545, 25.278098]]]}, "properties": {"display_name": "象山街道, 象山区, 桂林市, 广西壮族自治区, 中国", "type": "administrative", "osm_type": "relation", "osm_id": 9517830, "class": null, "keyword": "subdistrict"}}, {"type": "Feature", "geometry": {"type": "Polygon", "coordinates": [[[110.282379, 25.277302], [110.283019, 25.276992], [110.283589, 25.277111], [110.283935, 25.277159], [110.284254, 25.277379], [110.284875, 25.277776], [110.285028, 25.277769], [110.285329, 25.277641], [110.287698, 25.276364], [110.287981, 25.276363], [110.2885, 25.276767], [110.288984, 25.277221], [110.289246, 25.276993], [110.289754, 25.27663], [110.290278, 25.27635], [110.290556, 25.27595], [110.290674, 25.275541], [110.290839, 25.275396], [110.29087, 25.275385], [110.291907, 25.275029], [110.292933, 25.274523], [110.294449, 25.273813], [110.295844, 25.275972], [110.29777, 25.27884], [110.299216, 25.282409], [110.300376, 25.285255], [110.299599, 25.285575], [110.299487, 25.285434], [110.299157, 25.285527], [110.299038, 25.28601], [110.297377, 25.286631], [110.293312, 25.287194], [110.29311, 25.28601], [110.292676, 25.283349], [110.291824, 25.283457], [110.291851, 25.28359], [110.291045, 25.283772], [110.291106, 25.283963], [110.291036, 25.284004], [110.291023, 25.284117], [110.290741, 25.284184], [110.29059, 25.284375], [110.290622, 25.28472], [110.290799, 25.284943], [110.290885, 25.285328], [110.291026, 25.285569], [110.291244, 25.285595], [110.29135, 25.285972], [110.291199, 25.286024], [110.291174, 25.286238], [110.291347, 25.286183], [110.291401, 25.286319], [110.290806, 25.286446], [110.290882, 25.286606], [110.290613, 25.286675], [110.290653, 25.287727], [110.290375, 25.288081], [110.290313, 25.288054], [110.288782, 25.287374], [110.287706, 25.286538], [110.285761, 25.284389], [110.284656, 25.282876], [110.284313, 25.282168], [110.284013, 25.279801], [110.283927, 25.278762], [110.283819, 25.27821], [110.28339, 25.277598], [110.282379, 25.277302]]]}, "properties": {"display_name": "秀峰街道, 秀峰区, 桂林市, 广西壮族自治区, 中国", "type": "administrative", "osm_type": "relation", "osm_id": 11570568, "class": null, "keyword": "subdistrict"}}, {"type": "Feature", "geometry": {"type": "Polygon", "coordinates": [[[110.302355, 25.257059], [110.3024, 25.256932], [110.302504, 25.256776], [110.302591, 25.256691], [110.302717, 25.256621], [110.302849, 25.256535], [110.30301, 25.256455], [110.303149, 25.256344], [110.303238, 25.256238], [110.303308, 25.256097], [110.303352, 25.255959], [110.303581, 25.255146], [110.303594, 25.255087], [110.303635, 25.254962], [110.303652, 25.254936], [110.303734, 25.254777], [110.303798, 25.254614], [110.303861, 25.254469], [110.303888, 25.254437], [110.303922, 25.254405], [110.303495, 25.254377], [110.303531, 25.253924], [110.303781, 25.25394], [110.303818, 25.253452], [110.303989, 25.253408], [110.30409, 25.253448], [110.304109, 25.253471], [110.304144, 25.253488], [110.305355, 25.25361], [110.305382, 25.253625], [110.305405, 25.253646], [110.305386, 25.25421], [110.305394, 25.254257], [110.305417, 25.254294], [110.305455, 25.254329], [110.305511, 25.254355], [110.306371, 25.254465], [110.305931, 25.25702], [110.305894, 25.257093], [110.305838, 25.257163], [110.30575, 25.257206], [110.305655, 25.257228], [110.305558, 25.257234], [110.305464, 25.257212], [110.305126, 25.257102], [110.30481, 25.257039], [110.303192, 25.257064], [110.302721, 25.257064], [110.302355, 25.257059]]]}, "properties": {"display_name": "桂林市体育中心, 12, 穿山东路, 七星区街道, 七星区, 桂林市, 广西壮族自治区, 541004, 中国", "type": "sports_centre", "osm_type": "way", "osm_id": 647468202, "class": null, "keyword": "市中心"}}, {"type": "Feature", "geometry": {"type": "Polygon", "coordinates": [[[110.247118, 25.14621], [110.247481, 25.14477], [110.248571, 25.144599], [110.248618, 25.144721], [110.248668, 25.144792], [110.248678, 25.144946], [110.248673, 25.145168], [110.248679, 25.145344], [110.248696, 25.145447], [110.248784, 25.145518], [110.248998, 25.145566], [110.249186, 25.145588], [110.249551, 25.145605], [110.249777, 25.145512], [110.250029, 25.145219], [110.250378, 25.145139], [110.251097, 25.145362], [110.251875, 25.145097], [110.251908, 25.145211], [110.250414, 25.145775], [110.249262, 25.14621], [110.247118, 25.14621]]]}, "properties": {"display_name": "亿桂科目二机动车驾驶人考试中心, 桂林绕城高速, 会仙镇, 临桂区, 桂林市, 广西壮族自治区, 541006, 中国", "type": "driving_school", "osm_type": "relation", "osm_id": 14286640, "class": null, "keyword": "市中心"}}, {"type": "Feature", "geometry": {"type": "Polygon", "coordinates": [[[110.318725, 25.21334], [110.318749, 25.213238], [110.319076, 25.213243], [110.31923, 25.212668], [110.319955, 25.2127], [110.319998, 25.212398], [110.320268, 25.212246], [110.320474, 25.21218], [110.320694, 25.212188], [110.320874, 25.212243], [110.321005, 25.212322], [110.320984, 25.212569], [110.320915, 25.213594], [110.32057, 25.213807], [110.320547, 25.213985], [110.318978, 25.213873], [110.319024, 25.213358], [110.318725, 25.21334]]]}, "properties": {"display_name": "桂林市窑头中心校, 平山北路, 雁山区, 桂林市, 广西壮族自治区, 541000, 中国", "type": "school", "osm_type": "way", "osm_id": 997325870, "class": null, "keyword": "市中心"}}, {"type": "Feature", "geometry": {"type": "Polygon", "coordinates": [[[110.29956, 25.084786], [110.299783, 25.083922], [110.300587, 25.084049], [110.300468, 25.084481], [110.300308, 25.084942], [110.29956, 25.084786]]]}, "properties": {"display_name": "桂林市雁山中心卫生院, 雁山街, 雁山区, 桂林市, 广西壮族自治区, 541006, 中国", "type": "hospital", "osm_type": "way", "osm_id": 1080700794, "class": null, "keyword": "市中心"}}, {"type": "Feature", "geometry": {"type": "Polygon", "coordinates": [[[110.305261, 25.220103], [110.305991, 25.219984], [110.306212, 25.22109], [110.305838, 25.221151], [110.30579, 25.220906], [110.305559, 25.220944], [110.30546, 25.220444], [110.305751, 25.220396], [110.305733, 25.220308], [110.305315, 25.220376], [110.305261, 25.220103]]]}, "properties": {"display_name": "桂林市中心定点屠宰场, 象山区, 桂林市, 广西壮族自治区, 中国", "type": "industrial", "osm_type": "way", "osm_id": 1057682597, "class": null, "keyword": "市中心"}}, {"type": "Feature", "geometry": {"type": "Polygon", "coordinates": [[[110.415774, 25.312194], [110.416297, 25.311923], [110.416616, 25.312426], [110.416234, 25.312625], [110.416286, 25.312707], [110.416411, 25.312642], [110.416506, 25.31279], [110.41638, 25.312856], [110.416421, 25.31292], [110.416804, 25.312721], [110.41686, 25.31281], [110.416943, 25.312767], [110.417171, 25.312649], [110.417248, 25.312771], [110.416415, 25.313204], [110.415774, 25.312194]], [[110.416029, 25.31229], [110.416121, 25.312434], [110.416461, 25.312257], [110.41637, 25.312113], [110.416029, 25.31229]]]}, "properties": {"display_name": "工程实训中心, 厚学路, 花江, 灵川县, 桂林市, 广西壮族自治区, 中国", "type": "yes", "osm_type": "relation", "osm_id": 9439438, "class": null, "keyword": "市中心"}}, {"type": "Feature", "geometry": {"type": "Polygon", "coordinates": [[[110.297681, 25.064758], [110.29836, 25.064752], [110.298366, 25.065241], [110.297686, 25.065247], [110.297681, 25.064758]]]}, "properties": {"display_name": "广西矿冶与环境科学实验中心, 雁山街, 雁山区, 桂林市, 广西壮族自治区, 541006, 中国", "type": "school", "osm_type": "way", "osm_id": 639092564, "class": null, "keyword": "市中心"}}, {"type": "Feature", "geometry": {"type": "Polygon", "coordinates": [[[110.328948, 25.258898], [110.32959, 25.258895], [110.329593, 25.259396], [110.328951, 25.259399], [110.328948, 25.258898]]]}, "properties": {"display_name": "桂林市合心中心校, 东二环路, 漓东街道, 七星区, 桂林市, 广西壮族自治区, 541004, 中国", "type": "school", "osm_type": "way", "osm_id": 646911644, "class": null, "keyword": "市中心"}}, {"type": "Feature", "geometry": {"type": "Polygon", "coordinates": [[[110.405377, 25.317083], [110.405914, 25.316419], [110.406358, 25.316713], [110.406203, 25.316906], [110.406119, 25.31685], [110.40622, 25.316726], [110.405951, 25.316548], [110.405776, 25.316765], [110.406001, 25.316914], [110.405947, 25.316981], [110.405722, 25.316832], [110.405674, 25.316891], [110.405919, 25.317053], [110.405714, 25.317306], [110.405377, 25.317083]]]}, "properties": {"display_name": "材料科学与工程学院实验教学中心-美育实践中心, 依山路, 灵川县, 桂林市, 广西壮族自治区, 中国", "type": "school", "osm_type": "way", "osm_id": 624036625, "class": null, "keyword": "市中心"}}, {"type": "Feature", "geometry": {"type": "Polygon", "coordinates": [[[110.310332, 25.285854], [110.310557, 25.285766], [110.31089, 25.286489], [110.310675, 25.28658], [110.310332, 25.285854]]]}, "properties": {"display_name": "商学院（教1楼）, 建干路, 东江街道, 七星区, 桂林市, 广西壮族自治区, 541004, 中国", "type": "yes", "osm_type": "way", "osm_id": 473969784, "class": null, "keyword": "business district"}}, {"type": "Feature", "geometry": {"type": "Polygon", "coordinates": [[[110.320864, 25.267132], [110.321016, 25.267132], [110.321016, 25.267087], [110.321151, 25.267087], [110.321151, 25.267133], [110.321302, 25.267133], [110.321303, 25.2674], [110.320864, 25.2674], [110.320864, 25.267132]]]}, "properties": {"display_name": "机械设计与制造实训中心, 育才路, 七星区街道, 七星区, 桂林市, 广西壮族自治区, 541004, 中国", "type": "university", "osm_type": "way", "osm_id": 674026705, "class": null, "keyword": "市中心"}}, {"type": "Feature", "geometry": {"type": "Polygon", "coordinates": [[[110.323928, 25.267499], [110.323928, 25.267426], [110.32396, 25.267401], [110.32396, 25.26732], [110.324505, 25.267321], [110.324505, 25.267394], [110.324543, 25.267425], [110.324543, 25.267499], [110.323928, 25.267499]]]}, "properties": {"display_name": "电子信息工程实验教学中心, 育才路, 七星区街道, 七星区, 桂林市, 广西壮族自治区, 541004, 中国", "type": "university", "osm_type": "way", "osm_id": 674051987, "class": null, "keyword": "市中心"}}, {"type": "Feature", "geometry": {"type": "Polygon", "coordinates": [[[110.48481, 24.736317], [110.484867, 24.736248], [110.485053, 24.736376], [110.484996, 24.736445], [110.48481, 24.736317]]]}, "properties": {"display_name": "阳朔工农桥换乘中心, G321, 阳朔县, 桂林市, 广西壮族自治区, 541907, 中国", "type": "yes", "osm_type": "way", "osm_id": 1210239455, "class": null, "keyword": "中心城区"}}]}