{"type": "FeatureCollection", "features": [{"type": "Feature", "geometry": {"type": "Polygon", "coordinates": [[[126.905693, 35.153476], [126.906051, 35.153199], [126.906155, 35.153003], [126.906072, 35.152829], [126.906839, 35.152288], [126.9072, 35.152549], [126.907469, 35.152379], [126.907624, 35.152409], [126.907617, 35.15247], [126.907906, 35.152729], [126.908382, 35.15311], [126.908359, 35.153184], [126.907931, 35.153456], [126.907953, 35.153484], [126.908039, 35.153592], [126.908131, 35.153706], [126.906833, 35.154524], [126.905693, 35.153476]]]}, "properties": {"display_name": "광주제일고등학교, 33, 독립로237번길, 누문동, 중앙동, 북구, 광주광역시, 61240, 대한민국", "type": "school", "osm_type": "way", "osm_id": 498970641, "class": null, "keyword": "中央区"}}, {"type": "Feature", "geometry": {"type": "Polygon", "coordinates": [[[126.856094, 35.163138], [126.856333, 35.162866], [126.856503, 35.162757], [126.858236, 35.162698], [126.858361, 35.162658], [126.858863, 35.162642], [126.858967, 35.162641], [126.859277, 35.162632], [126.859545, 35.162625], [126.860095, 35.162601], [126.860175, 35.162597], [126.862393, 35.162477], [126.862827, 35.162474], [126.8631, 35.162471], [126.863208, 35.162553], [126.863208, 35.162575], [126.863212, 35.162802], [126.86308, 35.162808], [126.860192, 35.162949], [126.860112, 35.162953], [126.85905, 35.162999], [126.859, 35.163001], [126.858947, 35.163033], [126.857437, 35.163098], [126.856261, 35.163134], [126.856094, 35.163138]]]}, "properties": {"display_name": "상무4-1근린공원, 유촌동, 유덕동, 서구, 광주광역시, 대한민국", "type": "park", "osm_type": "way", "osm_id": 501387701, "class": null, "keyword": "neighborhood"}}, {"type": "Feature", "geometry": {"type": "Polygon", "coordinates": [[[126.902221, 35.15937], [126.902916, 35.158536], [126.903331, 35.158428], [126.904093, 35.159055], [126.904158, 35.1592], [126.903099, 35.159952], [126.903037, 35.159911], [126.902221, 35.15937]]]}, "properties": {"display_name": "광주북성중학교, 경열로211번길, 유동, 중앙동, 북구, 광주광역시, 61240, 대한민국", "type": "school", "osm_type": "way", "osm_id": 490811452, "class": null, "keyword": "中央区"}}, {"type": "Feature", "geometry": {"type": "Polygon", "coordinates": [[[126.85963, 35.131773], [126.859667, 35.131109], [126.860722, 35.131169], [126.860668, 35.131915], [126.860653, 35.132132], [126.86063, 35.132447], [126.860267, 35.132428], [126.859932, 35.132392], [126.859984, 35.131793], [126.85963, 35.131773]]]}, "properties": {"display_name": "마재근린공원, 금호2동, 서구, 광주광역시, 대한민국", "type": "park", "osm_type": "way", "osm_id": 375190554, "class": null, "keyword": "neighborhood"}}, {"type": "Feature", "geometry": {"type": "Polygon", "coordinates": [[[126.856345, 35.167872], [126.856422, 35.167762], [126.856488, 35.167702], [126.856673, 35.167692], [126.857605, 35.167988], [126.858562, 35.168267], [126.858582, 35.168294], [126.858586, 35.168332], [126.856786, 35.168583], [126.856706, 35.168558], [126.856595, 35.168503], [126.856444, 35.168399], [126.856345, 35.167872]]]}, "properties": {"display_name": "죽림근린공원, 337, 동천동, 유덕동, 서구, 광주광역시, 대한민국", "type": "park", "osm_type": "way", "osm_id": 548048455, "class": null, "keyword": "neighborhood"}}, {"type": "Feature", "geometry": {"type": "Polygon", "coordinates": [[[126.907617, 35.15247], [126.907624, 35.152409], [126.907989, 35.152139], [126.908523, 35.152578], [126.909092, 35.153047], [126.909092, 35.15312], [126.909023, 35.15318], [126.908727, 35.153355], [126.908131, 35.153706], [126.908039, 35.153592], [126.907953, 35.153484], [126.907931, 35.153456], [126.908359, 35.153184], [126.908382, 35.15311], [126.907906, 35.152729], [126.907617, 35.15247]]]}, "properties": {"display_name": "광주학생독립운동기념공원, 누문동, 중앙동, 북구, 광주광역시, 대한민국", "type": "park", "osm_type": "way", "osm_id": 485779126, "class": null, "keyword": "中央区"}}, {"type": "Feature", "geometry": {"type": "Polygon", "coordinates": [[[126.856357, 35.161956], [126.856358, 35.161901], [126.856358, 35.1618], [126.85938, 35.161655], [126.85939, 35.161786], [126.859401, 35.161938], [126.856508, 35.162082], [126.856357, 35.161956]]]}, "properties": {"display_name": "상무2-2근린공원, 상무1동, 서구, 광주광역시, 대한민국", "type": "park", "osm_type": "way", "osm_id": 543069793, "class": null, "keyword": "neighborhood"}}, {"type": "Feature", "geometry": {"type": "Polygon", "coordinates": [[[126.853133, 35.158635], [126.853135, 35.157944], [126.85319, 35.157944], [126.854142, 35.157945], [126.854181, 35.157945], [126.854171, 35.158686], [126.853183, 35.158677], [126.853133, 35.158635]]]}, "properties": {"display_name": "광주광역시서부교육지원청, 상무번영로, 치평동, 서구, 광주광역시, 61945, 대한민국", "type": "educational_institution", "osm_type": "way", "osm_id": 1169542873, "class": null, "keyword": "district"}}, {"type": "Feature", "geometry": {"type": "Polygon", "coordinates": [[[126.859656, 35.161678], [126.86205, 35.161575], [126.863167, 35.161527], [126.863172, 35.161604], [126.863174, 35.161646], [126.86316, 35.161688], [126.863098, 35.161738], [126.862782, 35.161753], [126.859732, 35.161897], [126.859672, 35.161866], [126.859665, 35.161782], [126.859656, 35.161678]]]}, "properties": {"display_name": "상무2-3근린공원, 상무1동, 서구, 광주광역시, 대한민국", "type": "park", "osm_type": "way", "osm_id": 670322043, "class": null, "keyword": "neighborhood"}}, {"type": "Feature", "geometry": {"type": "Polygon", "coordinates": [[[126.848052, 35.116934], [126.848234, 35.116718], [126.848512, 35.116208], [126.848675, 35.115689], [126.848772, 35.11532], [126.848967, 35.115213], [126.849126, 35.114841], [126.849272, 35.114485], [126.849463, 35.114621], [126.849488, 35.114768], [126.849463, 35.114834], [126.849309, 35.11541], [126.84924, 35.115603], [126.849073, 35.115755], [126.848915, 35.115865], [126.848776, 35.116025], [126.848703, 35.116228], [126.848581, 35.116427], [126.848431, 35.11665], [126.84817, 35.116933], [126.848052, 35.116934]]]}, "properties": {"display_name": "전평제근린공원, 매월동, 서창동, 서구, 광주광역시, 대한민국", "type": "park", "osm_type": "way", "osm_id": 681638817, "class": null, "keyword": "neighborhood"}}, {"type": "Feature", "geometry": {"type": "Polygon", "coordinates": [[[126.861955, 35.123749], [126.862434, 35.123457], [126.862567, 35.123446], [126.862698, 35.123521], [126.862469, 35.123689], [126.862665, 35.123857], [126.862866, 35.12403], [126.862801, 35.124057], [126.862737, 35.124079], [126.862492, 35.12413], [126.862347, 35.124151], [126.861955, 35.123749]]]}, "properties": {"display_name": "광주시청자미디어센터, 풍금로, 금호2동, 서구, 광주광역시, 62013, 대한민국", "type": "studio", "osm_type": "way", "osm_id": 1149872815, "class": null, "keyword": "city center"}}, {"type": "Feature", "geometry": {"type": "Polygon", "coordinates": [[[126.91264, 35.147663], [126.912858, 35.147454], [126.913007, 35.147528], [126.913031, 35.14754], [126.913417, 35.147725], [126.913584, 35.147843], [126.913507, 35.147906], [126.913375, 35.148021], [126.913192, 35.148055], [126.91264, 35.147663]]]}, "properties": {"display_name": "광주세무서, 충장동, 동구, 광주광역시, 대한민국", "type": "commercial", "osm_type": "way", "osm_id": 1230281250, "class": null, "keyword": "district"}}, {"type": "Feature", "geometry": {"type": "Polygon", "coordinates": [[[126.84316, 35.146564], [126.843167, 35.1462], [126.844165, 35.146443], [126.844172, 35.146582], [126.84316, 35.146564]]]}, "properties": {"display_name": "근린공원, 치평동, 서구, 광주광역시, 대한민국", "type": "park", "osm_type": "way", "osm_id": 408473142, "class": null, "keyword": "neighborhood"}}, {"type": "Feature", "geometry": {"type": "Polygon", "coordinates": [[[126.861825, 35.152479], [126.861832, 35.152364], [126.862467, 35.152389], [126.86246, 35.152509], [126.862342, 35.152505], [126.862338, 35.152567], [126.862477, 35.152572], [126.862469, 35.152709], [126.861919, 35.152688], [126.861928, 35.152539], [126.862014, 35.152542], [126.862017, 35.152487], [126.861825, 35.152479]]]}, "properties": {"display_name": "서광주세무서, 상무대로911번길, 쌍촌동, 상무1동, 서구, 광주광역시, 61968, 대한민국", "type": "government", "osm_type": "way", "osm_id": 642344202, "class": null, "keyword": "city centre"}}, {"type": "Feature", "geometry": {"type": "Polygon", "coordinates": [[[126.863388, 35.161458], [126.863778, 35.161443], [126.863791, 35.161743], [126.863559, 35.161748], [126.863469, 35.161738], [126.863401, 35.161699], [126.863398, 35.161639], [126.863388, 35.161458]]]}, "properties": {"display_name": "상무2-4근린공원, 상무1동, 서구, 광주광역시, 대한민국", "type": "park", "osm_type": "way", "osm_id": 670322044, "class": null, "keyword": "neighborhood"}}, {"type": "Feature", "geometry": {"type": "Polygon", "coordinates": [[[126.85212, 35.158645], [126.85212, 35.15847], [126.852574, 35.15847], [126.852574, 35.158645], [126.85212, 35.158645]]]}, "properties": {"display_name": "광주지방법원 등기국, 106, 시청로, 치평동, 서구, 광주광역시, 61945, 대한민국", "type": "courthouse", "osm_type": "way", "osm_id": 637695908, "class": null, "keyword": "district"}}]}