{"type": "FeatureCollection", "features": [{"type": "Feature", "geometry": {"type": "Polygon", "coordinates": [[[110.217324, 19.834345], [110.219, 19.830146], [110.219996, 19.827626], [110.22132, 19.821786], [110.221364, 19.815765], [110.223469, 19.807241], [110.232445, 19.803328], [110.234227, 19.801612], [110.236311, 19.797531], [110.235282, 19.796077], [110.240262, 19.792724], [110.240476, 19.792441], [110.240905, 19.790785], [110.24142, 19.789896], [110.241978, 19.790179], [110.245198, 19.792443], [110.247859, 19.794261], [110.24867, 19.79528], [110.248723, 19.795364], [110.251683, 19.803019], [110.251717, 19.81047], [110.253241, 19.815147], [110.260498, 19.823501], [110.270637, 19.827647], [110.271797, 19.830296], [110.273288, 19.832104], [110.273354, 19.837154], [110.272526, 19.840832], [110.273454, 19.84211], [110.277099, 19.841829], [110.282699, 19.845196], [110.29708, 19.86455], [110.296782, 19.870627], [110.298306, 19.875613], [110.298008, 19.88518], [110.301601, 19.896596], [110.302117, 19.898235], [110.304502, 19.902441], [110.306789, 19.912941], [110.304668, 19.92101], [110.309009, 19.928393], [110.308977, 19.937701], [110.308956, 19.943875], [110.30707, 19.948698], [110.307585, 19.95198], [110.309987, 19.955647], [110.307796, 19.956132], [110.305219, 19.956011], [110.303391, 19.954799], [110.301798, 19.952872], [110.300591, 19.952619], [110.298764, 19.953291], [110.29717, 19.954392], [110.295718, 19.955185], [110.291395, 19.956891], [110.289673, 19.957013], [110.287822, 19.956836], [110.286509, 19.955867], [110.283827, 19.955933], [110.281402, 19.955096], [110.280054, 19.954028], [110.276071, 19.952399], [110.275157, 19.952443], [110.273611, 19.952861], [110.26548, 19.953169], [110.26295, 19.952112], [110.261419, 19.951726], [110.261324, 19.951446], [110.261347, 19.951082], [110.261357, 19.950883], [110.26094, 19.948738], [110.260125, 19.94466], [110.259911, 19.943571], [110.259396, 19.94135], [110.25871, 19.939937], [110.256994, 19.938524], [110.256393, 19.937758], [110.254935, 19.93574], [110.252576, 19.93465], [110.249829, 19.933237], [110.249701, 19.931379], [110.244165, 19.921849], [110.241676, 19.918578], [110.237984, 19.912195], [110.237926, 19.911479], [110.237512, 19.90642], [110.236525, 19.898584], [110.234937, 19.894385], [110.228582, 19.894202], [110.225662, 19.893229], [110.224242, 19.89264], [110.219818, 19.884759], [110.217369, 19.883504], [110.218019, 19.87433], [110.218071, 19.873594], [110.2184, 19.868964], [110.218449, 19.864308], [110.218275, 19.861721], [110.218057, 19.860077], [110.2181, 19.857693], [110.217712, 19.853574], [110.218571, 19.846787], [110.218571, 19.842586], [110.218182, 19.840205], [110.217324, 19.834345]]]}, "properties": {"display_name": "永兴镇, 秀英区, 海口市, 海南省, 中国", "type": "administrative", "osm_type": "relation", "osm_id": 18311852, "class": null, "keyword": "district"}}, {"type": "Feature", "geometry": {"type": "Polygon", "coordinates": [[[110.295348, 20.056353], [110.298271, 20.055246], [110.311127, 20.052332], [110.323974, 20.050982], [110.32679, 20.050293], [110.330572, 20.047158], [110.331598, 20.046607], [110.332889, 20.046277], [110.334546, 20.046332], [110.335485, 20.046483], [110.33668, 20.04683], [110.337973, 20.047533], [110.338657, 20.047835], [110.338491, 20.048281], [110.33766, 20.051385], [110.337625, 20.051523], [110.336939, 20.05382], [110.336668, 20.054765], [110.336023, 20.056949], [110.334413, 20.063116], [110.334212, 20.063799], [110.334247, 20.064133], [110.334162, 20.064415], [110.332277, 20.07037], [110.329149, 20.078195], [110.328677, 20.079607], [110.326839, 20.084773], [110.322218, 20.083422], [110.31518, 20.08185], [110.308313, 20.079795], [110.302348, 20.07653], [110.299087, 20.072177], [110.29767, 20.068065], [110.297155, 20.063631], [110.296168, 20.058794], [110.295348, 20.056353]]]}, "properties": {"display_name": "人民路街道, 美兰区, 海口市, 海南省, 570228, 中国", "type": "administrative", "osm_type": "relation", "osm_id": 18311885, "class": null, "keyword": "subdistrict"}}, {"type": "Feature", "geometry": {"type": "Polygon", "coordinates": [[[110.433114, 19.934646], [110.438451, 19.934654], [110.438454, 19.933771], [110.438473, 19.933252], [110.43847, 19.932848], [110.438478, 19.932778], [110.438501, 19.932711], [110.438537, 19.932641], [110.438579, 19.932589], [110.438638, 19.932537], [110.438674, 19.93251], [110.438731, 19.93248], [110.438808, 19.93245], [110.438902, 19.932433], [110.43896, 19.93243], [110.440248, 19.932433], [110.441695, 19.932438], [110.445042, 19.932486], [110.445082, 19.93249], [110.445117, 19.932499], [110.44516, 19.932515], [110.4452, 19.932535], [110.445259, 19.932577], [110.445306, 19.932616], [110.446008, 19.933279], [110.446023, 19.933288], [110.446039, 19.933292], [110.446056, 19.933293], [110.471774, 19.933371], [110.471801, 19.933371], [110.471823, 19.933367], [110.471845, 19.933354], [110.472781, 19.932546], [110.472795, 19.932541], [110.472811, 19.93254], [110.47701, 19.932547], [110.478919, 19.932561], [110.478998, 19.932563], [110.479088, 19.932576], [110.47918, 19.932603], [110.479245, 19.932634], [110.479315, 19.932682], [110.47936, 19.932741], [110.479409, 19.932815], [110.479441, 19.932882], [110.47946, 19.932954], [110.479467, 19.933031], [110.479503, 19.934788], [110.48118, 19.934801], [110.481943, 19.934804], [110.482099, 19.934812], [110.48364, 19.934815], [110.484769, 19.9348], [110.484767, 19.934939], [110.484007, 19.934942], [110.483062, 19.934931], [110.48276, 19.934932], [110.481656, 19.934931], [110.481221, 19.934931], [110.479503, 19.934916], [110.479501, 19.935596], [110.479502, 19.935617], [110.479495, 19.935637], [110.479478, 19.935657], [110.479117, 19.936075], [110.4791, 19.936093], [110.479094, 19.936107], [110.479086, 19.936125], [110.479083, 19.93615], [110.47909, 19.936525], [110.479342, 19.93653], [110.479342, 19.936938], [110.482853, 19.936933], [110.482768, 19.939933], [110.488182, 19.939936], [110.488182, 19.943464], [110.482778, 19.943437], [110.482463, 19.943613], [110.478693, 19.943602], [110.476571, 19.943579], [110.476563, 19.943393], [110.476376, 19.94339], [110.474204, 19.943475], [110.474122, 19.943472], [110.47412, 19.943406], [110.474026, 19.943406], [110.473191, 19.943421], [110.471984, 19.943406], [110.471602, 19.9434], [110.47149, 19.943407], [110.471182, 19.943417], [110.470964, 19.943413], [110.470489, 19.943409], [110.469388, 19.943404], [110.469342, 19.943404], [110.469285, 19.943401], [110.46929, 19.943771], [110.469278, 19.944743], [110.479738, 19.944868], [110.479759, 19.94751], [110.486053, 19.947518], [110.485084, 19.949313], [110.485913, 19.949338], [110.485911, 19.949438], [110.4859, 19.950843], [110.485901, 19.950886], [110.485912, 19.950925], [110.485992, 19.951218], [110.485988, 19.952825], [110.486763, 19.95282], [110.486747, 19.953307], [110.491882, 19.953319], [110.491886, 19.954406], [110.486751, 19.954387], [110.486745, 19.956116], [110.479348, 19.956074], [110.478532, 19.955301], [110.452858, 19.955282], [110.452068, 19.956025], [110.442464, 19.955983], [110.442487, 19.954348], [110.442379, 19.954248], [110.439155, 19.954226], [110.439161, 19.953123], [110.442401, 19.953172], [110.442494, 19.953074], [110.442491, 19.952699], [110.444887, 19.952705], [110.444987, 19.952614], [110.445022, 19.947751], [110.445383, 19.947754], [110.446047, 19.94804], [110.449138, 19.948049], [110.449191, 19.947993], [110.449205, 19.946004], [110.449254, 19.946004], [110.44931, 19.943276], [110.44563, 19.94338], [110.443214, 19.943427], [110.441507, 19.943418], [110.44146, 19.943413], [110.440106, 19.943426], [110.440171, 19.938471], [110.440299, 19.938474], [110.440321, 19.936533], [110.440302, 19.936511], [110.438685, 19.936482], [110.438488, 19.936484], [110.438486, 19.936261], [110.438457, 19.934787], [110.433119, 19.934775], [110.433114, 19.934646]]]}, "properties": {"display_name": "海口美兰国际机场, 美兰机场路, 演丰镇, 美兰区, 海口市, 海南省, 中国", "type": "aerodrome", "osm_type": "relation", "osm_id": 10106018, "class": null, "keyword": "district"}}, {"type": "Feature", "geometry": {"type": "Polygon", "coordinates": [[[110.309196, 20.001807], [110.309202, 19.997429], [110.30922, 19.997313], [110.309404, 19.997326], [110.325066, 19.997348], [110.325954, 19.997464], [110.326574, 19.997653], [110.327242, 19.997968], [110.33137, 19.99973], [110.331762, 19.999796], [110.331479, 19.999945], [110.331306, 20.001356], [110.330575, 20.001502], [110.329284, 20.002277], [110.330487, 20.003992], [110.331467, 20.004694], [110.333079, 20.004533], [110.332478, 20.00558], [110.33379, 20.005956], [110.335389, 20.006813], [110.33519, 20.009079], [110.334526, 20.011271], [110.330795, 20.019468], [110.330108, 20.021059], [110.328204, 20.01933], [110.327139, 20.018423], [110.326525, 20.017959], [110.326039, 20.017675], [110.325423, 20.017468], [110.324698, 20.017241], [110.320584, 20.01589], [110.318674, 20.015336], [110.319158, 20.01432], [110.319308, 20.01392], [110.319337, 20.01371], [110.319077, 20.011735], [110.31897, 20.010472], [110.318814, 20.010036], [110.318696, 20.009797], [110.317682, 20.008544], [110.317116, 20.007967], [110.316829, 20.007717], [110.31655, 20.007614], [110.316097, 20.007478], [110.316119, 20.006601], [110.316105, 20.0062], [110.316073, 20.006018], [110.315899, 20.004925], [110.315963, 20.003561], [110.315955, 20.002286], [110.314641, 20.002304], [110.30981, 20.002246], [110.309196, 20.001807]]]}, "properties": {"display_name": "金宇街道, 龙华区, 海口市, 海南省, 中国", "type": "administrative", "osm_type": "relation", "osm_id": 18311864, "class": null, "keyword": "subdistrict"}}, {"type": "Feature", "geometry": {"type": "Polygon", "coordinates": [[[110.315241, 20.020429], [110.315491, 20.019613], [110.315668, 20.019177], [110.316314, 20.018363], [110.316296, 20.018297], [110.315998, 20.018317], [110.315971, 20.01829], [110.316089, 20.017879], [110.316341, 20.017471], [110.317747, 20.015933], [110.318315, 20.0155], [110.318674, 20.015336], [110.320584, 20.01589], [110.324698, 20.017241], [110.325423, 20.017468], [110.326039, 20.017675], [110.326525, 20.017959], [110.327139, 20.018423], [110.328204, 20.01933], [110.330108, 20.021059], [110.32926, 20.022916], [110.328281, 20.024924], [110.331247, 20.025992], [110.332068, 20.02645], [110.333917, 20.028385], [110.338263, 20.032439], [110.336879, 20.033349], [110.335645, 20.034269], [110.335819, 20.035065], [110.335943, 20.03528], [110.336056, 20.035438], [110.336324, 20.035766], [110.336833, 20.036235], [110.333774, 20.040055], [110.333544, 20.040331], [110.333451, 20.040426], [110.333322, 20.040535], [110.333011, 20.04043], [110.332416, 20.040093], [110.332205, 20.039752], [110.331905, 20.038876], [110.331883, 20.038813], [110.33175, 20.038423], [110.331567, 20.037893], [110.33149, 20.037671], [110.331345, 20.037246], [110.331196, 20.036814], [110.331076, 20.036465], [110.331011, 20.036277], [110.331006, 20.036263], [110.330845, 20.035931], [110.329507, 20.033179], [110.329489, 20.033145], [110.329461, 20.033093], [110.329079, 20.032372], [110.328521, 20.031646], [110.327859, 20.030781], [110.3278, 20.03074], [110.327091, 20.030243], [110.32696, 20.030152], [110.32577, 20.02926], [110.325455, 20.029018], [110.325272, 20.028893], [110.32448, 20.028302], [110.322562, 20.026921], [110.321601, 20.026244], [110.321209, 20.025967], [110.320956, 20.025788], [110.320934, 20.025773], [110.320528, 20.024765], [110.320496, 20.024673], [110.320357, 20.024271], [110.32041, 20.023687], [110.32056, 20.023111], [110.320411, 20.022985], [110.320347, 20.022814], [110.319865, 20.022694], [110.319287, 20.022514], [110.319009, 20.022372], [110.317298, 20.02188], [110.317257, 20.021869], [110.316816, 20.021754], [110.316843, 20.021548], [110.316477, 20.021472], [110.315942, 20.021715], [110.315636, 20.021677], [110.315362, 20.021384], [110.315266, 20.021095], [110.315247, 20.020772], [110.315241, 20.020429]]]}, "properties": {"display_name": "大同街道, 龙华区, 海口市, 海南省, 中国", "type": "administrative", "osm_type": "relation", "osm_id": 18311868, "class": null, "keyword": "subdistrict"}}, {"type": "Feature", "geometry": {"type": "Polygon", "coordinates": [[[110.154617, 20.025049], [110.155254, 20.024978], [110.155222, 20.02461], [110.155136, 20.024449], [110.154925, 20.02166], [110.156749, 20.021631], [110.15697, 20.025308], [110.157252, 20.027053], [110.157296, 20.02803], [110.158791, 20.027971], [110.158839, 20.028707], [110.160358, 20.028622], [110.160425, 20.030169], [110.158938, 20.030254], [110.158975, 20.03082], [110.157422, 20.030837], [110.157459, 20.031653], [110.157392, 20.031944], [110.157225, 20.032798], [110.156863, 20.033446], [110.156518, 20.033899], [110.156214, 20.034507], [110.155908, 20.034337], [110.156061, 20.0336], [110.155883, 20.033638], [110.155428, 20.03343], [110.155508, 20.032804], [110.155325, 20.03244], [110.154989, 20.032242], [110.154617, 20.025049]]]}, "properties": {"display_name": "海口站, 西秀镇, 秀英区, 海口市, 海南省, 中国", "type": "railway", "osm_type": "way", "osm_id": 501611402, "class": null, "keyword": "district"}}, {"type": "Feature", "geometry": {"type": "Polygon", "coordinates": [[[110.213059, 19.927711], [110.213736, 19.926644], [110.218016, 19.928246], [110.218927, 19.930176], [110.2189, 19.931951], [110.215502, 19.931499], [110.215222, 19.929919], [110.213059, 19.927711]]]}, "properties": {"display_name": "雷琼世界地质公园, 石山镇, 秀英区, 海口市, 海南省, 中国", "type": "park", "osm_type": "way", "osm_id": 481218748, "class": null, "keyword": "district"}}, {"type": "Feature", "geometry": {"type": "Polygon", "coordinates": [[[110.167004, 19.93118], [110.167036, 19.930183], [110.167255, 19.928921], [110.16755, 19.927399], [110.167762, 19.926699], [110.167936, 19.92659], [110.168559, 19.926898], [110.168732, 19.926916], [110.171649, 19.92851], [110.171719, 19.928607], [110.172304, 19.928915], [110.172374, 19.929084], [110.172246, 19.929259], [110.171771, 19.929634], [110.170942, 19.930153], [110.169201, 19.930908], [110.168263, 19.931131], [110.167222, 19.93127], [110.167068, 19.931252], [110.167004, 19.93118]]]}, "properties": {"display_name": "美安科技新城中心公园, 美安科技新城一期, 石山镇, 秀英区, 海口市, 海南省, 中国", "type": "park", "osm_type": "way", "osm_id": 1271032209, "class": null, "keyword": "中心城区"}}, {"type": "Feature", "geometry": {"type": "Polygon", "coordinates": [[[110.395771, 19.970422], [110.395945, 19.969631], [110.397159, 19.968183], [110.399072, 19.968252], [110.39903, 19.968881], [110.399533, 19.968904], [110.399467, 19.969818], [110.398453, 19.96978], [110.398441, 19.97111], [110.398432, 19.972168], [110.396306, 19.972044], [110.395771, 19.970422]]]}, "properties": {"display_name": "海口市琼山中学新校区, 新大洲大道, 滨江街道, 琼山区, 海口市, 海南省, 中国", "type": "school", "osm_type": "way", "osm_id": 637629526, "class": null, "keyword": "市中心"}}, {"type": "Feature", "geometry": {"type": "Polygon", "coordinates": [[[110.148893, 19.91557], [110.149073, 19.914809], [110.149246, 19.914075], [110.149589, 19.913359], [110.15331, 19.913773], [110.152782, 19.915897], [110.15258, 19.915983], [110.148893, 19.91557]]]}, "properties": {"display_name": "Datang Haikou Gas Power Plant, 石山镇, 秀英区, 海口市, 海南省, 中国", "type": "industrial", "osm_type": "way", "osm_id": 1198425688, "class": null, "keyword": "district"}}, {"type": "Feature", "geometry": {"type": "Polygon", "coordinates": [[[110.169291, 19.999012], [110.170509, 19.996375], [110.173153, 19.997457], [110.172274, 19.999231], [110.172148, 19.999484], [110.172032, 19.999475], [110.171773, 19.999685], [110.171661, 20.000157], [110.17157, 20.000157], [110.171473, 20.000257], [110.171052, 20.000243], [110.170951, 20.0003], [110.170849, 20.000209], [110.170585, 19.999885], [110.170636, 19.999608], [110.170402, 19.999513], [110.170382, 19.999379], [110.170179, 19.99927], [110.169763, 19.999084], [110.16956, 19.999131], [110.169291, 19.999012]]]}, "properties": {"display_name": "中共海口市委党校新校区, 粤海大道, 西秀镇, 秀英区, 海口市, 海南省, 中国", "type": "government", "osm_type": "way", "osm_id": 1116944626, "class": null, "keyword": "市中心"}}, {"type": "Feature", "geometry": {"type": "Polygon", "coordinates": [[[110.39903, 19.968881], [110.399072, 19.968252], [110.400084, 19.968316], [110.40097, 19.968429], [110.401127, 19.968774], [110.400572, 19.968914], [110.400732, 19.969244], [110.399964, 19.969586], [110.400275, 19.971319], [110.399898, 19.971532], [110.399592, 19.971086], [110.399374, 19.971107], [110.399467, 19.969818], [110.399533, 19.968904], [110.39903, 19.968881]]]}, "properties": {"display_name": "海口市琼山中学新校区二期工程, 新大洲大道, 新大洲教师住宅小区, 凤翔街道, 琼山区, 海口市, 海南省, 中国", "type": "school", "osm_type": "way", "osm_id": 1270613510, "class": null, "keyword": "中心城区"}}, {"type": "Feature", "geometry": {"type": "Polygon", "coordinates": [[[110.184954, 20.039356], [110.186677, 20.039351], [110.186669, 20.040586], [110.184963, 20.040592], [110.184954, 20.039356]]]}, "properties": {"display_name": "海口市中心幼儿园长滨分园, 富屋街, 西秀镇, 秀英区, 海口市, 海南省, 570311, 中国", "type": "kindergarten", "osm_type": "way", "osm_id": 873029021, "class": null, "keyword": "市中心"}}, {"type": "Feature", "geometry": {"type": "Polygon", "coordinates": [[[110.354966, 20.033931], [110.355057, 20.03379], [110.356527, 20.034067], [110.356682, 20.034112], [110.356596, 20.034606], [110.356425, 20.034919], [110.35569, 20.035231], [110.355384, 20.035201], [110.354966, 20.033931]]]}, "properties": {"display_name": "白龙新村, 和平南街道, 美兰区, 海口市, 海南省, 中国", "type": "residential", "osm_type": "way", "osm_id": 537444779, "class": null, "keyword": "neighborhood"}}, {"type": "Feature", "geometry": {"type": "Polygon", "coordinates": [[[110.315952, 20.062117], [110.316654, 20.061933], [110.317299, 20.062123], [110.317803, 20.062123], [110.317832, 20.062244], [110.317832, 20.062417], [110.317191, 20.062417], [110.31719, 20.062526], [110.315986, 20.062522], [110.315995, 20.062241], [110.315952, 20.062117]]]}, "properties": {"display_name": "海南大学海甸校区国家重点实验室中心大楼、海南大学海甸校区热带作物国家重点实验室、海南大学热带生物多样性与基因组学研究中心, 甸昆路, 人民路街道, 美兰区, 海口市, 海南省, 570228, 中国", "type": "university", "osm_type": "way", "osm_id": 1382580479, "class": null, "keyword": "中央区"}}, {"type": "Feature", "geometry": {"type": "Polygon", "coordinates": [[[110.405739, 19.972426], [110.405792, 19.97185], [110.406044, 19.97187], [110.406104, 19.971875], [110.406992, 19.971943], [110.406956, 19.972512], [110.405739, 19.972426]]]}, "properties": {"display_name": "海南省交通工程检测中心, 新大洲大道, 新大洲教师住宅小区, 凤翔街道, 琼山区, 海口市, 海南省, 中国", "type": "government", "osm_type": "way", "osm_id": 1270613553, "class": null, "keyword": "中心城区"}}, {"type": "Feature", "geometry": {"type": "Polygon", "coordinates": [[[110.359135, 20.034147], [110.359311, 20.033252], [110.35993, 20.033335], [110.359909, 20.033464], [110.359921, 20.033529], [110.359914, 20.034139], [110.3599, 20.034259], [110.359135, 20.034147]]]}, "properties": {"display_name": "Haikou Public Security Bureau Meilan Branch Meishe Dormitory Area, 白龙街道, 美兰区, 海口市, 海南省, 中国", "type": "neighbourhood", "osm_type": "way", "osm_id": 1167173779, "class": null, "keyword": "district"}}, {"type": "Feature", "geometry": {"type": "Polygon", "coordinates": [[[110.364973, 20.057661], [110.365261, 20.057344], [110.365358, 20.057381], [110.365377, 20.057359], [110.365451, 20.057381], [110.365501, 20.057339], [110.365614, 20.057428], [110.365675, 20.057376], [110.36606, 20.057824], [110.365905, 20.058], [110.366002, 20.058092], [110.365942, 20.058174], [110.365786, 20.058082], [110.365638, 20.058114], [110.364973, 20.057661]]]}, "properties": {"display_name": "海口市新埠中心小学, 新埠上村街, 新埠街道, 美兰区, 海口市, 海南省, 570208, 中国", "type": "school", "osm_type": "way", "osm_id": 1272908792, "class": null, "keyword": "市中心"}}, {"type": "Feature", "geometry": {"type": "Polygon", "coordinates": [[[110.358274, 20.035245], [110.358655, 20.034852], [110.358905, 20.034778], [110.35881, 20.034878], [110.358799, 20.035481], [110.358773, 20.035555], [110.358773, 20.035598], [110.358808, 20.035663], [110.358678, 20.035755], [110.358274, 20.035752], [110.358274, 20.035625], [110.358274, 20.035579], [110.358274, 20.035245]]]}, "properties": {"display_name": "成信丽苑, 白龙街道, 美兰区, 海口市, 海南省, 中国", "type": "neighbourhood", "osm_type": "way", "osm_id": 1167342222, "class": null, "keyword": "neighborhood"}}, {"type": "Feature", "geometry": {"type": "Polygon", "coordinates": [[[110.318209, 20.062434], [110.31821, 20.062056], [110.318691, 20.062056], [110.318691, 20.062014], [110.319122, 20.062014], [110.319121, 20.062435], [110.318209, 20.062434]]]}, "properties": {"display_name": "海南大学海甸校区南海海洋资源利用国家重点实验室, 海甸五西路, 人民路街道, 美兰区, 海口市, 海南省, 570228, 中国", "type": "university", "osm_type": "way", "osm_id": 1382580480, "class": null, "keyword": "中央区"}}, {"type": "Feature", "geometry": {"type": "Polygon", "coordinates": [[[110.510796, 19.985211], [110.511002, 19.985217], [110.511005, 19.985706], [110.510799, 19.985701], [110.510796, 19.985211]]]}, "properties": {"display_name": "海南师范大学就业服务中心, 英才大道, 演丰镇, 美兰区, 海口市, 海南省, 中国", "type": "employment_agency", "osm_type": "way", "osm_id": 1289607860, "class": null, "keyword": "市中心"}}, {"type": "Feature", "geometry": {"type": "Polygon", "coordinates": [[[110.326642, 20.062715], [110.327091, 20.06271], [110.327094, 20.062931], [110.326644, 20.062936], [110.326642, 20.062715]]]}, "properties": {"display_name": "托福考试中心, No. 10, 海甸五西路, 人民路街道, 美兰区, 海口市, 海南省, 570228, 中国", "type": "university", "osm_type": "way", "osm_id": 334246862, "class": null, "keyword": "市中心"}}]}