{"type": "FeatureCollection", "features": [{"type": "Feature", "geometry": {"type": "Polygon", "coordinates": [[[-63.593719, 44.655449], [-63.593014, 44.65497], [-63.591831, 44.654167], [-63.588308, 44.651775], [-63.587834, 44.651601], [-63.587169, 44.651137], [-63.586452, 44.650596], [-63.585198, 44.649756], [-63.584941, 44.649556], [-63.586117, 44.646554], [-63.583922, 44.642393], [-63.582156, 44.639044], [-63.578922, 44.639861], [-63.578445, 44.639928], [-63.574748, 44.640827], [-63.571669, 44.641651], [-63.570045, 44.642071], [-63.567289, 44.642796], [-63.567593, 44.643391], [-63.568174, 44.643215], [-63.568382, 44.643153], [-63.568507, 44.64336], [-63.568512, 44.643369], [-63.568489, 44.643376], [-63.568441, 44.643391], [-63.567791, 44.643587], [-63.567772, 44.643593], [-63.567477, 44.643682], [-63.56761, 44.643909], [-63.56793, 44.643812], [-63.567829, 44.643641], [-63.568159, 44.643538], [-63.568447, 44.644017], [-63.5683, 44.644055], [-63.568056, 44.64476], [-63.568145, 44.644936], [-63.568095, 44.645061], [-63.568038, 44.645303], [-63.568153, 44.64552], [-63.568348, 44.645599], [-63.568545, 44.645647], [-63.568775, 44.645664], [-63.569037, 44.645633], [-63.569083, 44.645629], [-63.569102, 44.645662], [-63.569134, 44.645719], [-63.569176, 44.645796], [-63.56926, 44.645944], [-63.568803, 44.646082], [-63.567918, 44.646354], [-63.567982, 44.646462], [-63.568867, 44.646186], [-63.569194, 44.646739], [-63.568759, 44.646871], [-63.56881, 44.646956], [-63.569277, 44.646814], [-63.569297, 44.646826], [-63.569545, 44.646784], [-63.569541, 44.646771], [-63.569916, 44.646707], [-63.570017, 44.646909], [-63.569757, 44.646969], [-63.569852, 44.647161], [-63.569742, 44.64719], [-63.569727, 44.647162], [-63.569683, 44.647174], [-63.569698, 44.647201], [-63.568797, 44.647432], [-63.568835, 44.647511], [-63.569892, 44.647244], [-63.569913, 44.647286], [-63.569927, 44.647313], [-63.569982, 44.647298], [-63.570012, 44.647357], [-63.57, 44.647363], [-63.569992, 44.64737], [-63.56999, 44.647379], [-63.569993, 44.647389], [-63.57, 44.647395], [-63.570008, 44.647399], [-63.57002, 44.6474], [-63.570032, 44.647399], [-63.570064, 44.64739], [-63.570067, 44.647396], [-63.570117, 44.647384], [-63.570143, 44.647435], [-63.569328, 44.647636], [-63.569375, 44.647722], [-63.570129, 44.647541], [-63.570195, 44.647676], [-63.569233, 44.647965], [-63.56927, 44.648043], [-63.570317, 44.647793], [-63.570456, 44.64807], [-63.57038, 44.648092], [-63.570428, 44.648186], [-63.570086, 44.648274], [-63.570151, 44.648453], [-63.570795, 44.648371], [-63.570813, 44.64842], [-63.570675, 44.648464], [-63.570697, 44.648508], [-63.570717, 44.648553], [-63.570866, 44.648532], [-63.570885, 44.648573], [-63.57012, 44.648803], [-63.570199, 44.64895], [-63.570986, 44.648779], [-63.571001, 44.64881], [-63.570671, 44.648955], [-63.57076, 44.649107], [-63.571048, 44.649056], [-63.571068, 44.649088], [-63.569918, 44.649486], [-63.570014, 44.649628], [-63.571136, 44.649228], [-63.571153, 44.649251], [-63.571222, 44.649228], [-63.571228, 44.649237], [-63.571219, 44.649241], [-63.571514, 44.649592], [-63.571467, 44.649611], [-63.571457, 44.649639], [-63.571336, 44.64969], [-63.571416, 44.649787], [-63.571404, 44.649793], [-63.571495, 44.649898], [-63.571583, 44.650002], [-63.571666, 44.64997], [-63.571675, 44.64998], [-63.571664, 44.650004], [-63.571644, 44.650013], [-63.571636, 44.650054], [-63.571833, 44.650287], [-63.571718, 44.650337], [-63.571755, 44.650383], [-63.571867, 44.650335], [-63.572131, 44.650675], [-63.572181, 44.650655], [-63.572294, 44.650799], [-63.57216, 44.650851], [-63.572191, 44.650894], [-63.572785, 44.650661], [-63.572853, 44.650753], [-63.572907, 44.650744], [-63.572877, 44.650758], [-63.572817, 44.650789], [-63.57282, 44.650794], [-63.572806, 44.650817], [-63.57279, 44.650826], [-63.572811, 44.650847], [-63.572413, 44.651071], [-63.572401, 44.651137], [-63.572876, 44.651556], [-63.573223, 44.651848], [-63.573512, 44.651668], [-63.573762, 44.651517], [-63.573965, 44.651582], [-63.573868, 44.651652], [-63.573898, 44.651873], [-63.57409, 44.651987], [-63.574032, 44.652028], [-63.573076, 44.652721], [-63.573333, 44.652889], [-63.574099, 44.652356], [-63.574286, 44.652499], [-63.574445, 44.652676], [-63.57471, 44.652859], [-63.574711, 44.652919], [-63.574754, 44.652995], [-63.574859, 44.653077], [-63.575033, 44.653158], [-63.575293, 44.653269], [-63.576021, 44.653769], [-63.576713, 44.653276], [-63.576797, 44.653258], [-63.576972, 44.653169], [-63.577113, 44.653059], [-63.57728, 44.653064], [-63.577504, 44.65302], [-63.577691, 44.652836], [-63.577799, 44.652827], [-63.577942, 44.65287], [-63.578296, 44.653019], [-63.578798, 44.653268], [-63.578929, 44.653366], [-63.579182, 44.653609], [-63.579416, 44.653833], [-63.579642, 44.654051], [-63.580061, 44.654422], [-63.581346, 44.655037], [-63.581818, 44.654803], [-63.584027, 44.656627], [-63.584488, 44.656976], [-63.584703, 44.65686], [-63.585893, 44.657785], [-63.585905, 44.657906], [-63.585698, 44.658054], [-63.58608, 44.658341], [-63.586645, 44.658771], [-63.586826, 44.658923], [-63.587309, 44.659235], [-63.587252, 44.659279], [-63.587554, 44.659537], [-63.588108, 44.659168], [-63.588413, 44.659401], [-63.588435, 44.659417], [-63.589422, 44.658351], [-63.589578, 44.658261], [-63.591128, 44.657356], [-63.591962, 44.656742], [-63.593277, 44.655774], [-63.593527, 44.655591], [-63.593719, 44.655449]]]}, "properties": {"display_name": "Downtown Halifax, Halifax, Halifax Regional Municipality, Halifax County, Nova Scotia, Canada", "type": "administrative", "osm_type": "relation", "osm_id": 9350508, "class": null, "keyword": "downtown"}}, {"type": "Feature", "geometry": {"type": "Polygon", "coordinates": [[[-63.621659, 44.651184], [-63.621491, 44.651212], [-63.621305, 44.651237], [-63.620669, 44.651246], [-63.619759, 44.65114], [-63.618738, 44.651039], [-63.619085, 44.651132], [-63.619428, 44.651224], [-63.620316, 44.651448], [-63.62138, 44.651768], [-63.621447, 44.651699], [-63.621425, 44.651617], [-63.621429, 44.651372], [-63.621659, 44.651184]]]}, "properties": {"display_name": "Kenneth Walker Neighbourhood Park, 3221, Halifax, Halifax Regional Municipality, Halifax County, Nova Scotia, Canada", "type": "park", "osm_type": "relation", "osm_id": 17432635, "class": null, "keyword": "neighbourhood"}}, {"type": "Feature", "geometry": {"type": "Polygon", "coordinates": [[[-63.612452, 44.664117], [-63.612277, 44.664012], [-63.612259, 44.664026], [-63.611684, 44.663683], [-63.611076, 44.664204], [-63.611284, 44.66433], [-63.611716, 44.66396], [-63.612055, 44.664163], [-63.612089, 44.664453], [-63.612361, 44.664437], [-63.612337, 44.664215], [-63.612452, 44.664117]]]}, "properties": {"display_name": "City Centre Terrace, 6028, Lady Hammond Road, Convoy Place, Halifax, Halifax Regional Municipality, Halifax County, Nova Scotia, B3K 2R6, Canada", "type": "apartments", "osm_type": "way", "osm_id": 366157256, "class": null, "keyword": "city centre"}}, {"type": "Feature", "geometry": {"type": "Polygon", "coordinates": [[[-63.623737, 44.623497], [-63.623732, 44.623471], [-63.623718, 44.623446], [-63.623565, 44.623281], [-63.623551, 44.623272], [-63.623534, 44.623267], [-63.6235, 44.623271], [-63.622947, 44.623538], [-63.622909, 44.623564], [-63.622891, 44.623588], [-63.622882, 44.623614], [-63.622882, 44.623641], [-63.622892, 44.623667], [-63.622925, 44.623703], [-63.622971, 44.623733], [-63.622977, 44.623729], [-63.623022, 44.623757], [-63.623017, 44.623761], [-63.623169, 44.623855], [-63.623194, 44.623867], [-63.62323, 44.623876], [-63.62326, 44.623878], [-63.623291, 44.623876], [-63.623327, 44.623868], [-63.623353, 44.623857], [-63.623378, 44.62384], [-63.623705, 44.623563], [-63.62373, 44.623529], [-63.623737, 44.623497]]]}, "properties": {"display_name": "Hadley Crescent Neighbourhood Park, 43, Halifax, Halifax Regional Municipality, Halifax County, Nova Scotia, B3N 0E4, Canada", "type": "park", "osm_type": "way", "osm_id": 803922974, "class": null, "keyword": "neighbourhood"}}, {"type": "Feature", "geometry": {"type": "Polygon", "coordinates": [[[-63.599261, 44.591971], [-63.599248, 44.591958], [-63.599238, 44.591967], [-63.599211, 44.591943], [-63.599223, 44.591936], [-63.599101, 44.591837], [-63.599025, 44.591839], [-63.598896, 44.591946], [-63.598839, 44.592002], [-63.598784, 44.592065], [-63.598734, 44.592137], [-63.598936, 44.592131], [-63.599022, 44.592197], [-63.599261, 44.591971]]]}, "properties": {"display_name": "Mansion Avenue Neighbourhood Park, Green Acres, Spryfield, Halifax, Halifax Regional Municipality, Halifax County, Nova Scotia, Canada", "type": "park", "osm_type": "way", "osm_id": 700980613, "class": null, "keyword": "neighbourhood"}}, {"type": "Feature", "geometry": {"type": "Polygon", "coordinates": [[[-63.578911, 44.635472], [-63.578851, 44.635358], [-63.578541, 44.63544], [-63.578601, 44.635554], [-63.578911, 44.635472]]]}, "properties": {"display_name": "Shambhala Centre, 1084, Tower Road, South End, Halifax, Halifax Regional Municipality, Halifax County, Nova Scotia, B3H 2Y5, Canada", "type": "place_of_worship", "osm_type": "way", "osm_id": 453083544, "class": null, "keyword": "city center"}}, {"type": "Feature", "geometry": {"type": "Polygon", "coordinates": [[[-63.560376, 44.640617], [-63.560376, 44.640609], [-63.560372, 44.640602], [-63.560365, 44.640596], [-63.560356, 44.640591], [-63.560345, 44.640589], [-63.560334, 44.64059], [-63.560324, 44.640593], [-63.560315, 44.640599], [-63.56031, 44.640606], [-63.560308, 44.640613], [-63.56031, 44.640621], [-63.560315, 44.640628], [-63.560324, 44.640634], [-63.560334, 44.640637], [-63.560345, 44.640638], [-63.560356, 44.640636], [-63.560366, 44.640631], [-63.560372, 44.640625], [-63.560376, 44.640617]]]}, "properties": {"display_name": "Halifax Harbour Inner Light, 65, Georges Island Road, Halifax, Halifax Regional Municipality, Halifax County, Nova Scotia, B3H 4P8, Canada", "type": "yes", "osm_type": "way", "osm_id": 455598707, "class": null, "keyword": "inner city"}}]}