{"type": "FeatureCollection", "features": [{"type": "Feature", "geometry": {"type": "Polygon", "coordinates": [[[114.61683, 36.564113], [114.626215, 36.559642], [114.625419, 36.555298], [114.623829, 36.554276], [114.623352, 36.551209], [114.626692, 36.55057], [114.626533, 36.544053], [114.632259, 36.543287], [114.632418, 36.541497], [114.636235, 36.541114], [114.63904, 36.532122], [114.637349, 36.525905], [114.634327, 36.520409], [114.624624, 36.511716], [114.619375, 36.510182], [114.61858, 36.507114], [114.620489, 36.505836], [114.627328, 36.493433], [114.626156, 36.489371], [114.652691, 36.484038], [114.656519, 36.48773], [114.664556, 36.488961], [114.670807, 36.492859], [114.676675, 36.492654], [114.677696, 36.49532], [114.679482, 36.494807], [114.68012, 36.493269], [114.682671, 36.492448], [114.692622, 36.492038], [114.696194, 36.493577], [114.698873, 36.493371], [114.702828, 36.491423], [114.714055, 36.49173], [114.717499, 36.494192], [114.718902, 36.505165], [114.722985, 36.505985], [114.734977, 36.504755], [114.734594, 36.501883], [114.735105, 36.500037], [114.740718, 36.499217], [114.746331, 36.504652], [114.757302, 36.504857], [114.762533, 36.502088], [114.763043, 36.497987], [114.767253, 36.497474], [114.769932, 36.495935], [114.780011, 36.496346], [114.800168, 36.498192], [114.841757, 36.499832], [114.850049, 36.498294], [114.854259, 36.489987], [114.861144, 36.49062], [114.869892, 36.492922], [114.874186, 36.495479], [114.881662, 36.493305], [114.882139, 36.495607], [114.886752, 36.495607], [114.891365, 36.493817], [114.891365, 36.491387], [114.896136, 36.487551], [114.896295, 36.481924], [114.899795, 36.480389], [114.902976, 36.47911], [114.906793, 36.479622], [114.907748, 36.482691], [114.912837, 36.484098], [114.915064, 36.491131], [114.918723, 36.491003], [114.919677, 36.494456], [114.922858, 36.493944], [114.923494, 36.501616], [114.924608, 36.504173], [114.929539, 36.50379], [114.940196, 36.505068], [114.941468, 36.50379], [114.941309, 36.501489], [114.944967, 36.501105], [114.946081, 36.504046], [114.948626, 36.504173], [114.94958, 36.506475], [114.95467, 36.509671], [114.951966, 36.521687], [114.942104, 36.521304], [114.946717, 36.523988], [114.949103, 36.527311], [114.956101, 36.52565], [114.959283, 36.527439], [114.965009, 36.526033], [114.967394, 36.533446], [114.970258, 36.53498], [114.976302, 36.534341], [114.977097, 36.53613], [114.982664, 36.535747], [114.985845, 36.539708], [114.987913, 36.549292], [114.989504, 36.552231], [114.996979, 36.55172], [114.998252, 36.556192], [115.004296, 36.558875], [115.00525, 36.562964], [115.008432, 36.562708], [115.008272, 36.568712], [115.005887, 36.569351], [115.002546, 36.567179], [115.003819, 36.57395], [115.000797, 36.576121], [115.000638, 36.580336], [115.002228, 36.581741], [115.00875, 36.581358], [115.01209, 36.598344], [115.014158, 36.60243], [115.019088, 36.602175], [115.024815, 36.604728], [115.027677, 36.604473], [115.028473, 36.608304], [115.031654, 36.609836], [115.028473, 36.610474], [115.026882, 36.612262], [115.027518, 36.615709], [115.022588, 36.621071], [115.005409, 36.626177], [115.003501, 36.628347], [115.004296, 36.632049], [114.998729, 36.633708], [114.995707, 36.635622], [114.99523, 36.637792], [114.991889, 36.638686], [114.989663, 36.6406], [114.986322, 36.640345], [114.986163, 36.637665], [114.984573, 36.635622], [114.977574, 36.635622], [114.976143, 36.637026], [114.97487, 36.635878], [114.973916, 36.633836], [114.969144, 36.634219], [114.966599, 36.637026], [114.957056, 36.636899], [114.957056, 36.634474], [114.952443, 36.635112], [114.952602, 36.639707], [114.948148, 36.641111], [114.948944, 36.64328], [114.944808, 36.643791], [114.940355, 36.647875], [114.938287, 36.644046], [114.930811, 36.642642], [114.919518, 36.643791], [114.919677, 36.64596], [114.914746, 36.646471], [114.910929, 36.644684], [114.898522, 36.645705], [114.896295, 36.649278], [114.89725, 36.655148], [114.895182, 36.655531], [114.894864, 36.659997], [114.89725, 36.659997], [114.897568, 36.664718], [114.886911, 36.66727], [114.881662, 36.666632], [114.871641, 36.667652], [114.871005, 36.663697], [114.868142, 36.66408], [114.86846, 36.668035], [114.862257, 36.671735], [114.856531, 36.672118], [114.847942, 36.671735], [114.842534, 36.673393], [114.840625, 36.669821], [114.840148, 36.665866], [114.825197, 36.666887], [114.824878, 36.66408], [114.82122, 36.662804], [114.807547, 36.662604], [114.799906, 36.661145], [114.800702, 36.655021], [114.787182, 36.653362], [114.786386, 36.650299], [114.783046, 36.650299], [114.782728, 36.646598], [114.768095, 36.640728], [114.747735, 36.631283], [114.726421, 36.625794], [114.724179, 36.624954], [114.719264, 36.623113], [114.710515, 36.622602], [114.710515, 36.619028], [114.716083, 36.618645], [114.715924, 36.615964], [114.711152, 36.610474], [114.705903, 36.600898], [114.703676, 36.600387], [114.704312, 36.597578], [114.70129, 36.592725], [114.699063, 36.590937], [114.697791, 36.583402], [114.689838, 36.584296], [114.68952, 36.587106], [114.686816, 36.588], [114.679181, 36.589405], [114.679976, 36.59413], [114.678068, 36.597578], [114.675045, 36.597961], [114.670592, 36.596684], [114.668047, 36.593747], [114.661048, 36.590299], [114.659299, 36.585318], [114.659617, 36.582124], [114.656913, 36.578804], [114.657549, 36.577271], [114.656277, 36.575483], [114.642757, 36.575866], [114.642757, 36.57395], [114.640212, 36.572545], [114.633054, 36.572928], [114.632577, 36.571012], [114.627646, 36.571395], [114.627805, 36.569479], [114.621443, 36.568585], [114.618739, 36.568712], [114.61683, 36.564113]]]}, "properties": {"display_name": "肥乡区, 邯郸市, 河北省, 057500, 中国", "type": "administrative", "osm_type": "relation", "osm_id": 5674422, "class": null, "keyword": "district"}}, {"type": "Feature", "geometry": {"type": "Polygon", "coordinates": [[[114.31233, 36.424462], [114.312629, 36.419925], [114.313746, 36.418514], [114.318202, 36.416559], [114.32575, 36.415106], [114.329114, 36.414165], [114.330089, 36.410642], [114.331362, 36.40509], [114.339208, 36.404839], [114.341365, 36.404839], [114.350329, 36.403982], [114.365425, 36.402674], [114.366127, 36.417646], [114.373777, 36.416569], [114.385209, 36.416841], [114.384157, 36.403404], [114.402466, 36.402248], [114.400828, 36.387569], [114.423551, 36.384443], [114.435396, 36.381212], [114.433899, 36.375007], [114.437913, 36.374837], [114.439287, 36.374071], [114.461157, 36.372625], [114.462847, 36.371689], [114.462742, 36.369732], [114.477956, 36.369988], [114.479224, 36.371094], [114.480597, 36.37943], [114.483344, 36.37892], [114.485351, 36.394144], [114.486408, 36.39576], [114.487887, 36.403244], [114.484612, 36.403073], [114.483133, 36.399502], [114.481442, 36.397716], [114.479646, 36.397801], [114.477956, 36.399672], [114.477533, 36.401373], [114.478167, 36.403158], [114.480069, 36.403499], [114.481798, 36.408306], [114.482393, 36.409961], [114.483238, 36.418633], [114.48757, 36.425689], [114.49, 36.43368], [114.492113, 36.433765], [114.4956, 36.439545], [114.499614, 36.452293], [114.506059, 36.465889], [114.509968, 36.471157], [114.506376, 36.493583], [114.507644, 36.496046], [114.509757, 36.4962], [114.51004, 36.497474], [114.515294, 36.497474], [114.518228, 36.497166], [114.519504, 36.49573], [114.521545, 36.495012], [114.529006, 36.496303], [114.531623, 36.496756], [114.538895, 36.496448], [114.542084, 36.494397], [114.541957, 36.489679], [114.544381, 36.485884], [114.556117, 36.483935], [114.557266, 36.48773], [114.566961, 36.4865], [114.570023, 36.485166], [114.569896, 36.483422], [114.58227, 36.48373], [114.593242, 36.480653], [114.602555, 36.475421], [114.616588, 36.474498], [114.626156, 36.489371], [114.627328, 36.493433], [114.620489, 36.505836], [114.61858, 36.507114], [114.619375, 36.510182], [114.624624, 36.511716], [114.634327, 36.520409], [114.637349, 36.525905], [114.63904, 36.532122], [114.636235, 36.541114], [114.632418, 36.541497], [114.632259, 36.543287], [114.626533, 36.544053], [114.626692, 36.55057], [114.623352, 36.551209], [114.623829, 36.554276], [114.625419, 36.555298], [114.626215, 36.559642], [114.61683, 36.564113], [114.618739, 36.568712], [114.621443, 36.568585], [114.627805, 36.569479], [114.627646, 36.571395], [114.632577, 36.571012], [114.633054, 36.572928], [114.640212, 36.572545], [114.642757, 36.57395], [114.642757, 36.575866], [114.643332, 36.577873], [114.641274, 36.577987], [114.641628, 36.580836], [114.636732, 36.58152], [114.634603, 36.585965], [114.632899, 36.59605], [114.633254, 36.601235], [114.632261, 36.602773], [114.628642, 36.602603], [114.6285, 36.60528], [114.627435, 36.605337], [114.62708, 36.610863], [114.620693, 36.610407], [114.618819, 36.610632], [114.61652, 36.610837], [114.61508, 36.610759], [114.614568, 36.61491], [114.600858, 36.613783], [114.593032, 36.612754], [114.58937, 36.609491], [114.580885, 36.604845], [114.575916, 36.601082], [114.576099, 36.598269], [114.572868, 36.597829], [114.558812, 36.595917], [114.555344, 36.594211], [114.555283, 36.590368], [114.553574, 36.590574], [114.553379, 36.589231], [114.549338, 36.590065], [114.546615, 36.590663], [114.541304, 36.587261], [114.537984, 36.585987], [114.535408, 36.586722], [114.535298, 36.588271], [114.536006, 36.588349], [114.53603, 36.589614], [114.534675, 36.5898], [114.531733, 36.590055], [114.533027, 36.591172], [114.533454, 36.592319], [114.53379, 36.595206], [114.53253, 36.59536], [114.532714, 36.59701], [114.532824, 36.59702], [114.533029, 36.599081], [114.52097, 36.599873], [114.506859, 36.600805], [114.50334, 36.601267], [114.50182, 36.601462], [114.496058, 36.602201], [114.49379, 36.602519], [114.493002, 36.602623], [114.491297, 36.60284], [114.486864, 36.603429], [114.484771, 36.6037], [114.483065, 36.603934], [114.48218, 36.603934], [114.478587, 36.603774], [114.478426, 36.597227], [114.477042, 36.597264], [114.477075, 36.598493], [114.476531, 36.598482], [114.476497, 36.597279], [114.469789, 36.597458], [114.468786, 36.597531], [114.466954, 36.592429], [114.466162, 36.590409], [114.464143, 36.585031], [114.461354, 36.578665], [114.460816, 36.577301], [114.456577, 36.577381], [114.453228, 36.576496], [114.452741, 36.568155], [114.452363, 36.568159], [114.451092, 36.568173], [114.442271, 36.568269], [114.441677, 36.568609], [114.437426, 36.568559], [114.427286, 36.568439], [114.427222, 36.567537], [114.427092, 36.567101], [114.422288, 36.567015], [114.420661, 36.567116], [114.418476, 36.56749], [114.41849, 36.570942], [114.41495, 36.571537], [114.415967, 36.572184], [114.416264, 36.573103], [114.411792, 36.57329], [114.411304, 36.57295], [114.410287, 36.573205], [114.409269, 36.571078], [114.407828, 36.570822], [114.407277, 36.571776], [114.407277, 36.572831], [114.407447, 36.575112], [114.406853, 36.575129], [114.406429, 36.573222], [114.403441, 36.573733], [114.402402, 36.576133], [114.403271, 36.588064], [114.402762, 36.588098], [114.402762, 36.588643], [114.400728, 36.588711], [114.40077, 36.590566], [114.399668, 36.590702], [114.379906, 36.581537], [114.379799, 36.579247], [114.378807, 36.57882], [114.378648, 36.577071], [114.369296, 36.578877], [114.367277, 36.579062], [114.363451, 36.579048], [114.360989, 36.574383], [114.361524, 36.57123], [114.359094, 36.571082], [114.352699, 36.559875], [114.351561, 36.55688], [114.353543, 36.555968], [114.360744, 36.554748], [114.369407, 36.55042], [114.377331, 36.548722], [114.377331, 36.546601], [114.385361, 36.544054], [114.385255, 36.541508], [114.387051, 36.54015], [114.386734, 36.536414], [114.388424, 36.536075], [114.388741, 36.533019], [114.388161, 36.527589], [114.38904, 36.524743], [114.388633, 36.516363], [114.386294, 36.507757], [114.38447, 36.495855], [114.38417, 36.490974], [114.381791, 36.487153], [114.371658, 36.486813], [114.371664, 36.487822], [114.371516, 36.489398], [114.351082, 36.492147], [114.345996, 36.493578], [114.350481, 36.483624], [114.355438, 36.473703], [114.356382, 36.47027], [114.355288, 36.467768], [114.353013, 36.465921], [114.330912, 36.466025], [114.318316, 36.465266], [114.313767, 36.460934], [114.315977, 36.449716], [114.314475, 36.43601], [114.314947, 36.429243], [114.31233, 36.424462]]]}, "properties": {"display_name": "邯山区, 邯郸市, 河北省, 056000, 中国", "type": "administrative", "osm_type": "relation", "osm_id": 5674427, "class": null, "keyword": "district"}}, {"type": "Feature", "geometry": {"type": "Polygon", "coordinates": [[[114.313741, 36.67719], [114.314301, 36.675542], [114.317291, 36.671644], [114.330577, 36.670477], [114.343617, 36.670605], [114.347578, 36.673171], [114.356723, 36.668053], [114.362377, 36.665687], [114.370389, 36.662021], [114.371293, 36.662836], [114.373353, 36.667621], [114.376915, 36.667208], [114.381427, 36.667084], [114.382686, 36.666007], [114.387609, 36.661741], [114.390539, 36.660015], [114.404209, 36.658033], [114.408823, 36.656811], [114.406222, 36.643197], [114.41318, 36.639589], [114.421762, 36.635188], [114.422538, 36.63742], [114.421987, 36.638882], [114.421817, 36.642233], [114.422411, 36.647079], [114.426523, 36.650123], [114.428663, 36.65128], [114.429548, 36.651304], [114.433444, 36.650775], [114.437536, 36.649091], [114.446573, 36.649007], [114.446408, 36.651196], [114.449301, 36.652698], [114.451969, 36.652566], [114.457184, 36.652578], [114.457214, 36.652278], [114.459792, 36.652242], [114.459912, 36.653877], [114.465832, 36.654141], [114.47403, 36.655404], [114.473446, 36.648682], [114.472322, 36.64867], [114.471857, 36.64564], [114.469624, 36.6457], [114.469129, 36.636933], [114.467496, 36.637018], [114.467466, 36.636392], [114.468005, 36.6362], [114.467616, 36.633602], [114.466162, 36.63371], [114.465937, 36.631834], [114.465772, 36.631413], [114.465068, 36.630559], [114.462969, 36.632917], [114.462415, 36.633289], [114.46204, 36.628839], [114.462445, 36.628791], [114.461617, 36.620212], [114.467497, 36.619282], [114.466724, 36.611325], [114.471456, 36.611024], [114.471627, 36.603402], [114.478587, 36.603774], [114.48218, 36.603934], [114.483065, 36.603934], [114.484771, 36.6037], [114.486864, 36.603429], [114.491297, 36.60284], [114.493002, 36.602623], [114.49379, 36.602519], [114.496058, 36.602201], [114.50182, 36.601462], [114.50334, 36.601267], [114.506859, 36.600805], [114.52097, 36.599873], [114.533029, 36.599081], [114.532824, 36.59702], [114.532714, 36.59701], [114.53253, 36.59536], [114.53379, 36.595206], [114.533454, 36.592319], [114.533027, 36.591172], [114.531733, 36.590055], [114.534675, 36.5898], [114.53603, 36.589614], [114.536006, 36.588349], [114.535298, 36.588271], [114.535408, 36.586722], [114.537984, 36.585987], [114.541304, 36.587261], [114.546615, 36.590663], [114.549338, 36.590065], [114.553379, 36.589231], [114.553574, 36.590574], [114.555283, 36.590368], [114.555344, 36.594211], [114.558812, 36.595917], [114.572868, 36.597829], [114.576099, 36.598269], [114.575916, 36.601082], [114.580885, 36.604845], [114.58937, 36.609491], [114.593032, 36.612754], [114.600858, 36.613783], [114.614568, 36.61491], [114.61508, 36.610759], [114.61652, 36.610837], [114.618819, 36.610632], [114.620693, 36.610407], [114.62708, 36.610863], [114.627435, 36.605337], [114.6285, 36.60528], [114.628642, 36.602603], [114.632261, 36.602773], [114.633254, 36.601235], [114.632899, 36.59605], [114.634603, 36.585965], [114.636732, 36.58152], [114.641628, 36.580836], [114.641274, 36.577987], [114.643332, 36.577873], [114.642757, 36.575866], [114.656277, 36.575483], [114.657549, 36.577271], [114.656913, 36.578804], [114.659617, 36.582124], [114.659299, 36.585318], [114.661048, 36.590299], [114.668047, 36.593747], [114.670592, 36.596684], [114.675045, 36.597961], [114.678068, 36.597578], [114.679976, 36.59413], [114.679181, 36.589405], [114.686816, 36.588], [114.68952, 36.587106], [114.689838, 36.584296], [114.697791, 36.583402], [114.699063, 36.590937], [114.70129, 36.592725], [114.704312, 36.597578], [114.703676, 36.600387], [114.705903, 36.600898], [114.711152, 36.610474], [114.715924, 36.615964], [114.716083, 36.618645], [114.710515, 36.619028], [114.710515, 36.622602], [114.719264, 36.623113], [114.724179, 36.624954], [114.726421, 36.625794], [114.747735, 36.631283], [114.768095, 36.640728], [114.782728, 36.646598], [114.783046, 36.650299], [114.786386, 36.650299], [114.787182, 36.653362], [114.800702, 36.655021], [114.799906, 36.661145], [114.807547, 36.662604], [114.806087, 36.667259], [114.805155, 36.671062], [114.806719, 36.675162], [114.807245, 36.679395], [114.807956, 36.685117], [114.8086, 36.690305], [114.802122, 36.697922], [114.797831, 36.698598], [114.790829, 36.699703], [114.778717, 36.701617], [114.771395, 36.702777], [114.769733, 36.703041], [114.766709, 36.70352], [114.765433, 36.700691], [114.764342, 36.698274], [114.764308, 36.698198], [114.762179, 36.69348], [114.761391, 36.687593], [114.764069, 36.683851], [114.762539, 36.682987], [114.752291, 36.677196], [114.74671, 36.674042], [114.743966, 36.672492], [114.73822, 36.670965], [114.735728, 36.668255], [114.734527, 36.667085], [114.734056, 36.666879], [114.732479, 36.666479], [114.729741, 36.666956], [114.727683, 36.667131], [114.725346, 36.66787], [114.725283, 36.66789], [114.720354, 36.668513], [114.717868, 36.669101], [114.719452, 36.672918], [114.720481, 36.674947], [114.720689, 36.675449], [114.720948, 36.676071], [114.721289, 36.676893], [114.721782, 36.678079], [114.722641, 36.680151], [114.715996, 36.689649], [114.714082, 36.692387], [114.711568, 36.695981], [114.705102, 36.696509], [114.705008, 36.696517], [114.699573, 36.696962], [114.699797, 36.702106], [114.692919, 36.706568], [114.689465, 36.708809], [114.681766, 36.709298], [114.671782, 36.709933], [114.669988, 36.710048], [114.669227, 36.710096], [114.659117, 36.71074], [114.651446, 36.711227], [114.608153, 36.71395], [114.598835, 36.710262], [114.59188, 36.717771], [114.589467, 36.718738], [114.580525, 36.720445], [114.573571, 36.720445], [114.569597, 36.721127], [114.564132, 36.723289], [114.552919, 36.725166], [114.542203, 36.725393], [114.537022, 36.724654], [114.535035, 36.729318], [114.528577, 36.729546], [114.528364, 36.728408], [114.527016, 36.728294], [114.526945, 36.723687], [114.523255, 36.723175], [114.523042, 36.720786], [114.519919, 36.720843], [114.519848, 36.721525], [114.515661, 36.721696], [114.503242, 36.711798], [114.498842, 36.712537], [114.498842, 36.709181], [114.498061, 36.70645], [114.496642, 36.705027], [114.495364, 36.705255], [114.49579, 36.708213], [114.489616, 36.709579], [114.484294, 36.70975], [114.484364, 36.711399], [114.480177, 36.711968], [114.481384, 36.720445], [114.449945, 36.720672], [114.448029, 36.720682], [114.447107, 36.713514], [114.429577, 36.712945], [114.407719, 36.711466], [114.383094, 36.706403], [114.375358, 36.706516], [114.375145, 36.703956], [114.373584, 36.702704], [114.368545, 36.701794], [114.359107, 36.701851], [114.358113, 36.698835], [114.354778, 36.698949], [114.3513, 36.699347], [114.350662, 36.701623], [114.34761, 36.703216], [114.342997, 36.704411], [114.340726, 36.701225], [114.337958, 36.706346], [114.333629, 36.709702], [114.33292, 36.712319], [114.333558, 36.714538], [114.335545, 36.718293], [114.337767, 36.720103], [114.337448, 36.721236], [114.33586, 36.721985], [114.333243, 36.721835], [114.331094, 36.72221], [114.329225, 36.721461], [114.327263, 36.717941], [114.322965, 36.715769], [114.320442, 36.716667], [114.31904, 36.715694], [114.319134, 36.713222], [114.320629, 36.710974], [114.320629, 36.707903], [114.319881, 36.705731], [114.319881, 36.699513], [114.318667, 36.696816], [114.316985, 36.694193], [114.316424, 36.687974], [114.318106, 36.686026], [114.31739, 36.680747], [114.316334, 36.67891], [114.314936, 36.679654], [114.313741, 36.67719]]]}, "properties": {"display_name": "丛台区, 邯郸市, 河北省, 056100, 中国", "type": "administrative", "osm_type": "relation", "osm_id": 5674426, "class": null, "keyword": "district"}}, {"type": "Feature", "geometry": {"type": "Polygon", "coordinates": [[[114.050241, 36.513707], [114.050479, 36.510074], [114.055676, 36.510991], [114.057356, 36.509266], [114.058849, 36.508741], [114.063234, 36.509716], [114.071258, 36.509566], [114.088519, 36.507841], [114.094491, 36.508741], [114.097103, 36.507841], [114.098876, 36.504991], [114.100742, 36.500866], [114.100928, 36.498091], [114.09757, 36.497191], [114.092531, 36.498991], [114.089359, 36.498241], [114.088949, 36.496642], [114.088706, 36.495691], [114.089091, 36.493383], [114.089732, 36.48954], [114.094491, 36.483839], [114.09673, 36.479413], [114.096077, 36.474536], [114.090945, 36.470185], [114.096357, 36.467108], [114.097756, 36.463206], [114.097476, 36.458029], [114.097952, 36.454277], [114.098156, 36.452672], [114.098409, 36.450674], [114.099711, 36.446535], [114.100462, 36.444145], [114.094957, 36.433336], [114.098409, 36.431759], [114.099342, 36.426204], [114.100462, 36.420273], [114.101464, 36.418519], [114.10578, 36.410962], [114.105489, 36.41011], [114.105163, 36.409157], [114.104754, 36.407959], [114.104754, 36.406675], [114.104754, 36.405481], [114.106761, 36.404391], [114.108766, 36.403303], [114.108766, 36.401117], [114.108766, 36.399849], [114.109699, 36.39752], [114.108447, 36.396631], [114.106527, 36.395268], [114.10746, 36.391737], [114.104802, 36.389104], [114.103821, 36.388132], [114.103927, 36.387555], [114.104194, 36.386104], [114.107739, 36.385428], [114.110725, 36.383851], [114.111098, 36.380395], [114.10947, 36.37631], [114.108982, 36.375087], [114.108673, 36.374311], [114.109155, 36.370924], [114.109326, 36.369728], [114.110035, 36.36869], [114.110352, 36.368225], [114.115577, 36.367624], [114.122295, 36.369878], [114.131159, 36.368225], [114.135077, 36.366798], [114.13825, 36.363567], [114.146274, 36.36507], [114.15719, 36.362515], [114.165774, 36.359886], [114.169133, 36.356354], [114.174171, 36.35425], [114.178463, 36.347562], [114.183781, 36.34388], [114.188447, 36.342301], [114.193672, 36.343804], [114.199363, 36.342677], [114.202909, 36.343504], [114.202722, 36.346209], [114.203562, 36.34884], [114.207014, 36.350568], [114.207667, 36.352747], [114.204588, 36.354776], [114.207481, 36.358458], [114.20832, 36.361989], [114.206921, 36.365821], [114.207107, 36.368], [114.209347, 36.370104], [114.216328, 36.371412], [114.219231, 36.374705], [114.219561, 36.37683], [114.220287, 36.379221], [114.224971, 36.384107], [114.232888, 36.397013], [114.233218, 36.407792], [114.227288, 36.413636], [114.227738, 36.415442], [114.232698, 36.418148], [114.23502, 36.41815], [114.235502, 36.418151], [114.237134, 36.418129], [114.238741, 36.420263], [114.242699, 36.421218], [114.245443, 36.420756], [114.24717, 36.421299], [114.247958, 36.423507], [114.249316, 36.426056], [114.24826, 36.429772], [114.249712, 36.431205], [114.253538, 36.43147], [114.254528, 36.433487], [114.256375, 36.434443], [114.263237, 36.435664], [114.268713, 36.435664], [114.273661, 36.437574], [114.277091, 36.441131], [114.279664, 36.441237], [114.280456, 36.444846], [114.284877, 36.449145], [114.286856, 36.452594], [114.283029, 36.45408], [114.283557, 36.458219], [114.28679, 36.458219], [114.287384, 36.460713], [114.292794, 36.459015], [114.29662, 36.459492], [114.30137, 36.460235], [114.310409, 36.459705], [114.312256, 36.460713], [114.310607, 36.461668], [114.305461, 36.463048], [114.304471, 36.464852], [114.304669, 36.473287], [114.301964, 36.476895], [114.296818, 36.479335], [114.291012, 36.479972], [114.286658, 36.480927], [114.284547, 36.484003], [114.283227, 36.48151], [114.283293, 36.477001], [114.278675, 36.478327], [114.277025, 36.478168], [114.277158, 36.476205], [114.275838, 36.476205], [114.27155, 36.477744], [114.268713, 36.47838], [114.267855, 36.485966], [114.266272, 36.486815], [114.265612, 36.488194], [114.265678, 36.497264], [114.267723, 36.499067], [114.269702, 36.498165], [114.271681, 36.498059], [114.276366, 36.498059], [114.280456, 36.49965], [114.282963, 36.503575], [114.283227, 36.508559], [114.282436, 36.513968], [114.280258, 36.517044], [114.279203, 36.518316], [114.279664, 36.521285], [114.279269, 36.523035], [114.274716, 36.527913], [114.272869, 36.529397], [114.268515, 36.528708], [114.267261, 36.529344], [114.266469, 36.531783], [114.266799, 36.533691], [114.271286, 36.535652], [114.277355, 36.536872], [114.28039, 36.539045], [114.28105, 36.541377], [114.279599, 36.544505], [114.278873, 36.55007], [114.275285, 36.549858], [114.270911, 36.549047], [114.26536, 36.549182], [114.265192, 36.544722], [114.259135, 36.539181], [114.258126, 36.541478], [114.257453, 36.545939], [114.255266, 36.547425], [114.256443, 36.549723], [114.255434, 36.551209], [114.25106, 36.551345], [114.249714, 36.554453], [114.247191, 36.555669], [114.247022, 36.558507], [114.240966, 36.559183], [114.236928, 36.560128], [114.235583, 36.557831], [114.231545, 36.558777], [114.227676, 36.55675], [114.226666, 36.553101], [114.219937, 36.548371], [114.213712, 36.547696], [114.208497, 36.546614], [114.203787, 36.547425], [114.201095, 36.545939], [114.198067, 36.546209], [114.194534, 36.546344], [114.185449, 36.541884], [114.180571, 36.541613], [114.179056, 36.544046], [114.171486, 36.546885], [114.166775, 36.546479], [114.163747, 36.546479], [114.162401, 36.550128], [114.158027, 36.551345], [114.152644, 36.551345], [114.148438, 36.552561], [114.141036, 36.550399], [114.137671, 36.552966], [114.140027, 36.564588], [114.138344, 36.56729], [114.131447, 36.568506], [114.128923, 36.572694], [114.126904, 36.57364], [114.126063, 36.570533], [114.123372, 36.570263], [114.121184, 36.569587], [114.11681, 36.563507], [114.116306, 36.555939], [114.107894, 36.55648], [114.102679, 36.557426], [114.100828, 36.56148], [114.101165, 36.564858], [114.099987, 36.568101], [114.095277, 36.571343], [114.091239, 36.572559], [114.087474, 36.572772], [114.085351, 36.571479], [114.082491, 36.569722], [114.080304, 36.562966], [114.081818, 36.557156], [114.080472, 36.553372], [114.081482, 36.549588], [114.086865, 36.545128], [114.08737, 36.541884], [114.086832, 36.540588], [114.085856, 36.538234], [114.084049, 36.536887], [114.081145, 36.53472], [114.077444, 36.536072], [114.077326, 36.536053], [114.074079, 36.535531], [114.072733, 36.532422], [114.06735, 36.532692], [114.064658, 36.529042], [114.065331, 36.525392], [114.064154, 36.523094], [114.060453, 36.523229], [114.058602, 36.522283], [114.055406, 36.522283], [114.054228, 36.521066], [114.055237, 36.519444], [114.054761, 36.516958], [114.050241, 36.513707]]]}, "properties": {"display_name": "峰峰矿区, 邯郸市, 河北省, 056000, 中国", "type": "administrative", "osm_type": "relation", "osm_id": 4437714, "class": null, "keyword": "district"}}, {"type": "Feature", "geometry": {"type": "MultiPolygon", "coordinates": [[[[114.111161, 36.612347], [114.114851, 36.612091], [114.114883, 36.611118], [114.114556, 36.610442], [114.114529, 36.606877], [114.117479, 36.606756], [114.118446, 36.606207], [114.122647, 36.60953], [114.12332, 36.610262], [114.123927, 36.610989], [114.127069, 36.610703], [114.12883, 36.610808], [114.128975, 36.61234], [114.131148, 36.612169], [114.131359, 36.613229], [114.127388, 36.613599], [114.127459, 36.614125], [114.129538, 36.613909], [114.129195, 36.61353], [114.131454, 36.613284], [114.13155, 36.613814], [114.129673, 36.61396], [114.129861, 36.614879], [114.130074, 36.615569], [114.131049, 36.617369], [114.131288, 36.617625], [114.13213, 36.618315], [114.133025, 36.619219], [114.134736, 36.621125], [114.135037, 36.622185], [114.135569, 36.622206], [114.135719, 36.622377], [114.135835, 36.622775], [114.13673, 36.622718], [114.137403, 36.622825], [114.13759, 36.623515], [114.137501, 36.625706], [114.137616, 36.626211], [114.138095, 36.626687], [114.139876, 36.627875], [114.139894, 36.628586], [114.13985, 36.630315], [114.139725, 36.630763], [114.136366, 36.628594], [114.132041, 36.627825], [114.130739, 36.627007], [114.130216, 36.6271], [114.127947, 36.626993], [114.127185, 36.626503], [114.125368, 36.626211], [114.123586, 36.625044], [114.123471, 36.623565], [114.122558, 36.62333], [114.121291, 36.622661], [114.120033, 36.619975], [114.120483, 36.617026], [114.120285, 36.614834], [114.121047, 36.614705], [114.120945, 36.61396], [114.120408, 36.613973], [114.120156, 36.614834], [114.120317, 36.617009], [114.119877, 36.619958], [114.120939, 36.622055], [114.120981, 36.62264], [114.120653, 36.622747], [114.120006, 36.622939], [114.115628, 36.619973], [114.114183, 36.618834], [114.113447, 36.618002], [114.112995, 36.617163], [114.111161, 36.612347]]], [[[114.265612, 36.488194], [114.266272, 36.486815], [114.267855, 36.485966], [114.268713, 36.47838], [114.27155, 36.477744], [114.275838, 36.476205], [114.277158, 36.476205], [114.277025, 36.478168], [114.278675, 36.478327], [114.283293, 36.477001], [114.283227, 36.48151], [114.284547, 36.484003], [114.286658, 36.480927], [114.291012, 36.479972], [114.296818, 36.479335], [114.301964, 36.476895], [114.304669, 36.473287], [114.304471, 36.464852], [114.305461, 36.463048], [114.310607, 36.461668], [114.312256, 36.460713], [114.310409, 36.459705], [114.30137, 36.460235], [114.29662, 36.459492], [114.292794, 36.459015], [114.287384, 36.460713], [114.28679, 36.458219], [114.283557, 36.458219], [114.283029, 36.45408], [114.286856, 36.452594], [114.284877, 36.449145], [114.280456, 36.444846], [114.279664, 36.441237], [114.277091, 36.441131], [114.273661, 36.437574], [114.288898, 36.434284], [114.314947, 36.429243], [114.314475, 36.43601], [114.315977, 36.449716], [114.313767, 36.460934], [114.318316, 36.465266], [114.330912, 36.466025], [114.353013, 36.465921], [114.355288, 36.467768], [114.356382, 36.47027], [114.355438, 36.473703], [114.350481, 36.483624], [114.345996, 36.493578], [114.351082, 36.492147], [114.371516, 36.489398], [114.371664, 36.487822], [114.371658, 36.486813], [114.381791, 36.487153], [114.38417, 36.490974], [114.38447, 36.495855], [114.386294, 36.507757], [114.388633, 36.516363], [114.38904, 36.524743], [114.388161, 36.527589], [114.388741, 36.533019], [114.388424, 36.536075], [114.386734, 36.536414], [114.387051, 36.54015], [114.385255, 36.541508], [114.385361, 36.544054], [114.377331, 36.546601], [114.377331, 36.548722], [114.369407, 36.55042], [114.360744, 36.554748], [114.353543, 36.555968], [114.351561, 36.55688], [114.352699, 36.559875], [114.359094, 36.571082], [114.361524, 36.57123], [114.360989, 36.574383], [114.363451, 36.579048], [114.367277, 36.579062], [114.369296, 36.578877], [114.378648, 36.577071], [114.378807, 36.57882], [114.379799, 36.579247], [114.379906, 36.581537], [114.399668, 36.590702], [114.40077, 36.590566], [114.400728, 36.588711], [114.402762, 36.588643], [114.402762, 36.588098], [114.403271, 36.588064], [114.402402, 36.576133], [114.403441, 36.573733], [114.406429, 36.573222], [114.406853, 36.575129], [114.407447, 36.575112], [114.407277, 36.572831], [114.407277, 36.571776], [114.407828, 36.570822], [114.409269, 36.571078], [114.410287, 36.573205], [114.411304, 36.57295], [114.411792, 36.57329], [114.416264, 36.573103], [114.415967, 36.572184], [114.41495, 36.571537], [114.41849, 36.570942], [114.418476, 36.56749], [114.420661, 36.567116], [114.422288, 36.567015], [114.427092, 36.567101], [114.427222, 36.567537], [114.427286, 36.568439], [114.437426, 36.568559], [114.441677, 36.568609], [114.442271, 36.568269], [114.451092, 36.568173], [114.452363, 36.568159], [114.452741, 36.568155], [114.453228, 36.576496], [114.456577, 36.577381], [114.460816, 36.577301], [114.461354, 36.578665], [114.464143, 36.585031], [114.466162, 36.590409], [114.466954, 36.592429], [114.468786, 36.597531], [114.469922, 36.607415], [114.471456, 36.611024], [114.466724, 36.611325], [114.467497, 36.619282], [114.461617, 36.620212], [114.462445, 36.628791], [114.46204, 36.628839], [114.462415, 36.633289], [114.462969, 36.632917], [114.465068, 36.630559], [114.465772, 36.631413], [114.465937, 36.631834], [114.466162, 36.63371], [114.467616, 36.633602], [114.468005, 36.6362], [114.467466, 36.636392], [114.467496, 36.637018], [114.469129, 36.636933], [114.469624, 36.6457], [114.471857, 36.64564], [114.472322, 36.64867], [114.473446, 36.648682], [114.47403, 36.655404], [114.465832, 36.654141], [114.459912, 36.653877], [114.459792, 36.652242], [114.457214, 36.652278], [114.457184, 36.652578], [114.451969, 36.652566], [114.449301, 36.652698], [114.446408, 36.651196], [114.446573, 36.649007], [114.437536, 36.649091], [114.433444, 36.650775], [114.429548, 36.651304], [114.428663, 36.65128], [114.426523, 36.650123], [114.422411, 36.647079], [114.421817, 36.642233], [114.421987, 36.638882], [114.422538, 36.63742], [114.421762, 36.635188], [114.41318, 36.639589], [114.406222, 36.643197], [114.408823, 36.656811], [114.404209, 36.658033], [114.390539, 36.660015], [114.387609, 36.661741], [114.382686, 36.666007], [114.381427, 36.667084], [114.376915, 36.667208], [114.373353, 36.667621], [114.371293, 36.662836], [114.370389, 36.662021], [114.362377, 36.665687], [114.356723, 36.668053], [114.347578, 36.673171], [114.343617, 36.670605], [114.330577, 36.670477], [114.317291, 36.671644], [114.318133, 36.668871], [114.316731, 36.665574], [114.31318, 36.659652], [114.310937, 36.653805], [114.307387, 36.651106], [114.304023, 36.652231], [114.3015, 36.650807], [114.29823, 36.646234], [114.296548, 36.643235], [114.297856, 36.640685], [114.304397, 36.639186], [114.299351, 36.627488], [114.297295, 36.626439], [114.296921, 36.623139], [114.293931, 36.622989], [114.293371, 36.625689], [114.289072, 36.624489], [114.289157, 36.61953], [114.286633, 36.618314], [114.283942, 36.619125], [114.282091, 36.617774], [114.277885, 36.62034], [114.271997, 36.620205], [114.269642, 36.618719], [114.26981, 36.612778], [114.27267, 36.605081], [114.281523, 36.602833], [114.284415, 36.600782], [114.28863, 36.598977], [114.290997, 36.599089], [114.292522, 36.595221], [114.289157, 36.59252], [114.289982, 36.589248], [114.292458, 36.589092], [114.295642, 36.586069], [114.288744, 36.583638], [114.284202, 36.581071], [114.286052, 36.577288], [114.279491, 36.5731], [114.282856, 36.567155], [114.285548, 36.563372], [114.285379, 36.560669], [114.284202, 36.555129], [114.285884, 36.553372], [114.284034, 36.552291], [114.278482, 36.553237], [114.275285, 36.549858], [114.278873, 36.55007], [114.279599, 36.544505], [114.28105, 36.541377], [114.28039, 36.539045], [114.277355, 36.536872], [114.271286, 36.535652], [114.266799, 36.533691], [114.266469, 36.531783], [114.267261, 36.529344], [114.268515, 36.528708], [114.272869, 36.529397], [114.274716, 36.527913], [114.279269, 36.523035], [114.279664, 36.521285], [114.279203, 36.518316], [114.280258, 36.517044], [114.282436, 36.513968], [114.283227, 36.508559], [114.282963, 36.503575], [114.280456, 36.49965], [114.276366, 36.498059], [114.271681, 36.498059], [114.269702, 36.498165], [114.267723, 36.499067], [114.265678, 36.497264], [114.265612, 36.488194]]]]}, "properties": {"display_name": "复兴区, 邯郸市, 河北省, 056000, 中国", "type": "administrative", "osm_type": "relation", "osm_id": 5674423, "class": null, "keyword": "district"}}, {"type": "Feature", "geometry": {"type": "Polygon", "coordinates": [[[113.641034, 36.577951], [113.641086, 36.577611], [113.641423, 36.576723], [113.642284, 36.576971], [113.642594, 36.576419], [113.643558, 36.576727], [113.643719, 36.576348], [113.643633, 36.576184], [113.644457, 36.57533], [113.644844, 36.57475], [113.64555, 36.574285], [113.646211, 36.57282], [113.647818, 36.571], [113.648673, 36.570786], [113.649626, 36.570482], [113.654054, 36.574863], [113.654261, 36.574705], [113.654952, 36.575369], [113.655477, 36.575928], [113.655851, 36.575643], [113.656438, 36.575231], [113.657392, 36.574617], [113.65857, 36.574061], [113.65918, 36.574538], [113.660341, 36.575943], [113.666372, 36.573459], [113.666438, 36.572363], [113.666396, 36.572053], [113.665188, 36.570762], [113.664109, 36.569611], [113.662332, 36.567908], [113.659708, 36.56986], [113.65807, 36.571393], [113.657401, 36.572276], [113.653458, 36.568381], [113.654241, 36.567968], [113.655312, 36.567903], [113.657426, 36.568331], [113.658749, 36.568138], [113.659809, 36.567508], [113.66062, 36.56639], [113.658103, 36.564018], [113.659186, 36.563212], [113.662252, 36.56087], [113.664032, 36.559554], [113.664877, 36.558958], [113.665124, 36.558763], [113.666571, 36.560253], [113.66784, 36.559363], [113.668065, 36.559567], [113.670016, 36.561481], [113.670665, 36.562247], [113.671393, 36.561852], [113.672142, 36.561399], [113.675995, 36.559209], [113.676327, 36.56038], [113.676573, 36.560922], [113.676873, 36.561405], [113.677291, 36.561921], [113.677836, 36.562403], [113.680127, 36.563964], [113.681367, 36.565059], [113.683466, 36.567518], [113.686848, 36.569919], [113.689054, 36.572211], [113.693019, 36.576733], [113.696274, 36.579344], [113.679057, 36.587485], [113.677254, 36.586529], [113.671496, 36.583476], [113.667917, 36.58175], [113.667005, 36.581479], [113.665775, 36.58139], [113.664254, 36.581409], [113.655287, 36.582003], [113.653838, 36.582386], [113.652969, 36.582801], [113.650501, 36.584233], [113.649702, 36.584501], [113.647363, 36.585404], [113.642401, 36.587386], [113.64258, 36.584478], [113.64252, 36.583743], [113.642408, 36.582924], [113.641103, 36.57845], [113.641034, 36.577951]]]}, "properties": {"display_name": "平安街道, 涉县, 邯郸市, 河北省, 056000, 中国", "type": "administrative", "osm_type": "relation", "osm_id": 9837505, "class": null, "keyword": "subdistrict"}}, {"type": "Feature", "geometry": {"type": "MultiPolygon", "coordinates": [[[[114.408373, 36.590143], [114.43367, 36.590609], [114.433847, 36.591349], [114.43513, 36.592244], [114.435171, 36.593372], [114.434206, 36.593359], [114.434154, 36.594025], [114.435195, 36.594026], [114.435255, 36.594601], [114.426618, 36.605104], [114.425097, 36.606942], [114.42483, 36.60679], [114.424086, 36.606582], [114.423507, 36.606568], [114.42298, 36.606616], [114.42222, 36.606783], [114.419489, 36.606811], [114.41948, 36.60826], [114.418936, 36.608385], [114.418323, 36.608663], [114.417968, 36.608787], [114.417441, 36.60894], [114.416612, 36.609037], [114.416482, 36.610515], [114.416378, 36.613178], [114.415825, 36.613345], [114.415376, 36.613472], [114.415108, 36.613671], [114.413544, 36.61469], [114.411816, 36.612714], [114.41115, 36.611923], [114.410649, 36.611188], [114.410174, 36.610355], [114.40994, 36.6098], [114.409672, 36.609072], [114.409422, 36.608004], [114.409197, 36.606339], [114.408782, 36.603515], [114.408618, 36.602086], [114.408428, 36.600338], [114.408373, 36.590143]]], [[[114.408428, 36.585717], [114.408497, 36.57958], [114.408664, 36.578019], [114.410682, 36.578821], [114.410694, 36.577434], [114.411907, 36.577573], [114.411961, 36.57703], [114.413088, 36.577048], [114.412842, 36.581404], [114.411156, 36.581369], [114.41142, 36.582114], [114.412189, 36.582106], [114.412221, 36.582032], [114.413402, 36.582064], [114.413375, 36.582214], [114.413329, 36.583895], [114.413447, 36.583956], [114.41333, 36.586629], [114.412085, 36.586589], [114.412149, 36.585973], [114.410702, 36.585945], [114.410696, 36.586829], [114.408428, 36.585717]]], [[[114.414507, 36.586658], [114.4147, 36.584351], [114.416806, 36.584396], [114.416759, 36.58569], [114.421058, 36.585813], [114.421059, 36.58609], [114.421516, 36.586081], [114.421457, 36.586775], [114.423027, 36.586797], [114.423003, 36.588576], [114.425046, 36.588617], [114.42504, 36.58882], [114.426604, 36.588839], [114.426932, 36.588839], [114.426894, 36.589317], [114.426587, 36.58929], [114.426654, 36.589832], [114.424752, 36.589848], [114.42243, 36.589906], [114.422388, 36.589622], [114.421958, 36.589613], [114.419519, 36.589508], [114.419396, 36.588418], [114.416559, 36.588382], [114.416441, 36.589648], [114.415154, 36.589016], [114.414507, 36.586658]]]]}, "properties": {"display_name": "石化街道, 复兴区, 邯郸市, 河北省, 056000, 中国", "type": "administrative", "osm_type": "relation", "osm_id": 9843251, "class": null, "keyword": "subdistrict"}}, {"type": "Feature", "geometry": {"type": "Polygon", "coordinates": [[[114.423386, 36.609731], [114.42349, 36.609322], [114.423663, 36.608933], [114.424017, 36.608364], [114.425097, 36.606942], [114.426618, 36.605104], [114.435255, 36.594601], [114.4367, 36.595665], [114.435646, 36.596895], [114.438753, 36.596925], [114.438851, 36.597579], [114.441518, 36.597231], [114.44368, 36.59696], [114.444616, 36.596694], [114.445079, 36.59666], [114.4451, 36.596428], [114.445627, 36.59642], [114.445605, 36.596282], [114.445928, 36.596291], [114.445875, 36.595594], [114.449379, 36.595258], [114.452395, 36.595008], [114.451787, 36.59096], [114.454376, 36.590953], [114.459172, 36.591051], [114.45878, 36.591414], [114.456577, 36.594626], [114.461536, 36.594266], [114.463722, 36.594002], [114.463868, 36.59497], [114.464059, 36.595195], [114.463791, 36.595806], [114.462772, 36.598192], [114.462608, 36.598844], [114.462582, 36.599468], [114.46146, 36.599589], [114.459521, 36.599823], [114.459542, 36.600068], [114.458578, 36.600053], [114.458583, 36.600446], [114.456355, 36.600385], [114.456519, 36.602212], [114.456765, 36.60312], [114.456005, 36.603335], [114.45527, 36.604424], [114.453404, 36.606519], [114.451969, 36.608184], [114.452721, 36.608142], [114.451909, 36.608878], [114.450526, 36.60971], [114.449264, 36.610064], [114.447769, 36.610348], [114.445825, 36.610619], [114.444182, 36.610779], [114.443442, 36.610882], [114.443296, 36.610105], [114.445079, 36.610033], [114.444956, 36.608792], [114.442803, 36.608929], [114.442811, 36.609165], [114.441994, 36.60919], [114.441919, 36.609302], [114.441769, 36.609327], [114.441758, 36.609542], [114.440886, 36.609627], [114.440777, 36.610162], [114.439276, 36.610251], [114.439295, 36.61051], [114.437106, 36.610592], [114.437119, 36.610651], [114.437001, 36.610664], [114.437049, 36.610948], [114.43699, 36.610944], [114.436758, 36.611003], [114.436509, 36.611066], [114.435185, 36.611124], [114.432885, 36.611336], [114.431949, 36.611421], [114.43239, 36.610182], [114.433305, 36.609228], [114.431795, 36.609351], [114.431731, 36.608663], [114.429635, 36.608841], [114.427775, 36.609071], [114.428021, 36.610442], [114.423767, 36.611555], [114.423386, 36.609731]], [[114.435191, 36.609168], [114.435341, 36.610623], [114.437201, 36.610402], [114.437169, 36.610273], [114.437331, 36.610247], [114.43732, 36.609989], [114.437212, 36.609593], [114.437062, 36.609593], [114.437051, 36.609042], [114.437051, 36.609033], [114.437019, 36.609024], [114.435191, 36.609168]]]}, "properties": {"display_name": "百家村街道, 复兴区, 邯郸市, 河北省, 056000, 中国", "type": "administrative", "osm_type": "relation", "osm_id": 9843246, "class": null, "keyword": "subdistrict"}}, {"type": "Feature", "geometry": {"type": "Polygon", "coordinates": [[[114.483705, 36.56928], [114.484895, 36.569244], [114.484904, 36.567586], [114.488716, 36.567322], [114.490271, 36.567235], [114.49219, 36.567129], [114.496908, 36.567229], [114.498388, 36.567388], [114.498389, 36.567724], [114.499851, 36.567794], [114.501725, 36.567906], [114.503534, 36.568497], [114.505301, 36.570122], [114.506292, 36.572157], [114.506895, 36.574087], [114.507361, 36.575555], [114.50754, 36.576121], [114.50823, 36.577811], [114.508863, 36.579056], [114.50898, 36.579433], [114.509213, 36.579857], [114.509808, 36.580941], [114.510061, 36.581403], [114.509631, 36.581544], [114.510019, 36.582371], [114.512045, 36.585181], [114.510651, 36.585218], [114.503889, 36.58561], [114.503545, 36.582672], [114.50076, 36.582853], [114.499454, 36.582851], [114.4994, 36.582592], [114.498756, 36.582623], [114.49874, 36.582504], [114.498732, 36.582298], [114.497816, 36.58227], [114.496254, 36.58223], [114.496146, 36.582178], [114.496178, 36.581972], [114.496276, 36.581318], [114.496254, 36.58112], [114.494153, 36.581209], [114.493346, 36.581223], [114.493605, 36.583832], [114.493661, 36.584663], [114.493715, 36.585163], [114.493852, 36.586243], [114.489131, 36.586556], [114.489077, 36.585965], [114.489902, 36.58592], [114.489847, 36.585472], [114.490279, 36.585447], [114.490193, 36.584617], [114.490867, 36.584549], [114.490804, 36.583894], [114.490734, 36.58352], [114.489392, 36.583714], [114.488514, 36.583666], [114.488289, 36.583583], [114.487455, 36.583701], [114.486775, 36.583762], [114.486377, 36.583847], [114.486177, 36.583844], [114.485127, 36.583957], [114.483852, 36.571084], [114.483705, 36.56928]]]}, "properties": {"display_name": "罗城头街道, 邯山区, 邯郸市, 河北省, 056000, 中国", "type": "administrative", "osm_type": "relation", "osm_id": 9843141, "class": null, "keyword": "subdistrict"}}, {"type": "Feature", "geometry": {"type": "MultiPolygon", "coordinates": [[[[114.460134, 36.556257], [114.46074, 36.556232], [114.460644, 36.555431], [114.46133, 36.555411], [114.461365, 36.556217], [114.46169, 36.556244], [114.46168, 36.556416], [114.462907, 36.556342], [114.463364, 36.556356], [114.463396, 36.557993], [114.460318, 36.557912], [114.460134, 36.556257]]], [[[114.461354, 36.578665], [114.46926, 36.576474], [114.470879, 36.576033], [114.471785, 36.575898], [114.479666, 36.576729], [114.479813, 36.577425], [114.479877, 36.577726], [114.480218, 36.577881], [114.480616, 36.57796], [114.480821, 36.57793], [114.480787, 36.577659], [114.480718, 36.57736], [114.480637, 36.576748], [114.481714, 36.576674], [114.482178, 36.57665], [114.481755, 36.57615], [114.481268, 36.576014], [114.479351, 36.575517], [114.479067, 36.575485], [114.478755, 36.57558], [114.478459, 36.575504], [114.478133, 36.575282], [114.477998, 36.574964], [114.47815, 36.57465], [114.478304, 36.574045], [114.478743, 36.572973], [114.478498, 36.572204], [114.478271, 36.572062], [114.47771, 36.572006], [114.476546, 36.571916], [114.476138, 36.57176], [114.476008, 36.571389], [114.476019, 36.571126], [114.47631, 36.571001], [114.477106, 36.570678], [114.477616, 36.570394], [114.477848, 36.569948], [114.477831, 36.569752], [114.477561, 36.569141], [114.477453, 36.568794], [114.477762, 36.568055], [114.483545, 36.567661], [114.483705, 36.56928], [114.483852, 36.571084], [114.485127, 36.583957], [114.485406, 36.586804], [114.478655, 36.587218], [114.478574, 36.586179], [114.478757, 36.58612], [114.479349, 36.586112], [114.479339, 36.585622], [114.479231, 36.585433], [114.479124, 36.585414], [114.478994, 36.585165], [114.478672, 36.585077], [114.478445, 36.585], [114.478251, 36.584741], [114.477626, 36.584342], [114.477395, 36.584433], [114.477033, 36.584875], [114.476634, 36.585213], [114.475703, 36.584491], [114.474957, 36.583883], [114.474572, 36.583919], [114.47428, 36.58415], [114.474319, 36.584697], [114.474454, 36.584751], [114.475117, 36.584638], [114.475218, 36.585549], [114.475008, 36.585554], [114.475095, 36.586586], [114.475197, 36.586618], [114.475218, 36.587035], [114.47622, 36.586995], [114.476301, 36.587004], [114.476296, 36.587361], [114.477566, 36.587261], [114.477837, 36.589728], [114.475292, 36.589676], [114.474558, 36.589558], [114.466162, 36.590409], [114.464143, 36.585031], [114.461354, 36.578665]]], [[[114.478905, 36.55832], [114.480256, 36.558726], [114.482762, 36.559261], [114.483334, 36.565519], [114.48048, 36.565623], [114.480372, 36.564529], [114.48049, 36.56446], [114.48034, 36.562979], [114.479268, 36.563054], [114.479229, 36.562181], [114.479089, 36.56212], [114.479024, 36.561352], [114.479131, 36.56124], [114.478953, 36.558939], [114.478905, 36.55832]]]]}, "properties": {"display_name": "浴新南街道, 邯山区, 邯郸市, 河北省, 056000, 中国", "type": "administrative", "osm_type": "relation", "osm_id": 9843147, "class": null, "keyword": "subdistrict"}}, {"type": "Feature", "geometry": {"type": "Polygon", "coordinates": [[[114.487646, 36.610016], [114.502589, 36.609046], [114.514707, 36.608248], [114.514965, 36.611244], [114.515755, 36.619209], [114.515353, 36.619232], [114.514903, 36.619551], [114.511655, 36.61979], [114.511446, 36.620383], [114.511325, 36.620709], [114.510477, 36.621278], [114.509803, 36.622021], [114.50944, 36.62302], [114.509492, 36.623818], [114.509319, 36.623922], [114.509112, 36.623929], [114.507201, 36.623089], [114.506008, 36.62227], [114.504867, 36.621639], [114.504228, 36.621431], [114.503104, 36.621285], [114.499828, 36.620952], [114.494633, 36.62055], [114.491702, 36.620294], [114.488602, 36.620023], [114.488043, 36.614333], [114.487646, 36.610016]], [[114.490981, 36.614685], [114.491064, 36.615364], [114.494331, 36.615108], [114.494248, 36.614429], [114.490981, 36.614685]], [[114.493047, 36.617033], [114.493104, 36.617571], [114.493643, 36.617534], [114.493586, 36.616996], [114.493047, 36.617033]], [[114.503433, 36.615636], [114.503585, 36.616941], [114.505633, 36.616774], [114.505511, 36.616097], [114.504765, 36.615557], [114.503433, 36.615636]], [[114.507962, 36.617476], [114.508256, 36.620363], [114.510884, 36.620141], [114.511256, 36.619273], [114.510987, 36.618136], [114.51078, 36.617865], [114.510166, 36.617268], [114.507962, 36.617476]]]}, "properties": {"display_name": "丛台东街道, 丛台区, 邯郸市, 河北省, 056100, 中国", "type": "administrative", "osm_type": "relation", "osm_id": 9842479, "class": null, "keyword": "subdistrict"}}, {"type": "Feature", "geometry": {"type": "MultiPolygon", "coordinates": [[[[114.461617, 36.620212], [114.467497, 36.619282], [114.466724, 36.611325], [114.471456, 36.611024], [114.471318, 36.614368], [114.471301, 36.615228], [114.47169, 36.618968], [114.473601, 36.618849], [114.475476, 36.618732], [114.475615, 36.619787], [114.479124, 36.619509], [114.479764, 36.620071], [114.479954, 36.620161], [114.47979, 36.620675], [114.481484, 36.620488], [114.482029, 36.620446], [114.482478, 36.62046], [114.483421, 36.620571], [114.483853, 36.620578], [114.485902, 36.6203], [114.48649, 36.620252], [114.487155, 36.620293], [114.487242, 36.621292], [114.487121, 36.621456], [114.4863, 36.621476], [114.486369, 36.622517], [114.482776, 36.622718], [114.482966, 36.625147], [114.48064, 36.625286], [114.480527, 36.624314], [114.480086, 36.624321], [114.480164, 36.624814], [114.479784, 36.624835], [114.479499, 36.621587], [114.479542, 36.621275], [114.477743, 36.62142], [114.477683, 36.621872], [114.47719, 36.621892], [114.477129, 36.62149], [114.476412, 36.621559], [114.476455, 36.622142], [114.475806, 36.622205], [114.47572, 36.621393], [114.471915, 36.621594], [114.472425, 36.626729], [114.473489, 36.626667], [114.473454, 36.626188], [114.474284, 36.626105], [114.474406, 36.626861], [114.475184, 36.626813], [114.475115, 36.626188], [114.476256, 36.626063], [114.476394, 36.627867], [114.472555, 36.628124], [114.472823, 36.630206], [114.476619, 36.629914], [114.476913, 36.63303], [114.476187, 36.63303], [114.476144, 36.632912], [114.475659, 36.632808], [114.475227, 36.632635], [114.474734, 36.632364], [114.474371, 36.632072], [114.47406, 36.631698], [114.473809, 36.631045], [114.474198, 36.635077], [114.473221, 36.635209], [114.474492, 36.648641], [114.473446, 36.648682], [114.472322, 36.64867], [114.471857, 36.64564], [114.469624, 36.6457], [114.469129, 36.636933], [114.467496, 36.637018], [114.467466, 36.636392], [114.468005, 36.6362], [114.467616, 36.633602], [114.466162, 36.63371], [114.465937, 36.631834], [114.465772, 36.631413], [114.465068, 36.630559], [114.462969, 36.632917], [114.462415, 36.633289], [114.46204, 36.628839], [114.462445, 36.628791], [114.461617, 36.620212]], [[114.48038, 36.622698], [114.480588, 36.624231], [114.481928, 36.624169], [114.481738, 36.622607], [114.48038, 36.622698]]], [[[114.476538, 36.615007], [114.477023, 36.615003], [114.47704, 36.615243], [114.476581, 36.615278], [114.476538, 36.615007]]], [[[114.478026, 36.612418], [114.478536, 36.61239], [114.478518, 36.611918], [114.47915, 36.611835], [114.480023, 36.617748], [114.479253, 36.617825], [114.479158, 36.617283], [114.478683, 36.617325], [114.478259, 36.614001], [114.478026, 36.612418]]], [[[114.481947, 36.636443], [114.484525, 36.636347], [114.48477, 36.639634], [114.484674, 36.639842], [114.483769, 36.639857], [114.483762, 36.639925], [114.483105, 36.639968], [114.482836, 36.637582], [114.482923, 36.637027], [114.481987, 36.637093], [114.481947, 36.636443]]]]}, "properties": {"display_name": "四季青街道, 丛台区, 邯郸市, 河北省, 056100, 中国", "type": "administrative", "osm_type": "relation", "osm_id": 9842491, "class": null, "keyword": "subdistrict"}}, {"type": "Feature", "geometry": {"type": "Polygon", "coordinates": [[[114.111161, 36.612347], [114.114851, 36.612091], [114.114883, 36.611118], [114.114556, 36.610442], [114.114529, 36.606877], [114.117479, 36.606756], [114.118446, 36.606207], [114.122647, 36.60953], [114.12332, 36.610262], [114.123927, 36.610989], [114.127069, 36.610703], [114.12883, 36.610808], [114.128975, 36.61234], [114.131148, 36.612169], [114.131359, 36.613229], [114.127388, 36.613599], [114.127459, 36.614125], [114.129538, 36.613909], [114.129195, 36.61353], [114.131454, 36.613284], [114.13155, 36.613814], [114.129673, 36.61396], [114.129861, 36.614879], [114.130074, 36.615569], [114.131049, 36.617369], [114.131288, 36.617625], [114.13213, 36.618315], [114.133025, 36.619219], [114.134736, 36.621125], [114.135037, 36.622185], [114.135569, 36.622206], [114.135719, 36.622377], [114.135835, 36.622775], [114.13673, 36.622718], [114.137403, 36.622825], [114.13759, 36.623515], [114.137501, 36.625706], [114.137616, 36.626211], [114.138095, 36.626687], [114.139876, 36.627875], [114.139894, 36.628586], [114.13985, 36.630315], [114.139725, 36.630763], [114.136366, 36.628594], [114.132041, 36.627825], [114.130739, 36.627007], [114.130216, 36.6271], [114.127947, 36.626993], [114.127185, 36.626503], [114.125368, 36.626211], [114.123586, 36.625044], [114.123471, 36.623565], [114.122558, 36.62333], [114.121291, 36.622661], [114.120033, 36.619975], [114.120483, 36.617026], [114.120285, 36.614834], [114.121047, 36.614705], [114.120945, 36.61396], [114.120408, 36.613973], [114.120156, 36.614834], [114.120317, 36.617009], [114.119877, 36.619958], [114.120939, 36.622055], [114.120981, 36.62264], [114.120653, 36.622747], [114.120006, 36.622939], [114.115628, 36.619973], [114.114183, 36.618834], [114.113447, 36.618002], [114.112995, 36.617163], [114.111161, 36.612347]]]}, "properties": {"display_name": "二六七二街道, 复兴区, 邯郸市, 河北省, 056000, 中国", "type": "administrative", "osm_type": "relation", "osm_id": 9837580, "class": null, "keyword": "subdistrict"}}, {"type": "Feature", "geometry": {"type": "MultiPolygon", "coordinates": [[[[114.471915, 36.621594], [114.47572, 36.621393], [114.475806, 36.622205], [114.476455, 36.622142], [114.476412, 36.621559], [114.477129, 36.62149], [114.47719, 36.621892], [114.477683, 36.621872], [114.477743, 36.62142], [114.479542, 36.621275], [114.479499, 36.621587], [114.479784, 36.624835], [114.480164, 36.624814], [114.480086, 36.624321], [114.480527, 36.624314], [114.48064, 36.625286], [114.482966, 36.625147], [114.483668, 36.632594], [114.483689, 36.633552], [114.480652, 36.633664], [114.478584, 36.633796], [114.476947, 36.633843], [114.477248, 36.63665], [114.480521, 36.636383], [114.480587, 36.637193], [114.481987, 36.637093], [114.482923, 36.637027], [114.482836, 36.637582], [114.483105, 36.639968], [114.479007, 36.640235], [114.474696, 36.640432], [114.474854, 36.642643], [114.477806, 36.642506], [114.478161, 36.646009], [114.48443, 36.645631], [114.490972, 36.645248], [114.491299, 36.649035], [114.491381, 36.650162], [114.490712, 36.650469], [114.487394, 36.650735], [114.487308, 36.650012], [114.482461, 36.65041], [114.481943, 36.650805], [114.482183, 36.652511], [114.4823, 36.654365], [114.480232, 36.654548], [114.478976, 36.654654], [114.479081, 36.656011], [114.482549, 36.656572], [114.486965, 36.656258], [114.488603, 36.656142], [114.488537, 36.65824], [114.48858, 36.659926], [114.486512, 36.659799], [114.486275, 36.659558], [114.486017, 36.656616], [114.482721, 36.656691], [114.478994, 36.656113], [114.47796, 36.656764], [114.476301, 36.656914], [114.475409, 36.657986], [114.474363, 36.658015], [114.47403, 36.655404], [114.473446, 36.648682], [114.474492, 36.648641], [114.473221, 36.635209], [114.474198, 36.635077], [114.473809, 36.631045], [114.47406, 36.631698], [114.474371, 36.632072], [114.474734, 36.632364], [114.475227, 36.632635], [114.475659, 36.632808], [114.476144, 36.632912], [114.476187, 36.63303], [114.476913, 36.63303], [114.476619, 36.629914], [114.472823, 36.630206], [114.472555, 36.628124], [114.476394, 36.627867], [114.476256, 36.626063], [114.475115, 36.626188], [114.475184, 36.626813], [114.474406, 36.626861], [114.474284, 36.626105], [114.473454, 36.626188], [114.473489, 36.626667], [114.472425, 36.626729], [114.471915, 36.621594]]], [[[114.473419, 36.617296], [114.473713, 36.617504], [114.474058, 36.617636], [114.474465, 36.617657], [114.475701, 36.617566], [114.47622, 36.617684], [114.477067, 36.617983], [114.477758, 36.618357], [114.478398, 36.618919], [114.479124, 36.619509], [114.475615, 36.619787], [114.475476, 36.618732], [114.473601, 36.618849], [114.473419, 36.617296]]], [[[114.48038, 36.622698], [114.481738, 36.622607], [114.481928, 36.624169], [114.480588, 36.624231], [114.48038, 36.622698]]]]}, "properties": {"display_name": "联纺西街道, 丛台区, 邯郸市, 河北省, 056100, 中国", "type": "administrative", "osm_type": "relation", "osm_id": 9842486, "class": null, "keyword": "subdistrict"}}, {"type": "Feature", "geometry": {"type": "Polygon", "coordinates": [[[114.491702, 36.620294], [114.494633, 36.62055], [114.499828, 36.620952], [114.503104, 36.621285], [114.504228, 36.621431], [114.504867, 36.621639], [114.506008, 36.62227], [114.507201, 36.623089], [114.509112, 36.623929], [114.509319, 36.623922], [114.509492, 36.623818], [114.50944, 36.62302], [114.509803, 36.622021], [114.510477, 36.621278], [114.511325, 36.620709], [114.511446, 36.620383], [114.511655, 36.61979], [114.514903, 36.619551], [114.515353, 36.619232], [114.515755, 36.619209], [114.516293, 36.62464], [114.515013, 36.624719], [114.514905, 36.62539], [114.510838, 36.625774], [114.510662, 36.625791], [114.510833, 36.628011], [114.510833, 36.630403], [114.50726, 36.630668], [114.506441, 36.629822], [114.506851, 36.629461], [114.507519, 36.628965], [114.508359, 36.628864], [114.508984, 36.628487], [114.509307, 36.62804], [114.510664, 36.627992], [114.510535, 36.625841], [114.510213, 36.62584], [114.509933, 36.627079], [114.509329, 36.627559], [114.50879, 36.628349], [114.507734, 36.628741], [114.507627, 36.628001], [114.507455, 36.626435], [114.50739, 36.626039], [114.506184, 36.626069], [114.506162, 36.626654], [114.507368, 36.626589], [114.507475, 36.627828], [114.505235, 36.627839], [114.504264, 36.626114], [114.501654, 36.626261], [114.498438, 36.626441], [114.498561, 36.62767], [114.49862, 36.628265], [114.497823, 36.628376], [114.49794, 36.62964], [114.497963, 36.629873], [114.498771, 36.629841], [114.498845, 36.630461], [114.500505, 36.630311], [114.500688, 36.631026], [114.499967, 36.631059], [114.500031, 36.633005], [114.501226, 36.632965], [114.501226, 36.63315], [114.501226, 36.633422], [114.499125, 36.633528], [114.497175, 36.633634], [114.497207, 36.634476], [114.495355, 36.634558], [114.495355, 36.635117], [114.49556, 36.635316], [114.497047, 36.635235], [114.498081, 36.635349], [114.499298, 36.635327], [114.499384, 36.63617], [114.500127, 36.636095], [114.500106, 36.636275], [114.499976, 36.636284], [114.499987, 36.636671], [114.500288, 36.636697], [114.500278, 36.63699], [114.500472, 36.637034], [114.500429, 36.637334], [114.500978, 36.637345], [114.501366, 36.637424], [114.50184, 36.637417], [114.501894, 36.638191], [114.501851, 36.638466], [114.501506, 36.638439], [114.501535, 36.63891], [114.502613, 36.638982], [114.503463, 36.639018], [114.504131, 36.639012], [114.503141, 36.640988], [114.503247, 36.641677], [114.503743, 36.642539], [114.503957, 36.644707], [114.502708, 36.645254], [114.50092, 36.646383], [114.500482, 36.647301], [114.500051, 36.648143], [114.499835, 36.648719], [114.499415, 36.648726], [114.498684, 36.648799], [114.498281, 36.64879], [114.49779, 36.648841], [114.497817, 36.648884], [114.497849, 36.648974], [114.497795, 36.649326], [114.497719, 36.649386], [114.497375, 36.649436], [114.497403, 36.64981], [114.494709, 36.649991], [114.494476, 36.648836], [114.494369, 36.647561], [114.494174, 36.645049], [114.494165, 36.644966], [114.493787, 36.641504], [114.493572, 36.639335], [114.493378, 36.637167], [114.493458, 36.63648], [114.495742, 36.636401], [114.495471, 36.635327], [114.49323, 36.635406], [114.493066, 36.633786], [114.492022, 36.62293], [114.491702, 36.620294]], [[114.496949, 36.622664], [114.497013, 36.623404], [114.49697, 36.624231], [114.498248, 36.624154], [114.498328, 36.624149], [114.498177, 36.623374], [114.498048, 36.622668], [114.496949, 36.622664]]]}, "properties": {"display_name": "光明桥街道, 丛台区, 邯郸市, 河北省, 056100, 中国", "type": "administrative", "osm_type": "relation", "osm_id": 9842481, "class": null, "keyword": "subdistrict"}}, {"type": "Feature", "geometry": {"type": "MultiPolygon", "coordinates": [[[[114.440925, 36.611392], [114.443442, 36.610882], [114.444182, 36.610779], [114.445825, 36.610619], [114.447769, 36.610348], [114.449264, 36.610064], [114.450526, 36.60971], [114.451909, 36.608878], [114.452721, 36.608142], [114.456041, 36.60795], [114.456042, 36.608332], [114.455935, 36.608594], [114.456247, 36.608604], [114.456295, 36.609078], [114.455268, 36.609118], [114.455338, 36.609531], [114.454821, 36.609621], [114.454655, 36.609963], [114.45424, 36.610221], [114.454762, 36.610155], [114.455095, 36.612104], [114.455671, 36.612065], [114.455434, 36.610914], [114.456489, 36.610817], [114.456505, 36.611248], [114.457436, 36.611177], [114.457571, 36.611939], [114.459784, 36.611791], [114.463635, 36.611536], [114.463861, 36.61151], [114.464075, 36.61151], [114.464005, 36.610938], [114.464668, 36.61092], [114.464602, 36.610581], [114.464155, 36.610636], [114.464203, 36.610808], [114.463886, 36.61083], [114.463671, 36.609783], [114.463591, 36.609129], [114.463721, 36.60909], [114.463689, 36.608431], [114.464135, 36.608412], [114.464044, 36.607506], [114.466117, 36.607376], [114.467981, 36.607376], [114.469922, 36.607415], [114.471456, 36.611024], [114.466724, 36.611325], [114.467497, 36.619282], [114.461617, 36.620212], [114.462445, 36.628791], [114.460072, 36.620936], [114.44696, 36.620752], [114.44209, 36.621034], [114.441911, 36.619387], [114.441615, 36.616668], [114.444864, 36.616334], [114.445617, 36.616256], [114.445574, 36.615637], [114.442562, 36.615751], [114.442401, 36.613763], [114.444671, 36.613491], [114.446263, 36.61346], [114.445953, 36.612617], [114.441018, 36.612806], [114.440961, 36.611819], [114.440925, 36.611392]]], [[[114.456347, 36.60816], [114.456434, 36.607937], [114.457644, 36.607892], [114.45779, 36.608576], [114.457494, 36.608654], [114.457478, 36.608816], [114.456891, 36.608837], [114.456886, 36.608914], [114.456638, 36.608939], [114.456632, 36.609047], [114.456422, 36.609051], [114.456347, 36.60816]]], [[[114.458285, 36.607855], [114.459528, 36.607784], [114.459555, 36.608086], [114.459281, 36.608111], [114.459324, 36.608572], [114.458425, 36.608638], [114.458285, 36.607855]]], [[[114.460381, 36.607734], [114.461714, 36.60765], [114.46175, 36.608638], [114.460448, 36.608725], [114.460381, 36.607734]]]]}, "properties": {"display_name": "胜利桥街道, 复兴区, 邯郸市, 河北省, 056000, 中国", "type": "administrative", "osm_type": "relation", "osm_id": 9843250, "class": null, "keyword": "subdistrict"}}, {"type": "Feature", "geometry": {"type": "Polygon", "coordinates": [[[114.430635, 36.632551], [114.431958, 36.630772], [114.43359, 36.630654], [114.447806, 36.629658], [114.447398, 36.625399], [114.448134, 36.625369], [114.449802, 36.62526], [114.4497, 36.624245], [114.450475, 36.624199], [114.450448, 36.623425], [114.451143, 36.623379], [114.45147, 36.623358], [114.45147, 36.623247], [114.450255, 36.623252], [114.447204, 36.623498], [114.44604, 36.623587], [114.445788, 36.621765], [114.447021, 36.621675], [114.44696, 36.620752], [114.460072, 36.620936], [114.462445, 36.628791], [114.46204, 36.628839], [114.462415, 36.633289], [114.458946, 36.635148], [114.456406, 36.636467], [114.456438, 36.636249], [114.456332, 36.636238], [114.455342, 36.636137], [114.452952, 36.636012], [114.449939, 36.635704], [114.448537, 36.635497], [114.448348, 36.634764], [114.448268, 36.634134], [114.448263, 36.634094], [114.448232, 36.632727], [114.445101, 36.632962], [114.445036, 36.632265], [114.443165, 36.632391], [114.442962, 36.630463], [114.439106, 36.630671], [114.437216, 36.631305], [114.435001, 36.631698], [114.435151, 36.632386], [114.434678, 36.632919], [114.433818, 36.632987], [114.430635, 36.632551]]]}, "properties": {"display_name": "化林路街道, 复兴区, 邯郸市, 河北省, 056000, 中国", "type": "administrative", "osm_type": "relation", "osm_id": 9843247, "class": null, "keyword": "subdistrict"}}, {"type": "Feature", "geometry": {"type": "MultiPolygon", "coordinates": [[[[114.4217, 36.581262], [114.421759, 36.580268], [114.422882, 36.580307], [114.422855, 36.581314], [114.4217, 36.581262]]], [[[114.424135, 36.582803], [114.426048, 36.582762], [114.426067, 36.581961], [114.426056, 36.580979], [114.424552, 36.580952], [114.424562, 36.578988], [114.425249, 36.578963], [114.425271, 36.578024], [114.42684, 36.577707], [114.426888, 36.581931], [114.433016, 36.582093], [114.433209, 36.582197], [114.433488, 36.586743], [114.433402, 36.587088], [114.433504, 36.590131], [114.433073, 36.590209], [114.432402, 36.590238], [114.432406, 36.589978], [114.432528, 36.588294], [114.429015, 36.588227], [114.429155, 36.584817], [114.425027, 36.584871], [114.424135, 36.582803]]], [[[114.434154, 36.594025], [114.434206, 36.593359], [114.435171, 36.593372], [114.435195, 36.594026], [114.434154, 36.594025]]], [[[114.437365, 36.58755], [114.440022, 36.586511], [114.44312, 36.585252], [114.442991, 36.584021], [114.442968, 36.583738], [114.441473, 36.583769], [114.441473, 36.581935], [114.444587, 36.58183], [114.447277, 36.581783], [114.447599, 36.582214], [114.447966, 36.582163], [114.448567, 36.582802], [114.450289, 36.582134], [114.451343, 36.582032], [114.45214, 36.582257], [114.453088, 36.582948], [114.454035, 36.583967], [114.450095, 36.585921], [114.445802, 36.587559], [114.442463, 36.588718], [114.441968, 36.588811], [114.44029, 36.589129], [114.438075, 36.589204], [114.437365, 36.58755]]], [[[114.448894, 36.591581], [114.450002, 36.591506], [114.449959, 36.590929], [114.451787, 36.59096], [114.452395, 36.595008], [114.449379, 36.595258], [114.448894, 36.591581]]], [[[114.453713, 36.585635], [114.455985, 36.58484], [114.456954, 36.584502], [114.458738, 36.583966], [114.459369, 36.583617], [114.460628, 36.583413], [114.461773, 36.583538], [114.463022, 36.58416], [114.464143, 36.585031], [114.466162, 36.590409], [114.466954, 36.592429], [114.466176, 36.592552], [114.466314, 36.593149], [114.465865, 36.593454], [114.46507, 36.593551], [114.464906, 36.593856], [114.463722, 36.594002], [114.461536, 36.594266], [114.456577, 36.594626], [114.45878, 36.591414], [114.459172, 36.591051], [114.459855, 36.591068], [114.459744, 36.589609], [114.461024, 36.589441], [114.461027, 36.589164], [114.460606, 36.589216], [114.460456, 36.588191], [114.461264, 36.587952], [114.461081, 36.587616], [114.461361, 36.58747], [114.461867, 36.587377], [114.461803, 36.586731], [114.460541, 36.587375], [114.459881, 36.586721], [114.459321, 36.586909], [114.459201, 36.5867], [114.458459, 36.58687], [114.458631, 36.587293], [114.45793, 36.587414], [114.457903, 36.587069], [114.457268, 36.587189], [114.457149, 36.586862], [114.455438, 36.587147], [114.455373, 36.586823], [114.455056, 36.586215], [114.454147, 36.586211], [114.453713, 36.585635]]], [[[114.458621, 36.579575], [114.460677, 36.579011], [114.460688, 36.579028], [114.460957, 36.579745], [114.461473, 36.581166], [114.461732, 36.582062], [114.460988, 36.582758], [114.460009, 36.583169], [114.459913, 36.5831], [114.459729, 36.582695], [114.459751, 36.582316], [114.459611, 36.581807], [114.459256, 36.580989], [114.458621, 36.579575]]]]}, "properties": {"display_name": "庞村街道, 复兴区, 邯郸市, 河北省, 056000, 中国", "type": "administrative", "osm_type": "relation", "osm_id": 9843248, "class": null, "keyword": "subdistrict"}}, {"type": "Feature", "geometry": {"type": "MultiPolygon", "coordinates": [[[[114.481931, 36.636185], [114.486153, 36.635939], [114.486154, 36.635501], [114.486079, 36.635225], [114.485281, 36.635223], [114.485282, 36.634724], [114.485195, 36.634432], [114.484538, 36.634327], [114.484462, 36.633784], [114.483689, 36.633552], [114.483668, 36.632594], [114.482966, 36.625147], [114.482776, 36.622718], [114.486369, 36.622517], [114.4863, 36.621476], [114.487121, 36.621456], [114.487242, 36.621292], [114.487155, 36.620293], [114.488599, 36.620252], [114.488602, 36.620023], [114.491702, 36.620294], [114.492022, 36.62293], [114.493066, 36.633786], [114.492474, 36.633836], [114.491083, 36.633925], [114.489984, 36.634043], [114.488174, 36.634167], [114.488238, 36.634606], [114.488056, 36.634631], [114.488077, 36.634924], [114.488228, 36.63581], [114.489693, 36.635694], [114.490139, 36.635664], [114.491632, 36.635562], [114.49159, 36.635837], [114.491697, 36.636664], [114.491761, 36.637265], [114.493378, 36.637167], [114.493572, 36.639335], [114.49243, 36.639417], [114.49056, 36.639509], [114.490426, 36.639515], [114.4899, 36.639546], [114.489964, 36.639135], [114.489457, 36.639134], [114.489457, 36.638988], [114.489554, 36.638144], [114.48866, 36.638237], [114.488488, 36.636644], [114.486441, 36.636819], [114.486495, 36.637611], [114.485493, 36.637677], [114.4856, 36.638829], [114.485755, 36.639853], [114.484824, 36.639929], [114.484674, 36.639842], [114.48477, 36.639634], [114.484525, 36.636347], [114.481947, 36.636443], [114.481931, 36.636185]]], [[[114.483855, 36.642111], [114.490662, 36.64165], [114.490742, 36.641646], [114.493787, 36.641504], [114.494165, 36.644966], [114.494174, 36.645049], [114.494369, 36.647561], [114.494476, 36.648836], [114.491299, 36.649035], [114.490972, 36.645248], [114.48443, 36.645631], [114.48429, 36.644546], [114.483855, 36.642111]]]]}, "properties": {"display_name": "联纺东街道, 丛台区, 邯郸市, 河北省, 056100, 中国", "type": "administrative", "osm_type": "relation", "osm_id": 9842485, "class": null, "keyword": "subdistrict"}}, {"type": "Feature", "geometry": {"type": "MultiPolygon", "coordinates": [[[[114.490981, 36.614685], [114.494248, 36.614429], [114.494331, 36.615108], [114.491064, 36.615364], [114.490981, 36.614685]]], [[[114.493047, 36.617033], [114.493586, 36.616996], [114.493643, 36.617534], [114.493104, 36.617571], [114.493047, 36.617033]]], [[[114.501797, 36.601619], [114.50334, 36.601267], [114.506859, 36.600805], [114.52097, 36.599873], [114.521973, 36.610774], [114.514965, 36.611244], [114.514707, 36.608248], [114.502589, 36.609046], [114.502131, 36.604411], [114.501797, 36.601619]]], [[[114.503433, 36.615636], [114.504765, 36.615557], [114.505511, 36.616097], [114.505633, 36.616774], [114.503585, 36.616941], [114.503433, 36.615636]]], [[[114.507962, 36.617476], [114.510166, 36.617268], [114.51078, 36.617865], [114.510987, 36.618136], [114.511256, 36.619273], [114.510884, 36.620141], [114.508256, 36.620363], [114.507962, 36.617476]]]]}, "properties": {"display_name": "柳林桥街道, 丛台区, 邯郸市, 河北省, 056100, 中国", "type": "administrative", "osm_type": "relation", "osm_id": 9842487, "class": null, "keyword": "subdistrict"}}, {"type": "Feature", "geometry": {"type": "Polygon", "coordinates": [[[114.498565, 36.586003], [114.499919, 36.585886], [114.499954, 36.586167], [114.500043, 36.587325], [114.500138, 36.587321], [114.501365, 36.587267], [114.501228, 36.58577], [114.503889, 36.58561], [114.510651, 36.585218], [114.51113, 36.587752], [114.507715, 36.58791], [114.507564, 36.587987], [114.508565, 36.588772], [114.510505, 36.590294], [114.51099, 36.590675], [114.510731, 36.591105], [114.509643, 36.592056], [114.508361, 36.593085], [114.509621, 36.594518], [114.510192, 36.594976], [114.510612, 36.595404], [114.513121, 36.597511], [114.513602, 36.597464], [114.513667, 36.598238], [114.516468, 36.598142], [114.520699, 36.597802], [114.522649, 36.597644], [114.525406, 36.597445], [114.529088, 36.597076], [114.528874, 36.595767], [114.53253, 36.59536], [114.532714, 36.59701], [114.532824, 36.59702], [114.533029, 36.599081], [114.52097, 36.599873], [114.506859, 36.600805], [114.50334, 36.601267], [114.503127, 36.600419], [114.503101, 36.599663], [114.50311, 36.599323], [114.503153, 36.598893], [114.503559, 36.5984], [114.503645, 36.598241], [114.503594, 36.597929], [114.503136, 36.597318], [114.502342, 36.596681], [114.502021, 36.596257], [114.502038, 36.595931], [114.502522, 36.595182], [114.50273, 36.594536], [114.502842, 36.59344], [114.503222, 36.592892], [114.503222, 36.592712], [114.50285, 36.592393], [114.502341, 36.591845], [114.501675, 36.59129], [114.501598, 36.591158], [114.501658, 36.590977], [114.502151, 36.590617], [114.502254, 36.590332], [114.502116, 36.590103], [114.501718, 36.589881], [114.500742, 36.589756], [114.500613, 36.589694], [114.500474, 36.589451], [114.500725, 36.588507], [114.500733, 36.588313], [114.500604, 36.588161], [114.500293, 36.588105], [114.49961, 36.588209], [114.499334, 36.588174], [114.499118, 36.588015], [114.49885, 36.587606], [114.498565, 36.586003]]]}, "properties": {"display_name": "滏东街道, 邯山区, 邯郸市, 河北省, 056000, 中国", "type": "administrative", "osm_type": "relation", "osm_id": 9843136, "class": null, "keyword": "subdistrict"}}, {"type": "Feature", "geometry": {"type": "Polygon", "coordinates": [[[114.485406, 36.586804], [114.489131, 36.586556], [114.493852, 36.586243], [114.498565, 36.586003], [114.49885, 36.587606], [114.499118, 36.588015], [114.499334, 36.588174], [114.49961, 36.588209], [114.500293, 36.588105], [114.500604, 36.588161], [114.500733, 36.588313], [114.500725, 36.588507], [114.500474, 36.589451], [114.500613, 36.589694], [114.500742, 36.589756], [114.501718, 36.589881], [114.502116, 36.590103], [114.502254, 36.590332], [114.502151, 36.590617], [114.501658, 36.590977], [114.501598, 36.591158], [114.501675, 36.59129], [114.502341, 36.591845], [114.50285, 36.592393], [114.503222, 36.592712], [114.503222, 36.592892], [114.502842, 36.59344], [114.50273, 36.594536], [114.502522, 36.595182], [114.502038, 36.595931], [114.502021, 36.596257], [114.502342, 36.596681], [114.490211, 36.598646], [114.486584, 36.599234], [114.486374, 36.597015], [114.485843, 36.591417], [114.485406, 36.586804]]]}, "properties": {"display_name": "渚河路街道, 邯山区, 邯郸市, 河北省, 056000, 中国", "type": "administrative", "osm_type": "relation", "osm_id": 9843148, "class": null, "keyword": "subdistrict"}}, {"type": "Feature", "geometry": {"type": "Polygon", "coordinates": [[[114.471301, 36.615228], [114.471318, 36.614368], [114.471456, 36.611024], [114.479011, 36.61058], [114.487646, 36.610016], [114.488043, 36.614333], [114.488602, 36.620023], [114.488599, 36.620252], [114.487155, 36.620293], [114.48649, 36.620252], [114.485902, 36.6203], [114.483853, 36.620578], [114.483421, 36.620571], [114.482478, 36.62046], [114.482029, 36.620446], [114.481484, 36.620488], [114.47979, 36.620675], [114.479954, 36.620161], [114.479764, 36.620071], [114.479124, 36.619509], [114.478398, 36.618919], [114.477758, 36.618357], [114.477067, 36.617983], [114.47622, 36.617684], [114.475701, 36.617566], [114.474465, 36.617657], [114.474058, 36.617636], [114.473713, 36.617504], [114.473419, 36.617296], [114.473601, 36.618849], [114.47169, 36.618968], [114.471301, 36.615228]], [[114.476538, 36.615007], [114.476581, 36.615278], [114.47704, 36.615243], [114.477023, 36.615003], [114.476538, 36.615007]], [[114.478026, 36.612418], [114.478259, 36.614001], [114.478683, 36.617325], [114.479158, 36.617283], [114.479253, 36.617825], [114.480023, 36.617748], [114.47915, 36.611835], [114.478518, 36.611918], [114.478536, 36.61239], [114.478026, 36.612418]]]}, "properties": {"display_name": "丛台西街道, 丛台区, 邯郸市, 河北省, 056100, 中国", "type": "administrative", "osm_type": "relation", "osm_id": 9842480, "class": null, "keyword": "subdistrict"}}, {"type": "Feature", "geometry": {"type": "Polygon", "coordinates": [[[114.451969, 36.608184], [114.453404, 36.606519], [114.45527, 36.604424], [114.456005, 36.603335], [114.456765, 36.60312], [114.457118, 36.603541], [114.45801, 36.603061], [114.45908, 36.602864], [114.461539, 36.602702], [114.462328, 36.602416], [114.463297, 36.60229], [114.464168, 36.602117], [114.463938, 36.601684], [114.464104, 36.601635], [114.463943, 36.601282], [114.46383, 36.600984], [114.463453, 36.601074], [114.463475, 36.601207], [114.463184, 36.601279], [114.462869, 36.600489], [114.46204, 36.600604], [114.461977, 36.600347], [114.46159, 36.600399], [114.46146, 36.599589], [114.462582, 36.599468], [114.462608, 36.598844], [114.462772, 36.598192], [114.463791, 36.595806], [114.464059, 36.595195], [114.463868, 36.59497], [114.463722, 36.594002], [114.464906, 36.593856], [114.46507, 36.593551], [114.465865, 36.593454], [114.466314, 36.593149], [114.466176, 36.592552], [114.466954, 36.592429], [114.468786, 36.597531], [114.469922, 36.607415], [114.467981, 36.607376], [114.466117, 36.607376], [114.464044, 36.607506], [114.461714, 36.60765], [114.460381, 36.607734], [114.459528, 36.607784], [114.458285, 36.607855], [114.457644, 36.607892], [114.456434, 36.607937], [114.456041, 36.60795], [114.452721, 36.608142], [114.451969, 36.608184]], [[114.464272, 36.604033], [114.46488, 36.605554], [114.466951, 36.605388], [114.466698, 36.60467], [114.466493, 36.603524], [114.466408, 36.603373], [114.464272, 36.604033]]]}, "properties": {"display_name": "铁路大院街道, 复兴区, 邯郸市, 河北省, 056000, 中国", "type": "administrative", "osm_type": "relation", "osm_id": 9843252, "class": null, "keyword": "subdistrict"}}, {"type": "Feature", "geometry": {"type": "Polygon", "coordinates": [[[114.486864, 36.603429], [114.491297, 36.60284], [114.493002, 36.602623], [114.49379, 36.602519], [114.496058, 36.602201], [114.50182, 36.601462], [114.50334, 36.601267], [114.501797, 36.601619], [114.502131, 36.604411], [114.502589, 36.609046], [114.487646, 36.610016], [114.486864, 36.603429]]]}, "properties": {"display_name": "人民路街道, 丛台区, 邯郸市, 河北省, 056100, 中国", "type": "administrative", "osm_type": "relation", "osm_id": 9842488, "class": null, "keyword": "subdistrict"}}, {"type": "Feature", "geometry": {"type": "Polygon", "coordinates": [[[114.466162, 36.590409], [114.474558, 36.589558], [114.475292, 36.589676], [114.477837, 36.589728], [114.478083, 36.591965], [114.47829, 36.595128], [114.478426, 36.597227], [114.477042, 36.597264], [114.477075, 36.598493], [114.476531, 36.598482], [114.476497, 36.597279], [114.469789, 36.597458], [114.468786, 36.597531], [114.466954, 36.592429], [114.466162, 36.590409]]]}, "properties": {"display_name": "贸西街道, 邯山区, 邯郸市, 河北省, 056000, 中国", "type": "administrative", "osm_type": "relation", "osm_id": 9843143, "class": null, "keyword": "subdistrict"}}, {"type": "Feature", "geometry": {"type": "Polygon", "coordinates": [[[114.478426, 36.597227], [114.486374, 36.597015], [114.486584, 36.599234], [114.490211, 36.598646], [114.490827, 36.600996], [114.491297, 36.60284], [114.486864, 36.603429], [114.484771, 36.6037], [114.483065, 36.603934], [114.48218, 36.603934], [114.478587, 36.603774], [114.478426, 36.597227]]]}, "properties": {"display_name": "陵园路街道, 邯山区, 邯郸市, 河北省, 056000, 中国", "type": "administrative", "osm_type": "relation", "osm_id": 9843140, "class": null, "keyword": "subdistrict"}}, {"type": "Feature", "geometry": {"type": "Polygon", "coordinates": [[[114.468786, 36.597531], [114.469789, 36.597458], [114.476497, 36.597279], [114.476531, 36.598482], [114.477075, 36.598493], [114.477042, 36.597264], [114.478426, 36.597227], [114.478587, 36.603774], [114.471627, 36.603402], [114.471456, 36.611024], [114.469922, 36.607415], [114.468786, 36.597531]]]}, "properties": {"display_name": "火磨街道, 邯郸市, 河北省, 056000, 中国", "type": "administrative", "osm_type": "relation", "osm_id": 9843139, "class": null, "keyword": "subdistrict"}}, {"type": "Feature", "geometry": {"type": "Polygon", "coordinates": [[[114.490211, 36.598646], [114.502342, 36.596681], [114.503136, 36.597318], [114.503594, 36.597929], [114.503645, 36.598241], [114.503559, 36.5984], [114.503153, 36.598893], [114.50311, 36.599323], [114.503101, 36.599663], [114.503127, 36.600419], [114.50334, 36.601267], [114.50182, 36.601462], [114.496058, 36.602201], [114.49379, 36.602519], [114.493002, 36.602623], [114.491297, 36.60284], [114.490827, 36.600996], [114.490211, 36.598646]]]}, "properties": {"display_name": "光明路街道, 邯山区, 邯郸市, 河北省, 056000, 中国", "type": "administrative", "osm_type": "relation", "osm_id": 9843137, "class": null, "keyword": "subdistrict"}}, {"type": "Feature", "geometry": {"type": "Polygon", "coordinates": [[[114.478587, 36.603774], [114.48218, 36.603934], [114.483065, 36.603934], [114.484771, 36.6037], [114.486864, 36.603429], [114.487646, 36.610016], [114.479011, 36.61058], [114.478691, 36.607555], [114.478587, 36.603774]]]}, "properties": {"display_name": "中华街道, 丛台区, 邯郸市, 河北省, 056100, 中国", "type": "administrative", "osm_type": "relation", "osm_id": 9842492, "class": null, "keyword": "subdistrict"}}, {"type": "Feature", "geometry": {"type": "Polygon", "coordinates": [[[114.471456, 36.611024], [114.471627, 36.603402], [114.478587, 36.603774], [114.478691, 36.607555], [114.479011, 36.61058], [114.471456, 36.611024]]]}, "properties": {"display_name": "和平街道, 丛台区, 邯郸市, 河北省, 056100, 中国", "type": "administrative", "osm_type": "relation", "osm_id": 9842482, "class": null, "keyword": "subdistrict"}}, {"type": "Feature", "geometry": {"type": "Polygon", "coordinates": [[[114.478083, 36.591965], [114.485843, 36.591417], [114.486374, 36.597015], [114.478426, 36.597227], [114.47829, 36.595128], [114.478083, 36.591965]]]}, "properties": {"display_name": "贸东街道, 邯山区, 邯郸市, 河北省, 056000, 中国", "type": "administrative", "osm_type": "relation", "osm_id": 9843142, "class": null, "keyword": "subdistrict"}}, {"type": "Feature", "geometry": {"type": "Polygon", "coordinates": [[[114.477566, 36.587261], [114.478655, 36.587218], [114.485406, 36.586804], [114.485843, 36.591417], [114.478083, 36.591965], [114.477837, 36.589728], [114.477566, 36.587261]]]}, "properties": {"display_name": "农林路街道, 邯山区, 邯郸市, 河北省, 056000, 中国", "type": "administrative", "osm_type": "relation", "osm_id": 9843146, "class": null, "keyword": "subdistrict"}}, {"type": "Feature", "geometry": {"type": "Polygon", "coordinates": [[[114.582776, 36.65316], [114.582782, 36.649773], [114.588359, 36.649756], [114.588341, 36.65118], [114.587574, 36.651202], [114.587343, 36.651232], [114.587065, 36.651328], [114.586806, 36.651484], [114.585105, 36.653427], [114.584745, 36.653145], [114.582776, 36.65316]]]}, "properties": {"display_name": "邯郸市体育中心, 尚璧镇, 丛台区, 邯郸市, 河北省, 056100, 中国", "type": "commercial", "osm_type": "way", "osm_id": 1288935076, "class": null, "keyword": "市中心"}}, {"type": "Feature", "geometry": {"type": "Polygon", "coordinates": [[[114.17255, 36.688597], [114.172551, 36.68824], [114.172558, 36.685603], [114.172558, 36.685456], [114.172599, 36.685397], [114.17266, 36.685315], [114.172727, 36.68527], [114.172778, 36.685252], [114.172851, 36.68524], [114.174418, 36.685231], [114.175895, 36.685223], [114.175985, 36.685268], [114.176023, 36.685316], [114.176036, 36.685403], [114.17604, 36.688601], [114.176013, 36.688639], [114.175962, 36.688677], [114.175927, 36.688694], [114.175887, 36.6887], [114.173574, 36.688703], [114.172725, 36.688704], [114.172663, 36.688689], [114.172625, 36.68867], [114.172593, 36.688645], [114.17255, 36.688597]]]}, "properties": {"display_name": "武安市体育中心, 体育路, 武安市, 邯郸市, 河北省, 056000, 中国", "type": "sports_centre", "osm_type": "way", "osm_id": 797733711, "class": null, "keyword": "市中心"}}, {"type": "Feature", "geometry": {"type": "Polygon", "coordinates": [[[114.208274, 36.697895], [114.208613, 36.697024], [114.209969, 36.697003], [114.209875, 36.695945], [114.209815, 36.695948], [114.209696, 36.694502], [114.212041, 36.694379], [114.212061, 36.694635], [114.212121, 36.69466], [114.21227, 36.696741], [114.212273, 36.696774], [114.212307, 36.696834], [114.212344, 36.697316], [114.212337, 36.697341], [114.212292, 36.697357], [114.211442, 36.6974], [114.211466, 36.697691], [114.211527, 36.697688], [114.211539, 36.697845], [114.208283, 36.69801], [114.208274, 36.697895]]]}, "properties": {"display_name": "武安市职教中心, 同安街, 武安市, 邯郸市, 河北省, 056000, 中国", "type": "school", "osm_type": "way", "osm_id": 797733653, "class": null, "keyword": "市中心"}}, {"type": "Feature", "geometry": {"type": "Polygon", "coordinates": [[[114.67113, 36.459546], [114.671665, 36.459257], [114.672687, 36.459134], [114.673335, 36.462514], [114.671648, 36.462571], [114.67113, 36.459546]]]}, "properties": {"display_name": "成安职教中心, S313, 成安县, 邯郸市, 河北省, 056700, 中国", "type": "school", "osm_type": "way", "osm_id": 640275627, "class": null, "keyword": "中心城区"}}, {"type": "Feature", "geometry": {"type": "Polygon", "coordinates": [[[114.214613, 36.416968], [114.215123, 36.416927], [114.217024, 36.416774], [114.217265, 36.418895], [114.214838, 36.419077], [114.214718, 36.417949], [114.214613, 36.416968]]]}, "properties": {"display_name": "邯郸市十三中学, 响堂大道, 滏阳东路街道, 峰峰矿区, 邯郸市, 河北省, 056000, 中国", "type": "school", "osm_type": "relation", "osm_id": 8262751, "class": null, "keyword": "中央区"}}, {"type": "Feature", "geometry": {"type": "Polygon", "coordinates": [[[114.226419, 36.751446], [114.228407, 36.751367], [114.229134, 36.751288], [114.229212, 36.751705], [114.229411, 36.752769], [114.229453, 36.753065], [114.227886, 36.753234], [114.227852, 36.753045], [114.227775, 36.753054], [114.226664, 36.753172], [114.226419, 36.751446]]]}, "properties": {"display_name": "武安市职教中心(北校区), S312, 武安市, 邯郸市, 河北省, 056000, 中国", "type": "school", "osm_type": "way", "osm_id": 797733279, "class": null, "keyword": "市中心"}}, {"type": "Feature", "geometry": {"type": "Polygon", "coordinates": [[[114.583381, 36.651431], [114.583482, 36.651066], [114.583704, 36.650788], [114.584047, 36.650574], [114.584451, 36.650486], [114.584865, 36.650493], [114.585221, 36.650604], [114.585523, 36.650821], [114.58572, 36.651077], [114.585817, 36.651404], [114.585802, 36.651713], [114.585694, 36.651995], [114.585464, 36.652242], [114.58513, 36.652426], [114.58472, 36.65251], [114.584307, 36.652494], [114.583919, 36.652349], [114.583584, 36.652083], [114.583426, 36.651776], [114.583381, 36.651431]]]}, "properties": {"display_name": "邯郸市体育中心体育场, 太极路, 尚璧镇, 丛台区, 邯郸市, 河北省, 056100, 中国", "type": "stadium", "osm_type": "way", "osm_id": 1178107789, "class": null, "keyword": "市中心"}}, {"type": "Feature", "geometry": {"type": "Polygon", "coordinates": [[[114.48166, 36.597453], [114.483484, 36.597412], [114.483553, 36.59938], [114.481729, 36.599424], [114.481677, 36.597967], [114.48166, 36.597453]]]}, "properties": {"display_name": "邯郸市体育中心, 陵园路, 陵园路街道, 邯山区, 邯郸市, 河北省, 056000, 中国", "type": "stadium", "osm_type": "way", "osm_id": 320480445, "class": null, "keyword": "市中心"}}, {"type": "Feature", "geometry": {"type": "Polygon", "coordinates": [[[114.934246, 36.341841], [114.935415, 36.341834], [114.935611, 36.343058], [114.934271, 36.343177], [114.934246, 36.341841]]]}, "properties": {"display_name": "魏县中医医院, 天安大道, 岗井社区, 魏县, 邯郸市, 河北省, 056800, 中国", "type": "hospital", "osm_type": "way", "osm_id": 723054434, "class": null, "keyword": "中心商務區"}}, {"type": "Feature", "geometry": {"type": "Polygon", "coordinates": [[[114.374277, 36.496127], [114.374427, 36.495911], [114.375264, 36.495816], [114.375465, 36.497114], [114.374481, 36.497239], [114.374277, 36.496127]]]}, "properties": {"display_name": "省冀南新区南城乡中学, S315, 冀南新区, 邯山区, 邯郸市, 河北省, 056000, 中国", "type": "school", "osm_type": "way", "osm_id": 772790714, "class": null, "keyword": "中心城区"}}, {"type": "Feature", "geometry": {"type": "Polygon", "coordinates": [[[114.362455, 36.355446], [114.362952, 36.355387], [114.3631, 36.355878], [114.362602, 36.355967], [114.362486, 36.355555], [114.362455, 36.355446]]]}, "properties": {"display_name": "固城中心小学, 固城后大街, 铁路小区, 磁县, 邯郸市, 河北省, 056500, 中国", "type": "school", "osm_type": "way", "osm_id": 670353078, "class": null, "keyword": "中心城区"}}]}