{"type": "FeatureCollection", "features": [{"type": "Feature", "geometry": {"type": "Polygon", "coordinates": [[[126.729874, 46.184506], [126.731763, 46.183674], [126.735367, 46.183317], [126.735882, 46.179037], [126.736397, 46.177611], [126.741719, 46.177255], [126.744122, 46.174402], [126.745152, 46.170836], [126.746783, 46.165605], [126.752619, 46.158234], [126.764292, 46.158234], [126.769442, 46.154429], [126.77965, 46.15499], [126.779338, 46.14926], [126.784462, 46.149372], [126.790642, 46.150085], [126.800255, 46.1552], [126.803345, 46.155675], [126.805405, 46.1552], [126.81107, 46.152465], [126.817764, 46.149134], [126.819138, 46.147826], [126.822571, 46.147826], [126.823601, 46.146399], [126.829266, 46.146875], [126.835789, 46.147112], [126.836475, 46.146875], [126.840424, 46.144496], [126.845317, 46.147708], [126.852527, 46.147232], [126.855617, 46.144615], [126.859737, 46.142713], [126.865573, 46.143902], [126.872097, 46.141523], [126.877933, 46.14081], [126.880336, 46.14628], [126.88334, 46.149372], [126.891065, 46.1552], [126.89776, 46.155081], [126.903081, 46.153298], [126.906343, 46.151395], [126.907545, 46.146994], [126.912179, 46.147232], [126.914068, 46.145448], [126.916471, 46.146518], [126.918531, 46.14866], [126.922822, 46.147708], [126.925569, 46.146637], [126.929689, 46.147589], [126.937414, 46.146994], [126.94016, 46.145567], [126.944452, 46.144259], [126.954237, 46.144615], [126.959558, 46.145448], [126.961961, 46.144853], [126.968484, 46.14521], [126.971739, 46.145207], [126.985987, 46.157338], [126.990793, 46.160548], [127.00075, 46.163996], [127.010363, 46.165066], [127.020147, 46.16566], [127.031305, 46.167206], [127.040747, 46.173387], [127.042978, 46.179806], [127.040575, 46.180638], [127.038687, 46.18456], [127.052839, 46.190251], [127.03617, 46.21614], [127.029953, 46.226622], [127.023568, 46.241197], [127.015169, 46.239565], [127.005556, 46.24004], [126.994913, 46.246213], [126.98942, 46.253098], [126.981524, 46.257608], [126.975172, 46.255472], [126.969507, 46.257133], [126.967791, 46.262355], [126.9532, 46.26473], [126.944102, 46.263067], [126.943072, 46.259151], [126.935862, 46.257964], [126.933288, 46.254404], [126.934146, 46.242771], [126.924533, 46.24099], [126.923675, 46.242296], [126.915778, 46.241939], [126.915606, 46.235053], [126.908053, 46.228522], [126.899642, 46.224128], [126.889342, 46.222584], [126.880931, 46.22294], [126.881274, 46.225434], [126.871661, 46.226265], [126.87046, 46.233271], [126.874923, 46.233983], [126.874751, 46.239209], [126.872691, 46.245026], [126.863078, 46.244314], [126.85295, 46.245145], [126.842479, 46.251674], [126.844882, 46.254997], [126.843852, 46.260338], [126.838359, 46.260575], [126.8157, 46.261287], [126.805572, 46.26105], [126.803423, 46.263182], [126.791578, 46.261046], [126.77939, 46.258791], [126.769777, 46.258553], [126.756216, 46.257129], [126.754842, 46.251076], [126.762567, 46.242885], [126.768404, 46.237186], [126.772524, 46.231605], [126.769262, 46.229231], [126.759306, 46.229349], [126.752954, 46.229706], [126.750208, 46.230181], [126.749349, 46.227568], [126.734243, 46.227331], [126.730295, 46.227449], [126.736397, 46.204468], [126.731419, 46.203161], [126.730733, 46.200785], [126.730046, 46.191517], [126.729874, 46.186526], [126.729874, 46.184506]]]}, "properties": {"display_name": "康金街道, 呼兰区, 哈尔滨市, 黑龙江省, 150500, 中国", "type": "administrative", "osm_type": "relation", "osm_id": 10790695, "class": null, "keyword": "subdistrict"}}, {"type": "Feature", "geometry": {"type": "Polygon", "coordinates": [[[126.522797, 45.901595], [126.545761, 45.901456], [126.545761, 45.896768], [126.545761, 45.89556], [126.554393, 45.895518], [126.556546, 45.894367], [126.556527, 45.893237], [126.558581, 45.893244], [126.55711, 45.891442], [126.556089, 45.890054], [126.555501, 45.888881], [126.56901, 45.888783], [126.570161, 45.888803], [126.571358, 45.888777], [126.585377, 45.888709], [126.601156, 45.888629], [126.602747, 45.885366], [126.606257, 45.878202], [126.609842, 45.870763], [126.611165, 45.868144], [126.6317, 45.872914], [126.64352, 45.84825], [126.671275, 45.849221], [126.676755, 45.875783], [126.689583, 45.875712], [126.693395, 45.851413], [126.706383, 45.851295], [126.704566, 45.85933], [126.695643, 45.877134], [126.692289, 45.882942], [126.692892, 45.889064], [126.696946, 45.894227], [126.709338, 45.900096], [126.720784, 45.901893], [126.739926, 45.900579], [126.752093, 45.902129], [126.7555, 45.909], [126.754034, 45.915433], [126.749185, 45.92014], [126.743209, 45.923592], [126.735202, 45.925475], [126.723136, 45.925082], [126.676388, 45.93894], [126.637434, 45.944611], [126.6071, 45.947668], [126.601912, 45.949942], [126.59977, 45.952686], [126.598158, 45.953681], [126.583401, 45.948643], [126.570004, 45.948482], [126.565615, 45.944145], [126.548984, 45.944949], [126.545057, 45.943824], [126.542978, 45.941094], [126.546674, 45.931615], [126.539744, 45.926474], [126.536972, 45.92069], [126.527004, 45.917628], [126.523953, 45.906117], [126.522797, 45.901595]]]}, "properties": {"display_name": "利民街道, 呼兰区, 哈尔滨市, 黑龙江省, 150500, 中国", "type": "administrative", "osm_type": "relation", "osm_id": 9436655, "class": null, "keyword": "subdistrict"}}, {"type": "Feature", "geometry": {"type": "Polygon", "coordinates": [[[126.63977, 46.001801], [126.639791, 46.001279], [126.639899, 46.000922], [126.640006, 46.000653], [126.640478, 46.000042], [126.640607, 45.999804], [126.640692, 45.99955], [126.640714, 45.999163], [126.640778, 45.995691], [126.640929, 45.992335], [126.641036, 45.992082], [126.641229, 45.991828], [126.641336, 45.99156], [126.641336, 45.990829], [126.641465, 45.986356], [126.641658, 45.986192], [126.645106, 45.985149], [126.645364, 45.985075], [126.646716, 45.984851], [126.648068, 45.984746], [126.650385, 45.984671], [126.652231, 45.984746], [126.65251, 45.981257], [126.652274, 45.981048], [126.652123, 45.980974], [126.652317, 45.979736], [126.652123, 45.979602], [126.648325, 45.979602], [126.648175, 45.976933], [126.65281, 45.976992], [126.660042, 45.977084], [126.663904, 45.973982], [126.670685, 45.972729], [126.670857, 45.971298], [126.673689, 45.970284], [126.67429, 45.970821], [126.674633, 45.970642], [126.67532, 45.971178], [126.676092, 45.971477], [126.676779, 45.972849], [126.678324, 45.972729], [126.679182, 45.972371], [126.680813, 45.972491], [126.680727, 45.973505], [126.683731, 45.974221], [126.684246, 45.976129], [126.691885, 45.977561], [126.700811, 45.978575], [126.700125, 45.980424], [126.701069, 45.980484], [126.702871, 45.980961], [126.703729, 45.981736], [126.70948, 45.982453], [126.706991, 45.988178], [126.702871, 45.991636], [126.701069, 45.99581], [126.700125, 45.998434], [126.704244, 45.999328], [126.708021, 46.000222], [126.71154, 46.001415], [126.710424, 46.004276], [126.7136, 46.004873], [126.713514, 46.006721], [126.721324, 46.007972], [126.724328, 46.007256], [126.728019, 46.002189], [126.738405, 46.003203], [126.74055, 46.003799], [126.744327, 46.002308], [126.747589, 46.002726], [126.748876, 46.004455], [126.755743, 46.005468], [126.755399, 46.007435], [126.764926, 46.00833], [126.771106, 46.009164], [126.771535, 46.014172], [126.784753, 46.012801], [126.7984, 46.010416], [126.803464, 46.010357], [126.812477, 46.011192], [126.813592, 46.012801], [126.813507, 46.018762], [126.812992, 46.024662], [126.810674, 46.029429], [126.805782, 46.034256], [126.803121, 46.036282], [126.803894, 46.038249], [126.803465, 46.039798], [126.797113, 46.043313], [126.79677, 46.045577], [126.79368, 46.045398], [126.793165, 46.048734], [126.791963, 46.051593], [126.785784, 46.051951], [126.784839, 46.055703], [126.77454, 46.054631], [126.770677, 46.054155], [126.76115, 46.05344], [126.757803, 46.054869], [126.753254, 46.057907], [126.752052, 46.05743], [126.747417, 46.058026], [126.742439, 46.05618], [126.741066, 46.054929], [126.738062, 46.054929], [126.734028, 46.051832], [126.731195, 46.052487], [126.728878, 46.052189], [126.725702, 46.053619], [126.723557, 46.054631], [126.723042, 46.058026], [126.720038, 46.060706], [126.718407, 46.062076], [126.716433, 46.062374], [126.707935, 46.064101], [126.705376, 46.064417], [126.644682, 46.032159], [126.643767, 46.03164], [126.643041, 46.031161], [126.642397, 46.030647], [126.641991, 46.030269], [126.641637, 46.029866], [126.641317, 46.029454], [126.640963, 46.02895], [126.640723, 46.028462], [126.640492, 46.027862], [126.640341, 46.027242], [126.640268, 46.026573], [126.640494, 46.013996], [126.640691, 46.004894], [126.6407, 46.004081], [126.641122, 46.004094], [126.647487, 46.007234], [126.649337, 46.005153], [126.642088, 46.002018], [126.640876, 46.001831], [126.63977, 46.001801]]]}, "properties": {"display_name": "双井街道, 呼兰区, 哈尔滨市, 黑龙江省, 150500, 中国", "type": "administrative", "osm_type": "relation", "osm_id": 10790709, "class": null, "keyword": "subdistrict"}}, {"type": "Feature", "geometry": {"type": "Polygon", "coordinates": [[[126.641014, 45.682754], [126.643024, 45.673136], [126.649471, 45.675303], [126.651696, 45.677174], [126.653474, 45.677802], [126.656556, 45.672697], [126.657669, 45.670176], [126.671622, 45.656471], [126.674619, 45.650584], [126.676161, 45.639419], [126.678557, 45.638995], [126.679756, 45.638632], [126.694734, 45.638305], [126.701069, 45.640215], [126.70124, 45.638234], [126.703261, 45.638255], [126.704176, 45.638259], [126.717513, 45.638511], [126.718798, 45.633468], [126.719531, 45.624479], [126.730436, 45.624241], [126.730587, 45.624533], [126.733677, 45.630502], [126.742738, 45.630784], [126.746966, 45.629798], [126.749583, 45.632051], [126.759852, 45.632896], [126.765752, 45.632172], [126.769047, 45.632569], [126.772675, 45.630715], [126.783829, 45.628485], [126.786918, 45.626756], [126.789611, 45.626852], [126.794861, 45.62748], [126.798179, 45.627031], [126.802681, 45.62818], [126.800061, 45.629942], [126.7961, 45.634545], [126.788004, 45.641952], [126.785647, 45.64688], [126.787011, 45.647774], [126.787451, 45.649678], [126.787352, 45.651439], [126.78765, 45.652005], [126.791871, 45.654643], [126.788995, 45.655799], [126.784525, 45.657954], [126.777392, 45.659685], [126.773783, 45.662383], [126.767942, 45.663938], [126.760042, 45.663754], [126.760149, 45.662119], [126.760665, 45.659509], [126.756323, 45.660673], [126.747362, 45.663078], [126.749935, 45.667398], [126.740798, 45.670068], [126.74426, 45.676457], [126.737623, 45.678497], [126.737064, 45.676098], [126.737579, 45.672499], [126.736379, 45.67235], [126.736337, 45.669021], [126.733035, 45.668603], [126.732394, 45.667568], [126.719477, 45.671356], [126.717455, 45.672874], [126.718728, 45.67388], [126.720342, 45.675327], [126.718363, 45.674795], [126.716837, 45.679153], [126.714848, 45.678791], [126.715827, 45.680103], [126.712596, 45.682431], [126.715726, 45.68465], [126.714218, 45.685787], [126.715221, 45.686576], [126.716243, 45.68772], [126.716585, 45.688662], [126.720619, 45.702299], [126.723707, 45.703507], [126.721318, 45.704518], [126.723573, 45.705311], [126.727741, 45.707926], [126.718498, 45.71018], [126.719363, 45.711795], [126.717906, 45.71231], [126.713157, 45.71095], [126.712723, 45.711903], [126.711111, 45.712835], [126.710359, 45.712561], [126.709631, 45.712189], [126.708956, 45.711746], [126.708454, 45.711273], [126.707971, 45.710793], [126.707505, 45.710269], [126.706934, 45.7097], [126.706204, 45.709005], [126.705553, 45.708508], [126.699822, 45.705402], [126.695126, 45.702927], [126.694847, 45.70279], [126.690618, 45.700544], [126.692457, 45.699057], [126.689236, 45.697651], [126.69066, 45.696314], [126.69137, 45.696715], [126.691576, 45.696832], [126.692171, 45.696354], [126.691709, 45.695595], [126.691952, 45.694661], [126.690166, 45.693435], [126.690047, 45.693542], [126.687385, 45.695947], [126.687211, 45.696105], [126.68579, 45.697391], [126.685399, 45.697746], [126.685385, 45.697758], [126.685086, 45.697599], [126.672394, 45.69063], [126.671783, 45.690285], [126.67081, 45.691145], [126.665455, 45.692064], [126.665053, 45.690676], [126.663479, 45.690686], [126.663244, 45.689652], [126.658333, 45.685777], [126.656403, 45.689113], [126.641014, 45.682754]]]}, "properties": {"display_name": "黎明街道, 香坊区, 哈尔滨市, 黑龙江省, 150000, 中国", "type": "administrative", "osm_type": "relation", "osm_id": 9430868, "class": null, "keyword": "subdistrict"}}, {"type": "Feature", "geometry": {"type": "Polygon", "coordinates": [[[126.472643, 45.860793], [126.477729, 45.858195], [126.517543, 45.843905], [126.525625, 45.849834], [126.535785, 45.849199], [126.545845, 45.850278], [126.5476, 45.850464], [126.552608, 45.854205], [126.565209, 45.87156], [126.584348, 45.875297], [126.601624, 45.875662], [126.60608, 45.866857], [126.611165, 45.868144], [126.609842, 45.870763], [126.606257, 45.878202], [126.602747, 45.885366], [126.601156, 45.888629], [126.585377, 45.888709], [126.571358, 45.888777], [126.570161, 45.888803], [126.56901, 45.888783], [126.555501, 45.888881], [126.556089, 45.890054], [126.55711, 45.891442], [126.558581, 45.893244], [126.556527, 45.893237], [126.556546, 45.894367], [126.554393, 45.895518], [126.545761, 45.89556], [126.545761, 45.896768], [126.545761, 45.901456], [126.522797, 45.901595], [126.523953, 45.906117], [126.527004, 45.917628], [126.518262, 45.912655], [126.514335, 45.91169], [126.508329, 45.913619], [126.488464, 45.910726], [126.48914, 45.899681], [126.487507, 45.895702], [126.48522, 45.892065], [126.48473, 45.881036], [126.48342, 45.876133], [126.48326, 45.875805], [126.47985, 45.871331], [126.474767, 45.86466], [126.47297, 45.863181], [126.472643, 45.860793]]]}, "properties": {"display_name": "学院路街道, 呼兰区, 哈尔滨市, 松北区, 黑龙江省, 150500, 中国", "type": "administrative", "osm_type": "relation", "osm_id": 9436656, "class": null, "keyword": "subdistrict"}}, {"type": "Feature", "geometry": {"type": "Polygon", "coordinates": [[[127.000038, 45.551005], [127.001327, 45.550109], [127.002202, 45.550363], [127.002886, 45.550451], [127.004445, 45.550356], [127.005086, 45.550594], [127.005298, 45.550668], [127.005972, 45.550683], [127.006063, 45.550668], [127.006238, 45.550696], [127.010499, 45.551223], [127.010979, 45.551282], [127.011428, 45.550725], [127.011962, 45.550213], [127.012117, 45.550239], [127.012731, 45.549504], [127.013073, 45.548677], [127.012838, 45.548467], [127.012065, 45.548735], [127.009762, 45.549528], [127.009527, 45.548852], [127.01025, 45.548485], [127.010253, 45.547964], [127.009977, 45.547941], [127.010089, 45.547584], [127.009169, 45.547453], [127.008937, 45.547407], [127.009118, 45.546662], [127.009213, 45.546284], [127.010633, 45.54624], [127.010644, 45.545465], [127.011627, 45.545432], [127.012443, 45.54541], [127.012629, 45.54521], [127.013002, 45.544806], [127.013131, 45.544376], [127.013153, 45.543986], [127.013238, 45.543399], [127.013153, 45.543076], [127.012608, 45.54235], [127.012245, 45.54184], [127.011924, 45.541547], [127.010761, 45.5411], [127.009596, 45.540705], [127.010101, 45.540346], [127.012036, 45.538213], [127.014009, 45.536072], [127.019855, 45.529051], [127.026864, 45.519922], [127.031512, 45.515497], [127.033532, 45.515965], [127.035326, 45.516593], [127.036224, 45.51632], [127.036653, 45.516348], [127.03708, 45.516376], [127.037593, 45.516465], [127.038234, 45.516524], [127.039089, 45.516582], [127.039815, 45.516641], [127.041098, 45.516819], [127.042249, 45.516999], [127.043405, 45.517204], [127.043962, 45.520902], [127.045929, 45.522131], [127.047682, 45.522909], [127.047639, 45.52378], [127.049859, 45.526724], [127.053284, 45.528941], [127.053794, 45.532142], [127.05604, 45.534844], [127.055696, 45.539473], [127.052616, 45.542486], [127.051018, 45.546359], [127.051105, 45.548041], [127.050078, 45.548539], [127.048167, 45.548206], [127.048346, 45.550646], [127.04779, 45.55424], [127.047234, 45.557397], [127.046871, 45.558704], [127.045097, 45.558167], [127.041032, 45.557291], [127.039322, 45.557145], [127.038318, 45.557447], [127.037505, 45.55814], [127.037185, 45.559088], [127.03695, 45.559509], [127.036394, 45.559826], [127.035924, 45.560037], [127.035176, 45.560189], [127.033616, 45.560178], [127.027164, 45.560212], [127.025302, 45.560217], [127.025006, 45.560218], [127.021119, 45.560229], [127.01642, 45.560257], [127.016313, 45.561129], [127.014519, 45.561179], [127.014255, 45.560852], [127.013316, 45.559172], [127.012205, 45.558754], [127.009044, 45.558043], [127.008558, 45.557946], [127.008183, 45.557812], [127.007714, 45.557551], [127.006741, 45.556789], [127.006292, 45.555986], [127.005697, 45.554807], [127.005443, 45.554292], [127.005374, 45.55415], [127.005269, 45.553988], [127.004799, 45.553666], [127.003316, 45.553077], [127.003038, 45.552942], [127.001191, 45.551716], [127.000038, 45.551005]]]}, "properties": {"display_name": "河东街道, 阿城区, 哈尔滨市, 黑龙江省, 150300, 中国", "type": "administrative", "osm_type": "relation", "osm_id": 9433873, "class": null, "keyword": "subdistrict"}}, {"type": "Feature", "geometry": {"type": "MultiPolygon", "coordinates": [[[[126.939407, 45.538131], [126.939414, 45.537868], [126.939505, 45.537853], [126.939718, 45.537634], [126.93971, 45.537439], [126.946219, 45.536692], [126.948342, 45.536429], [126.950838, 45.536224], [126.952249, 45.536134], [126.952774, 45.536111], [126.954979, 45.536065], [126.955409, 45.536056], [126.958075, 45.536059], [126.959766, 45.536061], [126.960835, 45.536061], [126.962324, 45.536062], [126.964278, 45.536065], [126.964313, 45.536064], [126.964386, 45.536064], [126.966478, 45.536059], [126.968046, 45.536054], [126.968312, 45.536053], [126.969767, 45.536049], [126.970662, 45.536047], [126.972474, 45.536095], [126.973606, 45.536144], [126.973735, 45.537031], [126.97393, 45.537592], [126.973937, 45.537613], [126.974275, 45.538109], [126.975515, 45.539566], [126.97555, 45.539608], [126.977048, 45.541301], [126.977726, 45.542016], [126.979118, 45.543091], [126.979397, 45.543307], [126.978825, 45.543823], [126.978932, 45.546078], [126.978995, 45.547429], [126.978462, 45.548016], [126.977608, 45.548395], [126.975642, 45.548791], [126.97402, 45.548514], [126.971583, 45.548096], [126.970515, 45.548129], [126.971094, 45.554105], [126.970652, 45.554241], [126.970479, 45.554302], [126.97025, 45.554344], [126.970031, 45.554371], [126.969758, 45.55436], [126.969518, 45.554339], [126.968936, 45.554212], [126.968323, 45.554074], [126.967404, 45.553792], [126.967136, 45.553747], [126.961956, 45.552447], [126.960684, 45.552177], [126.959102, 45.551911], [126.955126, 45.554234], [126.955154, 45.553419], [126.955207, 45.552442], [126.955368, 45.551787], [126.955821, 45.550788], [126.95619, 45.549964], [126.956377, 45.549558], [126.955821, 45.549405], [126.95565, 45.549365], [126.955469, 45.549361], [126.95518, 45.549298], [126.95487, 45.549253], [126.954784, 45.549314], [126.954426, 45.549269], [126.952937, 45.54927], [126.95272, 45.54927], [126.951545, 45.54927], [126.951154, 45.549269], [126.949128, 45.549251], [126.947279, 45.549268], [126.947276, 45.54896], [126.947211, 45.548958], [126.947085, 45.548988], [126.946924, 45.54913], [126.946839, 45.549175], [126.9467, 45.54922], [126.946475, 45.549184], [126.946304, 45.549049], [126.946251, 45.548906], [126.946079, 45.548862], [126.945631, 45.548869], [126.945075, 45.548848], [126.944978, 45.548841], [126.944774, 45.548744], [126.944464, 45.548609], [126.94393, 45.548459], [126.943782, 45.548245], [126.943429, 45.548125], [126.943001, 45.548126], [126.942616, 45.548075], [126.942306, 45.547902], [126.942081, 45.547738], [126.941814, 45.547655], [126.941696, 45.547542], [126.941728, 45.547392], [126.941664, 45.547243], [126.941289, 45.547152], [126.940979, 45.546951], [126.940787, 45.546808], [126.940626, 45.546733], [126.940521, 45.54661], [126.940457, 45.546434], [126.940113, 45.546464], [126.939853, 45.546431], [126.939665, 45.545921], [126.939596, 45.545225], [126.939594, 45.545183], [126.939592, 45.545116], [126.939557, 45.544263], [126.939482, 45.541145], [126.939425, 45.538759], [126.939407, 45.538131]], [[126.962759, 45.546916], [126.963084, 45.546937], [126.963159, 45.54631], [126.963474, 45.546298], [126.963643, 45.54629], [126.963681, 45.546237], [126.96372, 45.546053], [126.962919, 45.545999], [126.962759, 45.546916]]], [[[126.955533, 45.55935], [126.955592, 45.558504], [126.961243, 45.558186], [126.961309, 45.55793], [126.961768, 45.557907], [126.963916, 45.557864], [126.96616, 45.557721], [126.966128, 45.556632], [126.967164, 45.556749], [126.967805, 45.556875], [126.968457, 45.556941], [126.969034, 45.556924], [126.969547, 45.556856], [126.971373, 45.556843], [126.971425, 45.55747], [126.968006, 45.557629], [126.968284, 45.558297], [126.968444, 45.559769], [126.968519, 45.560686], [126.966717, 45.560762], [126.964822, 45.560853], [126.964174, 45.560889], [126.963683, 45.560921], [126.963734, 45.561467], [126.963125, 45.561375], [126.962185, 45.561204], [126.961662, 45.561067], [126.960954, 45.560916], [126.96092, 45.560746], [126.957159, 45.559914], [126.955533, 45.55935]]]]}, "properties": {"display_name": "金城街道, 阿城区, 哈尔滨市, 黑龙江省, 150300, 中国", "type": "administrative", "osm_type": "relation", "osm_id": 9433874, "class": null, "keyword": "subdistrict"}}, {"type": "Feature", "geometry": {"type": "MultiPolygon", "coordinates": [[[[126.93383, 45.534436], [126.93433, 45.533708], [126.934994, 45.533091], [126.936022, 45.532172], [126.93722, 45.531118], [126.938632, 45.530019], [126.940097, 45.52908], [126.942963, 45.528895], [126.942925, 45.530549], [126.94439, 45.530516], [126.944494, 45.531334], [126.945607, 45.531182], [126.94813, 45.531192], [126.948259, 45.532064], [126.94933, 45.532747], [126.949811, 45.532573], [126.951191, 45.532879], [126.952116, 45.533086], [126.953841, 45.533324], [126.954682, 45.533261], [126.955195, 45.533741], [126.955264, 45.533648], [126.955628, 45.533591], [126.955595, 45.53308], [126.955617, 45.532584], [126.955834, 45.532191], [126.955872, 45.53207], [126.955606, 45.531987], [126.955766, 45.530573], [126.95646, 45.530739], [126.956998, 45.530864], [126.957456, 45.530884], [126.957464, 45.530737], [126.957748, 45.530218], [126.957934, 45.529826], [126.958013, 45.529606], [126.958432, 45.529302], [126.9587, 45.528923], [126.957477, 45.52887], [126.956814, 45.528864], [126.956964, 45.52863], [126.956996, 45.528352], [126.957071, 45.528164], [126.957049, 45.527924], [126.957049, 45.527585], [126.956981, 45.52744], [126.957071, 45.527172], [126.957157, 45.526939], [126.957253, 45.526781], [126.957734, 45.52672], [126.958396, 45.526718], [126.958717, 45.52671], [126.958803, 45.526582], [126.958839, 45.526439], [126.958974, 45.526244], [126.959176, 45.525961], [126.959353, 45.525634], [126.958857, 45.525432], [126.958664, 45.525319], [126.957724, 45.524576], [126.957478, 45.524405], [126.957328, 45.524329], [126.957445, 45.524231], [126.957658, 45.52408], [126.957734, 45.523975], [126.957744, 45.52393], [126.957777, 45.523892], [126.957804, 45.523862], [126.958012, 45.523926], [126.958172, 45.524435], [126.958263, 45.524616], [126.958403, 45.524691], [126.95868, 45.524682], [126.958979, 45.52469], [126.959187, 45.524696], [126.959337, 45.524647], [126.959439, 45.524654], [126.959599, 45.524661], [126.960031, 45.524699], [126.96028, 45.524734], [126.960482, 45.524741], [126.960558, 45.524745], [126.960574, 45.524651], [126.960606, 45.524535], [126.960683, 45.524425], [126.960705, 45.524361], [126.960716, 45.524298], [126.96071, 45.524226], [126.960721, 45.52414], [126.960721, 45.524087], [126.960716, 45.524034], [126.960705, 45.523997], [126.960721, 45.523952], [126.960705, 45.523895], [126.960694, 45.523843], [126.960689, 45.523809], [126.9607, 45.523775], [126.960678, 45.523723], [126.960667, 45.523677], [126.960624, 45.52364], [126.960634, 45.523489], [126.960948, 45.52347], [126.961088, 45.523466], [126.961259, 45.523466], [126.961409, 45.523469], [126.961542, 45.52348], [126.961617, 45.52348], [126.961671, 45.523506], [126.961698, 45.523476], [126.961804, 45.523495], [126.961906, 45.523464], [126.962024, 45.52346], [126.962125, 45.523475], [126.962322, 45.523463], [126.962403, 45.523459], [126.962649, 45.523403], [126.962783, 45.523308], [126.963014, 45.523279], [126.963027, 45.523165], [126.96314, 45.522991], [126.962905, 45.522733], [126.962756, 45.522613], [126.96251, 45.522572], [126.9629, 45.522301], [126.96294, 45.52211], [126.962913, 45.521971], [126.962901, 45.52185], [126.9628, 45.521718], [126.962693, 45.521606], [126.962485, 45.521569], [126.962271, 45.521588], [126.962153, 45.521634], [126.962052, 45.521645], [126.961983, 45.521615], [126.96186, 45.521547], [126.961764, 45.521481], [126.961646, 45.521409], [126.961497, 45.521334], [126.961358, 45.521229], [126.961219, 45.521128], [126.961032, 45.521019], [126.960914, 45.520956], [126.960716, 45.520829], [126.960652, 45.520787], [126.960898, 45.520592], [126.961102, 45.520497], [126.961278, 45.520339], [126.961438, 45.520169], [126.961502, 45.52009], [126.961534, 45.520038], [126.961604, 45.519831], [126.961648, 45.51965], [126.961669, 45.519462], [126.961711, 45.519329], [126.961802, 45.519243], [126.961931, 45.519183], [126.962042, 45.519149], [126.962166, 45.519178], [126.962299, 45.519238], [126.962444, 45.519362], [126.962507, 45.519464], [126.962593, 45.519508], [126.962823, 45.519575], [126.963127, 45.51968], [126.963341, 45.519765], [126.963404, 45.51978], [126.963463, 45.51981], [126.963463, 45.5194], [126.963416, 45.518705], [126.963353, 45.518035], [126.963695, 45.518038], [126.963855, 45.518053], [126.964079, 45.518045], [126.964165, 45.517977], [126.964235, 45.517893], [126.964341, 45.51777], [126.964528, 45.5176], [126.964651, 45.517498], [126.96472, 45.517404], [126.964774, 45.517322], [126.964849, 45.51728], [126.964935, 45.517316], [126.965025, 45.517376], [126.965324, 45.517484], [126.965629, 45.517626], [126.96587, 45.517708], [126.966137, 45.517809], [126.966419, 45.517865], [126.966735, 45.517913], [126.967124, 45.51798], [126.967467, 45.518039], [126.967829, 45.518079], [126.968086, 45.518108], [126.968193, 45.518142], [126.968231, 45.51824], [126.968348, 45.518543], [126.968482, 45.518855], [126.968674, 45.519423], [126.968743, 45.519647], [126.968737, 45.519829], [126.968631, 45.520122], [126.968588, 45.520306], [126.968615, 45.520415], [126.968726, 45.52043], [126.968929, 45.520485], [126.969052, 45.520523], [126.969169, 45.520575], [126.969255, 45.520593], [126.969314, 45.520616], [126.969387, 45.520709], [126.969356, 45.520788], [126.970175, 45.520822], [126.970451, 45.52082], [126.970845, 45.520834], [126.971262, 45.520841], [126.97131, 45.521002], [126.971286, 45.521187], [126.971286, 45.521345], [126.971321, 45.521457], [126.971254, 45.52157], [126.971308, 45.521698], [126.971294, 45.521814], [126.971254, 45.521969], [126.971337, 45.522141], [126.971358, 45.522269], [126.971234, 45.522473], [126.971266, 45.52254], [126.971288, 45.522698], [126.971112, 45.522698], [126.970773, 45.522699], [126.970299, 45.522705], [126.970292, 45.522603], [126.970075, 45.52263], [126.970068, 45.522768], [126.970059, 45.522934], [126.96994, 45.5231], [126.969888, 45.523209], [126.969893, 45.52331], [126.969808, 45.52342], [126.969733, 45.523702], [126.969652, 45.523747], [126.969567, 45.523927], [126.969802, 45.524012], [126.970047, 45.524094], [126.970234, 45.524188], [126.970399, 45.524293], [126.970677, 45.524341], [126.970934, 45.524404], [126.971233, 45.524463], [126.971447, 45.524535], [126.971531, 45.524313], [126.971616, 45.524118], [126.971723, 45.52384], [126.971819, 45.523607], [126.971948, 45.523365], [126.972034, 45.52317], [126.972066, 45.523056], [126.972195, 45.522706], [126.972622, 45.522821], [126.972931, 45.522905], [126.97329, 45.523027], [126.97385, 45.523224], [126.974155, 45.523309], [126.974133, 45.523433], [126.974027, 45.523621], [126.973877, 45.523825], [126.973839, 45.523919], [126.974069, 45.524001], [126.974668, 45.524127], [126.974935, 45.524198], [126.97544, 45.524318], [126.975928, 45.524432], [126.976435, 45.52454], [126.976669, 45.524622], [126.976682, 45.524678], [126.97659, 45.524941], [126.976412, 45.52545], [126.976243, 45.526002], [126.973654, 45.526013], [126.973069, 45.526], [126.97336, 45.526289], [126.973496, 45.526406], [126.973506, 45.526609], [126.973603, 45.526834], [126.973923, 45.526976], [126.9742, 45.527065], [126.974511, 45.527259], [126.974873, 45.527364], [126.975216, 45.527439], [126.97544, 45.52746], [126.975536, 45.527739], [126.975814, 45.52785], [126.976016, 45.527887], [126.976198, 45.528165], [126.976337, 45.52818], [126.976679, 45.528118], [126.976849, 45.528133], [126.976892, 45.528434], [126.977009, 45.528509], [126.977159, 45.528538], [126.977351, 45.528553], [126.977468, 45.52868], [126.977629, 45.528777], [126.977928, 45.528836], [126.978131, 45.528895], [126.978355, 45.528978], [126.978484, 45.529067], [126.978579, 45.52912], [126.97874, 45.52927], [126.978889, 45.529382], [126.979016, 45.529592], [126.979165, 45.52972], [126.979284, 45.529959], [126.979401, 45.53017], [126.979646, 45.530432], [126.979786, 45.530672], [126.979871, 45.530748], [126.980052, 45.530927], [126.980276, 45.530986], [126.980511, 45.531061], [126.980671, 45.531286], [126.980885, 45.531744], [126.981024, 45.531908], [126.981098, 45.532058], [126.981366, 45.532207], [126.981536, 45.532365], [126.981793, 45.532559], [126.981931, 45.532762], [126.982166, 45.532949], [126.98222, 45.533137], [126.982145, 45.53349], [126.982252, 45.533595], [126.982604, 45.533699], [126.982861, 45.533751], [126.983063, 45.533804], [126.983213, 45.533885], [126.98332, 45.534111], [126.983448, 45.534306], [126.983715, 45.53444], [126.983932, 45.534477], [126.984013, 45.534492], [126.984302, 45.534544], [126.984654, 45.534543], [126.984825, 45.534549], [126.985199, 45.534556], [126.985424, 45.534556], [126.985626, 45.534472], [126.985797, 45.534382], [126.986032, 45.534456], [126.986224, 45.534538], [126.986427, 45.534568], [126.986705, 45.534649], [126.987068, 45.534731], [126.987292, 45.534768], [126.987793, 45.534849], [126.988157, 45.534923], [126.988615, 45.535057], [126.988925, 45.535228], [126.989288, 45.535257], [126.989715, 45.535347], [126.99026, 45.535442], [126.990655, 45.535479], [126.991061, 45.53553], [126.991477, 45.535575], [126.991957, 45.535708], [126.992773, 45.535806], [126.993083, 45.535978], [126.993159, 45.536264], [126.993195, 45.536456], [126.993228, 45.536607], [126.9934, 45.536889], [126.990705, 45.536523], [126.988733, 45.536228], [126.986473, 45.536197], [126.979027, 45.536181], [126.973606, 45.536144], [126.972474, 45.536095], [126.970662, 45.536047], [126.969767, 45.536049], [126.968312, 45.536053], [126.968046, 45.536054], [126.966478, 45.536059], [126.964386, 45.536064], [126.964313, 45.536064], [126.964278, 45.536065], [126.962324, 45.536062], [126.960835, 45.536061], [126.959766, 45.536061], [126.958075, 45.536059], [126.955409, 45.536056], [126.954979, 45.536065], [126.952774, 45.536111], [126.952249, 45.536134], [126.950838, 45.536224], [126.948342, 45.536429], [126.946219, 45.536692], [126.93971, 45.537439], [126.939582, 45.537199], [126.939325, 45.537138], [126.938806, 45.537184], [126.938507, 45.537297], [126.937736, 45.537231], [126.935425, 45.53613], [126.934886, 45.535881], [126.934757, 45.535789], [126.934651, 45.535706], [126.934474, 45.535398], [126.934306, 45.534826], [126.934118, 45.534537], [126.933932, 45.534466], [126.93383, 45.534436]]], [[[126.953739, 45.523047], [126.953814, 45.522991], [126.954149, 45.52276], [126.954416, 45.522599], [126.954609, 45.522727], [126.955262, 45.523275], [126.955518, 45.523432], [126.955786, 45.523139], [126.956064, 45.522777], [126.956469, 45.522378], [126.956769, 45.521941], [126.956619, 45.521859], [126.956234, 45.521702], [126.95601, 45.521567], [126.956074, 45.521484], [126.956384, 45.521115], [126.95663, 45.520852], [126.95693, 45.520475], [126.957346, 45.519895], [126.957806, 45.519939], [126.958212, 45.520006], [126.958576, 45.520072], [126.958906, 45.520169], [126.959494, 45.520409], [126.959751, 45.520671], [126.959954, 45.520956], [126.959858, 45.52103], [126.959677, 45.521195], [126.959436, 45.521388], [126.958982, 45.521776], [126.958913, 45.521915], [126.958769, 45.522206], [126.958048, 45.522748], [126.957359, 45.522738], [126.957011, 45.523175], [126.956851, 45.523092], [126.956771, 45.523184], [126.95653, 45.523142], [126.95583, 45.52364], [126.955643, 45.523565], [126.954988, 45.523199], [126.954773, 45.523439], [126.954675, 45.523462], [126.954274, 45.52326], [126.953739, 45.523047]]]]}, "properties": {"display_name": "金都街道, 阿城区, 哈尔滨市, 黑龙江省, 150300, 中国", "type": "administrative", "osm_type": "relation", "osm_id": 9433875, "class": null, "keyword": "subdistrict"}}, {"type": "Feature", "geometry": {"type": "Polygon", "coordinates": [[[126.662006, 45.767365], [126.662238, 45.764223], [126.662337, 45.762865], [126.662409, 45.761878], [126.662436, 45.761486], [126.673411, 45.76101], [126.673608, 45.760097], [126.673178, 45.759972], [126.67359, 45.758258], [126.674126, 45.758283], [126.674935, 45.755143], [126.672425, 45.755055], [126.672604, 45.753541], [126.673034, 45.751602], [126.675778, 45.751827], [126.676836, 45.74761], [126.677571, 45.74482], [126.677553, 45.744394], [126.677344, 45.743589], [126.676058, 45.739105], [126.687639, 45.737645], [126.688411, 45.740277], [126.689192, 45.743015], [126.690022, 45.746007], [126.690416, 45.747434], [126.690632, 45.748335], [126.690578, 45.749348], [126.690112, 45.751463], [126.687941, 45.760001], [126.681089, 45.759175], [126.67967, 45.764497], [126.67557, 45.764012], [126.674238, 45.765627], [126.673959, 45.766436], [126.673382, 45.766409], [126.672684, 45.766153], [126.671936, 45.766064], [126.671564, 45.766039], [126.667726, 45.766502], [126.667278, 45.76664], [126.666364, 45.767128], [126.665234, 45.76744], [126.664409, 45.767615], [126.663566, 45.767603], [126.662006, 45.767365]]]}, "properties": {"display_name": "先锋路街道, 南岗区, 哈尔滨市, 香坊区, 黑龙江省, 150000, 中国", "type": "administrative", "osm_type": "relation", "osm_id": 9427144, "class": null, "keyword": "subdistrict"}}, {"type": "Feature", "geometry": {"type": "Polygon", "coordinates": [[[126.686594, 45.765369], [126.687941, 45.760001], [126.695146, 45.760883], [126.695132, 45.760944], [126.694847, 45.762015], [126.696101, 45.762173], [126.696143, 45.76202], [126.6968, 45.762087], [126.696821, 45.762005], [126.69781, 45.762124], [126.698026, 45.76131], [126.69796, 45.761174], [126.698357, 45.759599], [126.698062, 45.759562], [126.698441, 45.758015], [126.702479, 45.758517], [126.701949, 45.760663], [126.704449, 45.760954], [126.704233, 45.76183], [126.707401, 45.762195], [126.707828, 45.760726], [126.706606, 45.760551], [126.708333, 45.758508], [126.712935, 45.757373], [126.710717, 45.765551], [126.710641, 45.765892], [126.710599, 45.766132], [126.710575, 45.766402], [126.710573, 45.766647], [126.71059, 45.766887], [126.710638, 45.767149], [126.710697, 45.767411], [126.710768, 45.767639], [126.710891, 45.76792], [126.711005, 45.768153], [126.71116, 45.768411], [126.711292, 45.768596], [126.711469, 45.768823], [126.711612, 45.768985], [126.711781, 45.76917], [126.712922, 45.770339], [126.712341, 45.770363], [126.712013, 45.770765], [126.711604, 45.770964], [126.71059, 45.771028], [126.709259, 45.770976], [126.708745, 45.772746], [126.70822, 45.772709], [126.708146, 45.773041], [126.706384, 45.772819], [126.704879, 45.778741], [126.697438, 45.777833], [126.69689, 45.779879], [126.690492, 45.779087], [126.693861, 45.766241], [126.686594, 45.765369]]]}, "properties": {"display_name": "南直路街道, 道外区, 哈尔滨市, 香坊区, 黑龙江省, 150000, 中国", "type": "administrative", "osm_type": "relation", "osm_id": 10788012, "class": null, "keyword": "subdistrict"}}, {"type": "Feature", "geometry": {"type": "MultiPolygon", "coordinates": [[[[126.750723, 45.7076], [126.763792, 45.7063], [126.764072, 45.709253], [126.770784, 45.70876], [126.773411, 45.708567], [126.773708, 45.709255], [126.772629, 45.709363], [126.769156, 45.709625], [126.767782, 45.709721], [126.765798, 45.709871], [126.762671, 45.71005], [126.751031, 45.71092], [126.750723, 45.7076]]], [[[126.755761, 45.723708], [126.756914, 45.723462], [126.757778, 45.725631], [126.756511, 45.725866], [126.756227, 45.724985], [126.756017, 45.72441], [126.755761, 45.723708]]], [[[126.760115, 45.718346], [126.761979, 45.718004], [126.764144, 45.723673], [126.761831, 45.724201], [126.761123, 45.722379], [126.761788, 45.722246], [126.760115, 45.718346]]], [[[126.782296, 45.701768], [126.787027, 45.701543], [126.786261, 45.700954], [126.790919, 45.695989], [126.793532, 45.698196], [126.797014, 45.697957], [126.800153, 45.700451], [126.803913, 45.700212], [126.806289, 45.704471], [126.801289, 45.705896], [126.795476, 45.707306], [126.788678, 45.707909], [126.79069, 45.71244], [126.783938, 45.713025], [126.783234, 45.70788], [126.782296, 45.701768]]], [[[126.785248, 45.736033], [126.787144, 45.73586], [126.787305, 45.736931], [126.786112, 45.737061], [126.785414, 45.736741], [126.785248, 45.736033]]], [[[126.786398, 45.717052], [126.786441, 45.715929], [126.790609, 45.716038], [126.790588, 45.716563], [126.793102, 45.716687], [126.793253, 45.717406], [126.793296, 45.719474], [126.792028, 45.72181], [126.786634, 45.717487], [126.786398, 45.717052]]], [[[126.795714, 45.734819], [126.795731, 45.73456], [126.795763, 45.733303], [126.796204, 45.732413], [126.796967, 45.730801], [126.798509, 45.73117], [126.798386, 45.731383], [126.800024, 45.731793], [126.799766, 45.732228], [126.799609, 45.732216], [126.799518, 45.732458], [126.801136, 45.732936], [126.802291, 45.733582], [126.801432, 45.73403], [126.800308, 45.734567], [126.799653, 45.73472], [126.798739, 45.734753], [126.795714, 45.734819]]]]}, "properties": {"display_name": "新香坊街道, 香坊区, 哈尔滨市, 黑龙江省, 150000, 中国", "type": "administrative", "osm_type": "relation", "osm_id": 9430871, "class": null, "keyword": "subdistrict"}}, {"type": "Feature", "geometry": {"type": "Polygon", "coordinates": [[[126.673959, 45.766436], [126.674238, 45.765627], [126.67557, 45.764012], [126.67967, 45.764497], [126.681089, 45.759175], [126.687941, 45.760001], [126.686594, 45.765369], [126.693861, 45.766241], [126.690492, 45.779087], [126.69689, 45.779879], [126.695269, 45.786409], [126.688854, 45.78565], [126.68914, 45.784444], [126.689923, 45.781421], [126.686415, 45.781032], [126.686544, 45.78053], [126.684799, 45.780281], [126.684429, 45.780528], [126.682371, 45.779594], [126.681035, 45.779163], [126.681955, 45.778475], [126.68374, 45.773138], [126.67951, 45.772861], [126.679718, 45.771444], [126.68374, 45.771476], [126.683987, 45.771122], [126.684004, 45.770416], [126.683541, 45.769237], [126.683395, 45.768948], [126.682939, 45.768623], [126.681918, 45.767826], [126.680721, 45.767601], [126.673959, 45.766436]]]}, "properties": {"display_name": "大有坊街道, 道外区, 哈尔滨市, 香坊区, 黑龙江省, 150000, 中国", "type": "administrative", "osm_type": "relation", "osm_id": 10788004, "class": null, "keyword": "subdistrict"}}, {"type": "Feature", "geometry": {"type": "Polygon", "coordinates": [[[126.694356, 45.790041], [126.695269, 45.786409], [126.69689, 45.779879], [126.697438, 45.777833], [126.704879, 45.778741], [126.706384, 45.772819], [126.708146, 45.773041], [126.70822, 45.772709], [126.708745, 45.772746], [126.709259, 45.770976], [126.71059, 45.771028], [126.711604, 45.770964], [126.712013, 45.770765], [126.712341, 45.770363], [126.712922, 45.770339], [126.713154, 45.77063], [126.71327, 45.770804], [126.713374, 45.770991], [126.713461, 45.771178], [126.713541, 45.77138], [126.713605, 45.771581], [126.713647, 45.77179], [126.713663, 45.771986], [126.713676, 45.772213], [126.713661, 45.772435], [126.713639, 45.772616], [126.713589, 45.772873], [126.71331, 45.773998], [126.713234, 45.774299], [126.713151, 45.774563], [126.713044, 45.77482], [126.712883, 45.775097], [126.712696, 45.775365], [126.712476, 45.775626], [126.712262, 45.775851], [126.712066, 45.776019], [126.711772, 45.776233], [126.711509, 45.776401], [126.709846, 45.777309], [126.709515, 45.7775], [126.709216, 45.777699], [126.709002, 45.777865], [126.708772, 45.778058], [126.708541, 45.778289], [126.708333, 45.778535], [126.708214, 45.778697], [126.708083, 45.778898], [126.707955, 45.779139], [126.707684, 45.779767], [126.70529, 45.788504], [126.704443, 45.791219], [126.694356, 45.790041]]]}, "properties": {"display_name": "火车头街道, 道外区, 哈尔滨市, 黑龙江省, 150000, 中国", "type": "administrative", "osm_type": "relation", "osm_id": 10788020, "class": null, "keyword": "subdistrict"}}, {"type": "Feature", "geometry": {"type": "Polygon", "coordinates": [[[126.394028, 45.449893], [126.395581, 45.444057], [126.408216, 45.445472], [126.406826, 45.450303], [126.394028, 45.449893]]]}, "properties": {"display_name": "雀巢奶牛养殖培训中心（DFI）, 双城区, 哈尔滨市, 黑龙江省, 150100, 中国", "type": "industrial", "osm_type": "way", "osm_id": 1321547115, "class": null, "keyword": "中央区"}}, {"type": "Feature", "geometry": {"type": "Polygon", "coordinates": [[[126.605366, 45.579876], [126.605514, 45.579294], [126.605781, 45.578732], [126.606069, 45.5784], [126.60664, 45.577869], [126.607148, 45.577542], [126.607875, 45.577247], [126.608444, 45.577074], [126.609116, 45.576981], [126.609725, 45.576938], [126.61053, 45.576907], [126.610959, 45.576865], [126.611479, 45.576789], [126.612025, 45.576694], [126.612534, 45.576555], [126.613032, 45.576392], [126.613547, 45.576179], [126.613671, 45.576134], [126.613797, 45.576156], [126.613902, 45.576224], [126.61516, 45.577481], [126.61532, 45.577716], [126.615426, 45.577928], [126.61586, 45.578779], [126.616043, 45.579143], [126.615971, 45.579243], [126.615877, 45.579283], [126.614779, 45.579588], [126.614177, 45.579753], [126.613801, 45.579934], [126.613627, 45.580053], [126.613451, 45.580212], [126.612889, 45.58096], [126.612695, 45.581184], [126.612336, 45.58143], [126.611979, 45.581557], [126.611315, 45.58173], [126.610652, 45.581913], [126.610259, 45.582066], [126.609995, 45.582229], [126.609693, 45.582506], [126.609419, 45.582932], [126.609129, 45.583328], [126.60892, 45.58348], [126.608494, 45.583713], [126.60751, 45.583991], [126.60732, 45.583897], [126.607014, 45.583255], [126.606517, 45.582376], [126.606055, 45.581722], [126.605666, 45.581183], [126.605428, 45.580556], [126.605366, 45.579876]]]}, "properties": {"display_name": "中央公园, 平新镇, 平房区, 哈尔滨市, 平房区, 黑龙江省, 150000, 中国", "type": "park", "osm_type": "way", "osm_id": 834191288, "class": null, "keyword": "中央区"}}, {"type": "Feature", "geometry": {"type": "Polygon", "coordinates": [[[126.481691, 45.877969], [126.481869, 45.875175], [126.48194, 45.874973], [126.483234, 45.874302], [126.482932, 45.873896], [126.482281, 45.873207], [126.488855, 45.873193], [126.491647, 45.875434], [126.491691, 45.877924], [126.481691, 45.877969]]]}, "properties": {"display_name": "黑龙江财经学院, 利民西八大街, 学院路街道, 呼兰区, 哈尔滨市, 松北区, 黑龙江省, 150500, 中国", "type": "university", "osm_type": "way", "osm_id": 642650791, "class": null, "keyword": "business district"}}, {"type": "Feature", "geometry": {"type": "Polygon", "coordinates": [[[126.534781, 45.740758], [126.535771, 45.737088], [126.536882, 45.736986], [126.543928, 45.738099], [126.543481, 45.739644], [126.54342, 45.739839], [126.543309, 45.740234], [126.542807, 45.74198], [126.542286, 45.742191], [126.536698, 45.741428], [126.535194, 45.741225], [126.534781, 45.740758]]]}, "properties": {"display_name": "群力新城·中区, 工农街道, 道里区, 哈尔滨市, 黑龙江省, 150000, 中国", "type": "residential", "osm_type": "way", "osm_id": 674162377, "class": null, "keyword": "中心城区"}}, {"type": "Feature", "geometry": {"type": "Polygon", "coordinates": [[[126.513555, 45.802859], [126.515071, 45.800501], [126.519845, 45.801849], [126.521902, 45.802673], [126.520087, 45.805799], [126.517797, 45.805445], [126.514798, 45.804601], [126.515441, 45.803409], [126.513555, 45.802859]]]}, "properties": {"display_name": "地中海阳光, 松安街道, 松北区, 哈尔滨市, 黑龙江省, 150000, 中国", "type": "residential", "osm_type": "way", "osm_id": 547793247, "class": null, "keyword": "中央区"}}, {"type": "Feature", "geometry": {"type": "Polygon", "coordinates": [[[126.715879, 45.717127], [126.716611, 45.715743], [126.716998, 45.715132], [126.71776, 45.714579], [126.718396, 45.714284], [126.718828, 45.714131], [126.719334, 45.714027], [126.723041, 45.71373], [126.72341, 45.715075], [126.721027, 45.715241], [126.721283, 45.716913], [126.723933, 45.716724], [126.724204, 45.717742], [126.723217, 45.717872], [126.723301, 45.718217], [126.718433, 45.718796], [126.718249, 45.717996], [126.717102, 45.71814], [126.716884, 45.717754], [126.716784, 45.717671], [126.716589, 45.717429], [126.716159, 45.717557], [126.715879, 45.717127]]]}, "properties": {"display_name": "恒大中央广场, 铁东街道, 香坊区, 哈尔滨市, 香坊区, 黑龙江省, 150000, 中国", "type": "residential", "osm_type": "way", "osm_id": 705684586, "class": null, "keyword": "中央区"}}, {"type": "Feature", "geometry": {"type": "Polygon", "coordinates": [[[126.501693, 45.840884], [126.50209, 45.837835], [126.509957, 45.838355], [126.510126, 45.841355], [126.501693, 45.840884]]]}, "properties": {"display_name": "润恒国际食品交易中心北区, 松北街道, 松北区, 哈尔滨市, 松北区, 黑龙江省, 150000, 中国", "type": "retail", "osm_type": "way", "osm_id": 675658363, "class": null, "keyword": "市中心"}}, {"type": "Feature", "geometry": {"type": "Polygon", "coordinates": [[[126.615848, 45.819811], [126.616063, 45.819401], [126.616461, 45.818774], [126.61697, 45.818016], [126.6175, 45.81738], [126.617968, 45.816779], [126.618547, 45.816118], [126.618879, 45.815791], [126.619493, 45.815192], [126.620253, 45.814503], [126.62217, 45.815222], [126.621915, 45.815763], [126.621664, 45.816253], [126.621266, 45.816989], [126.620816, 45.817707], [126.620033, 45.818844], [126.619561, 45.81945], [126.61904, 45.820063], [126.618334, 45.820818], [126.615935, 45.819862], [126.615848, 45.819811]]]}, "properties": {"display_name": "国贸中央公园, 松浦街道, 松北区, 哈尔滨市, 黑龙江省, 150000, 中国", "type": "park", "osm_type": "way", "osm_id": 1111805651, "class": null, "keyword": "中央区"}}, {"type": "Feature", "geometry": {"type": "Polygon", "coordinates": [[[126.689098, 45.756659], [126.689296, 45.755887], [126.689554, 45.754885], [126.68971, 45.754278], [126.689808, 45.753895], [126.68983, 45.753808], [126.689897, 45.75374], [126.689994, 45.753715], [126.690151, 45.753706], [126.691653, 45.753922], [126.695544, 45.754455], [126.694787, 45.757449], [126.689182, 45.756799], [126.689116, 45.75674], [126.689098, 45.756659]]]}, "properties": {"display_name": "红博中央公园, 黄河路, 哈尔滨经济技术开发区, 新春街道, 南岗区, 哈尔滨市, 香坊区, 黑龙江省, 150000, 中国", "type": "mall", "osm_type": "way", "osm_id": 705452575, "class": null, "keyword": "中央区"}}, {"type": "Feature", "geometry": {"type": "Polygon", "coordinates": [[[126.26182, 45.619101], [126.265475, 45.616969], [126.266214, 45.617594], [126.266697, 45.617999], [126.267781, 45.618719], [126.268811, 45.61926], [126.264774, 45.621629], [126.26182, 45.619101]]]}, "properties": {"display_name": "哈尔滨中央厨房仓储物流项目, 太平街道, 道里区, 哈尔滨市, 道里区, 黑龙江省, 150000, 中国", "type": "construction", "osm_type": "way", "osm_id": 1119684429, "class": null, "keyword": "中央区"}}, {"type": "Feature", "geometry": {"type": "Polygon", "coordinates": [[[126.66047, 45.694999], [126.662152, 45.694751], [126.661563, 45.692856], [126.66538, 45.69231], [126.666414, 45.695357], [126.660852, 45.696213], [126.66047, 45.694999]]]}, "properties": {"display_name": "华润中央公园, 进乡街道, 香坊区, 哈尔滨市, 香坊区, 黑龙江省, 150000, 中国", "type": "residential", "osm_type": "way", "osm_id": 674119164, "class": null, "keyword": "中央区"}}, {"type": "Feature", "geometry": {"type": "Polygon", "coordinates": [[[126.75292, 45.865779], [126.755353, 45.863206], [126.756135, 45.863745], [126.755981, 45.863951], [126.756799, 45.864303], [126.757368, 45.864834], [126.758225, 45.865829], [126.756625, 45.867737], [126.754573, 45.866785], [126.752982, 45.866051], [126.75292, 45.865779]]]}, "properties": {"display_name": "宜康养老中心, 民主乡, 道外区, 哈尔滨市, 道外区, 黑龙江省, 150000, 中国", "type": "residential", "osm_type": "way", "osm_id": 1019666340, "class": null, "keyword": "中央区"}}, {"type": "Feature", "geometry": {"type": "Polygon", "coordinates": [[[126.694208, 45.765011], [126.694345, 45.764463], [126.694637, 45.764445], [126.694657, 45.764391], [126.69463, 45.764386], [126.694879, 45.763434], [126.695502, 45.763517], [126.696348, 45.763233], [126.696428, 45.762964], [126.698161, 45.763125], [126.698118, 45.763882], [126.700582, 45.764184], [126.700167, 45.765713], [126.694208, 45.765011]]]}, "properties": {"display_name": "远大中央公园, 南直路街道, 道外区, 哈尔滨市, 香坊区, 黑龙江省, 150000, 中国", "type": "residential", "osm_type": "way", "osm_id": 1110545957, "class": null, "keyword": "中央区"}}, {"type": "Feature", "geometry": {"type": "Polygon", "coordinates": [[[126.689098, 45.756659], [126.689296, 45.755887], [126.689554, 45.754885], [126.68971, 45.754278], [126.689808, 45.753895], [126.68983, 45.753808], [126.689897, 45.75374], [126.689994, 45.753715], [126.690151, 45.753706], [126.690846, 45.753806], [126.691653, 45.753922], [126.691901, 45.754006], [126.692028, 45.754108], [126.69218, 45.754306], [126.692228, 45.754361], [126.692083, 45.754442], [126.691987, 45.754483], [126.691921, 45.754554], [126.691907, 45.754632], [126.692167, 45.754784], [126.692337, 45.754923], [126.69247, 45.755084], [126.692488, 45.755101], [126.692711, 45.755125], [126.692866, 45.755145], [126.693587, 45.755231], [126.693646, 45.755242], [126.693612, 45.755385], [126.693602, 45.755426], [126.693488, 45.755899], [126.693366, 45.755967], [126.693251, 45.756081], [126.693227, 45.756212], [126.693269, 45.756309], [126.693051, 45.756309], [126.692918, 45.756372], [126.692809, 45.756465], [126.6927, 45.756638], [126.692543, 45.757205], [126.690574, 45.756967], [126.689911, 45.756887], [126.689578, 45.756847], [126.689182, 45.756799], [126.689116, 45.75674], [126.689098, 45.756659]]]}, "properties": {"display_name": "红博中央公园, 新春街道, 南岗区, 哈尔滨市, 香坊区, 黑龙江省, 150000, 中国", "type": "park", "osm_type": "way", "osm_id": 549835984, "class": null, "keyword": "中央区"}}, {"type": "Feature", "geometry": {"type": "Polygon", "coordinates": [[[126.52981, 45.703654], [126.53036, 45.702778], [126.532703, 45.701808], [126.535654, 45.702702], [126.534558, 45.704487], [126.53352, 45.704142], [126.533083, 45.704652], [126.52981, 45.703654]]]}, "properties": {"display_name": "绿地中央广场, 群力乡, 道里区, 哈尔滨市, 黑龙江省, 150000, 中国", "type": "residential", "osm_type": "way", "osm_id": 674204272, "class": null, "keyword": "中央区"}}, {"type": "Feature", "geometry": {"type": "Polygon", "coordinates": [[[126.972805, 45.520516], [126.973418, 45.517722], [126.976657, 45.517675], [126.976657, 45.520497], [126.972805, 45.520516]]]}, "properties": {"display_name": "阿城体育中心, 东环大街, 阿什河街道, 阿城区, 哈尔滨市, 黑龙江省, 150300, 中国", "type": "pitch", "osm_type": "way", "osm_id": 976230900, "class": null, "keyword": "中心城区"}}, {"type": "Feature", "geometry": {"type": "Polygon", "coordinates": [[[126.716301, 45.775982], [126.71689, 45.773763], [126.720827, 45.774227], [126.720285, 45.776448], [126.716301, 45.775982]]]}, "properties": {"display_name": "昆仑 · 时代中心, 化工街道, 道外区, 哈尔滨市, 香坊区, 黑龙江省, 150000, 中国", "type": "residential", "osm_type": "way", "osm_id": 1065075764, "class": null, "keyword": "市中心"}}, {"type": "Feature", "geometry": {"type": "Polygon", "coordinates": [[[126.438514, 45.797251], [126.442525, 45.796516], [126.44319, 45.798603], [126.43925, 45.799345], [126.438514, 45.797251]]]}, "properties": {"display_name": "宝能城 销售中心, 松祥街道, 松北区, 哈尔滨市, 黑龙江省, 150000, 中国", "type": "commercial", "osm_type": "way", "osm_id": 955965632, "class": null, "keyword": "中心城区"}}, {"type": "Feature", "geometry": {"type": "Polygon", "coordinates": [[[126.501915, 45.818509], [126.501986, 45.818443], [126.505373, 45.818423], [126.505365, 45.820874], [126.50194, 45.820899], [126.501915, 45.818509]]]}, "properties": {"display_name": "星源康养中心, 766, 祥安北大街, 松北街道, 松北区, 哈尔滨市, 松北区, 黑龙江省, 150000, 中国", "type": "hospital", "osm_type": "way", "osm_id": 1050158765, "class": null, "keyword": "中央区"}}, {"type": "Feature", "geometry": {"type": "Polygon", "coordinates": [[[126.504189, 45.585319], [126.504334, 45.583837], [126.509224, 45.584054], [126.509258, 45.585555], [126.504237, 45.585359], [126.504189, 45.585319]]]}, "properties": {"display_name": "恒大桃花源 展示中心, 红旗满族乡, 南岗区, 哈尔滨市, 道里区, 黑龙江省, 150000, 中国", "type": "residential", "osm_type": "way", "osm_id": 1132194233, "class": null, "keyword": "市中心"}}, {"type": "Feature", "geometry": {"type": "Polygon", "coordinates": [[[126.950047, 45.536591], [126.952772, 45.53641], [126.954677, 45.536335], [126.954794, 45.538198], [126.954207, 45.538269], [126.954167, 45.537977], [126.953652, 45.537853], [126.952767, 45.537894], [126.950391, 45.538071], [126.950047, 45.536591]]]}, "properties": {"display_name": "阿城区职教中心, 解放大街, 金城街道, 阿城区, 哈尔滨市, 黑龙江省, 150300, 中国", "type": "school", "osm_type": "way", "osm_id": 1182463943, "class": null, "keyword": "中心城区"}}, {"type": "Feature", "geometry": {"type": "Polygon", "coordinates": [[[126.626693, 45.69619], [126.627336, 45.695173], [126.6275, 45.694141], [126.626891, 45.692522], [126.626884, 45.692241], [126.627664, 45.691916], [126.628669, 45.691591], [126.629216, 45.691672], [126.628183, 45.696333], [126.626693, 45.69619]]]}, "properties": {"display_name": "大众新城, 保健路街道, 保健路街道办事处, 南岗区, 哈尔滨市, 香坊区, 黑龙江省, 150000, 中国", "type": "residential", "osm_type": "way", "osm_id": 674141115, "class": null, "keyword": "中心城区"}}, {"type": "Feature", "geometry": {"type": "Polygon", "coordinates": [[[126.611606, 45.562981], [126.611709, 45.562801], [126.615389, 45.561803], [126.616194, 45.563363], [126.612426, 45.564354], [126.611606, 45.562981]]]}, "properties": {"display_name": "新华村（三家子屯）城中村改造项目回迁安置工程项目, 哈南工业新城, 平新镇, 平房区, 哈尔滨市, 平房区, 黑龙江省, 150000, 中国", "type": "construction", "osm_type": "way", "osm_id": 957373493, "class": null, "keyword": "中心城区"}}, {"type": "Feature", "geometry": {"type": "Polygon", "coordinates": [[[126.482661, 45.785669], [126.483598, 45.784062], [126.48387, 45.783993], [126.486607, 45.784689], [126.48542, 45.786604], [126.482744, 45.785802], [126.482661, 45.785669]]]}, "properties": {"display_name": "国家乳业工程技术研究中心, 松祥街道, 松北区, 哈尔滨市, 黑龙江省, 150000, 中国", "type": "commercial", "osm_type": "way", "osm_id": 959736401, "class": null, "keyword": "中心城区"}}, {"type": "Feature", "geometry": {"type": "Polygon", "coordinates": [[[126.52867, 45.703302], [126.529469, 45.701612], [126.531437, 45.700876], [126.532878, 45.701283], [126.532645, 45.701676], [126.532703, 45.701808], [126.53036, 45.702778], [126.52981, 45.703654], [126.52867, 45.703302]]]}, "properties": {"display_name": "绿地中央广场, 群力乡, 道里区, 哈尔滨市, 黑龙江省, 150000, 中国", "type": "construction", "osm_type": "way", "osm_id": 1282625936, "class": null, "keyword": "中央区"}}, {"type": "Feature", "geometry": {"type": "Polygon", "coordinates": [[[127.16416, 44.922627], [127.166742, 44.92234], [127.167276, 44.923654], [127.167179, 44.924179], [127.165559, 44.924344], [127.164349, 44.923101], [127.16416, 44.922627]]]}, "properties": {"display_name": "五常市职教中心, 人和路, 五常市, 哈尔滨市, 黑龙江省, 150200, 中国", "type": "school", "osm_type": "way", "osm_id": 1436675525, "class": null, "keyword": "市中心"}}, {"type": "Feature", "geometry": {"type": "Polygon", "coordinates": [[[126.716292, 45.782008], [126.718852, 45.780429], [126.718953, 45.780406], [126.719953, 45.780526], [126.719475, 45.782373], [126.716292, 45.782008]]]}, "properties": {"display_name": "昆仑 · 时代中心 商业, 新一街道, 道外区, 哈尔滨市, 香坊区, 黑龙江省, 150000, 中国", "type": "construction", "osm_type": "way", "osm_id": 1198042304, "class": null, "keyword": "市中心"}}, {"type": "Feature", "geometry": {"type": "Polygon", "coordinates": [[[126.616299, 45.880759], [126.616429, 45.879927], [126.619175, 45.879992], [126.619007, 45.882033], [126.616299, 45.880759]]]}, "properties": {"display_name": "中阳商砼, 利民街道, 呼兰区, 哈尔滨市, 黑龙江省, 150500, 中国", "type": "industrial", "osm_type": "way", "osm_id": 1113312292, "class": null, "keyword": "中央区"}}, {"type": "Feature", "geometry": {"type": "Polygon", "coordinates": [[[126.620753, 45.814142], [126.621308, 45.813704], [126.621937, 45.813163], [126.62254, 45.812596], [126.622996, 45.812046], [126.623305, 45.811677], [126.623588, 45.811213], [126.623662, 45.810792], [126.624602, 45.811093], [126.624213, 45.811349], [126.623761, 45.81178], [126.623406, 45.812264], [126.623046, 45.812815], [126.622781, 45.813389], [126.622579, 45.813964], [126.622319, 45.814767], [126.620753, 45.814142]]]}, "properties": {"display_name": "国贸中央公园, 船口街道, 松浦街道, 松北区, 哈尔滨市, 黑龙江省, 150000, 中国", "type": "park", "osm_type": "way", "osm_id": 1111805654, "class": null, "keyword": "中央区"}}, {"type": "Feature", "geometry": {"type": "Polygon", "coordinates": [[[126.61932, 45.831259], [126.619388, 45.830761], [126.619764, 45.830278], [126.622503, 45.831289], [126.621914, 45.832077], [126.621779, 45.832175], [126.61932, 45.831259]]]}, "properties": {"display_name": "绿地东北亚国博城展示中心, 松浦街道, 松北区, 哈尔滨市, 黑龙江省, 150000, 中国", "type": "commercial", "osm_type": "way", "osm_id": 1182313835, "class": null, "keyword": "市中心"}}, {"type": "Feature", "geometry": {"type": "Polygon", "coordinates": [[[126.854926, 45.74427], [126.858229, 45.745612], [126.858278, 45.745732], [126.855949, 45.746317], [126.854926, 45.74427]]]}, "properties": {"display_name": "华南城销售中心, 团结镇, 道外区, 哈尔滨市, 道外区, 黑龙江省, 150000, 中国", "type": "commercial", "osm_type": "way", "osm_id": 1150243865, "class": null, "keyword": "中心城区"}}, {"type": "Feature", "geometry": {"type": "Polygon", "coordinates": [[[126.581549, 45.665339], [126.583465, 45.665018], [126.583765, 45.665892], [126.582135, 45.667043], [126.581549, 45.665339]]]}, "properties": {"display_name": "南城客运中心配套仓库, 王岗镇, 南岗区, 哈尔滨市, 平房区, 黑龙江省, 150000, 中国", "type": "industrial", "osm_type": "way", "osm_id": 1313317408, "class": null, "keyword": "中心城区"}}, {"type": "Feature", "geometry": {"type": "Polygon", "coordinates": [[[126.600974, 45.837908], [126.601017, 45.837852], [126.601518, 45.837172], [126.60194, 45.837322], [126.602196, 45.83698], [126.603635, 45.837502], [126.602818, 45.838596], [126.600974, 45.837908]]]}, "properties": {"display_name": "黑龙江省寒区地温能工程技术研究中心, 浦北大街, 船口街道, 松浦街道, 松北区, 哈尔滨市, 黑龙江省, 150000, 中国", "type": "research_institute", "osm_type": "way", "osm_id": 1085382951, "class": null, "keyword": "中心城区"}}, {"type": "Feature", "geometry": {"type": "Polygon", "coordinates": [[[126.531381, 45.744726], [126.531796, 45.743252], [126.533275, 45.743445], [126.532911, 45.74479], [126.53269, 45.744892], [126.531381, 45.744726]]]}, "properties": {"display_name": "招商新时代中心, 群力乡, 道里区, 哈尔滨市, 黑龙江省, 150000, 中国", "type": "commercial", "osm_type": "way", "osm_id": 708006785, "class": null, "keyword": "市中心"}}, {"type": "Feature", "geometry": {"type": "Polygon", "coordinates": [[[126.462572, 45.796281], [126.464761, 45.795907], [126.464868, 45.79618], [126.464966, 45.796861], [126.462893, 45.797227], [126.462572, 45.796281]]]}, "properties": {"display_name": "华夏幸福展示中心, 松祥街道, 松北区, 哈尔滨市, 黑龙江省, 150000, 中国", "type": "commercial", "osm_type": "way", "osm_id": 1312623241, "class": null, "keyword": "市中心"}}, {"type": "Feature", "geometry": {"type": "Polygon", "coordinates": [[[126.532645, 45.701676], [126.532878, 45.701283], [126.536412, 45.702378], [126.536057, 45.70282], [126.535654, 45.702702], [126.532703, 45.701808], [126.532645, 45.701676]]]}, "properties": {"display_name": "绿地中央广场, 群力乡, 道里区, 哈尔滨市, 黑龙江省, 150000, 中国", "type": "commercial", "osm_type": "way", "osm_id": 1282625937, "class": null, "keyword": "中央区"}}, {"type": "Feature", "geometry": {"type": "Polygon", "coordinates": [[[126.607188, 45.84121], [126.60764, 45.840609], [126.609662, 45.841314], [126.609371, 45.841693], [126.609106, 45.841603], [126.608701, 45.84214], [126.60817, 45.841957], [126.607801, 45.841723], [126.607544, 45.841459], [126.607188, 45.84121]]]}, "properties": {"display_name": "黑龙江省城市能源计量中心, 松浦街道, 松北区, 哈尔滨市, 黑龙江省, 150000, 中国", "type": "industrial", "osm_type": "way", "osm_id": 1085382958, "class": null, "keyword": "市中心"}}, {"type": "Feature", "geometry": {"type": "Polygon", "coordinates": [[[126.716497, 45.738351], [126.716499, 45.738257], [126.717645, 45.738247], [126.717674, 45.739757], [126.717378, 45.739757], [126.716733, 45.739764], [126.716529, 45.739768], [126.716529, 45.739457], [126.716497, 45.738351]]]}, "properties": {"display_name": "工程训练中心, 馨德路, 铁东街道, 香坊区, 哈尔滨市, 香坊区, 黑龙江省, 150000, 中国", "type": "driver_training", "osm_type": "way", "osm_id": 671105142, "class": null, "keyword": "中心城区"}}, {"type": "Feature", "geometry": {"type": "Polygon", "coordinates": [[[126.487681, 45.789011], [126.488385, 45.787965], [126.489442, 45.788323], [126.489, 45.789047], [126.488636, 45.789656], [126.48791, 45.78936], [126.487681, 45.789011]]]}, "properties": {"display_name": "哈尔滨工业大学寒地绿色建筑工程研究中心, 松祥街道, 松北区, 哈尔滨市, 黑龙江省, 150000, 中国", "type": "commercial", "osm_type": "way", "osm_id": 959736400, "class": null, "keyword": "中心城区"}}, {"type": "Feature", "geometry": {"type": "Polygon", "coordinates": [[[126.609171, 45.827474], [126.609881, 45.826563], [126.611207, 45.827048], [126.611081, 45.827581], [126.610943, 45.827699], [126.610856, 45.827758], [126.610744, 45.827805], [126.610546, 45.827846], [126.610161, 45.827833], [126.609171, 45.827474]]]}, "properties": {"display_name": "汇智展示中心, 松浦街道, 松北区, 哈尔滨市, 黑龙江省, 150000, 中国", "type": "commercial", "osm_type": "way", "osm_id": 1182313829, "class": null, "keyword": "市中心"}}, {"type": "Feature", "geometry": {"type": "Polygon", "coordinates": [[[126.599578, 45.88449], [126.602032, 45.884472], [126.601646, 45.885368], [126.601208, 45.885285], [126.60016, 45.8853], [126.600135, 45.884795], [126.599579, 45.8848], [126.599578, 45.88449]]]}, "properties": {"display_name": "森海医院/康养中心, 和谐路 苏州路, 学苑小区, 学院路街道, 呼兰区, 哈尔滨市, 松北区, 黑龙江省, 150500, 中国", "type": "hospital", "osm_type": "way", "osm_id": 1364304327, "class": null, "keyword": "中央区"}}, {"type": "Feature", "geometry": {"type": "Polygon", "coordinates": [[[126.660941, 45.62451], [126.66152, 45.623432], [126.661828, 45.623295], [126.662864, 45.6242], [126.661865, 45.624743], [126.660941, 45.62451]]]}, "properties": {"display_name": "黑龙江阳光种业, 朝阳镇, 香坊区, 哈尔滨市, 平房区, 黑龙江省, 150000, 中国", "type": "industrial", "osm_type": "way", "osm_id": 1114959839, "class": null, "keyword": "中央区"}}, {"type": "Feature", "geometry": {"type": "Polygon", "coordinates": [[[126.76285, 45.749306], [126.763017, 45.748708], [126.7633, 45.748036], [126.7643, 45.748142], [126.764067, 45.749058], [126.764122, 45.749064], [126.764022, 45.749434], [126.76285, 45.749306]]]}, "properties": {"display_name": "会展城上城营销中心, 香坊实验农场地区, 香坊区, 哈尔滨市, 香坊区, 黑龙江省, 150000, 中国", "type": "commercial", "osm_type": "way", "osm_id": 1204235258, "class": null, "keyword": "中心城区"}}, {"type": "Feature", "geometry": {"type": "Polygon", "coordinates": [[[126.666176, 45.632503], [126.666423, 45.630868], [126.667335, 45.630943], [126.667013, 45.632571], [126.666176, 45.632503]]]}, "properties": {"display_name": "朝阳镇中心小学, 松花路, 朝阳镇, 香坊区, 哈尔滨市, 平房区, 黑龙江省, 150000, 中国", "type": "school", "osm_type": "way", "osm_id": 1133455658, "class": null, "keyword": "中央区"}}, {"type": "Feature", "geometry": {"type": "Polygon", "coordinates": [[[126.44506, 45.791113], [126.446459, 45.790838], [126.446809, 45.791778], [126.445413, 45.792036], [126.44506, 45.791113]]]}, "properties": {"display_name": "万科城销售中心, 松祥街道, 松北区, 哈尔滨市, 黑龙江省, 150000, 中国", "type": "commercial", "osm_type": "way", "osm_id": 875933325, "class": null, "keyword": "中心城区"}}, {"type": "Feature", "geometry": {"type": "Polygon", "coordinates": [[[126.627685, 45.746799], [126.627913, 45.74667], [126.628052, 45.746789], [126.628095, 45.746764], [126.62802, 45.7467], [126.629006, 45.74614], [126.629074, 45.746198], [126.629121, 45.746172], [126.628973, 45.746045], [126.629162, 45.745938], [126.629189, 45.745961], [126.629255, 45.745924], [126.629223, 45.745897], [126.629714, 45.745618], [126.629813, 45.745704], [126.629855, 45.74574], [126.629417, 45.745989], [126.629375, 45.745953], [126.629262, 45.746018], [126.629469, 45.746195], [126.629281, 45.746302], [126.629181, 45.746216], [126.629105, 45.746259], [126.62914, 45.746288], [126.629112, 45.746304], [126.62914, 45.746328], [126.628243, 45.746836], [126.62822, 45.746816], [126.628176, 45.746841], [126.628146, 45.746815], [126.6281, 45.746841], [126.62877, 45.747416], [126.628549, 45.747541], [126.627685, 45.746799]]]}, "properties": {"display_name": "机械工程实验教学中心, 复华街, 花园街道, 南岗区, 哈尔滨市, 香坊区, 黑龙江省, 150000, 中国", "type": "university", "osm_type": "way", "osm_id": 319294888, "class": null, "keyword": "市中心"}}, {"type": "Feature", "geometry": {"type": "Polygon", "coordinates": [[[126.634564, 45.757139], [126.634607, 45.757064], [126.634929, 45.756952], [126.635074, 45.75697], [126.635095, 45.75691], [126.635132, 45.756869], [126.635192, 45.756839], [126.635272, 45.756809], [126.635374, 45.756798], [126.635449, 45.756798], [126.635567, 45.756836], [126.635648, 45.756888], [126.63568, 45.75694], [126.635696, 45.756989], [126.635696, 45.757041], [126.635846, 45.757064], [126.635888, 45.757118], [126.636018, 45.757298], [126.636002, 45.75736], [126.635706, 45.757457], [126.635637, 45.757476], [126.634784, 45.757363], [126.63472, 45.757326], [126.634564, 45.757139]]]}, "properties": {"display_name": "北方世贸中心, 邮政街, 荣市街道, 南岗区, 哈尔滨市, 香坊区, 黑龙江省, 150000, 中国", "type": "yes", "osm_type": "way", "osm_id": 338090976, "class": null, "keyword": "市中心"}}, {"type": "Feature", "geometry": {"type": "Polygon", "coordinates": [[[126.677946, 45.745313], [126.677982, 45.745211], [126.678049, 45.74512], [126.678134, 45.745041], [126.678205, 45.745001], [126.678325, 45.745135], [126.679022, 45.745202], [126.679018, 45.745236], [126.679103, 45.745297], [126.679171, 45.745345], [126.679142, 45.745525], [126.678941, 45.745636], [126.678778, 45.745619], [126.678689, 45.745686], [126.678597, 45.74572], [126.678445, 45.74574], [126.678314, 45.74572], [126.67819, 45.745686], [126.678077, 45.745624], [126.678006, 45.74554], [126.677964, 45.745458], [126.677953, 45.745379], [126.677946, 45.745313]]]}, "properties": {"display_name": "国家电网黑龙江电网电力交易中心, 华山路, 哈尔滨经济技术开发区, 先锋路街道, 南岗区, 哈尔滨市, 香坊区, 黑龙江省, 150000, 中国", "type": "yes", "osm_type": "way", "osm_id": 340071990, "class": null, "keyword": "business district"}}, {"type": "Feature", "geometry": {"type": "Polygon", "coordinates": [[[126.612449, 45.770318], [126.612658, 45.769562], [126.613238, 45.769735], [126.613265, 45.769783], [126.613179, 45.770119], [126.613093, 45.770457], [126.613029, 45.770479], [126.612449, 45.770318]]]}, "properties": {"display_name": "中央商城, 大安街, 经纬街道, 道里区, 哈尔滨市, 黑龙江省, 150000, 中国", "type": "mall", "osm_type": "way", "osm_id": 338560454, "class": null, "keyword": "中央区"}}, {"type": "Feature", "geometry": {"type": "Polygon", "coordinates": [[[126.684421, 45.706795], [126.685053, 45.706695], [126.685312, 45.707446], [126.684681, 45.707552], [126.684421, 45.706795]]]}, "properties": {"display_name": "哈尔滨市香坊区中心幼儿园, 安通街, 通乡街道, 香坊区, 哈尔滨市, 香坊区, 黑龙江省, 150000, 中国", "type": "school", "osm_type": "way", "osm_id": 705315893, "class": null, "keyword": "市中心"}}, {"type": "Feature", "geometry": {"type": "Polygon", "coordinates": [[[126.639156, 45.754833], [126.639197, 45.754734], [126.639239, 45.754673], [126.639294, 45.754603], [126.63941, 45.754512], [126.639534, 45.75444], [126.640042, 45.75485], [126.640085, 45.754891], [126.640076, 45.754945], [126.640036, 45.754988], [126.639377, 45.755351], [126.639282, 45.755251], [126.639205, 45.755156], [126.639171, 45.755044], [126.63916, 45.754935], [126.639156, 45.754833]]]}, "properties": {"display_name": "哈尔滨市少年宫艺术中心, 花园街, 荣市街道, 南岗区, 哈尔滨市, 香坊区, 黑龙江省, 150000, 中国", "type": "arts_centre", "osm_type": "way", "osm_id": 317534273, "class": null, "keyword": "市中心"}}, {"type": "Feature", "geometry": {"type": "Polygon", "coordinates": [[[126.689822, 45.75522], [126.689837, 45.754982], [126.68992, 45.754725], [126.690064, 45.754486], [126.690146, 45.754399], [126.690213, 45.754359], [126.690277, 45.754364], [126.690322, 45.754399], [126.690378, 45.754492], [126.690386, 45.754614], [126.690359, 45.754937], [126.690344, 45.754983], [126.690257, 45.755249], [126.690173, 45.755392], [126.690059, 45.755511], [126.689994, 45.755533], [126.689925, 45.755531], [126.689871, 45.755493], [126.689838, 45.755406], [126.689822, 45.75522]]]}, "properties": {"display_name": "红博中央公园, 红旗大街, 新春街道, 南岗区, 哈尔滨市, 香坊区, 黑龙江省, 150000, 中国", "type": "mall", "osm_type": "way", "osm_id": 549836617, "class": null, "keyword": "中央区"}}, {"type": "Feature", "geometry": {"type": "Polygon", "coordinates": [[[126.610881, 45.765617], [126.611493, 45.765422], [126.611801, 45.765891], [126.611189, 45.766087], [126.610881, 45.765617]]]}, "properties": {"display_name": "哈尔滨市朝鲜族中心小学, 经纬四道街, 经纬街道, 道里区, 哈尔滨市, 黑龙江省, 150000, 中国", "type": "school", "osm_type": "way", "osm_id": 1172840354, "class": null, "keyword": "市中心"}}, {"type": "Feature", "geometry": {"type": "Polygon", "coordinates": [[[126.613129, 45.704569], [126.613166, 45.704396], [126.613359, 45.704409], [126.613392, 45.704243], [126.613437, 45.704246], [126.613452, 45.704195], [126.613516, 45.704206], [126.613528, 45.704175], [126.613902, 45.704221], [126.613898, 45.704246], [126.613969, 45.704253], [126.61395, 45.704311], [126.613989, 45.704315], [126.613948, 45.70449], [126.614109, 45.704496], [126.614076, 45.704672], [126.613948, 45.704659], [126.613942, 45.704691], [126.613226, 45.704626], [126.613234, 45.704587], [126.613129, 45.704569]]]}, "properties": {"display_name": "黑大A区食堂, 翰苑街, 哈西街道, 哈西街道办事处, 南岗区, 哈尔滨市, 黑龙江省, 150000, 中国", "type": "restaurant", "osm_type": "way", "osm_id": 1084076473, "class": null, "keyword": "市中心"}}, {"type": "Feature", "geometry": {"type": "Polygon", "coordinates": [[[126.517083, 45.868858], [126.518098, 45.868858], [126.518105, 45.869161], [126.517086, 45.869168], [126.517083, 45.868858]]]}, "properties": {"display_name": "黑龙江工商学院饮食服务中心, 博文路, 裕民街道, 学院路街道, 呼兰区, 哈尔滨市, 松北区, 黑龙江省, 150500, 中国", "type": "restaurant", "osm_type": "way", "osm_id": 1006913556, "class": null, "keyword": "市中心"}}, {"type": "Feature", "geometry": {"type": "Polygon", "coordinates": [[[126.62191, 45.723328], [126.622203, 45.72323], [126.622494, 45.723679], [126.622559, 45.723658], [126.622725, 45.723905], [126.622345, 45.724018], [126.62191, 45.723328]]]}, "properties": {"display_name": "工科实习中心, 林兴街, 和兴路街道, 南岗区, 哈尔滨市, 香坊区, 黑龙江省, 150000, 中国", "type": "yes", "osm_type": "way", "osm_id": 1082226325, "class": null, "keyword": "市中心"}}, {"type": "Feature", "geometry": {"type": "Polygon", "coordinates": [[[126.608021, 45.712258], [126.608084, 45.711979], [126.608255, 45.711998], [126.608222, 45.712143], [126.609415, 45.712274], [126.609449, 45.712122], [126.609623, 45.712141], [126.609558, 45.712427], [126.608021, 45.712258]]]}, "properties": {"display_name": "机械工程实验中心, 学府路, 哈西街道, 哈西街道办事处, 南岗区, 哈尔滨市, 黑龙江省, 150000, 中国", "type": "university", "osm_type": "way", "osm_id": 641866706, "class": null, "keyword": "市中心"}}, {"type": "Feature", "geometry": {"type": "Polygon", "coordinates": [[[126.54867, 45.811274], [126.549141, 45.810963], [126.549521, 45.811242], [126.54905, 45.811553], [126.54867, 45.811274]]]}, "properties": {"display_name": "松北保时捷中心, 文锦路, 太阳岛街道, 松安街道, 松北区, 哈尔滨市, 黑龙江省, 150000, 中国", "type": "yes", "osm_type": "way", "osm_id": 675540654, "class": null, "keyword": "市中心"}}, {"type": "Feature", "geometry": {"type": "Polygon", "coordinates": [[[126.662902, 45.744594], [126.663122, 45.744424], [126.663611, 45.744732], [126.663391, 45.744903], [126.662902, 45.744594]]]}, "properties": {"display_name": "省工程咨询评审中心, 长江路, 奋斗路街道, 南岗区, 哈尔滨市, 香坊区, 黑龙江省, 150000, 中国", "type": "government", "osm_type": "way", "osm_id": 1112321623, "class": null, "keyword": "中心城区"}}, {"type": "Feature", "geometry": {"type": "Polygon", "coordinates": [[[128.748098, 45.989804], [128.748157, 45.989586], [128.748336, 45.98961], [128.748323, 45.989658], [128.748558, 45.989689], [128.74857, 45.989646], [128.748745, 45.98967], [128.748687, 45.989881], [128.748098, 45.989804]]]}, "properties": {"display_name": "新时代中心, 大通河大街, 通河镇, 通河县, 哈尔滨市, 黑龙江省, 150900, 中国", "type": "government", "osm_type": "way", "osm_id": 964865642, "class": null, "keyword": "市中心"}}, {"type": "Feature", "geometry": {"type": "Polygon", "coordinates": [[[126.634029, 45.716748], [126.634656, 45.71653], [126.634765, 45.716673], [126.634129, 45.716891], [126.634029, 45.716748]]]}, "properties": {"display_name": "木制品实验教学示范中心, 松新街, 文政街道, 香坊区, 哈尔滨市, 香坊区, 黑龙江省, 150000, 中国", "type": "yes", "osm_type": "way", "osm_id": 1078984015, "class": null, "keyword": "市中心"}}, {"type": "Feature", "geometry": {"type": "Polygon", "coordinates": [[[126.518455, 45.740833], [126.518457, 45.740567], [126.518831, 45.740569], [126.518828, 45.740835], [126.518455, 45.740833]]]}, "properties": {"display_name": "哈尔滨市市政工程质量检测咨询中心, 致诚街, 群力乡, 道里区, 哈尔滨市, 道里区, 黑龙江省, 150000, 中国", "type": "government", "osm_type": "way", "osm_id": 866936897, "class": null, "keyword": "市中心"}}, {"type": "Feature", "geometry": {"type": "Polygon", "coordinates": [[[126.683529, 45.739993], [126.684269, 45.739897], [126.684301, 45.740019], [126.683561, 45.740115], [126.683529, 45.739993]]]}, "properties": {"display_name": "中国石油东北销售油品监督检测中心, 湘江路, 哈尔滨经济技术开发区, 先锋路街道, 南岗区, 哈尔滨市, 香坊区, 黑龙江省, 150000, 中国", "type": "government", "osm_type": "way", "osm_id": 1167082544, "class": null, "keyword": "市中心"}}, {"type": "Feature", "geometry": {"type": "Polygon", "coordinates": [[[126.630689, 45.720439], [126.631201, 45.720266], [126.631333, 45.720458], [126.631234, 45.720491], [126.631192, 45.72043], [126.630779, 45.720569], [126.630689, 45.720439]]]}, "properties": {"display_name": "一站式服务中心, 校园西路, 家属区, 文政街道, 香坊区, 哈尔滨市, 香坊区, 黑龙江省, 150000, 中国", "type": "university", "osm_type": "way", "osm_id": 1315639902, "class": null, "keyword": "市中心"}}, {"type": "Feature", "geometry": {"type": "Polygon", "coordinates": [[[126.672509, 45.771379], [126.672518, 45.771228], [126.672548, 45.771229], [126.672552, 45.771163], [126.673063, 45.771177], [126.673057, 45.771285], [126.672778, 45.771277], [126.672772, 45.771386], [126.672509, 45.771379]]]}, "properties": {"display_name": "分析测试中心, 郑和路, 燎原街道, 南岗区, 哈尔滨市, 香坊区, 黑龙江省, 150000, 中国", "type": "university", "osm_type": "way", "osm_id": 675733283, "class": null, "keyword": "市中心"}}, {"type": "Feature", "geometry": {"type": "Polygon", "coordinates": [[[126.654224, 45.778951], [126.654429, 45.778877], [126.654611, 45.779122], [126.654406, 45.779196], [126.654224, 45.778951]]]}, "properties": {"display_name": "哈尔滨城市通客服中心, 滨江街, 南市街道, 道外区, 哈尔滨市, 香坊区, 黑龙江省, 150000, 中国", "type": "yes", "osm_type": "way", "osm_id": 819883555, "class": null, "keyword": "市中心"}}, {"type": "Feature", "geometry": {"type": "Polygon", "coordinates": [[[126.63314, 45.717484], [126.633242, 45.717452], [126.633323, 45.717562], [126.633435, 45.717521], [126.633385, 45.717456], [126.633522, 45.717413], [126.633627, 45.717566], [126.633348, 45.717668], [126.633248, 45.717642], [126.63314, 45.717484]]]}, "properties": {"display_name": "汽车工程技术中心, 校园东路, 文政街道, 香坊区, 哈尔滨市, 香坊区, 黑龙江省, 150000, 中国", "type": "yes", "osm_type": "way", "osm_id": 1079173204, "class": null, "keyword": "中心城区"}}]}