{"type": "FeatureCollection", "features": [{"type": "Feature", "geometry": {"type": "Polygon", "coordinates": [[[132.307634, 34.475857], [132.307736, 34.475305], [132.307722, 34.474792], [132.307682, 34.47437], [132.307695, 34.474111], [132.307716, 34.473993], [132.307743, 34.473863], [132.30778, 34.473753], [132.307805, 34.473705], [132.307913, 34.473629], [132.308144, 34.473497], [132.308334, 34.473384], [132.308572, 34.473199], [132.308599, 34.473174], [132.308857, 34.472935], [132.308891, 34.472867], [132.308932, 34.472737], [132.309, 34.472618], [132.309027, 34.472599], [132.309164, 34.472501], [132.309213, 34.472454], [132.309252, 34.472361], [132.309277, 34.472234], [132.30932, 34.472039], [132.309367, 34.471898], [132.309429, 34.471779], [132.309551, 34.471627], [132.309836, 34.471379], [132.310271, 34.470997], [132.310525, 34.47077], [132.310707, 34.47065], [132.310822, 34.470591], [132.311141, 34.470512], [132.311291, 34.47049], [132.311449, 34.470419], [132.3116, 34.470375], [132.31178, 34.47036], [132.312004, 34.470343], [132.312235, 34.470298], [132.312358, 34.470259], [132.312514, 34.470173], [132.312641, 34.47007], [132.312793, 34.469882], [132.312834, 34.469769], [132.312908, 34.469431], [132.312938, 34.469166], [132.312997, 34.469026], [132.313017, 34.468969], [132.313099, 34.468896], [132.31316, 34.468868], [132.313262, 34.468851], [132.31335, 34.468846], [132.313447, 34.468832], [132.313551, 34.468801], [132.313556, 34.468798], [132.313752, 34.468694], [132.313938, 34.468586], [132.314084, 34.468463], [132.314247, 34.468249], [132.314281, 34.468187], [132.314281, 34.468138], [132.314252, 34.468082], [132.314109, 34.467902], [132.314006, 34.467786], [132.313997, 34.467718], [132.313989, 34.46764], [132.31403, 34.467133], [132.314051, 34.466822], [132.314098, 34.466616], [132.314111, 34.466109], [132.3141, 34.46592], [132.314084, 34.465652], [132.314064, 34.46554], [132.313989, 34.465275], [132.313886, 34.464973], [132.313839, 34.464672], [132.313792, 34.46443], [132.313799, 34.464301], [132.313832, 34.464239], [132.314179, 34.463867], [132.314356, 34.463692], [132.314519, 34.463462], [132.314605, 34.463282], [132.314673, 34.46317], [132.314832, 34.463011], [132.315008, 34.462797], [132.315029, 34.462741], [132.315026, 34.462682], [132.314977, 34.462534], [132.315072, 34.462324], [132.315224, 34.462044], [132.315008, 34.461964], [132.314934, 34.461941], [132.31473, 34.461867], [132.314666, 34.461807], [132.314412, 34.461556], [132.314213, 34.461339], [132.313955, 34.461063], [132.313853, 34.460961], [132.313691, 34.460827], [132.313603, 34.460731], [132.31353, 34.460619], [132.313471, 34.460563], [132.313358, 34.460471], [132.31325, 34.460396], [132.313112, 34.460331], [132.312576, 34.46015], [132.311998, 34.459902], [132.311857, 34.459836], [132.311764, 34.459756], [132.311631, 34.459609], [132.311291, 34.459125], [132.3111, 34.458868], [132.310965, 34.458686], [132.310734, 34.458269], [132.310547, 34.458048], [132.310339, 34.45774], [132.310088, 34.45734], [132.309917, 34.457129], [132.309882, 34.456972], [132.309904, 34.456853], [132.309972, 34.456733], [132.310101, 34.456597], [132.310237, 34.456467], [132.310407, 34.456337], [132.310496, 34.456292], [132.311053, 34.456067], [132.311141, 34.456045], [132.311427, 34.45596], [132.31177, 34.455855], [132.311957, 34.455831], [132.312113, 34.45582], [132.312226, 34.455799], [132.312334, 34.455755], [132.312541, 34.455628], [132.312949, 34.455369], [132.312997, 34.455352], [132.313092, 34.455296], [132.313296, 34.455234], [132.313411, 34.455177], [132.313507, 34.455116], [132.313626, 34.454994], [132.313826, 34.454704], [132.313982, 34.454445], [132.314111, 34.454308], [132.314326, 34.454132], [132.314454, 34.45404], [132.314669, 34.45395], [132.314764, 34.453905], [132.3149, 34.45382], [132.315144, 34.453657], [132.315398, 34.453448], [132.31562, 34.453342], [132.316116, 34.453043], [132.316323, 34.452909], [132.316426, 34.452842], [132.316636, 34.452754], [132.316912, 34.452632], [132.317102, 34.45257], [132.317487, 34.452348], [132.317652, 34.4523], [132.317863, 34.452261], [132.318217, 34.452153], [132.31893, 34.451872], [132.319236, 34.451725], [132.319386, 34.451646], [132.319943, 34.451348], [132.320201, 34.451207], [132.32031, 34.451123], [132.320364, 34.451055], [132.320403, 34.450987], [132.320408, 34.450911], [132.320393, 34.450815], [132.320222, 34.450503], [132.31995, 34.45003], [132.319903, 34.449867], [132.319868, 34.449574], [132.319882, 34.449489], [132.319929, 34.449411], [132.320045, 34.449326], [132.32031, 34.449174], [132.32082, 34.448831], [132.321221, 34.448577], [132.321818, 34.448212], [132.321968, 34.448104], [132.322159, 34.447964], [132.32237, 34.447779], [132.322468, 34.447677], [132.322549, 34.447576], [132.322619, 34.447452], [132.322731, 34.447313], [132.322764, 34.447199], [132.322782, 34.447138], [132.32282, 34.447085], [132.322921, 34.447042], [132.323252, 34.446939], [132.323518, 34.446893], [132.323681, 34.446882], [132.323772, 34.446851], [132.323832, 34.44682], [132.323902, 34.446776], [132.323962, 34.446714], [132.324, 34.446604], [132.324, 34.446471], [132.324, 34.446418], [132.324032, 34.446321], [132.324116, 34.446167], [132.324259, 34.445927], [132.324381, 34.445795], [132.32466, 34.445485], [132.324852, 34.445234], [132.325074, 34.445046], [132.325299, 34.444849], [132.325366, 34.444776], [132.325531, 34.444579], [132.325638, 34.444421], [132.325815, 34.444122], [132.325982, 34.443661], [132.326021, 34.443566], [132.326065, 34.443521], [132.326153, 34.443469], [132.326231, 34.443449], [132.326285, 34.443434], [132.326349, 34.443394], [132.32653, 34.443237], [132.326733, 34.443097], [132.327045, 34.442872], [132.327478, 34.442589], [132.327582, 34.442489], [132.3278, 34.442241], [132.32818, 34.441898], [132.328296, 34.441824], [132.328527, 34.441712], [132.328967, 34.441427], [132.329131, 34.441289], [132.329187, 34.441227], [132.329451, 34.440933], [132.329567, 34.440794], [132.329689, 34.44067], [132.329805, 34.440506], [132.329844, 34.440453], [132.330056, 34.440163], [132.330186, 34.439949], [132.33026, 34.439757], [132.330519, 34.439375], [132.330777, 34.439059], [132.33099, 34.438905], [132.331225, 34.438766], [132.331395, 34.438642], [132.331451, 34.438589], [132.331576, 34.438303], [132.331689, 34.438167], [132.331884, 34.437954], [132.331944, 34.437887], [132.332428, 34.438028], [132.33253, 34.438096], [132.332796, 34.438327], [132.332991, 34.438506], [132.333133, 34.438582], [132.333251, 34.438634], [132.333611, 34.438716], [132.334093, 34.438806], [132.334528, 34.438901], [132.335004, 34.439008], [132.335426, 34.439144], [132.335523, 34.43918], [132.335861, 34.439307], [132.336116, 34.439423], [132.336213, 34.439451], [132.336656, 34.439493], [132.336744, 34.439527], [132.336948, 34.439667], [132.337043, 34.439718], [132.337424, 34.439943], [132.337702, 34.440163], [132.337757, 34.440197], [132.338083, 34.440388], [132.338248, 34.440489], [132.338259, 34.440496], [132.338497, 34.440619], [132.339136, 34.440968], [132.339191, 34.440985], [132.339308, 34.440985], [132.339377, 34.440966], [132.339822, 34.440754], [132.339952, 34.440726], [132.340196, 34.440743], [132.340364, 34.44077], [132.340492, 34.44079], [132.340783, 34.440776], [132.341067, 34.44072], [132.341331, 34.440631], [132.341626, 34.440544], [132.341821, 34.440467], [132.34197, 34.440445], [132.342235, 34.44045], [132.342928, 34.440662], [132.343374, 34.440742], [132.343608, 34.44076], [132.343756, 34.440762], [132.343948, 34.440743], [132.34433, 34.440707], [132.34475, 34.440619], [132.34483, 34.440591], [132.344942, 34.440535], [132.345231, 34.440347], [132.345396, 34.440197], [132.345586, 34.44], [132.345688, 34.439927], [132.345889, 34.439805], [132.346082, 34.439707], [132.346191, 34.439667], [132.346449, 34.439617], [132.346639, 34.439594], [132.347027, 34.439572], [132.347285, 34.439577], [132.347475, 34.4396], [132.34772, 34.439684], [132.347917, 34.43978], [132.348066, 34.439871], [132.348223, 34.439932], [132.348353, 34.439961], [132.348379, 34.439966], [132.348612, 34.439964], [132.348841, 34.439938], [132.349038, 34.439904], [132.349201, 34.439854], [132.349283, 34.439814], [132.349562, 34.439544], [132.349779, 34.439268], [132.349896, 34.439156], [132.350031, 34.439054], [132.350139, 34.439014], [132.3502, 34.439012], [132.350386, 34.439052], [132.350533, 34.439096], [132.35086, 34.439257], [132.35122, 34.439487], [132.351425, 34.43964], [132.351566, 34.43978], [132.351777, 34.44], [132.351893, 34.440113], [132.352015, 34.440237], [132.352103, 34.440344], [132.352287, 34.440563], [132.352396, 34.440631], [132.352662, 34.440711], [132.35281, 34.440789], [132.353, 34.440873], [132.353164, 34.440952], [132.353252, 34.441042], [132.353365, 34.44122], [132.353414, 34.441396], [132.353453, 34.441496], [132.353512, 34.441584], [132.353571, 34.441632], [132.354074, 34.441847], [132.35421, 34.441876], [132.354441, 34.441881], [132.354584, 34.441904], [132.354802, 34.441948], [132.354954, 34.442052], [132.355248, 34.442196], [132.355341, 34.442232], [132.355429, 34.442248], [132.355773, 34.442225], [132.356437, 34.442146], [132.356529, 34.442136], [132.356647, 34.442156], [132.356806, 34.442219], [132.35718, 34.442298], [132.357236, 34.442312], [132.357336, 34.442337], [132.35788, 34.442501], [132.358009, 34.442546], [132.358172, 34.44263], [132.358429, 34.44278], [132.358551, 34.442872], [132.358601, 34.442929], [132.358723, 34.443081], [132.358825, 34.443165], [132.359199, 34.443559], [132.359294, 34.443717], [132.35933, 34.443924], [132.359271, 34.444141], [132.359178, 34.444353], [132.35911, 34.4445], [132.358995, 34.444657], [132.358941, 34.444784], [132.358872, 34.445152], [132.358868, 34.445312], [132.358893, 34.445457], [132.358927, 34.445531], [132.358941, 34.445584], [132.358922, 34.445644], [132.358893, 34.445683], [132.358763, 34.445872], [132.358668, 34.446094], [132.358641, 34.446178], [132.358586, 34.44648], [132.358557, 34.446712], [132.358601, 34.446912], [132.358648, 34.44704], [132.358709, 34.447113], [132.358811, 34.447197], [132.358908, 34.447291], [132.358962, 34.447371], [132.358962, 34.447446], [132.358893, 34.447642], [132.358845, 34.447761], [132.358825, 34.447941], [132.358827, 34.44816], [132.358879, 34.448471], [132.358947, 34.448645], [132.358961, 34.44878], [132.358979, 34.448972], [132.359056, 34.449158], [132.359069, 34.449254], [132.359199, 34.449456], [132.359294, 34.449598], [132.359382, 34.449678], [132.359534, 34.44975], [132.359661, 34.449771], [132.35989, 34.449849], [132.360027, 34.449895], [132.360389, 34.450041], [132.360653, 34.450104], [132.360938, 34.450126], [132.361237, 34.450149], [132.361489, 34.45016], [132.361645, 34.450154], [132.361779, 34.450115], [132.361964, 34.450048], [132.362029, 34.450016], [132.362171, 34.449904], [132.362328, 34.449824], [132.362514, 34.449767], [132.362719, 34.449721], [132.362821, 34.44971], [132.362985, 34.449662], [132.363132, 34.449586], [132.363276, 34.449501], [132.363439, 34.449406], [132.363534, 34.449361], [132.36365, 34.449332], [132.363909, 34.449309], [132.364174, 34.449265], [132.364234, 34.449231], [132.364289, 34.449192], [132.364506, 34.448944], [132.364928, 34.4486], [132.36505, 34.448471], [132.365186, 34.448302], [132.365356, 34.447941], [132.365417, 34.447801], [132.365451, 34.447716], [132.365519, 34.447626], [132.365586, 34.447572], [132.365669, 34.447532], [132.365748, 34.447512], [132.365875, 34.447516], [132.366369, 34.447671], [132.366844, 34.447857], [132.367046, 34.447956], [132.367139, 34.447976], [132.367225, 34.447986], [132.367503, 34.447982], [132.367789, 34.447958], [132.367911, 34.447941], [132.36821, 34.447919], [132.368322, 34.447898], [132.368679, 34.447806], [132.368767, 34.447789], [132.368917, 34.447739], [132.369141, 34.447688], [132.369287, 34.447663], [132.369733, 34.447587], [132.369964, 34.44753], [132.370147, 34.447513], [132.370464, 34.447496], [132.370674, 34.447526], [132.370752, 34.447547], [132.370976, 34.447665], [132.371031, 34.44767], [132.371132, 34.447654], [132.371615, 34.447637], [132.371767, 34.447645], [132.371874, 34.447672], [132.372002, 34.447727], [132.372194, 34.447794], [132.372331, 34.447834], [132.372404, 34.447839], [132.372485, 34.44783], [132.372676, 34.447861], [132.373015, 34.447882], [132.373302, 34.447872], [132.373726, 34.447946], [132.37431, 34.448126], [132.374444, 34.448197], [132.374467, 34.448187], [132.374596, 34.448135], [132.374794, 34.448084], [132.37493, 34.448084], [132.375105, 34.448111], [132.375327, 34.448158], [132.37556, 34.448209], [132.375781, 34.448275], [132.3761, 34.448337], [132.376228, 34.448422], [132.376368, 34.448453], [132.376547, 34.448395], [132.376593, 34.448329], [132.376609, 34.448232], [132.376694, 34.44808], [132.376881, 34.44801], [132.376922, 34.44801], [132.377093, 34.448008], [132.377246, 34.448006], [132.377728, 34.448076], [132.377746, 34.448082], [132.377804, 34.4481], [132.377962, 34.44815], [132.378161, 34.44823], [132.378299, 34.448286], [132.378553, 34.448434], [132.378893, 34.448529], [132.379105, 34.448529], [132.379338, 34.448307], [132.379519, 34.448105], [132.379688, 34.447712], [132.379858, 34.447299], [132.380038, 34.446917], [132.380389, 34.446896], [132.380611, 34.446885], [132.381124, 34.446852], [132.381269, 34.446843], [132.381577, 34.446758], [132.381626, 34.446756], [132.381812, 34.446747], [132.382067, 34.446779], [132.382269, 34.44679], [132.382512, 34.446779], [132.382682, 34.446747], [132.38282, 34.446769], [132.382969, 34.44679], [132.383191, 34.44662], [132.383393, 34.446323], [132.383467, 34.446174], [132.383471, 34.446035], [132.383471, 34.446015], [132.383478, 34.445761], [132.383414, 34.445326], [132.383382, 34.444965], [132.383422, 34.444803], [132.383499, 34.444488], [132.383754, 34.444212], [132.383987, 34.444063], [132.384279, 34.443822], [132.384295, 34.443809], [132.384496, 34.443618], [132.384762, 34.443448], [132.385037, 34.443332], [132.385441, 34.443257], [132.385918, 34.443257], [132.386289, 34.443257], [132.386586, 34.443194], [132.38682, 34.443098], [132.387127, 34.442748], [132.387424, 34.442371], [132.387647, 34.442031], [132.387721, 34.441862], [132.387732, 34.441671], [132.387616, 34.441437], [132.387425, 34.441257], [132.387379, 34.441133], [132.38735, 34.441055], [132.38735, 34.440779], [132.387393, 34.44062], [132.38734, 34.44026], [132.387138, 34.440005], [132.387064, 34.439857], [132.387011, 34.439676], [132.387032, 34.439475], [132.387064, 34.439294], [132.387181, 34.439188], [132.387308, 34.439061], [132.387435, 34.438775], [132.387647, 34.438393], [132.387759, 34.438176], [132.387796, 34.438106], [132.387838, 34.437905], [132.387816, 34.43773], [132.387796, 34.437576], [132.387828, 34.437226], [132.387838, 34.436759], [132.38786, 34.436547], [132.387817, 34.436292], [132.387478, 34.435847], [132.387266, 34.435645], [132.387138, 34.435475], [132.387127, 34.435369], [132.387138, 34.435231], [132.387255, 34.435072], [132.387456, 34.434844], [132.38752, 34.434706], [132.387509, 34.434472], [132.387548, 34.434268], [132.387552, 34.434249], [132.387656, 34.434111], [132.387711, 34.434037], [132.387955, 34.433836], [132.388093, 34.433751], [132.388263, 34.433729], [132.388496, 34.433793], [132.388677, 34.433899], [132.389016, 34.434069], [132.389117, 34.434145], [132.389143, 34.434164], [132.389483, 34.434239], [132.389843, 34.434334], [132.390247, 34.434472], [132.390427, 34.434493], [132.390671, 34.434462], [132.390928, 34.434472], [132.391288, 34.434589], [132.391543, 34.43478], [132.391734, 34.43495], [132.391893, 34.435204], [132.391963, 34.435298], [132.392021, 34.435374], [132.392211, 34.435448], [132.392445, 34.435501], [132.392669, 34.435445], [132.392784, 34.435416], [132.393049, 34.4353], [132.393325, 34.435236], [132.393633, 34.435172], [132.393887, 34.435141], [132.394026, 34.435162], [132.394322, 34.435289], [132.394567, 34.435427], [132.394757, 34.435469], [132.394991, 34.435385], [132.395192, 34.4353], [132.395691, 34.435066], [132.395742, 34.435043], [132.39603, 34.434907], [132.396062, 34.434717], [132.396041, 34.434568], [132.396168, 34.434419], [132.396511, 34.434155], [132.39654, 34.434133], [132.396585, 34.434092], [132.39665, 34.434033], [132.396721, 34.433969], [132.396787, 34.433909], [132.397208, 34.433528], [132.397499, 34.433307], [132.397577, 34.433247], [132.397676, 34.433172], [132.397696, 34.433157], [132.397769, 34.433125], [132.397942, 34.433051], [132.398014, 34.433019], [132.398018, 34.433021], [132.398131, 34.433093], [132.398301, 34.433284], [132.398408, 34.433361], [132.398587, 34.433433], [132.398906, 34.433486], [132.399018, 34.433498], [132.399086, 34.433505], [132.399102, 34.433507], [132.399291, 34.433527], [132.399298, 34.433528], [132.39931, 34.433527], [132.399368, 34.433519], [132.399504, 34.433502], [132.399627, 34.433486], [132.399669, 34.43304], [132.399744, 34.43251], [132.399776, 34.431884], [132.39985, 34.43147], [132.399977, 34.431375], [132.400179, 34.431301], [132.400486, 34.431311], [132.401324, 34.431407], [132.401719, 34.431428], [132.401974, 34.431375], [132.402175, 34.431279], [132.402441, 34.431258], [132.402769, 34.431258], [132.403374, 34.43129], [132.403831, 34.431322], [132.404191, 34.431332], [132.404467, 34.431301], [132.404753, 34.431195], [132.405082, 34.431025], [132.405528, 34.430791], [132.405825, 34.430664], [132.406122, 34.430632], [132.406276, 34.430618], [132.406461, 34.430601], [132.40678, 34.430537], [132.407034, 34.430399], [132.407236, 34.430219], [132.407416, 34.429953], [132.407809, 34.429762], [132.408042, 34.429592], [132.408339, 34.429476], [132.408753, 34.429296], [132.409527, 34.428924], [132.409962, 34.428871], [132.41045, 34.428924], [132.41096, 34.429031], [132.411246, 34.429126], [132.411607, 34.429253], [132.411893, 34.429306], [132.412232, 34.429274], [132.412606, 34.4292], [132.412824, 34.429111], [132.41302, 34.429031], [132.413086, 34.429011], [132.413444, 34.428903], [132.413858, 34.428786], [132.414102, 34.428765], [132.414346, 34.428733], [132.414483, 34.428659], [132.414484, 34.428659], [132.414569, 34.428373], [132.414601, 34.428012], [132.414622, 34.427482], [132.414632, 34.427099], [132.414632, 34.427094], [132.41459, 34.426818], [132.414463, 34.426563], [132.414314, 34.426319], [132.414208, 34.42615], [132.414165, 34.426068], [132.414112, 34.425969], [132.414112, 34.425895], [132.414144, 34.425736], [132.414335, 34.425417], [132.414441, 34.425248], [132.414579, 34.425068], [132.414707, 34.425407], [132.414866, 34.425577], [132.415176, 34.425807], [132.415322, 34.425916], [132.415715, 34.42616], [132.41615, 34.426532], [132.416457, 34.426733], [132.416775, 34.426754], [132.417221, 34.426733], [132.417645, 34.42668], [132.417964, 34.426701], [132.418144, 34.426786], [132.418346, 34.426924], [132.418431, 34.427115], [132.418487, 34.427189], [132.418568, 34.427296], [132.418621, 34.42755], [132.418664, 34.427752], [132.418972, 34.427943], [132.419481, 34.428314], [132.419862, 34.428643], [132.420032, 34.428802], [132.42017, 34.428855], [132.42069, 34.429057], [132.420923, 34.429195], [132.420966, 34.429402], [132.421061, 34.429487], [132.421327, 34.429508], [132.421719, 34.429519], [132.421974, 34.429582], [132.422292, 34.429593], [132.422419, 34.429561], [132.422674, 34.429455], [132.423172, 34.429296], [132.423501, 34.429137], [132.423817, 34.428916], [132.423926, 34.42884], [132.424223, 34.428617], [132.424541, 34.428405], [132.424774, 34.428405], [132.425254, 34.428309], [132.425625, 34.428171], [132.426007, 34.427938], [132.426347, 34.427736], [132.426465, 34.427784], [132.426506, 34.4278], [132.426644, 34.427991], [132.426707, 34.428055], [132.426877, 34.427938], [132.427238, 34.427779], [132.427758, 34.42744], [132.428055, 34.427253], [132.428341, 34.426914], [132.428787, 34.426394], [132.429035, 34.426128], [132.429232, 34.425916], [132.429964, 34.425439], [132.430739, 34.425036], [132.430951, 34.424951], [132.431132, 34.424983], [132.431386, 34.425195], [132.431726, 34.425365], [132.432001, 34.425481], [132.432492, 34.425499], [132.432585, 34.425503], [132.432946, 34.425556], [132.433497, 34.425683], [132.433805, 34.425757], [132.434166, 34.425832], [132.434314, 34.425853], [132.434441, 34.425799], [132.434791, 34.425651], [132.435386, 34.425481], [132.436625, 34.425089], [132.437877, 34.42476], [132.438344, 34.424654], [132.438535, 34.42458], [132.438726, 34.424421], [132.439002, 34.424124], [132.439139, 34.423986], [132.439252, 34.423908], [132.439341, 34.423848], [132.439638, 34.423805], [132.440031, 34.423721], [132.440264, 34.423572], [132.440709, 34.423275], [132.441102, 34.423094], [132.441537, 34.422914], [132.441887, 34.422819], [132.44228, 34.422893], [132.442465, 34.422937], [132.442641, 34.422978], [132.443129, 34.423074], [132.443353, 34.423136], [132.443394, 34.423147], [132.443585, 34.423158], [132.444306, 34.423021], [132.444801, 34.422934], [132.445155, 34.422872], [132.445802, 34.422798], [132.446301, 34.422777], [132.44667, 34.422787], [132.446946, 34.422851], [132.447211, 34.422967], [132.447487, 34.423169], [132.447869, 34.423551], [132.448421, 34.424102], [132.448807, 34.424509], [132.448834, 34.424537], [132.449184, 34.424898], [132.449356, 34.42503], [132.449598, 34.425216], [132.449885, 34.42545], [132.45033, 34.425726], [132.450659, 34.425842], [132.451211, 34.425981], [132.451624, 34.426002], [132.451721, 34.426], [132.451855, 34.425997], [132.451895, 34.425996], [132.451933, 34.425996], [132.452159, 34.425991], [132.452176, 34.425991], [132.452706, 34.425949], [132.453108, 34.425857], [132.453216, 34.425832], [132.453937, 34.425482], [132.454089, 34.425369], [132.454286, 34.425223], [132.454397, 34.425141], [132.454796, 34.424846], [132.454994, 34.424681], [132.455497, 34.424262], [132.455766, 34.424381], [132.455811, 34.424401], [132.456277, 34.424607], [132.456504, 34.424707], [132.457109, 34.424952], [132.457431, 34.425053], [132.45756, 34.425093], [132.457818, 34.425174], [132.458508, 34.425344], [132.459409, 34.425482], [132.459735, 34.425522], [132.460022, 34.425557], [132.460269, 34.425588], [132.461404, 34.425662], [132.461651, 34.425678], [132.462094, 34.425705], [132.463157, 34.425723], [132.463324, 34.425726], [132.463409, 34.425734], [132.46377, 34.425769], [132.463814, 34.425776], [132.464247, 34.425853], [132.464557, 34.42597], [132.465234, 34.426225], [132.465441, 34.426353], [132.465679, 34.426501], [132.466229, 34.426894], [132.466242, 34.426904], [132.46674, 34.427264], [132.467525, 34.42789], [132.467981, 34.428261], [132.468552, 34.428798], [132.469475, 34.429562], [132.469777, 34.429842], [132.469778, 34.429842], [132.470334, 34.430357], [132.470854, 34.430824], [132.470971, 34.43095], [132.471692, 34.431726], [132.472753, 34.432925], [132.472844, 34.433024], [132.473814, 34.434081], [132.474822, 34.435217], [132.475265, 34.435712], [132.475267, 34.435715], [132.475936, 34.43632], [132.476519, 34.436797], [132.476997, 34.437153], [132.47758, 34.437546], [132.478026, 34.437832], [132.478683, 34.438182], [132.479032, 34.438352], [132.479689, 34.438692], [132.4804, 34.438989], [132.480771, 34.439136], [132.481016, 34.439233], [132.481652, 34.439424], [132.482363, 34.439647], [132.48284, 34.439742], [132.483088, 34.439811], [132.483371, 34.439891], [132.483406, 34.439893], [132.483891, 34.439933], [132.484485, 34.440018], [132.485142, 34.440145], [132.485874, 34.440304], [132.486766, 34.440548], [132.48736, 34.44075], [132.487795, 34.440941], [132.488187, 34.441153], [132.488537, 34.441376], [132.488898, 34.441673], [132.489248, 34.442076], [132.48945, 34.442394], [132.489619, 34.442861], [132.489627, 34.442894], [132.48973, 34.443346], [132.489745, 34.443769], [132.489745, 34.444002], [132.489745, 34.44432], [132.489649, 34.445137], [132.489447, 34.446219], [132.489278, 34.447259], [132.489241, 34.447464], [132.489159, 34.447915], [132.488991, 34.44885], [132.488758, 34.450247], [132.488747, 34.450314], [132.488514, 34.451545], [132.488418, 34.452086], [132.488365, 34.452856], [132.488376, 34.453503], [132.488418, 34.454044], [132.488524, 34.454564], [132.488571, 34.454722], [132.488705, 34.455183], [132.488726, 34.455253], [132.48897, 34.455847], [132.489352, 34.456547], [132.489903, 34.457417], [132.490029, 34.457574], [132.49018, 34.45776], [132.490784, 34.45851], [132.491158, 34.458998], [132.491378, 34.459284], [132.491717, 34.459783], [132.492004, 34.460245], [132.492007, 34.460251], [132.492301, 34.460861], [132.492598, 34.461646], [132.492746, 34.462197], [132.492927, 34.46276], [132.493075, 34.463375], [132.493213, 34.464022], [132.493362, 34.464881], [132.493451, 34.465362], [132.493496, 34.465606], [132.493552, 34.465911], [132.493608, 34.46627], [132.493612, 34.466296], [132.493669, 34.466664], [132.493786, 34.467247], [132.493913, 34.467932], [132.494136, 34.46877], [132.494306, 34.469417], [132.494475, 34.46982], [132.494592, 34.470054], [132.49473, 34.470329], [132.494889, 34.470796], [132.495048, 34.471242], [132.495207, 34.471719], [132.495462, 34.472175], [132.495632, 34.472557], [132.495982, 34.47313], [132.496071, 34.473235], [132.4963, 34.473502], [132.496597, 34.473809], [132.496799, 34.47399], [132.497474, 34.474555], [132.499139, 34.476088], [132.500005, 34.476884], [132.500442, 34.477257], [132.501266, 34.47796], [132.50142, 34.478091], [132.501498, 34.478157], [132.505985, 34.482151], [132.506321, 34.48245], [132.507549, 34.483637], [132.507869, 34.483947], [132.508625, 34.484678], [132.509528, 34.485548], [132.510432, 34.486451], [132.510948, 34.48709], [132.511213, 34.487615], [132.511424, 34.488172], [132.511553, 34.488771], [132.51158, 34.489287], [132.511528, 34.490044], [132.511391, 34.490666], [132.511377, 34.490772], [132.511337, 34.491087], [132.51116, 34.491961], [132.511154, 34.491979], [132.510847, 34.492891], [132.510522, 34.4939], [132.510352, 34.49443], [132.510306, 34.494933], [132.510298, 34.495021], [132.510325, 34.495894], [132.510364, 34.496276], [132.510372, 34.496356], [132.510413, 34.496621], [132.510462, 34.496806], [132.510666, 34.497572], [132.510761, 34.497912], [132.510828, 34.498401], [132.510843, 34.498509], [132.510899, 34.49947], [132.510892, 34.50002], [132.510809, 34.500468], [132.510786, 34.500592], [132.510763, 34.500713], [132.510716, 34.500855], [132.510587, 34.501243], [132.510294, 34.501936], [132.509896, 34.503233], [132.509774, 34.503487], [132.50975, 34.503548], [132.509469, 34.504288], [132.509292, 34.504754], [132.509203, 34.504974], [132.509149, 34.505103], [132.509019, 34.505531], [132.508911, 34.505864], [132.508447, 34.507134], [132.508346, 34.507412], [132.507826, 34.508386], [132.507623, 34.508704], [132.507412, 34.508969], [132.507141, 34.509311], [132.506934, 34.509552], [132.506137, 34.510478], [132.505405, 34.511202], [132.504971, 34.511626], [132.50419, 34.512204], [132.503013, 34.513014], [132.502338, 34.513545], [132.501798, 34.513815], [132.501676, 34.513859], [132.50121, 34.514027], [132.500699, 34.514172], [132.499869, 34.514413], [132.499841, 34.514419], [132.49903, 34.514586], [132.498124, 34.514808], [132.497937, 34.514848], [132.497473, 34.514947], [132.496757, 34.515026], [132.496485, 34.514999], [132.495818, 34.514988], [132.494856, 34.514861], [132.494442, 34.514764], [132.493908, 34.514638], [132.493754, 34.514602], [132.493118, 34.514426], [132.492437, 34.514237], [132.492369, 34.514218], [132.490739, 34.513772], [132.489568, 34.513358], [132.48921, 34.513214], [132.488304, 34.51285], [132.487241, 34.512374], [132.486855, 34.512178], [132.486686, 34.511961], [132.486665, 34.511935], [132.486658, 34.511895], [132.486636, 34.511763], [132.486591, 34.511496], [132.486516, 34.510993], [132.486563, 34.510546], [132.486743, 34.509567], [132.48697, 34.508477], [132.487027, 34.508188], [132.487029, 34.508178], [132.487039, 34.508131], [132.487152, 34.507559], [132.487253, 34.50721], [132.487427, 34.505829], [132.487412, 34.504057], [132.487389, 34.503987], [132.487258, 34.503587], [132.486951, 34.503233], [132.486726, 34.503037], [132.486523, 34.502853], [132.486151, 34.502664], [132.486049, 34.502611], [132.485739, 34.502514], [132.48541, 34.502456], [132.48481, 34.502437], [132.484491, 34.502418], [132.484304, 34.502438], [132.484132, 34.502456], [132.483639, 34.50264], [132.483504, 34.502698], [132.483097, 34.502872], [132.482603, 34.503066], [132.482487, 34.503133], [132.482419, 34.503172], [132.482405, 34.503163], [132.482303, 34.503095], [132.482216, 34.502991], [132.482149, 34.502911], [132.482089, 34.502815], [132.482064, 34.502775], [132.481946, 34.502582], [132.481897, 34.502389], [132.481849, 34.502031], [132.481828, 34.501893], [132.481791, 34.501644], [132.481762, 34.501344], [132.481742, 34.500705], [132.481781, 34.500231], [132.48181, 34.500114], [132.481975, 34.499844], [132.482187, 34.499563], [132.482459, 34.499282], [132.482923, 34.498895], [132.483155, 34.498624], [132.483494, 34.49818], [132.483997, 34.497589], [132.48422, 34.497193], [132.484356, 34.496748], [132.484356, 34.496544], [132.484249, 34.496215], [132.484143, 34.495915], [132.484056, 34.495722], [132.484104, 34.495286], [132.484162, 34.494909], [132.484297, 34.494619], [132.484392, 34.49451], [132.484433, 34.494464], [132.484723, 34.494329], [132.485159, 34.494183], [132.485517, 34.494077], [132.485759, 34.493757], [132.485836, 34.493477], [132.485797, 34.493332], [132.485778, 34.493041], [132.48572, 34.49278], [132.485565, 34.4925], [132.485478, 34.492229], [132.485517, 34.491987], [132.485527, 34.491754], [132.485652, 34.491503], [132.485662, 34.491271], [132.485585, 34.491087], [132.485391, 34.490758], [132.48512, 34.490438], [132.484859, 34.490255], [132.484617, 34.489907], [132.484381, 34.489632], [132.484162, 34.489374], [132.483939, 34.488871], [132.483801, 34.488661], [132.483639, 34.488416], [132.483369, 34.488155], [132.483001, 34.48801], [132.482768, 34.487981], [132.482275, 34.487952], [132.481936, 34.487942], [132.48171, 34.487905], [132.481588, 34.487884], [132.481259, 34.487778], [132.480717, 34.48772], [132.480369, 34.48772], [132.480127, 34.48771], [132.479701, 34.4877], [132.479439, 34.487642], [132.479246, 34.487478], [132.478917, 34.4874], [132.478423, 34.487439], [132.477833, 34.487468], [132.477301, 34.487478], [132.476653, 34.487497], [132.476217, 34.487546], [132.475704, 34.487613], [132.47492, 34.487749], [132.474485, 34.487865], [132.473749, 34.488058], [132.473236, 34.488213], [132.472733, 34.488319], [132.472433, 34.488377], [132.472162, 34.48829], [132.471978, 34.488252], [132.471736, 34.488068], [132.471514, 34.487884], [132.471231, 34.487674], [132.471214, 34.487662], [132.470982, 34.487429], [132.470615, 34.487083], [132.47042, 34.486781], [132.470142, 34.486477], [132.470014, 34.486394], [132.469778, 34.486113], [132.469269, 34.485755], [132.469095, 34.485649], [132.468899, 34.485561], [132.468748, 34.485494], [132.468517, 34.485434], [132.468239, 34.485519], [132.467972, 34.485749], [132.46779, 34.486052], [132.467463, 34.486295], [132.467123, 34.486404], [132.46676, 34.486489], [132.466384, 34.486683], [132.466069, 34.486828], [132.465861, 34.487139], [132.465667, 34.487466], [132.465533, 34.487666], [132.465422, 34.487705], [132.465339, 34.487733], [132.465317, 34.487741], [132.464903, 34.487891], [132.464539, 34.487976], [132.464091, 34.488042], [132.463624, 34.488072], [132.463436, 34.488048], [132.463624, 34.488461], [132.463474, 34.488497], [132.46347, 34.488499], [132.463044, 34.488603], [132.462917, 34.488634], [132.462827, 34.488656], [132.462691, 34.48869], [132.462626, 34.488706], [132.462496, 34.488738], [132.462434, 34.488753], [132.462307, 34.488784], [132.461883, 34.488889], [132.461718, 34.488929], [132.461579, 34.488963], [132.461449, 34.488995], [132.461361, 34.489017], [132.461213, 34.489053], [132.461075, 34.489087], [132.461036, 34.489097], [132.461025, 34.489069], [132.461011, 34.48903], [132.460984, 34.488955], [132.460952, 34.488867], [132.460936, 34.488824], [132.460921, 34.488782], [132.460836, 34.488788], [132.460834, 34.488788], [132.460782, 34.488801], [132.46022, 34.488936], [132.460073, 34.488971], [132.459879, 34.489018], [132.459752, 34.489049], [132.459247, 34.489169], [132.459124, 34.489199], [132.45905, 34.489217], [132.458914, 34.48925], [132.458833, 34.489269], [132.458794, 34.489279], [132.458715, 34.489298], [132.458472, 34.489357], [132.458478, 34.489466], [132.458484, 34.489586], [132.458515, 34.489773], [132.458499, 34.48992], [132.458491, 34.489998], [132.458387, 34.490089], [132.458054, 34.490174], [132.457605, 34.490258], [132.457229, 34.490343], [132.457011, 34.490452], [132.456945, 34.490634], [132.456939, 34.490864], [132.456926, 34.491337], [132.456975, 34.491677], [132.457036, 34.492083], [132.457157, 34.492537], [132.457248, 34.492986], [132.457257, 34.493011], [132.457381, 34.49335], [132.457466, 34.493735], [132.457466, 34.493923], [132.457466, 34.494105], [132.457314, 34.494287], [132.45706, 34.494402], [132.456757, 34.494402], [132.456447, 34.494372], [132.456144, 34.494335], [132.455872, 34.494269], [132.455575, 34.494154], [132.455296, 34.494129], [132.45506, 34.494136], [132.454902, 34.494141], [132.454684, 34.494184], [132.45452, 34.494287], [132.454477, 34.494342], [132.454411, 34.494426], [132.454157, 34.494578], [132.454005, 34.494772], [132.453878, 34.494936], [132.453817, 34.495026], [132.453744, 34.495093], [132.453599, 34.495105], [132.45349, 34.495105], [132.453211, 34.495154], [132.45306, 34.495202], [132.452908, 34.495263], [132.452744, 34.495317], [132.452514, 34.495354], [132.452314, 34.495354], [132.452169, 34.495317], [132.452113, 34.495281], [132.452047, 34.495239], [132.451944, 34.495111], [132.451696, 34.494954], [132.45149, 34.494839], [132.451205, 34.49475], [132.450792, 34.494616], [132.450386, 34.494434], [132.450059, 34.494241], [132.449847, 34.494125], [132.449484, 34.493852], [132.449363, 34.493749], [132.449252, 34.493667], [132.44912, 34.493568], [132.448696, 34.493349], [132.448453, 34.493307], [132.448187, 34.493307], [132.447835, 34.493374], [132.447471, 34.493416], [132.447138, 34.493465], [132.446611, 34.493537], [132.446392, 34.493574], [132.446011, 34.493652], [132.445598, 34.493741], [132.445368, 34.493814], [132.445183, 34.49386], [132.445101, 34.493881], [132.444835, 34.493923], [132.444513, 34.493996], [132.443998, 34.494171], [132.443647, 34.494238], [132.443344, 34.494377], [132.443156, 34.494462], [132.442889, 34.494711], [132.442471, 34.495099], [132.442114, 34.495366], [132.441914, 34.495462], [132.441786, 34.4955], [132.441356, 34.495626], [132.440932, 34.495717], [132.440495, 34.495814], [132.440077, 34.495911], [132.43975, 34.495977], [132.439295, 34.49599], [132.439136, 34.495984], [132.438744, 34.495971], [132.438447, 34.495966], [132.438113, 34.495953], [132.437919, 34.495935], [132.437725, 34.49599], [132.437459, 34.49602], [132.43715, 34.496014], [132.436999, 34.496002], [132.436811, 34.495971], [132.436574, 34.495868], [132.43632, 34.495826], [132.43595, 34.495838], [132.435701, 34.495905], [132.435435, 34.495971], [132.435319, 34.496002], [132.435059, 34.496026], [132.434695, 34.496111], [132.434126, 34.496311], [132.433834, 34.496365], [132.433562, 34.496383], [132.433325, 34.496347], [132.433089, 34.496347], [132.432853, 34.496402], [132.432598, 34.496492], [132.432356, 34.496541], [132.43221, 34.496511], [132.431913, 34.496426], [132.43164, 34.496359], [132.43138, 34.496299], [132.43098, 34.496232], [132.430677, 34.496147], [132.430156, 34.495965], [132.429732, 34.495783], [132.42961, 34.495704], [132.429453, 34.495577], [132.429186, 34.495407], [132.428986, 34.495304], [132.428817, 34.495207], [132.428726, 34.495153], [132.428708, 34.495139], [132.428641, 34.495086], [132.428411, 34.495026], [132.428186, 34.495019], [132.428089, 34.495001], [132.427962, 34.494965], [132.427683, 34.49485], [132.427556, 34.494795], [132.42741, 34.494819], [132.427389, 34.494831], [132.427325, 34.494868], [132.427216, 34.494868], [132.426925, 34.49488], [132.426713, 34.494922], [132.426416, 34.494989], [132.42615, 34.495026], [132.425889, 34.495007], [132.425695, 34.494953], [132.425531, 34.494862], [132.425264, 34.494686], [132.424829, 34.494506], [132.42458, 34.494385], [132.424114, 34.494094], [132.423944, 34.494058], [132.423732, 34.494021], [132.423404, 34.493931], [132.423265, 34.493888], [132.423126, 34.49367], [132.423065, 34.493518], [132.423053, 34.493282], [132.423071, 34.492282], [132.423095, 34.491361], [132.42315, 34.491118], [132.423198, 34.490972], [132.423544, 34.490597], [132.424059, 34.490205], [132.424216, 34.490106], [132.424241, 34.49009], [132.424344, 34.489944], [132.424392, 34.489726], [132.424453, 34.489478], [132.424441, 34.489362], [132.424368, 34.489253], [132.424198, 34.489187], [132.423901, 34.489126], [132.423701, 34.488975], [132.423337, 34.488841], [132.423162, 34.488823], [132.42298, 34.488859], [132.42278, 34.488993], [132.422598, 34.48909], [132.422307, 34.489181], [132.421931, 34.489253], [132.42175, 34.489272], [132.421495, 34.489235], [132.421174, 34.489078], [132.42081, 34.488817], [132.420367, 34.488538], [132.419943, 34.488344], [132.419665, 34.488235], [132.419392, 34.488065], [132.419125, 34.487914], [132.418925, 34.487865], [132.418804, 34.487883], [132.41861, 34.487968], [132.418162, 34.488132], [132.41798, 34.488126], [132.417768, 34.488029], [132.417549, 34.48792], [132.417234, 34.487853], [132.416731, 34.487805], [132.416374, 34.487805], [132.415919, 34.487805], [132.415555, 34.487871], [132.415362, 34.487879], [132.41524, 34.487883], [132.414586, 34.487902], [132.414004, 34.487908], [132.413319, 34.487926], [132.413046, 34.487974], [132.412749, 34.488089], [132.412452, 34.488211], [132.412252, 34.48829], [132.411907, 34.48832], [132.411786, 34.488277], [132.411531, 34.488211], [132.411349, 34.488192], [132.411082, 34.488168], [132.410628, 34.488132], [132.410367, 34.488138], [132.410113, 34.488192], [132.409731, 34.488156], [132.409204, 34.488108], [132.408894, 34.488023], [132.408427, 34.487823], [132.407991, 34.487592], [132.407633, 34.487441], [132.407433, 34.487392], [132.407118, 34.487399], [132.40678, 34.487416], [132.406767, 34.487417], [132.406258, 34.487447], [132.406052, 34.487404], [132.40584, 34.487265], [132.405525, 34.486877], [132.405201, 34.486504], [132.405167, 34.486465], [132.405024, 34.486249], [132.404955, 34.486144], [132.404773, 34.485976], [132.404185, 34.485673], [132.404118, 34.485594], [132.404039, 34.48537], [132.404046, 34.485139], [132.404149, 34.48434], [132.404179, 34.484012], [132.4041, 34.483746], [132.403894, 34.483182], [132.403518, 34.482818], [132.403179, 34.482588], [132.402954, 34.482531], [132.402914, 34.482521], [132.402797, 34.482491], [132.402385, 34.482485], [132.402179, 34.482521], [132.401888, 34.482636], [132.401645, 34.482836], [132.401267, 34.483056], [132.401239, 34.483073], [132.401179, 34.483116], [132.400986, 34.483256], [132.400887, 34.483327], [132.400761, 34.483445], [132.400705, 34.483497], [132.40053, 34.483661], [132.400522, 34.48367], [132.40047, 34.483729], [132.400354, 34.483861], [132.400227, 34.484006], [132.400021, 34.484243], [132.399906, 34.484473], [132.39967, 34.484679], [132.399312, 34.484836], [132.399027, 34.484904], [132.398906, 34.484933], [132.398602, 34.484918], [132.398288, 34.484903], [132.397791, 34.484855], [132.397536, 34.485], [132.397427, 34.48521], [132.397026, 34.485345], [132.397008, 34.485352], [132.396512, 34.485519], [132.395675, 34.485798], [132.395396, 34.485804], [132.395316, 34.485797], [132.395161, 34.485782], [132.395006, 34.485768], [132.394936, 34.485762], [132.394699, 34.485762], [132.394323, 34.485828], [132.393991, 34.48598], [132.392797, 34.486659], [132.391984, 34.487107], [132.391499, 34.487271], [132.391196, 34.487313], [132.390845, 34.487319], [132.390566, 34.487265], [132.390232, 34.487089], [132.389954, 34.486883], [132.389669, 34.486786], [132.389414, 34.486847], [132.389166, 34.486998], [132.38914, 34.48702], [132.388935, 34.487192], [132.388741, 34.487422], [132.388675, 34.487665], [132.388608, 34.488016], [132.388547, 34.48835], [132.38842, 34.488744], [132.388305, 34.488962], [132.388069, 34.489332], [132.387862, 34.489663], [132.387759, 34.489802], [132.387626, 34.490123], [132.387608, 34.490432], [132.387541, 34.490736], [132.38745, 34.491081], [132.387432, 34.491245], [132.387711, 34.491354], [132.388287, 34.491633], [132.38902, 34.492057], [132.389281, 34.492221], [132.389535, 34.492433], [132.389687, 34.492603], [132.389832, 34.492845], [132.390026, 34.493124], [132.390044, 34.493348], [132.38996, 34.493542], [132.389759, 34.493807], [132.38962, 34.494097], [132.389572, 34.494316], [132.389578, 34.494461], [132.38962, 34.494558], [132.389652, 34.494623], [132.389747, 34.494819], [132.389808, 34.495055], [132.389772, 34.495304], [132.38962, 34.495401], [132.389372, 34.495825], [132.38925, 34.496213], [132.38925, 34.496661], [132.389305, 34.497165], [132.389535, 34.497868], [132.389559, 34.498175], [132.389638, 34.498508], [132.389814, 34.498969], [132.39002, 34.49946], [132.39019, 34.499684], [132.390402, 34.50029], [132.390419, 34.500554], [132.390429, 34.500709], [132.390432, 34.500756], [132.390416, 34.500805], [132.390377, 34.500917], [132.390222, 34.501371], [132.390212, 34.501398], [132.389914, 34.501895], [132.389772, 34.502131], [132.389768, 34.502147], [132.389762, 34.502171], [132.389717, 34.502337], [132.389705, 34.502381], [132.389667, 34.502524], [132.389646, 34.502603], [132.389644, 34.502607], [132.389598, 34.502894], [132.389584, 34.502981], [132.389589, 34.503231], [132.389758, 34.503284], [132.389843, 34.50332], [132.389897, 34.503357], [132.390025, 34.503512], [132.39019, 34.503972], [132.390223, 34.504068], [132.390241, 34.50411], [132.39041, 34.504505], [132.390432, 34.504557], [132.390467, 34.504637], [132.390589, 34.504922], [132.390556, 34.505237], [132.390404, 34.505749], [132.390213, 34.505974], [132.389898, 34.506217], [132.389847, 34.506258], [132.389778, 34.50631], [132.389711, 34.506362], [132.389519, 34.506552], [132.389225, 34.506836], [132.389081, 34.507033], [132.388899, 34.50718], [132.388638, 34.507202], [132.388409, 34.507111], [132.388147, 34.507089], [132.387862, 34.507102], [132.387587, 34.507257], [132.387151, 34.507727], [132.386479, 34.507961], [132.38593, 34.508152], [132.385022, 34.508242], [132.383284, 34.508527], [132.383082, 34.508729], [132.382545, 34.508953], [132.38222, 34.509199], [132.382097, 34.509591], [132.382041, 34.509916], [132.381772, 34.510297], [132.381582, 34.51051], [132.381179, 34.510846], [132.380103, 34.511271], [132.379919, 34.51138], [132.379896, 34.511604], [132.380014, 34.512077], [132.380159, 34.512481], [132.380742, 34.513052], [132.380908, 34.513318], [132.38091, 34.513321], [132.380876, 34.513657], [132.380641, 34.514082], [132.380327, 34.514821], [132.379958, 34.515269], [132.379286, 34.515437], [132.378927, 34.515437], [132.378658, 34.515393], [132.377997, 34.515247], [132.37737, 34.515281], [132.376183, 34.515516], [132.375735, 34.515471], [132.374906, 34.515359], [132.372867, 34.515079], [132.372778, 34.515214], [132.372632, 34.515807], [132.372484, 34.516024], [132.372416, 34.516048], [132.372286, 34.5161], [132.372082, 34.516212], [132.372034, 34.516251], [132.371834, 34.516394], [132.371734, 34.516546], [132.371724, 34.516584], [132.371701, 34.516674], [132.371715, 34.517079], [132.371679, 34.51718], [132.371565, 34.517266], [132.371437, 34.517325], [132.371304, 34.517323], [132.371177, 34.51726], [132.371069, 34.517141], [132.371034, 34.517046], [132.371028, 34.516989], [132.370952, 34.516797], [132.370869, 34.516616], [132.370783, 34.516499], [132.370687, 34.516409], [132.370545, 34.516336], [132.370341, 34.516256], [132.370204, 34.516162], [132.370171, 34.516071], [132.370109, 34.515823], [132.370102, 34.515672], [132.370043, 34.515436], [132.369887, 34.51534], [132.369776, 34.515311], [132.369463, 34.515306], [132.369192, 34.515424], [132.368959, 34.515567], [132.368769, 34.515637], [132.368558, 34.515688], [132.368463, 34.515716], [132.368008, 34.515841], [132.36785, 34.515919], [132.367748, 34.516004], [132.367639, 34.516172], [132.36749, 34.516299], [132.367467, 34.516287], [132.367265, 34.516187], [132.367011, 34.516037], [132.366871, 34.51593], [132.366674, 34.515796], [132.366408, 34.515674], [132.366356, 34.515658], [132.366116, 34.515587], [132.365959, 34.515547], [132.365294, 34.515443], [132.365267, 34.515439], [132.365063, 34.515446], [132.364889, 34.51547], [132.364659, 34.515558], [132.364381, 34.515694], [132.364041, 34.515778], [132.363925, 34.515784], [132.363781, 34.515771], [132.363671, 34.515761], [132.363466, 34.51571], [132.363319, 34.515699], [132.363067, 34.515711], [132.362931, 34.515705], [132.362524, 34.515732], [132.362244, 34.515773], [132.361918, 34.515857], [132.361618, 34.515936], [132.361452, 34.515942], [132.361272, 34.515891], [132.361054, 34.515823], [132.360918, 34.515818], [132.360374, 34.515835], [132.360162, 34.515908], [132.360006, 34.516004], [132.35977, 34.516181], [132.359547, 34.516355], [132.359412, 34.516427], [132.359215, 34.516461], [132.358868, 34.516511], [132.358609, 34.516562], [132.358189, 34.516685], [132.358067, 34.516702], [132.357841, 34.516714], [132.357639, 34.516617], [132.357441, 34.516516], [132.357162, 34.516426], [132.35667, 34.516329], [132.356407, 34.516324], [132.356121, 34.516386], [132.355882, 34.516481], [132.355671, 34.516522], [132.355502, 34.516505], [132.355128, 34.516482], [132.354892, 34.516481], [132.35457, 34.51651], [132.354312, 34.516612], [132.354182, 34.516674], [132.353563, 34.516876], [132.353322, 34.516876], [132.353318, 34.516876], [132.353196, 34.516848], [132.352502, 34.51655], [132.352243, 34.516459], [132.351964, 34.516397], [132.351652, 34.516296], [132.351292, 34.516204], [132.350769, 34.516187], [132.350261, 34.516231], [132.350016, 34.516279], [132.349761, 34.516336], [132.349473, 34.516349], [132.348962, 34.516366], [132.348356, 34.516352], [132.347861, 34.516309], [132.347634, 34.516345], [132.347483, 34.516434], [132.347318, 34.5166], [132.347263, 34.516685], [132.346767, 34.517462], [132.346317, 34.51798], [132.346147, 34.518132], [132.345804, 34.518423], [132.345617, 34.518532], [132.345339, 34.518646], [132.344959, 34.518926], [132.344807, 34.519095], [132.344465, 34.519606], [132.344426, 34.519534], [132.344367, 34.519468], [132.344009, 34.519104], [132.343555, 34.518729], [132.343464, 34.518606], [132.343372, 34.518166], [132.343331, 34.518002], [132.343304, 34.517952], [132.343249, 34.517895], [132.343106, 34.517811], [132.342726, 34.517468], [132.342643, 34.517284], [132.342596, 34.517146], [132.342501, 34.516977], [132.342425, 34.516887], [132.342282, 34.516716], [132.342045, 34.516352], [132.341882, 34.51624], [132.34178, 34.516206], [132.341516, 34.516075], [132.341325, 34.515903], [132.341167, 34.515761], [132.341065, 34.515631], [132.340799, 34.515257], [132.340643, 34.514888], [132.340637, 34.514685], [132.340657, 34.514629], [132.34123, 34.514083], [132.341338, 34.513947], [132.34146, 34.513733], [132.341566, 34.513491], [132.341623, 34.513349], [132.341624, 34.513018], [132.341644, 34.512883], [132.341841, 34.512562], [132.342209, 34.512083], [132.342224, 34.512053], [132.342263, 34.511976], [132.342338, 34.511774], [132.342379, 34.511582], [132.34246, 34.511425], [132.342694, 34.511217], [132.342943, 34.511064], [132.343046, 34.510951], [132.343109, 34.510842], [132.3431, 34.510722], [132.343047, 34.510566], [132.342872, 34.51011], [132.342807, 34.509988], [132.342753, 34.509921], [132.342664, 34.509859], [132.342454, 34.509751], [132.342256, 34.509587], [132.342112, 34.509398], [132.341841, 34.508946], [132.341772, 34.508806], [132.341706, 34.508482], [132.341698, 34.508186], [132.341657, 34.507899], [132.341665, 34.507093], [132.341651, 34.506862], [132.341792, 34.506469], [132.341844, 34.506372], [132.34193, 34.506209], [132.341957, 34.50613], [132.34195, 34.505944], [132.34176, 34.505443], [132.341685, 34.505269], [132.341678, 34.505178], [132.341699, 34.5051], [132.341802, 34.504979], [132.341931, 34.504856], [132.342692, 34.504311], [132.342796, 34.504198], [132.342753, 34.504086], [132.342744, 34.504063], [132.342686, 34.503945], [132.342654, 34.503744], [132.342672, 34.503601], [132.342692, 34.503478], [132.34274, 34.503309], [132.342739, 34.50323], [132.342541, 34.502771], [132.342483, 34.502657], [132.342348, 34.502395], [132.342305, 34.502244], [132.342273, 34.502122], [132.342254, 34.502036], [132.342223, 34.501524], [132.342234, 34.501364], [132.342269, 34.501211], [132.342335, 34.500926], [132.342356, 34.50078], [132.342356, 34.500661], [132.342326, 34.500565], [132.342272, 34.500489], [132.342194, 34.500441], [132.342091, 34.500401], [132.341959, 34.500378], [132.34171, 34.500335], [132.34154, 34.500307], [132.341466, 34.500245], [132.341451, 34.500029], [132.341554, 34.499467], [132.341663, 34.498927], [132.341653, 34.498824], [132.341624, 34.498724], [132.341536, 34.498692], [132.34118, 34.498634], [132.341065, 34.498611], [132.34082, 34.498549], [132.340623, 34.498454], [132.340401, 34.498355], [132.340337, 34.498283], [132.340303, 34.498227], [132.34029, 34.498133], [132.340283, 34.49793], [132.340215, 34.497682], [132.340188, 34.497597], [132.340127, 34.497507], [132.340104, 34.497484], [132.340039, 34.497419], [132.339916, 34.497323], [132.339794, 34.497254], [132.339542, 34.497164], [132.339379, 34.497096], [132.339359, 34.497001], [132.339311, 34.496877], [132.339167, 34.496612], [132.339073, 34.496449], [132.338999, 34.496353], [132.338767, 34.496139], [132.338598, 34.496009], [132.338399, 34.495898], [132.338267, 34.49585], [132.338034, 34.495818], [132.33787, 34.495796], [132.337755, 34.495756], [132.337673, 34.495711], [132.337558, 34.495593], [132.337266, 34.495277], [132.337191, 34.495114], [132.337157, 34.49499], [132.33717, 34.494827], [132.337191, 34.49472], [132.337206, 34.494503], [132.337192, 34.494427], [132.337147, 34.494367], [132.337079, 34.494303], [132.336997, 34.494236], [132.336878, 34.494139], [132.336688, 34.493959], [132.3366, 34.493835], [132.336246, 34.493441], [132.336042, 34.493283], [132.335832, 34.493171], [132.33575, 34.493137], [132.335152, 34.492895], [132.335079, 34.492835], [132.334922, 34.492675], [132.334849, 34.492611], [132.334751, 34.492559], [132.334635, 34.492506], [132.333983, 34.492354], [132.333677, 34.492247], [132.333378, 34.492174], [132.332753, 34.492078], [132.332488, 34.492061], [132.332386, 34.492056], [132.332148, 34.492044], [132.331496, 34.492016], [132.331217, 34.49201], [132.330672, 34.492057], [132.33055, 34.492042], [132.33051, 34.491864], [132.330422, 34.491532], [132.330361, 34.491436], [132.330082, 34.49103], [132.329994, 34.490918], [132.329899, 34.490827], [132.329722, 34.490698], [132.329219, 34.490461], [132.328981, 34.490399], [132.328756, 34.490363], [132.328861, 34.489952], [132.329003, 34.489468], [132.329022, 34.489216], [132.329029, 34.488969], [132.329062, 34.488811], [132.329158, 34.488654], [132.329334, 34.488485], [132.329464, 34.488383], [132.329567, 34.488243], [132.329674, 34.488062], [132.329701, 34.487736], [132.329763, 34.487544], [132.330021, 34.487105], [132.330075, 34.486947], [132.330103, 34.486547], [132.330246, 34.486119], [132.330374, 34.485933], [132.330531, 34.485742], [132.330593, 34.485592], [132.330596, 34.485582], [132.330617, 34.485508], [132.330607, 34.485416], [132.330563, 34.485284], [132.330436, 34.485094], [132.330164, 34.484874], [132.329777, 34.484576], [132.329729, 34.484548], [132.329654, 34.48448], [132.3296, 34.484413], [132.329559, 34.484328], [132.329505, 34.484249], [132.32945, 34.484204], [132.329342, 34.484154], [132.329114, 34.484029], [132.3289, 34.483946], [132.328635, 34.483844], [132.328322, 34.483714], [132.328206, 34.483642], [132.327986, 34.483505], [132.327864, 34.483453], [132.327669, 34.483382], [132.32754, 34.483292], [132.327303, 34.483039], [132.327221, 34.482988], [132.327133, 34.482965], [132.326924, 34.482869], [132.326596, 34.482751], [132.326181, 34.482408], [132.326004, 34.482301], [132.325624, 34.48203], [132.325304, 34.481749], [132.324996, 34.481459], [132.324781, 34.481219], [132.324632, 34.481056], [132.324428, 34.480876], [132.324353, 34.480836], [132.324181, 34.480749], [132.324019, 34.480697], [132.323864, 34.480667], [132.323735, 34.480673], [132.323449, 34.480831], [132.323327, 34.480881], [132.323176, 34.480925], [132.323083, 34.480933], [132.32297, 34.480925], [132.322897, 34.480897], [132.32281, 34.480842], [132.322654, 34.480712], [132.322554, 34.480681], [132.32232, 34.480629], [132.322287, 34.480622], [132.321712, 34.480532], [132.321604, 34.480492], [132.321497, 34.480432], [132.321424, 34.480357], [132.321369, 34.480296], [132.321322, 34.480211], [132.321091, 34.479806], [132.32086, 34.479524], [132.320765, 34.479434], [132.320581, 34.47921], [132.320357, 34.479022], [132.320153, 34.478865], [132.319936, 34.478741], [132.319874, 34.478713], [132.319745, 34.478713], [132.31931, 34.478803], [132.319161, 34.478835], [132.319019, 34.478851], [132.318916, 34.478848], [132.318705, 34.478797], [132.318396, 34.478663], [132.318121, 34.478459], [132.317795, 34.478239], [132.317604, 34.478166], [132.317394, 34.478129], [132.317223, 34.478085], [132.31702, 34.47798], [132.316864, 34.477884], [132.316653, 34.477693], [132.31651, 34.477597], [132.316135, 34.477543], [132.315959, 34.477543], [132.315722, 34.477592], [132.31545, 34.477609], [132.315056, 34.477648], [132.314905, 34.477677], [132.314719, 34.477685], [132.314532, 34.477665], [132.314322, 34.477642], [132.314192, 34.477648], [132.313968, 34.477693], [132.313866, 34.47771], [132.313469, 34.477813], [132.313295, 34.477834], [132.312996, 34.477879], [132.312949, 34.47788], [132.312712, 34.477887], [132.312354, 34.477843], [132.312148, 34.477775], [132.311997, 34.477755], [132.311678, 34.477766], [132.311515, 34.477794], [132.31127, 34.477789], [132.31107, 34.477747], [132.310733, 34.477619], [132.310461, 34.47758], [132.310203, 34.477557], [132.30967, 34.477548], [132.309476, 34.477529], [132.309136, 34.477484], [132.309027, 34.477434], [132.308798, 34.477388], [132.3087, 34.477321], [132.308661, 34.477264], [132.308631, 34.477208], [132.308606, 34.477034], [132.308582, 34.476956], [132.308545, 34.476876], [132.308436, 34.476752], [132.308253, 34.476611], [132.307811, 34.476251], [132.30775, 34.476166], [132.307668, 34.475997], [132.307634, 34.475857]]]}, "properties": {"display_name": "安佐南区, 広島市, 広島県, 日本", "type": "administrative", "osm_type": "relation", "osm_id": 4091187, "class": null, "keyword": "arrondissement"}}, {"type": "Feature", "geometry": {"type": "Polygon", "coordinates": [[[132.370953, 34.369534], [132.371549, 34.369201], [132.371606, 34.369174], [132.372162, 34.368907], [132.372476, 34.368759], [132.372486, 34.368755], [132.372604, 34.368651], [132.373115, 34.368204], [132.373212, 34.368119], [132.373375, 34.367977], [132.373465, 34.367898], [132.373611, 34.367771], [132.373841, 34.367531], [132.37451, 34.366832], [132.374927, 34.366334], [132.37528, 34.365864], [132.375692, 34.365286], [132.376131, 34.364596], [132.376494, 34.363986], [132.377135, 34.362814], [132.37974, 34.357766], [132.382336, 34.352913], [132.386799, 34.34556], [132.393828, 34.336596], [132.410926, 34.345039], [132.421902, 34.34915], [132.420915, 34.35147], [132.419713, 34.357759], [132.420411, 34.359148], [132.42289, 34.362962], [132.425628, 34.367103], [132.430879, 34.375042], [132.431808, 34.376447], [132.432086, 34.376731], [132.432376, 34.377093], [132.433446, 34.378427], [132.433786, 34.378909], [132.434527, 34.379959], [132.435088, 34.380772], [132.435479, 34.381371], [132.435864, 34.381901], [132.436593, 34.382756], [132.437239, 34.383514], [132.437507, 34.38391], [132.43763, 34.384183], [132.437694, 34.384669], [132.437791, 34.385268], [132.437876, 34.385536], [132.438036, 34.385771], [132.438395, 34.386039], [132.439417, 34.386649], [132.439804, 34.386893], [132.440127, 34.387098], [132.44027, 34.387188], [132.440733, 34.387481], [132.441337, 34.387881], [132.441899, 34.388315], [132.442183, 34.388572], [132.442402, 34.389021], [132.442731, 34.389758], [132.442753, 34.389807], [132.442873, 34.390075], [132.443209, 34.391429], [132.443359, 34.392451], [132.443385, 34.392652], [132.443466, 34.393274], [132.443582, 34.394635], [132.443582, 34.394636], [132.443627, 34.395153], [132.443594, 34.39534], [132.443575, 34.39544], [132.443552, 34.395565], [132.443021, 34.396613], [132.442861, 34.396998], [132.442743, 34.397384], [132.442748, 34.397785], [132.442791, 34.397983], [132.442841, 34.398182], [132.442943, 34.398593], [132.442955, 34.398622], [132.44304, 34.398834], [132.443168, 34.399032], [132.443831, 34.399711], [132.444457, 34.40038], [132.444901, 34.400909], [132.445158, 34.401289], [132.445244, 34.401567], [132.445292, 34.401675], [132.445479, 34.402092], [132.445748, 34.402584], [132.446005, 34.403001], [132.44623, 34.403258], [132.446695, 34.403799], [132.447198, 34.404334], [132.447909, 34.404949], [132.448492, 34.405334], [132.448761, 34.405494], [132.449066, 34.405564], [132.449323, 34.405628], [132.449427, 34.405621], [132.449747, 34.405598], [132.449749, 34.405598], [132.449754, 34.405598], [132.450007, 34.40558], [132.450336, 34.405527], [132.450799, 34.405452], [132.452019, 34.405264], [132.452452, 34.405206], [132.452773, 34.40527], [132.453319, 34.405441], [132.454275, 34.405965], [132.454698, 34.406307], [132.455368, 34.406749], [132.456821, 34.407543], [132.457156, 34.407707], [132.457724, 34.407984], [132.458227, 34.408241], [132.458645, 34.408526], [132.458964, 34.408831], [132.458997, 34.408862], [132.45901, 34.408874], [132.4591, 34.408959], [132.459133, 34.40899], [132.459191, 34.409044], [132.459254, 34.409104], [132.459292, 34.40914], [132.459391, 34.409233], [132.459397, 34.409239], [132.4594, 34.409242], [132.459458, 34.409296], [132.459826, 34.409912], [132.460202, 34.410706], [132.460339, 34.411024], [132.460976, 34.412631], [132.461314, 34.413484], [132.461543, 34.414274], [132.4618, 34.415334], [132.462249, 34.416944], [132.462304, 34.41715], [132.462477, 34.417784], [132.462495, 34.417847], [132.462724, 34.4188], [132.462974, 34.419908], [132.463017, 34.420066], [132.463102, 34.420729], [132.463104, 34.420743], [132.4636, 34.424486], [132.463691, 34.425172], [132.46377, 34.425769], [132.463409, 34.425734], [132.463324, 34.425726], [132.463157, 34.425723], [132.462094, 34.425705], [132.461651, 34.425678], [132.461404, 34.425662], [132.460269, 34.425588], [132.460022, 34.425557], [132.459735, 34.425522], [132.459409, 34.425482], [132.458508, 34.425344], [132.457818, 34.425174], [132.45756, 34.425093], [132.457431, 34.425053], [132.457109, 34.424952], [132.456504, 34.424707], [132.456277, 34.424607], [132.455811, 34.424401], [132.455766, 34.424381], [132.455497, 34.424262], [132.454994, 34.424681], [132.454796, 34.424846], [132.454397, 34.425141], [132.454286, 34.425223], [132.454089, 34.425369], [132.453937, 34.425482], [132.453216, 34.425832], [132.453108, 34.425857], [132.452706, 34.425949], [132.452176, 34.425991], [132.452159, 34.425991], [132.451933, 34.425996], [132.451895, 34.425996], [132.451855, 34.425997], [132.451721, 34.426], [132.451624, 34.426002], [132.451211, 34.425981], [132.450659, 34.425842], [132.45033, 34.425726], [132.449885, 34.42545], [132.449598, 34.425216], [132.449356, 34.42503], [132.449184, 34.424898], [132.448834, 34.424537], [132.448807, 34.424509], [132.448421, 34.424102], [132.447869, 34.423551], [132.447487, 34.423169], [132.447211, 34.422967], [132.446946, 34.422851], [132.44667, 34.422787], [132.446301, 34.422777], [132.445802, 34.422798], [132.445155, 34.422872], [132.444801, 34.422934], [132.444306, 34.423021], [132.443585, 34.423158], [132.443394, 34.423147], [132.443353, 34.423136], [132.443129, 34.423074], [132.442641, 34.422978], [132.442465, 34.422937], [132.44228, 34.422893], [132.441887, 34.422819], [132.441537, 34.422914], [132.441102, 34.423094], [132.440709, 34.423275], [132.440264, 34.423572], [132.440031, 34.423721], [132.439638, 34.423805], [132.439341, 34.423848], [132.439252, 34.423908], [132.439139, 34.423986], [132.439002, 34.424124], [132.438726, 34.424421], [132.438535, 34.42458], [132.438344, 34.424654], [132.437877, 34.42476], [132.436625, 34.425089], [132.435386, 34.425481], [132.434791, 34.425651], [132.434441, 34.425799], [132.434314, 34.425853], [132.434166, 34.425832], [132.433805, 34.425757], [132.433497, 34.425683], [132.432946, 34.425556], [132.432585, 34.425503], [132.432492, 34.425499], [132.432001, 34.425481], [132.431726, 34.425365], [132.431386, 34.425195], [132.431132, 34.424983], [132.430951, 34.424951], [132.430739, 34.425036], [132.429964, 34.425439], [132.429232, 34.425916], [132.429035, 34.426128], [132.428787, 34.426394], [132.428341, 34.426914], [132.428055, 34.427253], [132.427758, 34.42744], [132.427238, 34.427779], [132.426877, 34.427938], [132.426707, 34.428055], [132.426644, 34.427991], [132.426506, 34.4278], [132.426465, 34.427784], [132.426347, 34.427736], [132.426007, 34.427938], [132.425625, 34.428171], [132.425254, 34.428309], [132.424774, 34.428405], [132.424541, 34.428405], [132.424223, 34.428617], [132.423926, 34.42884], [132.423817, 34.428916], [132.423501, 34.429137], [132.423172, 34.429296], [132.422674, 34.429455], [132.422419, 34.429561], [132.422292, 34.429593], [132.421974, 34.429582], [132.421719, 34.429519], [132.421327, 34.429508], [132.421061, 34.429487], [132.420966, 34.429402], [132.420923, 34.429195], [132.42069, 34.429057], [132.42017, 34.428855], [132.420032, 34.428802], [132.419862, 34.428643], [132.419481, 34.428314], [132.418972, 34.427943], [132.418664, 34.427752], [132.418621, 34.42755], [132.418568, 34.427296], [132.418487, 34.427189], [132.418431, 34.427115], [132.418346, 34.426924], [132.418144, 34.426786], [132.417964, 34.426701], [132.417645, 34.42668], [132.417221, 34.426733], [132.416775, 34.426754], [132.416457, 34.426733], [132.41615, 34.426532], [132.415715, 34.42616], [132.415322, 34.425916], [132.415176, 34.425807], [132.414866, 34.425577], [132.414707, 34.425407], [132.414579, 34.425068], [132.41476, 34.42476], [132.414845, 34.424251], [132.414919, 34.42407], [132.414919, 34.423858], [132.414855, 34.423508], [132.414707, 34.423073], [132.414484, 34.422744], [132.41424, 34.422415], [132.414174, 34.422299], [132.414155, 34.422266], [132.414102, 34.422171], [132.414049, 34.422076], [132.414028, 34.421917], [132.414049, 34.42163], [132.414155, 34.421365], [132.41424, 34.421121], [132.414251, 34.42093], [132.414112, 34.420824], [132.413826, 34.420676], [132.413625, 34.420537], [132.413516, 34.420427], [132.413424, 34.420282], [132.413311, 34.420179], [132.413095, 34.420052], [132.412918, 34.419979], [132.412783, 34.419907], [132.4124, 34.419201], [132.412302, 34.419005], [132.412064, 34.418799], [132.41191, 34.418566], [132.411704, 34.418169], [132.411316, 34.417505], [132.411069, 34.417267], [132.410634, 34.416967], [132.41027, 34.416757], [132.410078, 34.41665], [132.409966, 34.416519], [132.409956, 34.416502], [132.409863, 34.416346], [132.409692, 34.415973], [132.409657, 34.41584], [132.409422, 34.414961], [132.409327, 34.414738], [132.409151, 34.414562], [132.408908, 34.414391], [132.408566, 34.414191], [132.408291, 34.414063], [132.408144, 34.413911], [132.408101, 34.413778], [132.408058, 34.413569], [132.408011, 34.413112], [132.407982, 34.412751], [132.407784, 34.412116], [132.407584, 34.411603], [132.407542, 34.411535], [132.407465, 34.411413], [132.407292, 34.411267], [132.407256, 34.411237], [132.406928, 34.410981], [132.406805, 34.410833], [132.406781, 34.410724], [132.406776, 34.410406], [132.40671, 34.410187], [132.406677, 34.409949], [132.406728, 34.409786], [132.406752, 34.409707], [132.406754, 34.409697], [132.406786, 34.409465], [132.406576, 34.408607], [132.406571, 34.408421], [132.406584, 34.408349], [132.406605, 34.408236], [132.406633, 34.408065], [132.406605, 34.407913], [132.406529, 34.407751], [132.406362, 34.407414], [132.406244, 34.407152], [132.406101, 34.406848], [132.405973, 34.406611], [132.405792, 34.406425], [132.405583, 34.406278], [132.405322, 34.406079], [132.405146, 34.405874], [132.404961, 34.405594], [132.404882, 34.405522], [132.404566, 34.405234], [132.404243, 34.404954], [132.403816, 34.404607], [132.403607, 34.404431], [132.403355, 34.404284], [132.403257, 34.404221], [132.403207, 34.404189], [132.403051, 34.404037], [132.402941, 34.403832], [132.402856, 34.403681], [132.402801, 34.403614], [132.402582, 34.403343], [132.402406, 34.40312], [132.402296, 34.403067], [132.402178, 34.403067], [132.401954, 34.403196], [132.401693, 34.403386], [132.401408, 34.403661], [132.401127, 34.403866], [132.400857, 34.404046], [132.400638, 34.404137], [132.400372, 34.404222], [132.399916, 34.40427], [132.399763, 34.40428], [132.399412, 34.404303], [132.399032, 34.404284], [132.398638, 34.404289], [132.398311, 34.40436], [132.398224, 34.404379], [132.397551, 34.404531], [132.397294, 34.40456], [132.397156, 34.404517], [132.397062, 34.404389], [132.397009, 34.404137], [132.396909, 34.403761], [132.396805, 34.403367], [132.396731, 34.403208], [132.396705, 34.403153], [132.396606, 34.403044], [132.396411, 34.402934], [132.396377, 34.402944], [132.396316, 34.402963], [132.395921, 34.403443], [132.395707, 34.403543], [132.395451, 34.403671], [132.395151, 34.403737], [132.395084, 34.403751], [132.394738, 34.403818], [132.394567, 34.403861], [132.394524, 34.403923], [132.394538, 34.404094], [132.394534, 34.404179], [132.394495, 34.40424], [132.394353, 34.404459], [132.394211, 34.404673], [132.394106, 34.404811], [132.393849, 34.405025], [132.393735, 34.405234], [132.393654, 34.405391], [132.393612, 34.406183], [132.39364, 34.406497], [132.393707, 34.406739], [132.393784, 34.406875], [132.393849, 34.406991], [132.393935, 34.407204], [132.393992, 34.407442], [132.394001, 34.407661], [132.393944, 34.407808], [132.393817, 34.407986], [132.393749, 34.408079], [132.393713, 34.408109], [132.393455, 34.408321], [132.393283, 34.408417], [132.393241, 34.408441], [132.393079, 34.40853], [132.392757, 34.408677], [132.39252, 34.408734], [132.392231, 34.408744], [132.391565, 34.408739], [132.391081, 34.40872], [132.390833, 34.408692], [132.390653, 34.408549], [132.390464, 34.408426], [132.390448, 34.408416], [132.390182, 34.408378], [132.389992, 34.408449], [132.389564, 34.40854], [132.389365, 34.408663], [132.38917, 34.408858], [132.388971, 34.408977], [132.388776, 34.408996], [132.388567, 34.408957], [132.388253, 34.408844], [132.387963, 34.40853], [132.387746, 34.40835], [132.387622, 34.408307], [132.387428, 34.408202], [132.387328, 34.408088], [132.387309, 34.407931], [132.387361, 34.40758], [132.387323, 34.40739], [132.387219, 34.407195], [132.387038, 34.407005], [132.386967, 34.406777], [132.386936, 34.406544], [132.386919, 34.406411], [132.386843, 34.406235], [132.386663, 34.406036], [132.386306, 34.405879], [132.386192, 34.405817], [132.385789, 34.405191], [132.38576, 34.405016], [132.385741, 34.404726], [132.38567, 34.40455], [132.385608, 34.404417], [132.385495, 34.404365], [132.385399, 34.404322], [132.385133, 34.404326], [132.385009, 34.404217], [132.384824, 34.40397], [132.384686, 34.403633], [132.384586, 34.403514], [132.384425, 34.4034], [132.38366, 34.403419], [132.383261, 34.403362], [132.383166, 34.403262], [132.383137, 34.403186], [132.383132, 34.403039], [132.383128, 34.402792], [132.383028, 34.402564], [132.38289, 34.402293], [132.382844, 34.402234], [132.382668, 34.402011], [132.382165, 34.401561], [132.38194, 34.401326], [132.38148, 34.401149], [132.381036, 34.400962], [132.380731, 34.400791], [132.380608, 34.400646], [132.380608, 34.400507], [132.380657, 34.400422], [132.380798, 34.400378], [132.380865, 34.400357], [132.381234, 34.40032], [132.381705, 34.400283], [132.38193, 34.400229], [132.382085, 34.400133], [132.382368, 34.399946], [132.382673, 34.399785], [132.382919, 34.399635], [132.383256, 34.399379], [132.383449, 34.399251], [132.383609, 34.399213], [132.383796, 34.399154], [132.383829, 34.399111], [132.383866, 34.398962], [132.383898, 34.398769], [132.384021, 34.398657], [132.384182, 34.398667], [132.38446, 34.398758], [132.384715, 34.398884], [132.384839, 34.398946], [132.385021, 34.399106], [132.385134, 34.399218], [132.38523, 34.399234], [132.385289, 34.39909], [132.385337, 34.398962], [132.385403, 34.398813], [132.385422, 34.398769], [132.385508, 34.398716], [132.385921, 34.398661], [132.385962, 34.398604], [132.386001, 34.398549], [132.385991, 34.398404], [132.385999, 34.398035], [132.386001, 34.39796], [132.386007, 34.397672], [132.386114, 34.397669], [132.386189, 34.397666], [132.386779, 34.397658], [132.386861, 34.397657], [132.387004, 34.397655], [132.387092, 34.397654], [132.387133, 34.397654], [132.387153, 34.397653], [132.387355, 34.397651], [132.38775, 34.397653], [132.388151, 34.397656], [132.388334, 34.397657], [132.388939, 34.397661], [132.388986, 34.397639], [132.389112, 34.39758], [132.389132, 34.39757], [132.389241, 34.397504], [132.389325, 34.397452], [132.389523, 34.397332], [132.389606, 34.397281], [132.389656, 34.39725], [132.38974, 34.397199], [132.389792, 34.397167], [132.389878, 34.397114], [132.389938, 34.397078], [132.39002, 34.397028], [132.390077, 34.396993], [132.390159, 34.396943], [132.390205, 34.396915], [132.390294, 34.39686], [132.390352, 34.396825], [132.390437, 34.396773], [132.39056, 34.396698], [132.390644, 34.396647], [132.390727, 34.396596], [132.390892, 34.396495], [132.391036, 34.396409], [132.391069, 34.39635], [132.391058, 34.396035], [132.391074, 34.395976], [132.391192, 34.395928], [132.391347, 34.395907], [132.391502, 34.395907], [132.3917, 34.396083], [132.391924, 34.39619], [132.392154, 34.396377], [132.392189, 34.39638], [132.392342, 34.396393], [132.392604, 34.396137], [132.392614, 34.395987], [132.392572, 34.395858], [132.392582, 34.395789], [132.392652, 34.395607], [132.392839, 34.395372], [132.392887, 34.395275], [132.392855, 34.395206], [132.392732, 34.395045], [132.39255, 34.394853], [132.39232, 34.39474], [132.392208, 34.394633], [132.392145, 34.394547], [132.392102, 34.394435], [132.392119, 34.394258], [132.392102, 34.394007], [132.392044, 34.393831], [132.391947, 34.393718], [132.391942, 34.39359], [132.391985, 34.393504], [132.39207, 34.393424], [132.392215, 34.393253], [132.392263, 34.393103], [132.39222, 34.392899], [132.392193, 34.392669], [132.39222, 34.392584], [132.392306, 34.392413], [132.392349, 34.392322], [132.392338, 34.39222], [132.392268, 34.392108], [132.392027, 34.391851], [132.391859, 34.391643], [132.391733, 34.391487], [132.391402, 34.391145], [132.391241, 34.391038], [132.391027, 34.391017], [132.390631, 34.390974], [132.390497, 34.390931], [132.390369, 34.39084], [132.38992, 34.390444], [132.38969, 34.390085], [132.389412, 34.389657], [132.389289, 34.389374], [132.389187, 34.389218], [132.389076, 34.389145], [132.389, 34.389095], [132.388887, 34.389085], [132.38876, 34.389072], [132.388347, 34.389031], [132.38824, 34.389021], [132.388117, 34.389036], [132.387855, 34.38894], [132.387422, 34.388742], [132.387358, 34.388683], [132.387309, 34.388571], [132.387309, 34.388459], [132.387358, 34.388277], [132.387449, 34.388116], [132.387577, 34.387945], [132.387631, 34.387796], [132.387625, 34.387608], [132.387609, 34.38748], [132.387449, 34.387234], [132.387363, 34.386998], [132.387388, 34.3866], [132.387367, 34.386145], [132.387335, 34.38599], [132.387239, 34.385797], [132.387121, 34.385637], [132.386821, 34.385455], [132.38672, 34.385348], [132.386623, 34.385066], [132.386564, 34.384894], [132.386575, 34.384685], [132.386629, 34.38461], [132.386886, 34.384332], [132.386982, 34.384204], [132.386982, 34.384139], [132.386934, 34.384107], [132.386677, 34.384075], [132.386539, 34.384067], [132.386147, 34.384043], [132.385966, 34.383984], [132.385826, 34.383872], [132.38565, 34.383722], [132.385495, 34.383626], [132.385297, 34.383577], [132.385099, 34.383572], [132.384928, 34.38361], [132.384805, 34.383669], [132.384671, 34.383856], [132.384542, 34.384016], [132.384382, 34.384075], [132.384125, 34.384107], [132.38366, 34.384107], [132.383301, 34.384048], [132.383189, 34.384032], [132.383109, 34.384102], [132.382921, 34.3843], [132.382745, 34.384423], [132.382535, 34.384851], [132.382412, 34.384974], [132.38223, 34.385038], [132.382017, 34.385097], [132.381771, 34.385118], [132.381369, 34.38507], [132.381209, 34.385075], [132.381016, 34.385236], [132.380824, 34.385455], [132.380599, 34.385648], [132.380123, 34.386001], [132.379994, 34.386054], [132.379936, 34.386017], [132.379936, 34.386015], [132.379936, 34.385969], [132.38, 34.385872], [132.380064, 34.385691], [132.380011, 34.385519], [132.379877, 34.3853], [132.379801, 34.385236], [132.379545, 34.385022], [132.379192, 34.384749], [132.378855, 34.384369], [132.378641, 34.384011], [132.378406, 34.383401], [132.37825, 34.383083], [132.378084, 34.382842], [132.377912, 34.382698], [132.377662, 34.382564], [132.377479, 34.382537], [132.377003, 34.382377], [132.376537, 34.382206], [132.376259, 34.382013], [132.376206, 34.381961], [132.376056, 34.381815], [132.375601, 34.381424], [132.375366, 34.381173], [132.375066, 34.380879], [132.374992, 34.380852], [132.374628, 34.380825], [132.37451, 34.380756], [132.374334, 34.380542], [132.374104, 34.380226], [132.373649, 34.379761], [132.373247, 34.379333], [132.373066, 34.379162], [132.372873, 34.379072], [132.372825, 34.379049], [132.372486, 34.378982], [132.372427, 34.379036], [132.372362, 34.379054], [132.372303, 34.379065], [132.372159, 34.379064], [132.371968, 34.379027], [132.371847, 34.379002], [132.371713, 34.378946], [132.371561, 34.37886], [132.371528, 34.378841], [132.371471, 34.378787], [132.371461, 34.378759], [132.371428, 34.378669], [132.371428, 34.378454], [132.371438, 34.37837], [132.371453, 34.378247], [132.371472, 34.378089], [132.371492, 34.377882], [132.3715, 34.377799], [132.371512, 34.377667], [132.371518, 34.377606], [132.37152, 34.377589], [132.371526, 34.377527], [132.371531, 34.377479], [132.371536, 34.377426], [132.37154, 34.377393], [132.371552, 34.377291], [132.371594, 34.377219], [132.371648, 34.377188], [132.371665, 34.377154], [132.37172, 34.377029], [132.371726, 34.376996], [132.371739, 34.376926], [132.371784, 34.376687], [132.37183, 34.376439], [132.371842, 34.376357], [132.371851, 34.376293], [132.371838, 34.376173], [132.371796, 34.376007], [132.371755, 34.375888], [132.371712, 34.375763], [132.3717, 34.375726], [132.371695, 34.375603], [132.371841, 34.375167], [132.371878, 34.375058], [132.371862, 34.375011], [132.371846, 34.374966], [132.371834, 34.374917], [132.371808, 34.374821], [132.371801, 34.374787], [132.371776, 34.374676], [132.371776, 34.374669], [132.371776, 34.374529], [132.371776, 34.374479], [132.371794, 34.374284], [132.371796, 34.374255], [132.371798, 34.374237], [132.371786, 34.374042], [132.371739, 34.373803], [132.371717, 34.373705], [132.371701, 34.373632], [132.371701, 34.37349], [132.371701, 34.373391], [132.371701, 34.373333], [132.371701, 34.373329], [132.371699, 34.373294], [132.371679, 34.372969], [132.37165, 34.372755], [132.371604, 34.372434], [132.371567, 34.372126], [132.37153, 34.371797], [132.371521, 34.371556], [132.371552, 34.371212], [132.371579, 34.371014], [132.371592, 34.370912], [132.371595, 34.370822], [132.371597, 34.370735], [132.371598, 34.370697], [132.371579, 34.370581], [132.371572, 34.370539], [132.371517, 34.370336], [132.371469, 34.370224], [132.371331, 34.370043], [132.371227, 34.369907], [132.371171, 34.369831], [132.370953, 34.369534]]]}, "properties": {"display_name": "西区, 広島市, 広島県, 日本", "type": "administrative", "osm_type": "relation", "osm_id": 4097036, "class": null, "keyword": "arrondissement"}}, {"type": "Feature", "geometry": {"type": "Polygon", "coordinates": [[[132.464966, 34.397971], [132.46501, 34.397913], [132.466095, 34.397643], [132.466137, 34.397662], [132.466454, 34.398589], [132.466438, 34.398614], [132.465259, 34.3989], [132.46523, 34.39889], [132.464966, 34.397971]]]}, "properties": {"display_name": "私立広島女学院中学校, 城南通り, 幟町, 中区, 広島市, 広島県, 730-0016, 日本", "type": "school", "osm_type": "way", "osm_id": 94056973, "class": null, "keyword": "中心商務區"}}, {"type": "Feature", "geometry": {"type": "Polygon", "coordinates": [[[132.466274, 34.397643], [132.46631, 34.397593], [132.467097, 34.39739], [132.467163, 34.39758], [132.467256, 34.397558], [132.467535, 34.398353], [132.466609, 34.398577], [132.46658, 34.398561], [132.466274, 34.397643]]]}, "properties": {"display_name": "私立広島女学院高等学校, 城南通り, 幟町, 中区, 広島市, 広島県, 730-0016, 日本", "type": "school", "osm_type": "way", "osm_id": 94056979, "class": null, "keyword": "中心商務區"}}, {"type": "Feature", "geometry": {"type": "Polygon", "coordinates": [[[132.450611, 34.392142], [132.450714, 34.392113], [132.450674, 34.392006], [132.450659, 34.391966], [132.450944, 34.391891], [132.451286, 34.3918], [132.451359, 34.391991], [132.451372, 34.392024], [132.451445, 34.392215], [132.451448, 34.392222], [132.451236, 34.392279], [132.45125, 34.392315], [132.450892, 34.39241], [132.450878, 34.392374], [132.450822, 34.392389], [132.450808, 34.392354], [132.450709, 34.392381], [132.450611, 34.392142]]]}, "properties": {"display_name": "広島国際会議場, 平和大通り, 中島町, 中区, 広島市, 広島県, 730-0811, 日本", "type": "conference_centre", "osm_type": "way", "osm_id": 60867021, "class": null, "keyword": "centro"}}, {"type": "Feature", "geometry": {"type": "Polygon", "coordinates": [[[132.354945, 34.377357], [132.355022, 34.377336], [132.354947, 34.377153], [132.355132, 34.377101], [132.355254, 34.377396], [132.355069, 34.377448], [132.355053, 34.377411], [132.354975, 34.377432], [132.354945, 34.377357]]]}, "properties": {"display_name": "五日市中央地区学校給食センター, 五日市筒賀線, 千同二丁目, 佐伯区, 広島市, 広島県, 731-5141, 日本", "type": "yes", "osm_type": "way", "osm_id": 1422228438, "class": null, "keyword": "中央区"}}, {"type": "Feature", "geometry": {"type": "Polygon", "coordinates": [[[132.45923, 34.394589], [132.45924, 34.394586], [132.459232, 34.394564], [132.459437, 34.394512], [132.459407, 34.39443], [132.45935, 34.394444], [132.459301, 34.394313], [132.459341, 34.394303], [132.459416, 34.394284], [132.459539, 34.394618], [132.459487, 34.39463], [132.459397, 34.394653], [132.459333, 34.394669], [132.459328, 34.394674], [132.459287, 34.394683], [132.459273, 34.394679], [132.459262, 34.394672], [132.459257, 34.394662], [132.459239, 34.394615], [132.45923, 34.394589]]]}, "properties": {"display_name": "広島ミッドタウンビル, 広島海田線, 紙屋町一丁目, 中区, 広島市, 広島県, 730-0031, 日本", "type": "yes", "osm_type": "way", "osm_id": 106211309, "class": null, "keyword": "midtown"}}, {"type": "Feature", "geometry": {"type": "Polygon", "coordinates": [[[132.468464, 34.391609], [132.468469, 34.391581], [132.468485, 34.391489], [132.468706, 34.391516], [132.468666, 34.391734], [132.468591, 34.391726], [132.468594, 34.391711], [132.468533, 34.391725], [132.468519, 34.391725], [132.468506, 34.391722], [132.468496, 34.391714], [132.468489, 34.391703], [132.468464, 34.391609]]]}, "properties": {"display_name": "EN HOTEL, 広島海田線, 胡町, 中区, 広島市, 広島県, 730-0021, 日本", "type": "hotel", "osm_type": "way", "osm_id": 125451151, "class": null, "keyword": "中心商務區"}}, {"type": "Feature", "geometry": {"type": "Polygon", "coordinates": [[[132.464446, 34.38802], [132.464572, 34.38799], [132.464653, 34.388219], [132.46453, 34.388248], [132.464446, 34.38802]]]}, "properties": {"display_name": "東横イン 平和大通り, 薬研掘通り, 薬研堀, 中区, 広島市, 広島県, 730-0027, 日本", "type": "hotel", "osm_type": "way", "osm_id": 140826921, "class": null, "keyword": "中心商務區"}}, {"type": "Feature", "geometry": {"type": "Polygon", "coordinates": [[[132.354898, 34.377059], [132.355101, 34.377001], [132.355137, 34.377087], [132.354933, 34.377145], [132.354898, 34.377059]]]}, "properties": {"display_name": "五日市中央地区学校給食センター, 千同橋, 千同一丁目, 佐伯区, 広島市, 広島県, 731-5141, 日本", "type": "yes", "osm_type": "way", "osm_id": 1422228439, "class": null, "keyword": "中央区"}}, {"type": "Feature", "geometry": {"type": "Polygon", "coordinates": [[[132.524352, 34.356611], [132.524443, 34.35649], [132.524549, 34.356544], [132.524458, 34.356665], [132.524352, 34.356611]]]}, "properties": {"display_name": "Yano Karp Taxi Aki District Dispatch Centre, 矢野安浦線, 矢野新町一丁目, 矢野新町二丁目, 安芸区, 広島市, 広島県, 736-0084, 日本", "type": "company", "osm_type": "way", "osm_id": 157500423, "class": null, "keyword": "district"}}, {"type": "Feature", "geometry": {"type": "Polygon", "coordinates": [[[132.356472, 34.37027], [132.356494, 34.370266], [132.356583, 34.370243], [132.356596, 34.370275], [132.356605, 34.370275], [132.356633, 34.370286], [132.35665, 34.370337], [132.35651, 34.370373], [132.356472, 34.37027]]]}, "properties": {"display_name": "中国新聞五日市中央販売所, 原田五日市線, 五日市五丁目, 佐伯区, 広島市, 広島県, 731-5127, 日本", "type": "newsagent", "osm_type": "way", "osm_id": 706301798, "class": null, "keyword": "市中心"}}, {"type": "Feature", "geometry": {"type": "Polygon", "coordinates": [[[132.349033, 34.365035], [132.349043, 34.365026], [132.349067, 34.365023], [132.349086, 34.365022], [132.349103, 34.365025], [132.349122, 34.365135], [132.349045, 34.365141], [132.349033, 34.365035]]]}, "properties": {"display_name": "中国新聞 五日市西販売所, JR通り, 隅の浜一丁目, 佐伯区, 広島市, 広島県, 731-5145, 日本", "type": "retail", "osm_type": "way", "osm_id": 1378848445, "class": null, "keyword": "市中心"}}]}