{"type": "FeatureCollection", "features": [{"type": "Feature", "geometry": {"type": "Polygon", "coordinates": [[[111.536427, 40.784128], [111.536487, 40.783996], [111.538589, 40.78087], [111.540531, 40.781581], [111.543996, 40.782881], [111.54433, 40.783], [111.545286, 40.783452], [111.546837, 40.784217], [111.547319, 40.784453], [111.547982, 40.784782], [111.548024, 40.784803], [111.548017, 40.784846], [111.548019, 40.784876], [111.548026, 40.784911], [111.548033, 40.784936], [111.548049, 40.78496], [111.548066, 40.784978], [111.548079, 40.784994], [111.548098, 40.78501], [111.54816, 40.785047], [111.548143, 40.785064], [111.548186, 40.785088], [111.548339, 40.785173], [111.548379, 40.785196], [111.548399, 40.785183], [111.548425, 40.785198], [111.548452, 40.785212], [111.548492, 40.785228], [111.548537, 40.785236], [111.548583, 40.785239], [111.548628, 40.785235], [111.54867, 40.785229], [111.548697, 40.785221], [111.548718, 40.785211], [111.548735, 40.785209], [111.548749, 40.785213], [111.548799, 40.785237], [111.548933, 40.785302], [111.54897, 40.785309], [111.548997, 40.785306], [111.549031, 40.785286], [111.549877, 40.785701], [111.550716, 40.786134], [111.551328, 40.786551], [111.551621, 40.786727], [111.550067, 40.788334], [111.551118, 40.788925], [111.552007, 40.789412], [111.551553, 40.789849], [111.551505, 40.789895], [111.549951, 40.791379], [111.549574, 40.791744], [111.548962, 40.791401], [111.548524, 40.791157], [111.547708, 40.790688], [111.547656, 40.790726], [111.547529, 40.790651], [111.547443, 40.790598], [111.547317, 40.790521], [111.547344, 40.790489], [111.546598, 40.790039], [111.544967, 40.789136], [111.541646, 40.787226], [111.541422, 40.787102], [111.536612, 40.784337], [111.536468, 40.784235], [111.536427, 40.784128]]]}, "properties": {"display_name": "内蒙古工业大学, 金海高架桥, 金川, 台阁牧镇, 土默特左旗 ᠲᠦᠮᠡᠳ ᠵᠡᠭᠦᠨ ᠬᠣᠰᠢᠭᠤ, 呼和浩特市, 回民区 ᠬᠣᠲᠣᠩ ᠠᠷᠠᠳ ᠤᠨ ᠲᠣᠭᠣᠷᠢᠭ, 内蒙古自治区 ᠦᠪᠦᠷ ᠮᠣᠩᠭᠤᠯ ᠤᠨ ᠥᠪᠡᠷᠲᠡᠭᠡᠨ ᠵᠠᠰᠠᠬᠣ ᠣᠷᠣᠨ, 010100, 中国", "type": "university", "osm_type": "way", "osm_id": 663780582, "class": null, "keyword": "inner city"}}, {"type": "Feature", "geometry": {"type": "Polygon", "coordinates": [[[111.898316, 40.901979], [111.898621, 40.900726], [111.898983, 40.900132], [111.899425, 40.899606], [111.899978, 40.899144], [111.900648, 40.89873], [111.901451, 40.898365], [111.902324, 40.898151], [111.903242, 40.897993], [111.904161, 40.898034], [111.905182, 40.898131], [111.905941, 40.898393], [111.906853, 40.898748], [111.907456, 40.899186], [111.908528, 40.900319], [111.90903, 40.901659], [111.908903, 40.903048], [111.908719, 40.903589], [111.908162, 40.904324], [111.906894, 40.905335], [111.906177, 40.905682], [111.905249, 40.905963], [111.904429, 40.906091], [111.90358, 40.906137], [111.90283, 40.906061], [111.901921, 40.905913], [111.900436, 40.90531], [111.89927, 40.90439], [111.89854, 40.903242], [111.898316, 40.901979]]]}, "properties": {"display_name": "敕勒川国际会展中心, 保合少镇, 新城区 ᠰᠢᠨ᠎ᠡ ᠬᠣᠲᠠ ᠲᠣᠭᠣᠷᠢᠭ, 呼和浩特市, 新城区 ᠰᠢᠨ᠎ᠡ ᠬᠣᠲᠠ ᠲᠣᠭᠣᠷᠢᠭ, 内蒙古自治区 ᠦᠪᠦᠷ ᠮᠣᠩᠭᠤᠯ ᠤᠨ ᠥᠪᠡᠷᠲᠡᠭᠡᠨ ᠵᠠᠰᠠᠬᠣ ᠣᠷᠣᠨ, 中国", "type": "commercial", "osm_type": "way", "osm_id": 1349900400, "class": null, "keyword": "中心城区"}}, {"type": "Feature", "geometry": {"type": "Polygon", "coordinates": [[[111.617996, 40.877891], [111.618155, 40.877505], [111.618432, 40.877183], [111.619028, 40.876763], [111.619936, 40.875889], [111.620053, 40.875602], [111.620231, 40.875267], [111.620057, 40.875112], [111.619942, 40.874905], [111.619942, 40.874722], [111.620288, 40.873325], [111.619989, 40.872955], [111.621042, 40.87286], [111.622428, 40.872744], [111.626401, 40.873797], [111.626261, 40.874115], [111.626123, 40.874644], [111.626082, 40.875028], [111.626074, 40.87547], [111.625849, 40.875965], [111.626051, 40.876356], [111.626008, 40.876526], [111.625884, 40.876773], [111.625927, 40.877139], [111.625751, 40.877533], [111.62561, 40.877938], [111.625438, 40.878295], [111.624985, 40.878526], [111.624603, 40.878791], [111.624191, 40.878842], [111.623007, 40.878685], [111.622, 40.878468], [111.621455, 40.878377], [111.620792, 40.878455], [111.620028, 40.87839], [111.619398, 40.878274], [111.617996, 40.877891]]]}, "properties": {"display_name": "内蒙古青少年生态园, 攸攸板镇, 回民区 ᠬᠣᠲᠣᠩ ᠠᠷᠠᠳ ᠤᠨ ᠲᠣᠭᠣᠷᠢᠭ, 呼和浩特市, 回民区 ᠬᠣᠲᠣᠩ ᠠᠷᠠᠳ ᠤᠨ ᠲᠣᠭᠣᠷᠢᠭ, 内蒙古自治区 ᠦᠪᠦᠷ ᠮᠣᠩᠭᠤᠯ ᠤᠨ ᠥᠪᠡᠷᠲᠡᠭᠡᠨ ᠵᠠᠰᠠᠬᠣ ᠣᠷᠣᠨ, 中国", "type": "park", "osm_type": "way", "osm_id": 1342361121, "class": null, "keyword": "inner city"}}, {"type": "Feature", "geometry": {"type": "Polygon", "coordinates": [[[111.445038, 40.74833], [111.445638, 40.746628], [111.445625, 40.745382], [111.445957, 40.744164], [111.445402, 40.74246], [111.44743, 40.742581], [111.450725, 40.744115], [111.449516, 40.745855], [111.446907, 40.749374], [111.446014, 40.750543], [111.445497, 40.75062], [111.445038, 40.74833]]]}, "properties": {"display_name": "Inner Mongolia Yili Industrial Group Co. Ltd., 呼市绕城高速, 金山, 台阁牧镇, 土默特左旗 ᠲᠦᠮᠡᠳ ᠵᠡᠭᠦᠨ ᠬᠣᠰᠢᠭᠤ, 呼和浩特市, 内蒙古自治区 ᠦᠪᠦᠷ ᠮᠣᠩᠭᠤᠯ ᠤᠨ ᠥᠪᠡᠷᠲᠡᠭᠡᠨ ᠵᠠᠰᠠᠬᠣ ᠣᠷᠣᠨ, 010100, 中国", "type": "works", "osm_type": "way", "osm_id": 1057862822, "class": null, "keyword": "inner city"}}, {"type": "Feature", "geometry": {"type": "Polygon", "coordinates": [[[111.8235, 40.924213], [111.823768, 40.922195], [111.824969, 40.922478], [111.825431, 40.922511], [111.826353, 40.92247], [111.826461, 40.922065], [111.828585, 40.922065], [111.828392, 40.923589], [111.82822, 40.923662], [111.828199, 40.924513], [111.828285, 40.924513], [111.828349, 40.924797], [111.828242, 40.9253], [111.8235, 40.924213]]]}, "properties": {"display_name": "中央花园, 保合少镇, 新城区 ᠰᠢᠨ᠎ᠡ ᠬᠣᠲᠠ ᠲᠣᠭᠣᠷᠢᠭ, 呼和浩特市, 新城区 ᠰᠢᠨ᠎ᠡ ᠬᠣᠲᠠ ᠲᠣᠭᠣᠷᠢᠭ, 内蒙古自治区 ᠦᠪᠦᠷ ᠮᠣᠩᠭᠤᠯ ᠤᠨ ᠥᠪᠡᠷᠲᠡᠭᠡᠨ ᠵᠠᠰᠠᠬᠣ ᠣᠷᠣᠨ, 中国", "type": "residential", "osm_type": "way", "osm_id": 1208273707, "class": null, "keyword": "中心城区"}}, {"type": "Feature", "geometry": {"type": "Polygon", "coordinates": [[[111.901337, 40.90218], [111.901343, 40.901848], [111.901423, 40.901548], [111.90153, 40.901341], [111.901729, 40.901053], [111.902019, 40.900794], [111.902507, 40.901162], [111.902737, 40.901], [111.903022, 40.900891], [111.903263, 40.900822], [111.903097, 40.900319], [111.903564, 40.900267], [111.903971, 40.900267], [111.904395, 40.900335], [111.90476, 40.900445], [111.90506, 40.900583], [111.905366, 40.900765], [111.905618, 40.901004], [111.905854, 40.901288], [111.905983, 40.901596], [111.905339, 40.901722], [111.905393, 40.901921], [111.905393, 40.902144], [111.90535, 40.902395], [111.905999, 40.902525], [111.905865, 40.902829], [111.90564, 40.903109], [111.905366, 40.903356], [111.905039, 40.903555], [111.904781, 40.903656], [111.90439, 40.903782], [111.903977, 40.903835], [111.90351, 40.903843], [111.903124, 40.903798], [111.903279, 40.903287], [111.903102, 40.903251], [111.902834, 40.903145], [111.902528, 40.902959], [111.902029, 40.903328], [111.901782, 40.903105], [111.901546, 40.902792], [111.901407, 40.90248], [111.901337, 40.90218]], [[111.902786, 40.901848], [111.902925, 40.901872], [111.902888, 40.902046], [111.902925, 40.902249], [111.902807, 40.902286], [111.902861, 40.902411], [111.90299, 40.902557], [111.90321, 40.902691], [111.903462, 40.902776], [111.903719, 40.902797], [111.903928, 40.902776], [111.903896, 40.902655], [111.904078, 40.90261], [111.90432, 40.90248], [111.904433, 40.902545], [111.904545, 40.902432], [111.904642, 40.902253], [111.904669, 40.902059], [111.904652, 40.901876], [111.904561, 40.901706], [111.904433, 40.901576], [111.904314, 40.901633], [111.904154, 40.901536], [111.903885, 40.901454], [111.903907, 40.901353], [111.903644, 40.901329], [111.903381, 40.901369], [111.903172, 40.901454], [111.903011, 40.901548], [111.902866, 40.90169], [111.902786, 40.901848]]]}, "properties": {"display_name": "敕勒川国际会展中心, 呼和塔拉东街, 保合少镇, 新城区 ᠰᠢᠨ᠎ᠡ ᠬᠣᠲᠠ ᠲᠣᠭᠣᠷᠢᠭ, 呼和浩特市, 新城区 ᠰᠢᠨ᠎ᠡ ᠬᠣᠲᠠ ᠲᠣᠭᠣᠷᠢᠭ, 内蒙古自治区 ᠦᠪᠦᠷ ᠮᠣᠩᠭᠤᠯ ᠤᠨ ᠥᠪᠡᠷᠲᠡᠭᠡᠨ ᠵᠠᠰᠠᠬᠣ ᠣᠷᠣᠨ, 中国", "type": "exhibition_centre", "osm_type": "relation", "osm_id": 16337328, "class": null, "keyword": "中心城区"}}, {"type": "Feature", "geometry": {"type": "Polygon", "coordinates": [[[111.722403, 40.82978], [111.723112, 40.827762], [111.726723, 40.828562], [111.726056, 40.830212], [111.725347, 40.830043], [111.72524, 40.830366], [111.722403, 40.82978]]]}, "properties": {"display_name": "内蒙古电力有限责任公司培训中心, 丰州南路, 徐家沙梁社区, 中专路街道, 赛罕区 ᠰᠠᠶᠢᠬᠠᠨ ᠲᠣᠭᠣᠷᠢᠭ, 呼和浩特市, 玉泉区 ᠢᠤᠢ ᠴᠢᠤᠸᠠᠨ ᠲᠣᠭᠣᠷᠢᠭ, 内蒙古自治区 ᠦᠪᠦᠷ ᠮᠣᠩᠭᠤᠯ ᠤᠨ ᠥᠪᠡᠷᠲᠡᠭᠡᠨ ᠵᠠᠰᠠᠬᠣ ᠣᠷᠣᠨ, 010018, 中国", "type": "college", "osm_type": "way", "osm_id": 1343655734, "class": null, "keyword": "中心城区"}}, {"type": "Feature", "geometry": {"type": "Polygon", "coordinates": [[[111.7431, 40.85886], [111.744688, 40.856043], [111.746285, 40.856491], [111.745546, 40.858347], [111.745375, 40.858666], [111.744997, 40.859483], [111.7431, 40.85886]]]}, "properties": {"display_name": "呼和浩特市实验中学东河校区, 万通路, 安康社区, 万通路街道, 新城区 ᠰᠢᠨ᠎ᠡ ᠬᠣᠲᠠ ᠲᠣᠭᠣᠷᠢᠭ, 呼和浩特市, 新城区 ᠰᠢᠨ᠎ᠡ ᠬᠣᠲᠠ ᠲᠣᠭᠣᠷᠢᠭ, 内蒙古自治区 ᠦᠪᠦᠷ ᠮᠣᠩᠭᠤᠯ ᠤᠨ ᠥᠪᠡᠷᠲᠡᠭᠡᠨ ᠵᠠᠰᠠᠬᠣ ᠣᠷᠣᠨ, 中国", "type": "school", "osm_type": "way", "osm_id": 1133766718, "class": null, "keyword": "中心城区"}}, {"type": "Feature", "geometry": {"type": "Polygon", "coordinates": [[[111.715778, 40.826519], [111.716331, 40.825007], [111.718986, 40.825561], [111.718275, 40.827511], [111.71628, 40.827081], [111.716433, 40.826663], [111.715778, 40.826519]]]}, "properties": {"display_name": "内蒙古老年大学, 展览馆东路, 中专路街道, 赛罕区 ᠰᠠᠶᠢᠬᠠᠨ ᠲᠣᠭᠣᠷᠢᠭ, 呼和浩特市, 内蒙古自治区 ᠦᠪᠦᠷ ᠮᠣᠩᠭᠤᠯ ᠤᠨ ᠥᠪᠡᠷᠲᠡᠭᠡᠨ ᠵᠠᠰᠠᠬᠣ ᠣᠷᠣᠨ, 010018, 中国", "type": "college", "osm_type": "way", "osm_id": 1343673334, "class": null, "keyword": "老城"}}, {"type": "Feature", "geometry": {"type": "Polygon", "coordinates": [[[111.672489, 40.840111], [111.673274, 40.837618], [111.674324, 40.837702], [111.67425, 40.837924], [111.675101, 40.838035], [111.67444, 40.839848], [111.674209, 40.839799], [111.674027, 40.84039], [111.672489, 40.840111]]]}, "properties": {"display_name": "土默特中学, 哲里木快速路, 海拉尔东路街道, 新城区 ᠰᠢᠨ᠎ᠡ ᠬᠣᠲᠠ ᠲᠣᠭᠣᠷᠢᠭ, 呼和浩特市, 回民区 ᠬᠣᠲᠣᠩ ᠠᠷᠠᠳ ᠤᠨ ᠲᠣᠭᠣᠷᠢᠭ, 内蒙古自治区 ᠦᠪᠦᠷ ᠮᠣᠩᠭᠤᠯ ᠤᠨ ᠥᠪᠡᠷᠲᠡᠭᠡᠨ ᠵᠠᠰᠠᠬᠣ ᠣᠷᠣᠨ, 010010, 中国", "type": "school", "osm_type": "way", "osm_id": 1343784914, "class": null, "keyword": "中心城区"}}, {"type": "Feature", "geometry": {"type": "Polygon", "coordinates": [[[111.714185, 40.830653], [111.714928, 40.828733], [111.717505, 40.829314], [111.717069, 40.83047], [111.715909, 40.830211], [111.715636, 40.830995], [111.714185, 40.830653]]]}, "properties": {"display_name": "呼和浩特市体育活动中心, 展览馆东路, 中专路街道, 赛罕区 ᠰᠠᠶᠢᠬᠠᠨ ᠲᠣᠭᠣᠷᠢᠭ, 呼和浩特市, 内蒙古自治区 ᠦᠪᠦᠷ ᠮᠣᠩᠭᠤᠯ ᠤᠨ ᠥᠪᠡᠷᠲᠡᠭᠡᠨ ᠵᠠᠰᠠᠬᠣ ᠣᠷᠣᠨ, 010018, 中国", "type": "sports_centre", "osm_type": "way", "osm_id": 1343673331, "class": null, "keyword": "市中心"}}, {"type": "Feature", "geometry": {"type": "Polygon", "coordinates": [[[111.688875, 40.809782], [111.689102, 40.809253], [111.689368, 40.809319], [111.689626, 40.808719], [111.689113, 40.808593], [111.689444, 40.807824], [111.691765, 40.808396], [111.690949, 40.810293], [111.688875, 40.809782]]]}, "properties": {"display_name": "北京医科大学肿瘤医院内蒙古医院, 昭乌达快速路, 大学西路街道, 大学西路街道办, 赛罕区 ᠰᠠᠶᠢᠬᠠᠨ ᠲᠣᠭᠣᠷᠢᠭ, 呼和浩特市, 玉泉区 ᠢᠤᠢ ᠴᠢᠤᠸᠠᠨ ᠲᠣᠭᠣᠷᠢᠭ, 内蒙古自治区 ᠦᠪᠦᠷ ᠮᠣᠩᠭᠤᠯ ᠤᠨ ᠥᠪᠡᠷᠲᠡᠭᠡᠨ ᠵᠠᠰᠠᠬᠣ ᠣᠷᠣᠨ, 010010, 中国", "type": "hospital", "osm_type": "way", "osm_id": 1271841387, "class": null, "keyword": "中心城区"}}, {"type": "Feature", "geometry": {"type": "Polygon", "coordinates": [[[111.704752, 40.822036], [111.705479, 40.82025], [111.707719, 40.820736], [111.707, 40.822523], [111.704752, 40.822036]]]}, "properties": {"display_name": "中国农业科学院（草原研究所）, 东影南路, 乌兰察布东路街道, 赛罕区 ᠰᠠᠶᠢᠬᠠᠨ ᠲᠣᠭᠣᠷᠢᠭ, 呼和浩特市, 玉泉区 ᠢᠤᠢ ᠴᠢᠤᠸᠠᠨ ᠲᠣᠭᠣᠷᠢᠭ, 内蒙古自治区 ᠦᠪᠦᠷ ᠮᠣᠩᠭᠤᠯ ᠤᠨ ᠥᠪᠡᠷᠲᠡᠭᠡᠨ ᠵᠠᠰᠠᠬᠣ ᠣᠷᠣᠨ, 010018, 中国", "type": "research_institute", "osm_type": "way", "osm_id": 779799567, "class": null, "keyword": "中心城区"}}, {"type": "Feature", "geometry": {"type": "Polygon", "coordinates": [[[111.644407, 40.851419], [111.644434, 40.851293], [111.644499, 40.851163], [111.644595, 40.851061], [111.644745, 40.850988], [111.644933, 40.850927], [111.645175, 40.850903], [111.645389, 40.850919], [111.645588, 40.850972], [111.645738, 40.851041], [111.645861, 40.851134], [111.645958, 40.851199], [111.646108, 40.851244], [111.64629, 40.851228], [111.646451, 40.851187], [111.646757, 40.851151], [111.647015, 40.851134], [111.64731, 40.851159], [111.647567, 40.851224], [111.647825, 40.851329], [111.64798, 40.851431], [111.648077, 40.85154], [111.648157, 40.851682], [111.648163, 40.851853], [111.648109, 40.852007], [111.64797, 40.852149], [111.647792, 40.852234], [111.647599, 40.852271], [111.647283, 40.852283], [111.646977, 40.85225], [111.646655, 40.852181], [111.646376, 40.852088], [111.646156, 40.85197], [111.645985, 40.851897], [111.645824, 40.851869], [111.645636, 40.851905], [111.645416, 40.851946], [111.645201, 40.851938], [111.644949, 40.851901], [111.644778, 40.851836], [111.644633, 40.851767], [111.644499, 40.85165], [111.64444, 40.851536], [111.644407, 40.851419]]]}, "properties": {"display_name": "呼和浩特体育中心, 气象局西路, 呼伦北路街道, 呼伦贝尔北路街道, 新城区 ᠰᠢᠨ᠎ᠡ ᠬᠣᠲᠠ ᠲᠣᠭᠣᠷᠢᠭ, 呼和浩特市, 回民区 ᠬᠣᠲᠣᠩ ᠠᠷᠠᠳ ᠤᠨ ᠲᠣᠭᠣᠷᠢᠭ, 内蒙古自治区 ᠦᠪᠦᠷ ᠮᠣᠩᠭᠤᠯ ᠤᠨ ᠥᠪᠡᠷᠲᠡᠭᠡᠨ ᠵᠠᠰᠠᠬᠣ ᠣᠷᠣᠨ, 中国", "type": "sports_hall", "osm_type": "way", "osm_id": 663766558, "class": null, "keyword": "中心城区"}}, {"type": "Feature", "geometry": {"type": "Polygon", "coordinates": [[[111.680882, 40.820008], [111.681338, 40.819038], [111.683289, 40.819545], [111.68325, 40.819632], [111.683455, 40.819685], [111.683052, 40.820573], [111.680882, 40.820008]]]}, "properties": {"display_name": "呼和浩特市实验中学, 昭乌达路, 大学西路街道, 西街街道, 新城区 ᠰᠢᠨ᠎ᠡ ᠬᠣᠲᠠ ᠲᠣᠭᠣᠷᠢᠭ, 呼和浩特市, 玉泉区 ᠢᠤᠢ ᠴᠢᠤᠸᠠᠨ ᠲᠣᠭᠣᠷᠢᠭ, 内蒙古自治区 ᠦᠪᠦᠷ ᠮᠣᠩᠭᠤᠯ ᠤᠨ ᠥᠪᠡᠷᠲᠡᠭᠡᠨ ᠵᠠᠰᠠᠬᠣ ᠣᠷᠣᠨ, 010010, 中国", "type": "school", "osm_type": "way", "osm_id": 1133683988, "class": null, "keyword": "中心城区"}}, {"type": "Feature", "geometry": {"type": "Polygon", "coordinates": [[[111.667148, 40.812956], [111.667329, 40.812581], [111.667457, 40.812619], [111.667933, 40.811674], [111.669366, 40.812083], [111.669383, 40.812172], [111.668797, 40.813413], [111.667148, 40.812956]]]}, "properties": {"display_name": "内蒙古自治区中医医院, 健康街, 锡林北路街道, 新城区 ᠰᠢᠨ᠎ᠡ ᠬᠣᠲᠠ ᠲᠣᠭᠣᠷᠢᠭ, 呼和浩特市, 玉泉区 ᠢᠤᠢ ᠴᠢᠤᠸᠠᠨ ᠲᠣᠭᠣᠷᠢᠭ, 内蒙古自治区 ᠦᠪᠦᠷ ᠮᠣᠩᠭᠤᠯ ᠤᠨ ᠥᠪᠡᠷᠲᠡᠭᠡᠨ ᠵᠠᠰᠠᠬᠣ ᠣᠷᠣᠨ, 010010, 中国", "type": "hospital", "osm_type": "way", "osm_id": 1255719796, "class": null, "keyword": "中心城区"}}, {"type": "Feature", "geometry": {"type": "Polygon", "coordinates": [[[111.701051, 40.805082], [111.701743, 40.803567], [111.702891, 40.803833], [111.702223, 40.805378], [111.701051, 40.805082]]]}, "properties": {"display_name": "内蒙古农业大学附属中学, 兴安南路, 大学东路街道, 赛罕区 ᠰᠠᠶᠢᠬᠠᠨ ᠲᠣᠭᠣᠷᠢᠭ, 呼和浩特市, 玉泉区 ᠢᠤᠢ ᠴᠢᠤᠸᠠᠨ ᠲᠣᠭᠣᠷᠢᠭ, 内蒙古自治区 ᠦᠪᠦᠷ ᠮᠣᠩᠭᠤᠯ ᠤᠨ ᠥᠪᠡᠷᠲᠡᠭᠡᠨ ᠵᠠᠰᠠᠬᠣ ᠣᠷᠣᠨ, 010018, 中国", "type": "school", "osm_type": "way", "osm_id": 997926643, "class": null, "keyword": "中心城区"}}, {"type": "Feature", "geometry": {"type": "Polygon", "coordinates": [[[111.751851, 40.850887], [111.751865, 40.850715], [111.751915, 40.85058], [111.752007, 40.850417], [111.752179, 40.850218], [111.75386, 40.850617], [111.753549, 40.851411], [111.751865, 40.851021], [111.751851, 40.850887]]]}, "properties": {"display_name": "呼和浩特汽车客运中心, 东站北街, 万通路街道, 新城区 ᠰᠢᠨ᠎ᠡ ᠬᠣᠲᠠ ᠲᠣᠭᠣᠷᠢᠭ, 呼和浩特市, 内蒙古自治区 ᠦᠪᠦᠷ ᠮᠣᠩᠭᠤᠯ ᠤᠨ ᠥᠪᠡᠷᠲᠡᠭᠡᠨ ᠵᠠᠰᠠᠬᠣ ᠣᠷᠣᠨ, 中国", "type": "bus_station", "osm_type": "way", "osm_id": 1325688761, "class": null, "keyword": "中心城区"}}, {"type": "Feature", "geometry": {"type": "Polygon", "coordinates": [[[111.678867, 40.818495], [111.679143, 40.817911], [111.681355, 40.81846], [111.681207, 40.818757], [111.680689, 40.818622], [111.68054, 40.818942], [111.678867, 40.818495]]]}, "properties": {"display_name": "呼和浩特市启秀中学, 日盛茂街, 西街街道, 新城区 ᠰᠢᠨ᠎ᠡ ᠬᠣᠲᠠ ᠲᠣᠭᠣᠷᠢᠭ, 呼和浩特市, 回民区 ᠬᠣᠲᠣᠩ ᠠᠷᠠᠳ ᠤᠨ ᠲᠣᠭᠣᠷᠢᠭ, 内蒙古自治区 ᠦᠪᠦᠷ ᠮᠣᠩᠭᠤᠯ ᠤᠨ ᠥᠪᠡᠷᠲᠡᠭᠡᠨ ᠵᠠᠰᠠᠬᠣ ᠣᠷᠣᠨ, 010010, 中国", "type": "school", "osm_type": "way", "osm_id": 1133683990, "class": null, "keyword": "中心城区"}}, {"type": "Feature", "geometry": {"type": "Polygon", "coordinates": [[[111.863005, 40.926247], [111.863009, 40.926206], [111.86303, 40.926167], [111.863066, 40.926135], [111.863113, 40.926114], [111.863166, 40.926105], [111.863367, 40.926013], [111.863444, 40.925949], [111.863315, 40.92534], [111.863313, 40.92528], [111.863336, 40.925221], [111.863381, 40.925171], [111.863445, 40.925134], [111.863521, 40.925113], [111.8636, 40.925112], [111.863677, 40.925128], [111.863743, 40.925161], [111.863792, 40.925208], [111.86382, 40.925264], [111.863971, 40.92597], [111.864015, 40.926105], [111.864018, 40.926201], [111.864019, 40.926265], [111.863996, 40.926318], [111.863971, 40.926381], [111.863797, 40.927207], [111.86377, 40.927261], [111.863723, 40.927306], [111.86366, 40.927337], [111.863587, 40.927353], [111.863511, 40.92735], [111.863438, 40.92733], [111.863378, 40.927293], [111.863336, 40.927244], [111.863317, 40.927187], [111.863322, 40.927128], [111.863444, 40.926505], [111.863392, 40.926432], [111.86321, 40.926363], [111.863153, 40.926364], [111.863098, 40.92635], [111.863052, 40.926325], [111.86302, 40.926289], [111.863005, 40.926247]]]}, "properties": {"display_name": "内蒙古少数民族群众文化体育运动中心, 呼和塔拉东街, 保合少镇, 新城区 ᠰᠢᠨ᠎ᠡ ᠬᠣᠲᠠ ᠲᠣᠭᠣᠷᠢᠭ, 呼和浩特市, 新城区 ᠰᠢᠨ᠎ᠡ ᠬᠣᠲᠠ ᠲᠣᠭᠣᠷᠢᠭ, 内蒙古自治区 ᠦᠪᠦᠷ ᠮᠣᠩᠭᠤᠯ ᠤᠨ ᠥᠪᠡᠷᠲᠡᠭᠡᠨ ᠵᠠᠰᠠᠬᠣ ᠣᠷᠣᠨ, 中国", "type": "conference_centre", "osm_type": "way", "osm_id": 783142911, "class": null, "keyword": "中心城区"}}, {"type": "Feature", "geometry": {"type": "Polygon", "coordinates": [[[111.993683, 40.699487], [111.993888, 40.698827], [111.995499, 40.699115], [111.995294, 40.699775], [111.993683, 40.699487]]]}, "properties": {"display_name": "呼市赛罕区中心敬老院西黄合少分院, S102, 黄合少镇, 赛罕区 ᠰᠠᠶᠢᠬᠠᠨ ᠲᠣᠭᠣᠷᠢᠭ, 呼和浩特市, 赛罕区 ᠰᠠᠶᠢᠬᠠᠨ ᠲᠣᠭᠣᠷᠢᠭ, 内蒙古自治区 ᠦᠪᠦᠷ ᠮᠣᠩᠭᠤᠯ ᠤᠨ ᠥᠪᠡᠷᠲᠡᠭᠡᠨ ᠵᠠᠰᠠᠬᠣ ᠣᠷᠣᠨ, 中国", "type": "social_facility", "osm_type": "way", "osm_id": 1323567696, "class": null, "keyword": "市中心"}}, {"type": "Feature", "geometry": {"type": "Polygon", "coordinates": [[[111.752696, 40.84696], [111.752907, 40.84641], [111.754515, 40.846764], [111.754303, 40.847314], [111.752696, 40.84696]]]}, "properties": {"display_name": "中国邮政内蒙古分公司, 北垣东街, 水岸社区, 万通路街道, 新城区 ᠰᠢᠨ᠎ᠡ ᠬᠣᠲᠠ ᠲᠣᠭᠣᠷᠢᠭ, 呼和浩特市, 内蒙古自治区 ᠦᠪᠦᠷ ᠮᠣᠩᠭᠤᠯ ᠤᠨ ᠥᠪᠡᠷᠲᠡᠭᠡᠨ ᠵᠠᠰᠠᠬᠣ ᠣᠷᠣᠨ, 中国", "type": "post_office", "osm_type": "way", "osm_id": 1317324351, "class": null, "keyword": "中心城区"}}, {"type": "Feature", "geometry": {"type": "Polygon", "coordinates": [[[111.747034, 40.85158], [111.747363, 40.850805], [111.748009, 40.850962], [111.747896, 40.851228], [111.747431, 40.851115], [111.747321, 40.851373], [111.747761, 40.851479], [111.747655, 40.851731], [111.747034, 40.85158]]]}, "properties": {"display_name": "金悦中心, 东站北街, 万通路街道, 新城区 ᠰᠢᠨ᠎ᠡ ᠬᠣᠲᠠ ᠲᠣᠭᠣᠷᠢᠭ, 呼和浩特市, 内蒙古自治区 ᠦᠪᠦᠷ ᠮᠣᠩᠭᠤᠯ ᠤᠨ ᠥᠪᠡᠷᠲᠡᠭᠡᠨ ᠵᠠᠰᠠᠬᠣ ᠣᠷᠣᠨ, 中国", "type": "commercial", "osm_type": "way", "osm_id": 1325688765, "class": null, "keyword": "中心城区"}}, {"type": "Feature", "geometry": {"type": "Polygon", "coordinates": [[[111.756824, 40.842827], [111.756948, 40.842507], [111.757756, 40.842686], [111.757632, 40.843007], [111.756824, 40.842827]]]}, "properties": {"display_name": "上海交通大学呼和浩特科技创新中心, 新华东街, 水岸社区, 万通路街道, 新城区 ᠰᠢᠨ᠎ᠡ ᠬᠣᠲᠠ ᠲᠣᠭᠣᠷᠢᠭ, 呼和浩特市, 内蒙古自治区 ᠦᠪᠦᠷ ᠮᠣᠩᠭᠤᠯ ᠤᠨ ᠥᠪᠡᠷᠲᠡᠭᠡᠨ ᠵᠠᠰᠠᠬᠣ ᠣᠷᠣᠨ, 中国", "type": "commercial", "osm_type": "way", "osm_id": 1323562449, "class": null, "keyword": "中心城区"}}, {"type": "Feature", "geometry": {"type": "Polygon", "coordinates": [[[111.708281, 40.861527], [111.708662, 40.861489], [111.708698, 40.861697], [111.708317, 40.861735], [111.708281, 40.861527]]]}, "properties": {"display_name": "中国石油, 展览馆东路, 爱民社区, 丁香北路街道, 新城区 ᠰᠢᠨ᠎ᠡ ᠬᠣᠲᠠ ᠲᠣᠭᠣᠷᠢᠭ, 呼和浩特市, 内蒙古自治区 ᠦᠪᠦᠷ ᠮᠣᠩᠭᠤᠯ ᠤᠨ ᠥᠪᠡᠷᠲᠡᠭᠡᠨ ᠵᠠᠰᠠᠬᠣ ᠣᠷᠣᠨ, 010010, 中国", "type": "fuel", "osm_type": "way", "osm_id": 858532618, "class": null, "keyword": "中心城区"}}, {"type": "Feature", "geometry": {"type": "Polygon", "coordinates": [[[111.65009, 40.860372], [111.650266, 40.860115], [111.650503, 40.860207], [111.650327, 40.860465], [111.65009, 40.860372]]]}, "properties": {"display_name": "中国石化, 北二环快速路, 呼伦北路街道, 呼伦贝尔北路街道, 新城区 ᠰᠢᠨ᠎ᠡ ᠬᠣᠲᠠ ᠲᠣᠭᠣᠷᠢᠭ, 呼和浩特市, 回民区 ᠬᠣᠲᠣᠩ ᠠᠷᠠᠳ ᠤᠨ ᠲᠣᠭᠣᠷᠢᠭ, 内蒙古自治区 ᠦᠪᠦᠷ ᠮᠣᠩᠭᠤᠯ ᠤᠨ ᠥᠪᠡᠷᠲᠡᠭᠡᠨ ᠵᠠᠰᠠᠬᠣ ᠣᠷᠣᠨ, 中国", "type": "fuel", "osm_type": "way", "osm_id": 320510597, "class": null, "keyword": "中心城区"}}, {"type": "Feature", "geometry": {"type": "Polygon", "coordinates": [[[111.67146, 40.868648], [111.671553, 40.868497], [111.671796, 40.868583], [111.671703, 40.868733], [111.67146, 40.868648]]]}, "properties": {"display_name": "中国石油, 大青山街, 新盛社区, 呼伦贝尔北路街道, 新城区 ᠰᠢᠨ᠎ᠡ ᠬᠣᠲᠠ ᠲᠣᠭᠣᠷᠢᠭ, 呼和浩特市, 回民区 ᠬᠣᠲᠣᠩ ᠠᠷᠠᠳ ᠤᠨ ᠲᠣᠭᠣᠷᠢᠭ, 内蒙古自治区 ᠦᠪᠦᠷ ᠮᠣᠩᠭᠤᠯ ᠤᠨ ᠥᠪᠡᠷᠲᠡᠭᠡᠨ ᠵᠠᠰᠠᠬᠣ ᠣᠷᠣᠨ, 中国", "type": "fuel", "osm_type": "way", "osm_id": 858533890, "class": null, "keyword": "中心城区"}}, {"type": "Feature", "geometry": {"type": "Polygon", "coordinates": [[[111.690223, 40.869808], [111.690445, 40.86974], [111.690535, 40.869909], [111.690313, 40.869977], [111.690223, 40.869808]]]}, "properties": {"display_name": "中国石油, 兴安北路, 阿尔泰社区, 东河街道, 新城区 ᠰᠢᠨ᠎ᠡ ᠬᠣᠲᠠ ᠲᠣᠭᠣᠷᠢᠭ, 呼和浩特市, 回民区 ᠬᠣᠲᠣᠩ ᠠᠷᠠᠳ ᠤᠨ ᠲᠣᠭᠣᠷᠢᠭ, 内蒙古自治区 ᠦᠪᠦᠷ ᠮᠣᠩᠭᠤᠯ ᠤᠨ ᠥᠪᠡᠷᠲᠡᠭᠡᠨ ᠵᠠᠰᠠᠬᠣ ᠣᠷᠣᠨ, 010010, 中国", "type": "fuel", "osm_type": "way", "osm_id": 858533889, "class": null, "keyword": "中心城区"}}, {"type": "Feature", "geometry": {"type": "Polygon", "coordinates": [[[111.660141, 40.859127], [111.660202, 40.858961], [111.660367, 40.858996], [111.660305, 40.859161], [111.660141, 40.859127]]]}, "properties": {"display_name": "中国石油, 呼伦贝尔北路, 海拉尔东路街道, 呼伦贝尔北路街道, 新城区 ᠰᠢᠨ᠎ᠡ ᠬᠣᠲᠠ ᠲᠣᠭᠣᠷᠢᠭ, 呼和浩特市, 回民区 ᠬᠣᠲᠣᠩ ᠠᠷᠠᠳ ᠤᠨ ᠲᠣᠭᠣᠷᠢᠭ, 内蒙古自治区 ᠦᠪᠦᠷ ᠮᠣᠩᠭᠤᠯ ᠤᠨ ᠥᠪᠡᠷᠲᠡᠭᠡᠨ ᠵᠠᠰᠠᠬᠣ ᠣᠷᠣᠨ, 010010, 中国", "type": "fuel", "osm_type": "way", "osm_id": 858534169, "class": null, "keyword": "中心城区"}}, {"type": "Feature", "geometry": {"type": "Polygon", "coordinates": [[[111.670494, 40.821887], [111.67052, 40.821814], [111.670642, 40.821843], [111.670596, 40.821917], [111.670494, 40.821887]]]}, "properties": {"display_name": "中国乳都, 新华大街, 锡林郭勒北路街道, 西街街道, 新城区 ᠰᠢᠨ᠎ᠡ ᠬᠣᠲᠠ ᠲᠣᠭᠣᠷᠢᠭ, 呼和浩特市, 回民区 ᠬᠣᠲᠣᠩ ᠠᠷᠠᠳ ᠤᠨ ᠲᠣᠭᠣᠷᠢᠭ, 内蒙古自治区 ᠦᠪᠦᠷ ᠮᠣᠩᠭᠤᠯ ᠤᠨ ᠥᠪᠡᠷᠲᠡᠭᠡᠨ ᠵᠠᠰᠠᠬᠣ ᠣᠷᠣᠨ, 010010, 中国", "type": "artwork", "osm_type": "way", "osm_id": 1343787487, "class": null, "keyword": "中心城区"}}]}