{"type": "FeatureCollection", "features": [{"type": "Feature", "geometry": {"type": "Polygon", "coordinates": [[[116.797033, 32.591375], [116.798758, 32.591077], [116.798363, 32.589183], [116.799935, 32.588867], [116.799624, 32.584543], [116.799753, 32.584398], [116.806254, 32.583565], [116.8106, 32.583117], [116.811131, 32.582977], [116.813293, 32.582218], [116.814178, 32.582082], [116.816377, 32.581924], [116.8176, 32.581426], [116.818829, 32.580667], [116.819472, 32.579872], [116.82003, 32.578317], [116.819987, 32.576255], [116.819258, 32.571771], [116.819515, 32.569547], [116.820974, 32.566201], [116.822305, 32.564085], [116.823056, 32.562801], [116.823249, 32.561951], [116.822991, 32.561029], [116.82267, 32.55998], [116.822798, 32.559076], [116.82342, 32.558117], [116.824386, 32.557557], [116.825802, 32.557231], [116.827583, 32.557376], [116.831167, 32.559329], [116.836424, 32.561083], [116.844084, 32.554627], [116.846681, 32.551968], [116.848161, 32.549906], [116.850861, 32.547706], [116.853933, 32.546886], [116.85638, 32.546886], [116.858869, 32.547175], [116.862817, 32.547211], [116.864104, 32.54703], [116.86507, 32.546723], [116.865185, 32.545581], [116.865938, 32.538109], [116.866873, 32.534503], [116.867909, 32.532151], [116.869293, 32.529766], [116.87861, 32.517886], [116.882876, 32.514081], [116.89112, 32.508694], [116.892085, 32.507102], [116.892471, 32.505708], [116.892707, 32.50341], [116.892772, 32.50075], [116.892106, 32.496289], [116.891527, 32.493945], [116.890583, 32.492027], [116.889076, 32.490318], [116.880412, 32.482398], [116.878996, 32.48095], [116.87832, 32.479719], [116.878148, 32.47875], [116.878266, 32.477981], [116.878996, 32.477121], [116.879833, 32.476551], [116.88524, 32.474795], [116.896119, 32.472152], [116.898308, 32.471428], [116.900754, 32.470776], [116.901719, 32.469889], [116.901741, 32.468839], [116.900582, 32.467409], [116.898533, 32.465544], [116.895905, 32.463643], [116.885884, 32.456655], [116.883652, 32.454283], [116.882901, 32.451784], [116.882558, 32.447746], [116.882472, 32.439814], [116.882472, 32.434201], [116.8823, 32.424891], [116.882129, 32.420073], [116.882601, 32.417392], [116.883159, 32.415545], [116.884575, 32.412755], [116.886874, 32.409252], [116.892815, 32.400201], [116.894789, 32.397827], [116.896655, 32.395744], [116.897685, 32.394602], [116.899939, 32.393044], [116.903473, 32.391208], [116.962352, 32.39121], [116.976028, 32.391685], [116.976821, 32.398914], [116.976832, 32.400962], [116.97666, 32.404051], [116.976676, 32.405079], [116.978919, 32.408447], [116.979825, 32.409728], [116.982197, 32.412207], [116.982341, 32.412411], [116.982391, 32.412618], [116.982046, 32.41484], [116.981447, 32.417997], [116.979956, 32.426043], [116.979781, 32.427021], [116.979255, 32.430002], [116.978527, 32.432181], [116.97792, 32.435619], [116.977364, 32.437222], [116.976921, 32.438055], [116.976771, 32.438929], [116.977986, 32.440186], [116.978147, 32.441541], [116.978937, 32.442331], [116.978912, 32.443202], [116.978728, 32.443441], [116.978125, 32.443991], [116.977905, 32.444305], [116.977926, 32.444654], [116.978109, 32.444745], [116.978458, 32.444808], [116.979225, 32.444754], [116.979445, 32.444781], [116.97959, 32.44508], [116.98018, 32.445247], [116.981585, 32.44742], [116.9818, 32.449321], [116.98137, 32.453921], [116.983345, 32.46167], [116.984928, 32.462531], [116.988623, 32.462901], [116.997614, 32.466395], [117.001669, 32.469708], [117.003783, 32.470287], [117.009137, 32.472034], [117.01037, 32.472957], [117.010459, 32.476001], [117.011108, 32.476029], [117.011075, 32.477027], [117.011241, 32.477167], [117.011323, 32.477207], [117.011953, 32.477334], [117.01195, 32.478988], [117.01245, 32.479062], [117.012416, 32.479245], [117.01383, 32.479425], [117.013718, 32.479906], [117.01268, 32.479716], [117.012677, 32.480988], [117.014131, 32.481271], [117.01335, 32.48245], [117.014038, 32.482639], [117.014722, 32.482798], [117.014818, 32.482891], [117.015638, 32.483112], [117.01595, 32.483178], [117.016035, 32.483234], [117.016102, 32.483315], [117.016186, 32.483362], [117.016894, 32.483884], [117.016486, 32.484572], [117.012956, 32.483447], [117.012318, 32.485696], [117.009507, 32.485751], [117.009593, 32.48719], [117.009737, 32.487303], [117.010344, 32.487253], [117.010387, 32.487524], [117.009775, 32.487565], [117.009845, 32.487751], [117.009695, 32.488696], [117.009721, 32.489699], [117.009472, 32.489727], [117.009177, 32.489903], [117.0085, 32.490002], [117.008396, 32.489479], [117.007564, 32.489555], [117.007431, 32.489614], [117.006462, 32.489721], [117.006351, 32.48925], [117.006025, 32.489312], [117.005929, 32.488963], [117.005001, 32.489144], [117.004919, 32.489012], [117.004715, 32.489053], [117.004586, 32.488727], [117.00436, 32.488704], [117.002597, 32.489133], [117.001927, 32.489321], [117.001801, 32.4884], [117.001608, 32.48819], [117.001176, 32.487638], [117.00139, 32.48747], [117.001946, 32.48731], [117.001605, 32.486712], [117.0009, 32.486929], [117.00076, 32.486866], [117.000036, 32.486934], [116.99995, 32.486794], [116.999846, 32.486726], [116.999677, 32.486452], [116.999626, 32.485839], [116.998797, 32.486031], [116.999221, 32.486343], [116.999172, 32.486429], [116.999052, 32.486488], [116.998909, 32.486518], [116.993945, 32.486416], [116.993301, 32.487466], [116.994266, 32.490099], [116.993572, 32.491278], [116.993258, 32.492076], [116.993309, 32.492592], [116.993896, 32.492536], [116.993928, 32.492757], [116.99236, 32.493208], [116.992925, 32.493818], [116.993432, 32.493631], [116.994202, 32.493459], [116.996916, 32.493115], [116.997265, 32.493009], [116.997676, 32.492999], [116.997576, 32.494072], [116.996705, 32.494119], [116.996219, 32.494201], [116.996353, 32.49468], [116.997236, 32.494705], [116.997402, 32.495463], [116.996592, 32.495579], [116.996705, 32.49606], [116.996332, 32.496244], [116.996959, 32.496682], [116.997346, 32.496818], [116.997668, 32.49747], [116.997678, 32.497723], [116.997018, 32.498067], [116.996482, 32.498126], [116.993365, 32.498343], [116.990232, 32.496913], [116.985736, 32.49634], [116.985655, 32.49668], [116.985531, 32.496977], [116.985372, 32.4972], [116.98534, 32.497458], [116.985482, 32.497836], [116.985407, 32.498161], [116.985167, 32.498484], [116.985134, 32.498674], [116.985411, 32.498906], [116.985718, 32.499296], [116.985844, 32.499635], [116.986418, 32.499413], [116.986813, 32.499492], [116.98703, 32.49955], [116.987236, 32.499691], [116.987489, 32.500149], [116.987633, 32.500443], [116.987662, 32.500647], [116.987633, 32.501121], [116.987684, 32.501598], [116.98729, 32.502535], [116.987416, 32.503032], [116.987376, 32.503575], [116.987167, 32.503885], [116.986974, 32.504021], [116.986807, 32.50434], [116.986783, 32.504609], [116.986925, 32.505109], [116.986821, 32.505523], [116.986719, 32.505756], [116.986724, 32.505863], [116.986759, 32.505948], [116.986987, 32.506364], [116.987156, 32.506536], [116.98743, 32.50671], [116.987684, 32.506776], [116.987926, 32.506778], [116.988285, 32.506722], [116.98858, 32.506751], [116.988795, 32.506833], [116.989017, 32.506986], [116.989186, 32.507194], [116.989401, 32.507751], [116.989511, 32.508224], [116.989334, 32.508592], [116.989353, 32.508981], [116.989428, 32.509088], [116.989528, 32.509244], [116.989518, 32.509376], [116.989406, 32.50947], [116.989229, 32.509513], [116.98898, 32.509615], [116.98894, 32.50975], [116.988964, 32.509877], [116.98913, 32.510022], [116.989232, 32.510178], [116.989302, 32.510465], [116.989427, 32.511678], [116.989388, 32.512146], [116.989487, 32.512401], [116.989634, 32.512551], [116.990122, 32.512659], [116.990369, 32.512747], [116.990549, 32.51315], [116.991134, 32.513829], [116.991461, 32.51417], [116.99159, 32.514212], [116.991875, 32.514195], [116.991995, 32.514264], [116.992034, 32.514426], [116.992003, 32.515291], [116.991946, 32.515415], [116.991869, 32.515514], [116.991743, 32.515572], [116.99165, 32.515584], [116.991579, 32.515547], [116.991394, 32.515468], [116.991205, 32.515446], [116.990812, 32.515465], [116.990676, 32.515549], [116.990574, 32.515676], [116.990226, 32.51616], [116.990104, 32.516255], [116.98997, 32.516314], [116.989931, 32.516365], [116.989946, 32.516438], [116.990031, 32.516481], [116.990065, 32.516583], [116.989877, 32.517266], [116.989897, 32.517372], [116.989995, 32.517527], [116.990086, 32.517729], [116.990065, 32.517856], [116.989946, 32.518039], [116.989773, 32.518332], [116.989373, 32.518963], [116.98891, 32.519686], [116.988832, 32.519917], [116.988798, 32.52024], [116.988886, 32.520627], [116.988854, 32.520786], [116.988755, 32.520976], [116.988521, 32.521143], [116.98814, 32.521254], [116.987784, 32.521523], [116.987714, 32.521808], [116.987768, 32.521889], [116.988124, 32.521901], [116.988427, 32.522267], [116.988502, 32.522493], [116.988433, 32.522726], [116.988443, 32.523316], [116.98861, 32.523513], [116.988953, 32.523599], [116.989133, 32.523581], [116.989288, 32.523536], [116.989417, 32.523556], [116.989661, 32.523841], [116.98987, 32.524461], [116.989825, 32.524732], [116.990018, 32.52504], [116.990013, 32.52518], [116.989868, 32.525537], [116.989828, 32.525766], [116.989752, 32.526003], [116.989739, 32.526186], [116.989801, 32.526299], [116.989822, 32.526587], [116.989726, 32.527263], [116.989661, 32.527367], [116.989493, 32.527408], [116.989397, 32.527369], [116.989319, 32.527212], [116.989245, 32.527126], [116.989059, 32.527107], [116.988891, 32.52715], [116.988807, 32.527262], [116.988738, 32.527398], [116.988748, 32.527506], [116.988812, 32.527581], [116.988832, 32.5277], [116.988745, 32.528004], [116.988662, 32.528142], [116.988359, 32.528288], [116.987781, 32.528719], [116.987405, 32.529318], [116.986738, 32.529533], [116.986239, 32.529416], [116.986086, 32.529443], [116.986078, 32.529576], [116.986142, 32.529655], [116.986236, 32.529773], [116.98581, 32.530119], [116.985437, 32.530187], [116.985327, 32.530245], [116.985254, 32.5306], [116.985195, 32.530768], [116.984938, 32.530994], [116.984533, 32.531539], [116.984366, 32.531745], [116.984361, 32.531957], [116.984364, 32.532256], [116.984707, 32.532518], [116.984739, 32.532654], [116.984691, 32.532731], [116.984578, 32.532771], [116.983859, 32.532835], [116.983406, 32.53295], [116.983167, 32.533117], [116.983068, 32.533344], [116.983066, 32.533538], [116.983122, 32.533735], [116.983076, 32.533911], [116.982787, 32.534042], [116.982671, 32.53421], [116.982572, 32.534515], [116.98258, 32.534664], [116.982532, 32.534895], [116.98262, 32.535128], [116.982717, 32.535693], [116.982669, 32.535994], [116.982476, 32.536229], [116.982272, 32.536319], [116.981842, 32.536367], [116.981636, 32.536475], [116.981507, 32.536695], [116.98144, 32.537072], [116.981094, 32.537744], [116.980853, 32.538366], [116.980791, 32.539001], [116.980426, 32.539291], [116.980306, 32.5393], [116.97986, 32.539178], [116.979568, 32.53927], [116.97901, 32.53986], [116.978176, 32.540448], [116.977685, 32.541145], [116.977674, 32.541457], [116.977481, 32.541739], [116.977135, 32.541936], [116.976907, 32.542185], [116.976711, 32.54237], [116.976626, 32.542529], [116.976623, 32.54275], [116.976677, 32.543044], [116.976631, 32.543139], [116.97636, 32.5433], [116.976213, 32.543526], [116.975892, 32.543417], [116.97573, 32.543406], [116.975612, 32.543584], [116.975597, 32.543668], [116.975707, 32.543802], [116.975681, 32.544008], [116.975602, 32.544155], [116.975488, 32.544333], [116.975361, 32.544719], [116.975161, 32.545089], [116.975019, 32.545269], [116.974862, 32.545214], [116.974694, 32.545204], [116.974537, 32.545277], [116.974464, 32.54539], [116.974434, 32.545539], [116.974448, 32.545788], [116.974126, 32.54727], [116.974241, 32.547471], [116.973906, 32.547632], [116.973702, 32.547941], [116.973319, 32.548278], [116.973501, 32.548581], [116.972806, 32.549691], [116.969762, 32.548889], [116.969483, 32.54968], [116.96856, 32.549422], [116.968206, 32.550372], [116.967407, 32.550046], [116.966887, 32.549965], [116.963453, 32.54942], [116.963362, 32.549775], [116.962767, 32.549764], [116.961503, 32.549601], [116.961235, 32.550001], [116.960696, 32.551251], [116.95994, 32.551102], [116.959661, 32.550998], [116.959688, 32.550336], [116.959993, 32.549709], [116.958848, 32.549363], [116.959205, 32.548905], [116.959132, 32.548715], [116.95925, 32.548466], [116.959167, 32.548163], [116.958904, 32.548077], [116.958709, 32.54772], [116.958338, 32.547812], [116.958105, 32.547706], [116.957306, 32.547849], [116.957104, 32.547957], [116.955525, 32.547564], [116.955117, 32.548735], [116.953907, 32.550546], [116.952901, 32.552004], [116.952445, 32.552981], [116.95225, 32.553529], [116.952207, 32.553858], [116.952171, 32.554394], [116.952078, 32.555352], [116.951322, 32.555296], [116.950517, 32.555402], [116.949927, 32.555423], [116.948975, 32.555373], [116.9464, 32.555013], [116.94475, 32.554729], [116.944646, 32.555348], [116.942519, 32.55471], [116.941945, 32.554729], [116.940539, 32.554925], [116.9389, 32.555542], [116.938042, 32.556227], [116.937621, 32.556607], [116.937441, 32.55734], [116.93735, 32.557898], [116.937296, 32.558361], [116.937409, 32.559015], [116.937189, 32.559917], [116.937229, 32.560423], [116.9375, 32.561558], [116.934544, 32.561504], [116.93337, 32.561228], [116.93179, 32.56048], [116.931532, 32.560426], [116.930985, 32.560414], [116.93094, 32.560679], [116.930755, 32.560891], [116.930561, 32.561391], [116.930146, 32.561739], [116.929969, 32.561819], [116.929716, 32.561896], [116.929668, 32.561938], [116.929665, 32.562013], [116.929704, 32.562145], [116.929719, 32.562214], [116.929698, 32.562307], [116.929715, 32.562392], [116.929786, 32.562468], [116.929801, 32.562564], [116.929737, 32.562652], [116.929588, 32.562713], [116.929472, 32.562791], [116.929455, 32.562886], [116.929506, 32.563071], [116.929601, 32.563187], [116.929761, 32.563322], [116.929877, 32.563587], [116.930127, 32.563752], [116.930296, 32.563857], [116.930337, 32.563945], [116.93032, 32.564074], [116.929712, 32.564703], [116.929518, 32.565105], [116.929568, 32.5653], [116.929865, 32.565404], [116.929959, 32.565504], [116.930025, 32.565755], [116.93006, 32.566002], [116.930044, 32.56668], [116.930076, 32.566984], [116.929839, 32.567326], [116.929759, 32.567524], [116.929767, 32.567719], [116.92981, 32.567892], [116.929833, 32.568143], [116.930002, 32.568324], [116.930223, 32.568399], [116.930293, 32.56868], [116.93045, 32.568742], [116.930519, 32.569825], [116.930033, 32.570116], [116.930079, 32.570311], [116.930333, 32.570661], [116.930779, 32.570643], [116.931186, 32.57103], [116.931945, 32.572232], [116.932385, 32.572829], [116.932415, 32.573265], [116.932482, 32.573457], [116.933751, 32.573254], [116.934145, 32.574553], [116.934335, 32.574614], [116.934544, 32.57515], [116.934628, 32.575846], [116.934778, 32.575952], [116.935403, 32.575878], [116.935692, 32.577394], [116.935794, 32.578217], [116.936041, 32.578323], [116.936205, 32.578556], [116.935942, 32.580927], [116.936116, 32.584139], [116.935874, 32.590583], [116.936572, 32.594046], [116.937929, 32.597074], [116.941942, 32.59777], [116.942865, 32.598538], [116.943358, 32.601729], [116.944302, 32.603998], [116.945418, 32.605362], [116.947242, 32.606384], [116.947731, 32.606986], [116.947424, 32.608001], [116.945075, 32.607857], [116.941658, 32.606283], [116.939807, 32.606104], [116.936459, 32.608001], [116.934357, 32.608824], [116.931106, 32.608806], [116.929904, 32.607568], [116.922276, 32.606867], [116.920299, 32.607044], [116.919078, 32.609538], [116.917579, 32.608978], [116.916956, 32.611396], [116.916616, 32.612717], [116.912416, 32.611654], [116.91248, 32.614816], [116.912265, 32.615286], [116.912672, 32.615791], [116.912951, 32.615935], [116.912715, 32.616622], [116.912415, 32.616893], [116.912479, 32.618302], [116.910635, 32.621482], [116.906475, 32.623593], [116.905966, 32.632106], [116.903056, 32.634361], [116.902109, 32.635598], [116.902474, 32.63749], [116.905239, 32.640328], [116.905518, 32.642844], [116.904938, 32.648228], [116.904938, 32.651444], [116.905539, 32.654552], [116.906462, 32.657316], [116.907556, 32.659872], [116.908822, 32.662356], [116.902235, 32.662916], [116.893094, 32.658418], [116.89039, 32.657009], [116.889338, 32.656882], [116.883459, 32.658309], [116.879167, 32.651643], [116.876936, 32.655581], [116.877751, 32.655943], [116.873106, 32.664144], [116.872392, 32.665052], [116.870627, 32.666727], [116.86853, 32.668344], [116.868246, 32.668376], [116.864002, 32.67137], [116.863112, 32.672065], [116.860708, 32.673793], [116.858944, 32.675061], [116.859046, 32.675239], [116.85749, 32.676323], [116.856414, 32.675015], [116.855473, 32.673993], [116.854464, 32.674731], [116.846949, 32.664767], [116.853311, 32.66134], [116.852866, 32.660739], [116.860827, 32.656114], [116.860306, 32.654335], [116.862407, 32.653079], [116.875112, 32.645482], [116.871563, 32.639352], [116.868271, 32.633664], [116.867215, 32.632694], [116.865616, 32.631598], [116.862423, 32.629736], [116.86229, 32.628562], [116.862398, 32.628], [116.8626, 32.627693], [116.863203, 32.62678], [116.868986, 32.629834], [116.875595, 32.629219], [116.874125, 32.62612], [116.873523, 32.62445], [116.873182, 32.623834], [116.872681, 32.623374], [116.869948, 32.621788], [116.870486, 32.621103], [116.871591, 32.62042], [116.872278, 32.61932], [116.872208, 32.618984], [116.871792, 32.618711], [116.871708, 32.618531], [116.871829, 32.61747], [116.870461, 32.615013], [116.870922, 32.614867], [116.871146, 32.614507], [116.870849, 32.613053], [116.870396, 32.611895], [116.869671, 32.611747], [116.869236, 32.611787], [116.868542, 32.611925], [116.867441, 32.612324], [116.866842, 32.612258], [116.865809, 32.612036], [116.865298, 32.611595], [116.865233, 32.611395], [116.864605, 32.611179], [116.863799, 32.611136], [116.862435, 32.611547], [116.860442, 32.612823], [116.860288, 32.612977], [116.860042, 32.613224], [116.859373, 32.613897], [116.858476, 32.615124], [116.857724, 32.615948], [116.856627, 32.614706], [116.856403, 32.614452], [116.855758, 32.613721], [116.855377, 32.613056], [116.855229, 32.612796], [116.852188, 32.615661], [116.851513, 32.616032], [116.850492, 32.616184], [116.846093, 32.616169], [116.846801, 32.615488], [116.84606, 32.614976], [116.847552, 32.613447], [116.847735, 32.61326], [116.848129, 32.612126], [116.848093, 32.610817], [116.847731, 32.609851], [116.847562, 32.609399], [116.845847, 32.606367], [116.845646, 32.606231], [116.844254, 32.607666], [116.843122, 32.60687], [116.843637, 32.606286], [116.843411, 32.605541], [116.843818, 32.60547], [116.844024, 32.605246], [116.843939, 32.604402], [116.844989, 32.604245], [116.845047, 32.603858], [116.845707, 32.603741], [116.845568, 32.602745], [116.84658, 32.601776], [116.846691, 32.601677], [116.848186, 32.600333], [116.847125, 32.59982], [116.844934, 32.598762], [116.842809, 32.598932], [116.840202, 32.600729], [116.839207, 32.601013], [116.83771, 32.601689], [116.837295, 32.601714], [116.835866, 32.601548], [116.832474, 32.601709], [116.831716, 32.603973], [116.832088, 32.606014], [116.831979, 32.606493], [116.831127, 32.607871], [116.83007, 32.609354], [116.829642, 32.611019], [116.829661, 32.611231], [116.830016, 32.61195], [116.828762, 32.611614], [116.82803, 32.611066], [116.827749, 32.610976], [116.82554, 32.610622], [116.823409, 32.612839], [116.822691, 32.613586], [116.822013, 32.614576], [116.821768, 32.618114], [116.823699, 32.617283], [116.822806, 32.618341], [116.823288, 32.618768], [116.821961, 32.621065], [116.823868, 32.623708], [116.821285, 32.625538], [116.820102, 32.627855], [116.81834, 32.629045], [116.806054, 32.630163], [116.801672, 32.630251], [116.801738, 32.627733], [116.801153, 32.625848], [116.801805, 32.625182], [116.802843, 32.624897], [116.803422, 32.624359], [116.803748, 32.622539], [116.80265, 32.622112], [116.801617, 32.620377], [116.799289, 32.620101], [116.798221, 32.619085], [116.797782, 32.61717], [116.803636, 32.610893], [116.805782, 32.607947], [116.809516, 32.604531], [116.809215, 32.601801], [116.805696, 32.597535], [116.804216, 32.594028], [116.803293, 32.593648], [116.797784, 32.594548], [116.797033, 32.591375]]]}, "properties": {"display_name": "谢家集区, 淮南市, 安徽省, 中国", "type": "administrative", "osm_type": "relation", "osm_id": 3262709, "class": null, "keyword": "district"}}, {"type": "Feature", "geometry": {"type": "Polygon", "coordinates": [[[116.766552, 32.649317], [116.767073, 32.649041], [116.767845, 32.648314], [116.769621, 32.647113], [116.77115, 32.646485], [116.772164, 32.646349], [116.773387, 32.645202], [116.77543, 32.645645], [116.776165, 32.645468], [116.777276, 32.644258], [116.778992, 32.64354], [116.781664, 32.642148], [116.784523, 32.639939], [116.785129, 32.638742], [116.785483, 32.636826], [116.785648, 32.63498], [116.785483, 32.631705], [116.784798, 32.631174], [116.786415, 32.629998], [116.786058, 32.627206], [116.788003, 32.627852], [116.787949, 32.626653], [116.789318, 32.626399], [116.788661, 32.623146], [116.786688, 32.623054], [116.785401, 32.621254], [116.785839, 32.620239], [116.78825, 32.619962], [116.791263, 32.620747], [116.792852, 32.620262], [116.793071, 32.618347], [116.792824, 32.615948], [116.795974, 32.616801], [116.797782, 32.61717], [116.798221, 32.619085], [116.799289, 32.620101], [116.801617, 32.620377], [116.80265, 32.622112], [116.803748, 32.622539], [116.803422, 32.624359], [116.802843, 32.624897], [116.801805, 32.625182], [116.801153, 32.625848], [116.801738, 32.627733], [116.801672, 32.630251], [116.806054, 32.630163], [116.81834, 32.629045], [116.820102, 32.627855], [116.821285, 32.625538], [116.823868, 32.623708], [116.821961, 32.621065], [116.823288, 32.618768], [116.822806, 32.618341], [116.823699, 32.617283], [116.821768, 32.618114], [116.822013, 32.614576], [116.822691, 32.613586], [116.823409, 32.612839], [116.82554, 32.610622], [116.827749, 32.610976], [116.82803, 32.611066], [116.828762, 32.611614], [116.830016, 32.61195], [116.829661, 32.611231], [116.829642, 32.611019], [116.83007, 32.609354], [116.831127, 32.607871], [116.831979, 32.606493], [116.832088, 32.606014], [116.831716, 32.603973], [116.832474, 32.601709], [116.835866, 32.601548], [116.837295, 32.601714], [116.83771, 32.601689], [116.839207, 32.601013], [116.840202, 32.600729], [116.842809, 32.598932], [116.844934, 32.598762], [116.847125, 32.59982], [116.848186, 32.600333], [116.846691, 32.601677], [116.84658, 32.601776], [116.845568, 32.602745], [116.845707, 32.603741], [116.845047, 32.603858], [116.844989, 32.604245], [116.843939, 32.604402], [116.844024, 32.605246], [116.843818, 32.60547], [116.843411, 32.605541], [116.843637, 32.606286], [116.843122, 32.60687], [116.844254, 32.607666], [116.845646, 32.606231], [116.845847, 32.606367], [116.847562, 32.609399], [116.847731, 32.609851], [116.848093, 32.610817], [116.848129, 32.612126], [116.847735, 32.61326], [116.847552, 32.613447], [116.84606, 32.614976], [116.846801, 32.615488], [116.846093, 32.616169], [116.850492, 32.616184], [116.851513, 32.616032], [116.852188, 32.615661], [116.855229, 32.612796], [116.855377, 32.613056], [116.855758, 32.613721], [116.856403, 32.614452], [116.856627, 32.614706], [116.857724, 32.615948], [116.858476, 32.615124], [116.859373, 32.613897], [116.860042, 32.613224], [116.860288, 32.612977], [116.860442, 32.612823], [116.862435, 32.611547], [116.863799, 32.611136], [116.864605, 32.611179], [116.865233, 32.611395], [116.865298, 32.611595], [116.865809, 32.612036], [116.866842, 32.612258], [116.867441, 32.612324], [116.868542, 32.611925], [116.869236, 32.611787], [116.869671, 32.611747], [116.870396, 32.611895], [116.870849, 32.613053], [116.871146, 32.614507], [116.870922, 32.614867], [116.870461, 32.615013], [116.871829, 32.61747], [116.871708, 32.618531], [116.871792, 32.618711], [116.872208, 32.618984], [116.872278, 32.61932], [116.871591, 32.62042], [116.870486, 32.621103], [116.869948, 32.621788], [116.872681, 32.623374], [116.873182, 32.623834], [116.873523, 32.62445], [116.874125, 32.62612], [116.875595, 32.629219], [116.868986, 32.629834], [116.863203, 32.62678], [116.8626, 32.627693], [116.862398, 32.628], [116.86229, 32.628562], [116.862423, 32.629736], [116.865616, 32.631598], [116.867215, 32.632694], [116.868271, 32.633664], [116.871563, 32.639352], [116.875112, 32.645482], [116.862407, 32.653079], [116.860306, 32.654335], [116.860827, 32.656114], [116.852866, 32.660739], [116.853311, 32.66134], [116.846949, 32.664767], [116.854464, 32.674731], [116.855473, 32.673993], [116.856414, 32.675015], [116.846703, 32.681783], [116.845878, 32.68112], [116.845229, 32.680598], [116.841724, 32.677063], [116.838832, 32.67368], [116.838063, 32.672937], [116.836148, 32.67073], [116.835649, 32.670284], [116.835568, 32.670103], [116.835365, 32.670018], [116.833927, 32.668266], [116.830287, 32.66987], [116.828367, 32.671288], [116.826585, 32.673338], [116.825062, 32.675641], [116.823729, 32.678807], [116.822187, 32.684762], [116.821253, 32.688943], [116.820534, 32.693322], [116.819955, 32.695182], [116.819129, 32.696934], [116.818206, 32.698252], [116.815935, 32.700182], [116.814001, 32.701619], [116.809977, 32.704003], [116.788155, 32.712593], [116.786693, 32.710066], [116.788361, 32.709295], [116.786217, 32.706124], [116.779137, 32.697123], [116.777765, 32.697862], [116.776254, 32.695196], [116.776115, 32.695245], [116.775871, 32.695062], [116.775476, 32.694445], [116.775678, 32.694328], [116.775367, 32.693772], [116.775041, 32.693881], [116.774232, 32.6933], [116.775083, 32.692916], [116.774872, 32.692573], [116.775723, 32.692253], [116.775554, 32.691525], [116.774664, 32.69122], [116.774187, 32.691443], [116.773357, 32.690935], [116.772645, 32.689889], [116.772107, 32.688512], [116.772108, 32.688096], [116.771541, 32.6881], [116.77128, 32.688058], [116.771012, 32.688058], [116.770675, 32.687994], [116.769872, 32.687599], [116.769942, 32.687497], [116.770087, 32.68756], [116.770331, 32.687385], [116.770499, 32.687528], [116.771149, 32.687482], [116.773188, 32.685943], [116.774456, 32.684638], [116.776797, 32.683256], [116.777763, 32.683215], [116.77833, 32.682474], [116.780346, 32.681346], [116.78148, 32.679233], [116.780551, 32.677725], [116.780214, 32.676856], [116.779741, 32.676994], [116.779611, 32.676804], [116.779501, 32.676414], [116.779084, 32.676467], [116.778859, 32.676146], [116.779244, 32.675853], [116.779395, 32.67565], [116.779817, 32.675627], [116.780367, 32.675363], [116.780931, 32.674999], [116.778535, 32.672325], [116.777666, 32.672264], [116.775325, 32.670415], [116.774625, 32.669683], [116.774091, 32.669452], [116.773267, 32.669696], [116.772881, 32.669663], [116.772781, 32.669544], [116.773041, 32.669056], [116.774567, 32.667987], [116.774811, 32.667518], [116.775347, 32.667098], [116.7755, 32.666883], [116.775369, 32.666416], [116.775186, 32.666337], [116.774696, 32.66638], [116.774328, 32.666231], [116.774038, 32.666314], [116.773802, 32.666619], [116.77178, 32.66728], [116.771439, 32.667436], [116.770855, 32.667292], [116.770835, 32.667108], [116.770566, 32.667094], [116.770439, 32.667044], [116.769827, 32.666395], [116.769822, 32.666158], [116.769792, 32.665954], [116.769858, 32.66571], [116.770018, 32.665443], [116.769977, 32.665187], [116.770095, 32.665093], [116.771272, 32.664514], [116.76976, 32.663157], [116.768991, 32.662388], [116.768671, 32.66138], [116.77027, 32.657542], [116.770313, 32.656512], [116.769905, 32.65597], [116.767287, 32.654696], [116.768124, 32.652881], [116.767942, 32.652131], [116.766981, 32.650708], [116.767083, 32.650256], [116.766676, 32.649683], [116.766552, 32.649317]]]}, "properties": {"display_name": "八公山区, 淮南市, 安徽省, 中国", "type": "administrative", "osm_type": "relation", "osm_id": 3262704, "class": null, "keyword": "district"}}, {"type": "Feature", "geometry": {"type": "Polygon", "coordinates": [[[117.009767, 32.584643], [117.011439, 32.584629], [117.012248, 32.584637], [117.013757, 32.584635], [117.014511, 32.584634], [117.014911, 32.584637], [117.015147, 32.584639], [117.015805, 32.584638], [117.016204, 32.585845], [117.016367, 32.586342], [117.016526, 32.586844], [117.016582, 32.587147], [117.016617, 32.587302], [117.016711, 32.58781], [117.016723, 32.588275], [117.01673, 32.588603], [117.016709, 32.589013], [117.016684, 32.589458], [117.016612, 32.590077], [117.016156, 32.590074], [117.015925, 32.590073], [117.015781, 32.590073], [117.01533, 32.590109], [117.014252, 32.590107], [117.011929, 32.59011], [117.011089, 32.590113], [117.009769, 32.59008], [117.009768, 32.588341], [117.009767, 32.585856], [117.009767, 32.584643]]]}, "properties": {"display_name": "淮南市政务中心, 三和镇, 田家庵区, 淮南市, 安徽省, 中国", "type": "commercial", "osm_type": "way", "osm_id": 444117945, "class": null, "keyword": "市中心"}}, {"type": "Feature", "geometry": {"type": "Polygon", "coordinates": [[[116.970188, 32.580702], [116.970194, 32.579997], [116.971074, 32.579374], [116.971811, 32.578434], [116.972036, 32.577761], [116.976077, 32.577784], [116.976054, 32.580736], [116.970188, 32.580702]]]}, "properties": {"display_name": "淮南市职业教育中心, 泉山路, 三和镇, 田家庵区, 淮南市, 安徽省, 中国", "type": "college", "osm_type": "way", "osm_id": 747808896, "class": null, "keyword": "市中心"}}, {"type": "Feature", "geometry": {"type": "Polygon", "coordinates": [[[116.773137, 32.568587], [116.773148, 32.56711], [116.773415, 32.56711], [116.773412, 32.567379], [116.773447, 32.56742], [116.77552, 32.567299], [116.775939, 32.567239], [116.77636, 32.568223], [116.776302, 32.568379], [116.773137, 32.568587]]]}, "properties": {"display_name": "寿县城市中心广场, 寿春镇, 寿县, 淮南市, 安徽省, 中国", "type": "retail", "osm_type": "way", "osm_id": 1004384683, "class": null, "keyword": "市中心"}}, {"type": "Feature", "geometry": {"type": "Polygon", "coordinates": [[[117.030037, 32.64145], [117.030207, 32.639744], [117.032186, 32.639954], [117.03192, 32.641769], [117.030165, 32.641568], [117.030037, 32.64145]]]}, "properties": {"display_name": "淮南市田家庵区朝阳中学, 朝阳东路, 钟山, 国庆街道, 田家庵区, 淮南市, 安徽省, 202033, 中国", "type": "school", "osm_type": "way", "osm_id": 451043193, "class": null, "keyword": "中央区"}}, {"type": "Feature", "geometry": {"type": "Polygon", "coordinates": [[[116.773144, 32.566287], [116.775707, 32.566308], [116.775939, 32.567239], [116.77552, 32.567299], [116.773447, 32.56742], [116.773412, 32.567379], [116.773415, 32.56711], [116.773148, 32.56711], [116.773144, 32.566287]]]}, "properties": {"display_name": "寿县城市中心广场, 寿春镇, 寿县, 淮南市, 安徽省, 中国", "type": "residential", "osm_type": "way", "osm_id": 1004384682, "class": null, "keyword": "市中心"}}, {"type": "Feature", "geometry": {"type": "Polygon", "coordinates": [[[117.006191, 32.592293], [117.006196, 32.592057], [117.006315, 32.592059], [117.006317, 32.591935], [117.006266, 32.591935], [117.006272, 32.591621], [117.006308, 32.591621], [117.006314, 32.591316], [117.006278, 32.591316], [117.006283, 32.591017], [117.006325, 32.591018], [117.006328, 32.590865], [117.006218, 32.590864], [117.006223, 32.590607], [117.007071, 32.590618], [117.007038, 32.592304], [117.006191, 32.592293]]]}, "properties": {"display_name": "城市国际中心, 和悦街, 山南新区, 三和镇, 田家庵区, 淮南市, 安徽省, 中国", "type": "commercial", "osm_type": "way", "osm_id": 447386970, "class": null, "keyword": "市中心"}}, {"type": "Feature", "geometry": {"type": "Polygon", "coordinates": [[[117.023564, 32.553178], [117.023779, 32.553178], [117.023779, 32.553399], [117.023891, 32.553399], [117.023891, 32.553178], [117.024101, 32.553178], [117.024101, 32.553399], [117.024208, 32.553399], [117.024208, 32.553178], [117.024422, 32.553178], [117.024422, 32.553399], [117.024532, 32.553399], [117.024532, 32.553178], [117.024744, 32.553178], [117.024744, 32.553398], [117.024851, 32.553398], [117.024851, 32.553178], [117.025063, 32.553178], [117.025063, 32.553397], [117.025171, 32.553397], [117.025171, 32.553178], [117.025485, 32.553178], [117.025485, 32.55373], [117.025485, 32.553838], [117.025171, 32.553838], [117.025171, 32.55373], [117.024956, 32.55373], [117.024956, 32.55384], [117.024508, 32.55384], [117.024508, 32.553816], [117.024436, 32.553816], [117.024436, 32.55384], [117.024189, 32.55384], [117.024189, 32.553816], [117.024122, 32.553816], [117.024122, 32.55384], [117.023679, 32.55384], [117.023679, 32.553644], [117.023564, 32.553644], [117.023564, 32.553178]]]}, "properties": {"display_name": "工程训练中心, 泰丰大街, 三和镇, 田家庵区, 淮南市, 安徽省, 中国", "type": "university", "osm_type": "way", "osm_id": 443170238, "class": null, "keyword": "中心城区"}}, {"type": "Feature", "geometry": {"type": "Polygon", "coordinates": [[[117.008593, 32.591315], [117.008607, 32.590597], [117.009516, 32.590609], [117.009502, 32.591327], [117.008593, 32.591315]]]}, "properties": {"display_name": "淮南大数据展示中心, 瓦埠湖路, 淮南拓基广场-住宅区, 三和镇, 田家庵区, 淮南市, 安徽省, 中国", "type": "yes", "osm_type": "way", "osm_id": 447386978, "class": null, "keyword": "市中心"}}, {"type": "Feature", "geometry": {"type": "Polygon", "coordinates": [[[117.016711, 32.591523], [117.016712, 32.591189], [117.017411, 32.591191], [117.01741, 32.591525], [117.016711, 32.591523]]]}, "properties": {"display_name": "淮南市网格化管理中心, 泰康街, 山南新区, 三和镇, 田家庵区, 淮南市, 安徽省, 中国", "type": "office", "osm_type": "way", "osm_id": 989159380, "class": null, "keyword": "市中心"}}]}