{"type": "FeatureCollection", "features": [{"type": "Feature", "geometry": {"type": "Polygon", "coordinates": [[[118.876542, 33.232869], [118.87678, 33.22966], [118.893753, 33.229938], [118.893786, 33.232953], [118.903999, 33.233016], [118.931733, 33.23316], [118.93382, 33.233196], [118.938503, 33.233209], [118.940547, 33.233254], [118.940499, 33.233685], [118.940418, 33.23434], [118.940295, 33.24618], [118.944189, 33.247051], [118.944061, 33.249706], [118.945434, 33.24994], [118.946636, 33.251052], [118.950519, 33.25107], [118.950455, 33.254121], [118.952987, 33.254049], [118.953202, 33.25229], [118.959768, 33.251949], [118.959746, 33.251016], [118.96127, 33.251052], [118.962193, 33.251609], [118.963544, 33.251896], [118.964446, 33.252057], [118.966463, 33.251949], [118.968877, 33.25194], [118.970051, 33.25194], [118.971435, 33.251896], [118.973109, 33.251914], [118.974187, 33.251985], [118.975732, 33.252012], [118.976719, 33.252147], [118.979133, 33.25229], [118.981118, 33.252322], [118.982529, 33.25234], [118.983736, 33.252465], [118.984712, 33.25247], [118.985469, 33.252308], [118.986225, 33.252201], [118.986665, 33.252133], [118.987432, 33.252201], [118.988285, 33.252111], [118.989176, 33.252308], [118.992384, 33.25247], [118.992078, 33.255399], [118.991042, 33.263882], [118.989315, 33.263783], [118.98865, 33.263361], [118.988071, 33.262967], [118.987834, 33.262904], [118.98777, 33.265972], [118.987749, 33.269596], [118.987588, 33.270717], [118.987824, 33.274027], [118.987781, 33.275462], [118.982384, 33.275857], [118.98276, 33.281131], [118.985313, 33.280835], [118.985571, 33.282378], [118.987727, 33.282109], [118.987727, 33.285158], [118.989358, 33.285248], [118.989336, 33.286198], [118.987856, 33.286557], [118.985925, 33.286127], [118.98129, 33.287669], [118.980775, 33.29244], [118.971248, 33.292225], [118.962879, 33.297929], [118.95524, 33.301085], [118.949146, 33.302843], [118.947086, 33.303704], [118.945842, 33.306932], [118.945155, 33.307649], [118.942151, 33.307577], [118.941293, 33.305927], [118.94125, 33.303847], [118.93949, 33.301014], [118.937688, 33.300117], [118.934469, 33.299507], [118.932624, 33.299937], [118.929534, 33.301265], [118.925672, 33.301767], [118.921852, 33.301444], [118.92168, 33.304564], [118.922045, 33.306609], [118.922238, 33.308384], [118.918376, 33.308312], [118.916895, 33.308025], [118.911939, 33.307918], [118.901939, 33.307631], [118.895373, 33.307344], [118.891339, 33.305694], [118.888464, 33.303184], [118.888121, 33.300386], [118.894762, 33.300691], [118.894708, 33.300341], [118.896956, 33.30013], [118.897937, 33.29957], [118.900469, 33.299023], [118.900233, 33.297565], [118.901076, 33.297449], [118.901113, 33.297236], [118.901218, 33.297131], [118.901717, 33.297014], [118.901392, 33.296447], [118.90202, 33.296225], [118.901371, 33.295032], [118.896135, 33.284849], [118.892471, 33.281494], [118.892359, 33.279014], [118.892342, 33.277983], [118.891503, 33.276561], [118.891103, 33.275848], [118.895556, 33.274754], [118.902111, 33.273121], [118.901811, 33.270143], [118.894815, 33.268582], [118.893099, 33.258212], [118.896747, 33.251896], [118.899729, 33.250989], [118.899697, 33.249823], [118.899997, 33.24985], [118.900169, 33.249024], [118.884017, 33.24159], [118.883958, 33.235977], [118.881211, 33.235977], [118.877478, 33.235906], [118.877413, 33.232872], [118.876542, 33.232869]]]}, "properties": {"display_name": "朱坝街道, 洪泽区, 淮安市, 江苏省, 223100, 中国", "type": "administrative", "osm_type": "relation", "osm_id": 17566421, "class": null, "keyword": "subdistrict"}}, {"type": "Feature", "geometry": {"type": "Polygon", "coordinates": [[[119.094254, 33.584531], [119.094796, 33.58386], [119.095359, 33.583337], [119.096035, 33.582868], [119.096898, 33.58231], [119.097521, 33.581957], [119.09832, 33.581635], [119.099382, 33.581317], [119.099683, 33.580598], [119.099956, 33.580013], [119.100433, 33.579262], [119.100809, 33.578748], [119.101077, 33.57822], [119.101388, 33.578042], [119.101582, 33.577997], [119.102021, 33.57814], [119.102375, 33.577997], [119.10303, 33.576915], [119.106635, 33.578328], [119.107493, 33.577711], [119.104446, 33.574725], [119.104714, 33.574314], [119.104854, 33.574086], [119.104934, 33.57384], [119.104972, 33.573545], [119.104929, 33.573215], [119.104757, 33.572786], [119.104832, 33.572374], [119.105111, 33.571775], [119.105852, 33.57047], [119.106409, 33.569433], [119.107708, 33.568182], [119.109821, 33.566439], [119.11179, 33.564883], [119.110776, 33.564315], [119.1085, 33.563046], [119.108647, 33.56284], [119.109057, 33.562331], [119.109576, 33.561768], [119.110706, 33.560686], [119.111195, 33.560301], [119.111704, 33.559926], [119.112573, 33.559362], [119.113571, 33.558754], [119.114746, 33.558214], [119.119899, 33.555718], [119.118163, 33.553837], [119.117026, 33.552625], [119.116724, 33.552351], [119.117954, 33.550891], [119.118683, 33.550471], [119.120486, 33.550301], [119.121258, 33.550059], [119.121798, 33.549716], [119.12217, 33.549228], [119.122267, 33.5487], [119.122353, 33.548253], [119.122675, 33.547887], [119.123275, 33.547377], [119.123747, 33.547082], [119.124359, 33.546787], [119.125185, 33.546688], [119.126011, 33.54667], [119.127223, 33.546769], [119.128157, 33.546867], [119.12879, 33.54693], [119.129144, 33.54701], [119.12953, 33.547144], [119.129895, 33.547341], [119.130163, 33.5476], [119.130657, 33.548048], [119.13085, 33.54824], [119.131022, 33.548602], [119.131236, 33.54921], [119.131493, 33.549761], [119.13291, 33.549], [119.133623, 33.548642], [119.134023, 33.54845], [119.13449, 33.548244], [119.13556, 33.547864], [119.136295, 33.54765], [119.136949, 33.547484], [119.13755, 33.547368], [119.138081, 33.547283], [119.138355, 33.547565], [119.140098, 33.547797], [119.140849, 33.547967], [119.141836, 33.548441], [119.143974, 33.54969], [119.147847, 33.551875], [119.148756, 33.552375], [119.150373, 33.553284], [119.150762, 33.559233], [119.15406, 33.560899], [119.158226, 33.563033], [119.166319, 33.568127], [119.165295, 33.570033], [119.165773, 33.570005], [119.166763, 33.56844], [119.167788, 33.569094], [119.167002, 33.570346], [119.167378, 33.570489], [119.168232, 33.569322], [119.170417, 33.570659], [119.170007, 33.571541], [119.169393, 33.571456], [119.168812, 33.571854], [119.170247, 33.57248], [119.17031, 33.574448], [119.172475, 33.574675], [119.174812, 33.574945], [119.175577, 33.575044], [119.175916, 33.575145], [119.176168, 33.575278], [119.177194, 33.576281], [119.179511, 33.578752], [119.180719, 33.580069], [119.182016, 33.581518], [119.183092, 33.58283], [119.184769, 33.584763], [119.187581, 33.587995], [119.188799, 33.589349], [119.186254, 33.592601], [119.185846, 33.593852], [119.185309, 33.595139], [119.184387, 33.597052], [119.183872, 33.598035], [119.183013, 33.598464], [119.181833, 33.598589], [119.179773, 33.598589], [119.178894, 33.598768], [119.174495, 33.602449], [119.172435, 33.604129], [119.170954, 33.605094], [119.17016, 33.605881], [119.169602, 33.607167], [119.169581, 33.608311], [119.173272, 33.610849], [119.175696, 33.612135], [119.176962, 33.612296], [119.178357, 33.612689], [119.178314, 33.614905], [119.178057, 33.619069], [119.177671, 33.623393], [119.172285, 33.623411], [119.166405, 33.622428], [119.166427, 33.620945], [119.166362, 33.616102], [119.163036, 33.61562], [119.161534, 33.619766], [119.161963, 33.625698], [119.16442, 33.625733], [119.164732, 33.626109], [119.169817, 33.626189], [119.169645, 33.627145], [119.170632, 33.627207], [119.170589, 33.628494], [119.169849, 33.628476], [119.169602, 33.628628], [119.169248, 33.628619], [119.169356, 33.62928], [119.170944, 33.629432], [119.171984, 33.629619], [119.172274, 33.629816], [119.172188, 33.63054], [119.171877, 33.632505], [119.169452, 33.635899], [119.16928, 33.639186], [119.169002, 33.640348], [119.16353, 33.638454], [119.162929, 33.639865], [119.160826, 33.640383], [119.158509, 33.63857], [119.157007, 33.637257], [119.155687, 33.635801], [119.154046, 33.634559], [119.153176, 33.633519], [119.149615, 33.631263], [119.14511, 33.628821], [119.140191, 33.625701], [119.137112, 33.62384], [119.135421, 33.623287], [119.131737, 33.624243], [119.12437, 33.624393], [119.119531, 33.625242], [119.109635, 33.626706], [119.106044, 33.627184], [119.104618, 33.627395], [119.10342, 33.627672], [119.10214, 33.628056], [119.101099, 33.628181], [119.100208, 33.628172], [119.099299, 33.628033], [119.09781, 33.627641], [119.096827, 33.627299], [119.096053, 33.627016], [119.096558, 33.625702], [119.097057, 33.624404], [119.097255, 33.623918], [119.097379, 33.623576], [119.097443, 33.623337], [119.097499, 33.623064], [119.097564, 33.622347], [119.097612, 33.622106], [119.098996, 33.622562], [119.10031, 33.622888], [119.101624, 33.623116], [119.102719, 33.623232], [119.103888, 33.623299], [119.105401, 33.623317], [119.105852, 33.623323], [119.108571, 33.623362], [119.109019, 33.61845], [119.109097, 33.617456], [119.109191, 33.616527], [119.110535, 33.616884], [119.111586, 33.617201], [119.11231, 33.617416], [119.113083, 33.61772], [119.113925, 33.618113], [119.114687, 33.618559], [119.115309, 33.618984], [119.115899, 33.619453], [119.116495, 33.620011], [119.116977, 33.620525], [119.117466, 33.621141], [119.117911, 33.621879], [119.118426, 33.62291], [119.119676, 33.622808], [119.120518, 33.622727], [119.121473, 33.622499], [119.123543, 33.621838], [119.123667, 33.616062], [119.123935, 33.6147], [119.124348, 33.612609], [119.124911, 33.610322], [119.125426, 33.608173], [119.121966, 33.607833], [119.119783, 33.607587], [119.117514, 33.606975], [119.112702, 33.605648], [119.10701, 33.60408], [119.098856, 33.601846], [119.101887, 33.596583], [119.098036, 33.595568], [119.098438, 33.595112], [119.098878, 33.59459], [119.099092, 33.594286], [119.099232, 33.593951], [119.099296, 33.5937], [119.099221, 33.593388], [119.099034, 33.592758], [119.098824, 33.592315], [119.098545, 33.591926], [119.097859, 33.591368], [119.096126, 33.590112], [119.095573, 33.589536], [119.095268, 33.589183], [119.095128, 33.588825], [119.095069, 33.588477], [119.095107, 33.58807], [119.095203, 33.587722], [119.095418, 33.587091], [119.09589, 33.586484], [119.096078, 33.586055], [119.096271, 33.585751], [119.095445, 33.58504], [119.094254, 33.584531]]]}, "properties": {"display_name": "徐杨街道, 淮安经济技术开发区, 清江浦区, 淮安市, 江苏省, 中国", "type": "administrative", "osm_type": "relation", "osm_id": 17576332, "class": null, "keyword": "subdistrict"}}, {"type": "Feature", "geometry": {"type": "Polygon", "coordinates": [[[118.92168, 33.304564], [118.921852, 33.301444], [118.925672, 33.301767], [118.929534, 33.301265], [118.932624, 33.299937], [118.934469, 33.299507], [118.937688, 33.300117], [118.93949, 33.301014], [118.94125, 33.303847], [118.941293, 33.305927], [118.942151, 33.307577], [118.945155, 33.307649], [118.945842, 33.306932], [118.947086, 33.303704], [118.949146, 33.302843], [118.95524, 33.301085], [118.962879, 33.297929], [118.971248, 33.292225], [118.980775, 33.29244], [118.98129, 33.287669], [118.985925, 33.286127], [118.987856, 33.286557], [118.989336, 33.286198], [118.990838, 33.286378], [118.990838, 33.288835], [118.987529, 33.290425], [118.987395, 33.294548], [118.987132, 33.302282], [118.993097, 33.302444], [118.993049, 33.303973], [118.993537, 33.303999], [118.993532, 33.30512], [118.993896, 33.305152], [118.994304, 33.305627], [118.994411, 33.310388], [118.994368, 33.311011], [118.994454, 33.315073], [118.995554, 33.315198], [118.996654, 33.315131], [118.997721, 33.315118], [118.999448, 33.315037], [119.002463, 33.314871], [119.003917, 33.314804], [119.006149, 33.314427], [119.008981, 33.313988], [119.013058, 33.313208], [119.015086, 33.312769], [119.015901, 33.312679], [119.017553, 33.312374], [119.019216, 33.312132], [119.02045, 33.311827], [119.02148, 33.311675], [119.022392, 33.311459], [119.023508, 33.311182], [119.024999, 33.310957], [119.025782, 33.310742], [119.026844, 33.310608], [119.028904, 33.310231], [119.03222, 33.309621], [119.048152, 33.306725], [119.048452, 33.308976], [119.048624, 33.309415], [119.04915, 33.309469], [119.052841, 33.308824], [119.053152, 33.309361], [119.057175, 33.309218], [119.065297, 33.308429], [119.060748, 33.31093], [119.058876, 33.312386], [119.043697, 33.323374], [119.033793, 33.330565], [119.026724, 33.335501], [119.027134, 33.340636], [119.02669, 33.341207], [119.022285, 33.341292], [119.02208, 33.338924], [119.016138, 33.343004], [119.015796, 33.340551], [119.008078, 33.34172], [119.008352, 33.343518], [119.008932, 33.343403], [119.009171, 33.344487], [119.009615, 33.344459], [119.010025, 33.347426], [119.002546, 33.352931], [119.001863, 33.352475], [119.000839, 33.352732], [118.993906, 33.352817], [118.993667, 33.355271], [118.989911, 33.355213], [118.989465, 33.359049], [118.989283, 33.358913], [118.988746, 33.358295], [118.988575, 33.357766], [118.987716, 33.357183], [118.986472, 33.356368], [118.984079, 33.355158], [118.980732, 33.355553], [118.980045, 33.35756], [118.977599, 33.357703], [118.977213, 33.359137], [118.972578, 33.358778], [118.972664, 33.360535], [118.9679, 33.35989], [118.966913, 33.35143], [118.959896, 33.344457], [118.960497, 33.341298], [118.960674, 33.340653], [118.957858, 33.337995], [118.956077, 33.336274], [118.947059, 33.327682], [118.940054, 33.320896], [118.935435, 33.316431], [118.932795, 33.3164], [118.927721, 33.31631], [118.927967, 33.314212], [118.928203, 33.311594], [118.92477, 33.311235], [118.923311, 33.310375], [118.922238, 33.308384], [118.922045, 33.306609], [118.92168, 33.304564]]]}, "properties": {"display_name": "黄集街道, 洪泽区, 淮安市, 江苏省, 223100, 中国", "type": "administrative", "osm_type": "relation", "osm_id": 17566420, "class": null, "keyword": "subdistrict"}}, {"type": "Feature", "geometry": {"type": "Polygon", "coordinates": [[[119.160826, 33.640383], [119.162929, 33.639865], [119.16353, 33.638454], [119.169002, 33.640348], [119.16928, 33.639186], [119.169452, 33.635899], [119.171877, 33.632505], [119.172188, 33.63054], [119.172274, 33.629816], [119.171984, 33.629619], [119.170944, 33.629432], [119.169356, 33.62928], [119.169248, 33.628619], [119.169602, 33.628628], [119.169849, 33.628476], [119.170589, 33.628494], [119.170632, 33.627207], [119.169645, 33.627145], [119.169817, 33.626189], [119.164732, 33.626109], [119.16442, 33.625733], [119.161963, 33.625698], [119.161534, 33.619766], [119.163036, 33.61562], [119.166362, 33.616102], [119.166427, 33.620945], [119.166405, 33.622428], [119.172285, 33.623411], [119.177671, 33.623393], [119.178057, 33.619069], [119.178314, 33.614905], [119.178357, 33.612689], [119.176962, 33.612296], [119.175696, 33.612135], [119.173272, 33.610849], [119.169581, 33.608311], [119.169602, 33.607167], [119.17016, 33.605881], [119.170954, 33.605094], [119.172435, 33.604129], [119.174495, 33.602449], [119.178894, 33.598768], [119.179773, 33.598589], [119.181833, 33.598589], [119.183013, 33.598464], [119.183872, 33.598035], [119.184387, 33.597052], [119.185309, 33.595139], [119.185846, 33.593852], [119.186254, 33.592601], [119.188799, 33.589349], [119.189978, 33.590705], [119.19112, 33.591976], [119.192205, 33.593306], [119.196713, 33.59854], [119.215256, 33.630192], [119.216861, 33.629539], [119.217749, 33.630932], [119.216144, 33.631387], [119.224203, 33.644607], [119.222052, 33.644522], [119.221983, 33.645403], [119.218978, 33.645005], [119.216929, 33.645204], [119.216793, 33.646768], [119.215017, 33.646768], [119.215119, 33.645574], [119.214027, 33.645204], [119.21027, 33.645574], [119.208665, 33.656888], [119.210236, 33.657428], [119.209929, 33.658508], [119.210338, 33.658594], [119.209963, 33.660299], [119.210987, 33.660384], [119.210851, 33.662289], [119.210441, 33.66226], [119.210338, 33.663283], [119.214505, 33.664307], [119.214539, 33.665074], [119.21669, 33.665586], [119.216554, 33.666666], [119.220447, 33.666893], [119.22031, 33.668627], [119.220856, 33.668712], [119.220686, 33.669536], [119.218842, 33.669366], [119.218329, 33.67073], [119.217715, 33.670588], [119.2171, 33.672322], [119.215905, 33.672009], [119.215495, 33.673743], [119.213958, 33.673458], [119.213139, 33.68062], [119.218842, 33.681274], [119.218329, 33.684854], [119.219422, 33.684911], [119.219149, 33.686872], [119.221744, 33.68707], [119.221061, 33.690992], [119.217271, 33.690764], [119.218022, 33.692242], [119.214471, 33.69281], [119.208275, 33.692459], [119.20759, 33.690919], [119.201787, 33.681838], [119.199586, 33.679861], [119.196747, 33.681956], [119.19562, 33.681387], [119.193724, 33.679368], [119.194723, 33.678234], [119.195688, 33.678716], [119.196689, 33.677209], [119.191456, 33.672358], [119.190156, 33.673445], [119.189291, 33.672544], [119.190408, 33.671471], [119.188971, 33.670213], [119.187488, 33.668161], [119.185208, 33.664879], [119.182028, 33.661095], [119.178024, 33.657634], [119.172842, 33.652738], [119.170571, 33.649937], [119.16338, 33.648031], [119.162551, 33.646364], [119.162563, 33.645403], [119.163229, 33.644822], [119.163594, 33.644474], [119.163719, 33.644119], [119.163541, 33.643563], [119.163265, 33.643043], [119.160826, 33.640383]]]}, "properties": {"display_name": "南马厂街道, 淮安经济技术开发区, 清江浦区, 淮安市, 江苏省, 中国", "type": "administrative", "osm_type": "relation", "osm_id": 17576331, "class": null, "keyword": "subdistrict"}}, {"type": "Feature", "geometry": {"type": "Polygon", "coordinates": [[[119.075925, 33.563561], [119.077761, 33.562354], [119.081286, 33.558732], [119.083701, 33.555352], [119.096368, 33.537766], [119.101717, 33.530506], [119.102573, 33.529344], [119.103583, 33.527926], [119.110413, 33.518334], [119.113725, 33.512777], [119.116492, 33.506449], [119.123242, 33.486905], [119.125237, 33.483688], [119.12838, 33.480968], [119.129603, 33.479906], [119.129562, 33.48257], [119.12864, 33.486203], [119.128103, 33.488851], [119.128854, 33.492377], [119.129391, 33.495419], [119.129777, 33.498854], [119.129841, 33.500375], [119.129326, 33.502093], [119.129155, 33.503149], [119.129326, 33.504455], [119.130206, 33.506602], [119.130614, 33.507962], [119.130657, 33.509357], [119.130592, 33.510932], [119.130506, 33.512309], [119.1307, 33.513419], [119.131365, 33.514635], [119.132223, 33.515583], [119.132797, 33.516182], [119.138805, 33.515771], [119.139149, 33.515838], [119.139213, 33.516209], [119.13914, 33.516941], [119.138483, 33.521022], [119.138135, 33.523325], [119.138049, 33.524136], [119.137993, 33.524756], [119.137923, 33.526048], [119.137545, 33.531634], [119.149046, 33.529447], [119.149164, 33.531088], [119.149271, 33.533369], [119.149293, 33.534786], [119.155059, 33.53458], [119.155473, 33.534585], [119.156991, 33.534692], [119.159603, 33.534947], [119.160274, 33.530489], [119.160526, 33.528942], [119.16103, 33.525597], [119.161293, 33.523848], [119.161518, 33.522547], [119.166845, 33.52366], [119.166512, 33.524944], [119.165815, 33.527605], [119.165799, 33.527694], [119.171324, 33.528284], [119.170128, 33.53107], [119.169581, 33.532246], [119.164705, 33.531683], [119.163948, 33.534522], [119.163739, 33.535336], [119.16445, 33.535419], [119.168524, 33.535792], [119.166909, 33.541967], [119.166271, 33.544471], [119.172467, 33.545217], [119.171973, 33.547019], [119.171727, 33.548137], [119.171652, 33.548495], [119.171759, 33.548513], [119.170568, 33.560033], [119.16773, 33.559148], [119.166679, 33.55888], [119.165021, 33.558629], [119.164372, 33.558531], [119.162655, 33.55833], [119.160923, 33.558307], [119.158198, 33.558303], [119.157371, 33.557543], [119.156492, 33.556729], [119.155644, 33.556211], [119.155033, 33.555871], [119.150373, 33.553284], [119.148756, 33.552375], [119.147847, 33.551875], [119.143974, 33.54969], [119.141836, 33.548441], [119.140849, 33.547967], [119.140098, 33.547797], [119.138355, 33.547565], [119.138081, 33.547283], [119.13755, 33.547368], [119.136949, 33.547484], [119.136295, 33.54765], [119.13556, 33.547864], [119.13449, 33.548244], [119.134023, 33.54845], [119.133623, 33.548642], [119.13291, 33.549], [119.131493, 33.549761], [119.131236, 33.54921], [119.131022, 33.548602], [119.13085, 33.54824], [119.130657, 33.548048], [119.130163, 33.5476], [119.129895, 33.547341], [119.12953, 33.547144], [119.129144, 33.54701], [119.12879, 33.54693], [119.128157, 33.546867], [119.127223, 33.546769], [119.126011, 33.54667], [119.125185, 33.546688], [119.124359, 33.546787], [119.123747, 33.547082], [119.123275, 33.547377], [119.122675, 33.547887], [119.122353, 33.548253], [119.122267, 33.5487], [119.12217, 33.549228], [119.121798, 33.549716], [119.121258, 33.550059], [119.120486, 33.550301], [119.118683, 33.550471], [119.117954, 33.550891], [119.116724, 33.552351], [119.117026, 33.552625], [119.118163, 33.553837], [119.119899, 33.555718], [119.114746, 33.558214], [119.113571, 33.558754], [119.112573, 33.559362], [119.111704, 33.559926], [119.111195, 33.560301], [119.110706, 33.560686], [119.109576, 33.561768], [119.109057, 33.562331], [119.108647, 33.56284], [119.1085, 33.563046], [119.108405, 33.56318], [119.108046, 33.563707], [119.107839, 33.564025], [119.107662, 33.564325], [119.107303, 33.564979], [119.106677, 33.566371], [119.100029, 33.563178], [119.094173, 33.560322], [119.092841, 33.563269], [119.088778, 33.559443], [119.085843, 33.561768], [119.077328, 33.568007], [119.07794, 33.566257], [119.076843, 33.565493], [119.075925, 33.563561]]]}, "properties": {"display_name": "河下街道, 淮安区, 淮安市, 江苏省, 223200, 中国", "type": "administrative", "osm_type": "relation", "osm_id": 17557891, "class": null, "keyword": "subdistrict"}}, {"type": "Feature", "geometry": {"type": "Polygon", "coordinates": [[[118.92898, 33.577372], [118.958877, 33.535298], [118.967417, 33.536516], [118.969225, 33.536651], [118.971553, 33.53687], [118.974134, 33.537093], [118.977283, 33.53738], [118.980775, 33.53771], [118.983833, 33.537943], [118.986279, 33.538202], [118.994164, 33.538868], [118.994304, 33.537925], [118.994261, 33.537692], [118.994486, 33.536843], [118.996793, 33.537165], [118.997136, 33.53543], [118.999025, 33.535573], [118.999089, 33.534996], [119.000843, 33.535108], [119.004743, 33.535394], [119.004614, 33.533395], [119.014045, 33.53302], [119.014919, 33.549492], [119.021823, 33.547833], [119.025536, 33.546921], [119.026887, 33.568508], [119.020085, 33.568986], [119.006567, 33.569375], [118.986075, 33.570238], [118.977084, 33.570747], [118.972685, 33.570953], [118.969113, 33.571051], [118.966656, 33.571829], [118.961538, 33.572938], [118.956388, 33.574493], [118.946518, 33.576701], [118.944082, 33.576781], [118.941276, 33.576661], [118.932242, 33.578804], [118.92898, 33.577372]]]}, "properties": {"display_name": "城南街道, 清江浦区, 淮安市, 江苏省, 中国", "type": "administrative", "osm_type": "relation", "osm_id": 17557896, "class": null, "keyword": "subdistrict"}}, {"type": "Feature", "geometry": {"type": "Polygon", "coordinates": [[[118.913033, 33.604478], [118.914127, 33.601055], [118.914857, 33.599116], [118.915383, 33.598017], [118.916541, 33.596399], [118.917904, 33.595264], [118.920189, 33.592762], [118.921144, 33.591627], [118.92226, 33.59076], [118.924384, 33.589992], [118.926358, 33.584701], [118.927689, 33.581483], [118.92898, 33.577372], [118.932242, 33.578804], [118.941276, 33.576661], [118.944053, 33.578975], [118.947495, 33.579629], [118.956372, 33.585767], [118.961264, 33.589188], [118.966638, 33.59462], [118.968783, 33.596275], [118.977266, 33.602819], [118.983969, 33.608553], [118.986161, 33.6105], [118.988595, 33.612146], [118.989905, 33.613306], [118.991276, 33.614789], [118.99403, 33.618832], [118.99491, 33.61977], [118.996, 33.620713], [118.996723, 33.62111], [118.997535, 33.621452], [118.998381, 33.621601], [119.000938, 33.621829], [119.0019, 33.621892], [119.003166, 33.621861], [119.004429, 33.621767], [119.005371, 33.621691], [119.006428, 33.621535], [119.008461, 33.620985], [119.010338, 33.620534], [119.01249, 33.620175], [119.013273, 33.619949], [119.015654, 33.618667], [119.017253, 33.617898], [119.018738, 33.617196], [119.01971, 33.616924], [119.022039, 33.616493], [119.023272, 33.616174], [119.025033, 33.615543], [119.027156, 33.614619], [119.028722, 33.61386], [119.031848, 33.612179], [119.033196, 33.611251], [119.035331, 33.609428], [119.035975, 33.608785], [119.03711, 33.607914], [119.038354, 33.607293], [119.03979, 33.607007], [119.041876, 33.606935], [119.044326, 33.606716], [119.046124, 33.606381], [119.04739, 33.606211], [119.048819, 33.606178], [119.049879, 33.606292], [119.052356, 33.606977], [119.053119, 33.607328], [119.054139, 33.60798], [119.055543, 33.608567], [119.059109, 33.61008], [119.061306, 33.611045], [119.063953, 33.612536], [119.06491, 33.613056], [119.065554, 33.613619], [119.06594, 33.614137], [119.066359, 33.614637], [119.067425, 33.615292], [119.068108, 33.615584], [119.068906, 33.615834], [119.07006, 33.61604], [119.07344, 33.616201], [119.078273, 33.61656], [119.079437, 33.616683], [119.080296, 33.616889], [119.081, 33.617195], [119.081452, 33.617393], [119.082044, 33.617675], [119.08235, 33.617894], [119.082595, 33.618125], [119.082822, 33.618448], [119.082969, 33.618798], [119.083902, 33.621333], [119.081197, 33.620337], [119.07903, 33.624483], [119.073536, 33.623], [119.07329, 33.623723], [119.072142, 33.623491], [119.071262, 33.625555], [119.072603, 33.625876], [119.073021, 33.624384], [119.0755, 33.624992], [119.074459, 33.626475], [119.076197, 33.626814], [119.076047, 33.627484], [119.075317, 33.627529], [119.074974, 33.628574], [119.072163, 33.627663], [119.068837, 33.626645], [119.067142, 33.626305], [119.062614, 33.626001], [119.056306, 33.625608], [119.049954, 33.625698], [119.047337, 33.625716], [119.045899, 33.626037], [119.043024, 33.627002], [119.041586, 33.627413], [119.040127, 33.627484], [119.038882, 33.627395], [119.036415, 33.626859], [119.034483, 33.626528], [119.033325, 33.626332], [119.0309, 33.626082], [119.029752, 33.62601], [119.028776, 33.626216], [119.027445, 33.626734], [119.0259, 33.627529], [119.023894, 33.628074], [119.021341, 33.628646], [119.019012, 33.62903], [119.01706, 33.629566], [119.014753, 33.630638], [119.0122, 33.63221], [119.010075, 33.633157], [119.008552, 33.633702], [119.007275, 33.633818], [119.006073, 33.63372], [119.005097, 33.633443], [119.004228, 33.632996], [119.002651, 33.63213], [119.001492, 33.63162], [119.000613, 33.631469], [118.999057, 33.631424], [118.99734, 33.631469], [118.996718, 33.631433], [118.996139, 33.631361], [118.99557, 33.631227], [118.994991, 33.630986], [118.994014, 33.630495], [118.992351, 33.629619], [118.988757, 33.627735], [118.984079, 33.625305], [118.978243, 33.622553], [118.974316, 33.620677], [118.972621, 33.619623], [118.970067, 33.617568], [118.9676, 33.615584], [118.965969, 33.614869], [118.962836, 33.614101], [118.960218, 33.613279], [118.958309, 33.612296], [118.956227, 33.610527], [118.951743, 33.606453], [118.950133, 33.604451], [118.948481, 33.602253], [118.947816, 33.600269], [118.947526, 33.598741], [118.946936, 33.597177], [118.946432, 33.596207], [118.944678, 33.597351], [118.937312, 33.602244], [118.931723, 33.597981], [118.930661, 33.596873], [118.930349, 33.596399], [118.93021, 33.597114], [118.929893, 33.599992], [118.926895, 33.600108], [118.927195, 33.601931], [118.927056, 33.603164], [118.920522, 33.602735], [118.919996, 33.604916], [118.913033, 33.604478]]]}, "properties": {"display_name": "王家营街道, 淮阴区, 淮安市, 江苏省, 223300, 中国", "type": "administrative", "osm_type": "relation", "osm_id": 17557906, "class": null, "keyword": "subdistrict"}}, {"type": "Feature", "geometry": {"type": "Polygon", "coordinates": [[[119.022934, 33.5137], [119.024801, 33.514702], [119.027697, 33.516433], [119.029226, 33.517421], [119.031045, 33.518692], [119.033309, 33.520409], [119.035336, 33.52214], [119.036533, 33.523177], [119.038893, 33.525449], [119.044075, 33.530627], [119.04812, 33.529018], [119.051392, 33.52773], [119.053237, 33.526996], [119.054654, 33.526469], [119.055051, 33.527519], [119.055415, 33.528387], [119.055973, 33.529456], [119.056542, 33.530449], [119.057089, 33.531316], [119.058033, 33.532573], [119.059042, 33.533798], [119.060023, 33.534844], [119.060855, 33.535551], [119.061461, 33.536123], [119.058173, 33.537254], [119.054332, 33.538515], [119.053109, 33.538931], [119.05423, 33.539794], [119.055845, 33.540961], [119.057094, 33.541788], [119.058934, 33.542937], [119.06115, 33.544229], [119.062534, 33.544981], [119.064079, 33.545776], [119.06564, 33.546501], [119.069181, 33.548249], [119.083701, 33.555352], [119.081286, 33.558732], [119.077761, 33.562354], [119.075925, 33.563561], [119.074674, 33.564302], [119.073601, 33.564838], [119.072142, 33.565393], [119.070425, 33.566001], [119.068193, 33.566555], [119.065339, 33.566823], [119.058452, 33.567163], [119.042573, 33.567914], [119.026887, 33.568508], [119.025536, 33.546921], [119.024666, 33.533901], [119.024548, 33.532179], [119.024157, 33.52548], [119.023819, 33.519823], [119.023738, 33.518629], [119.023615, 33.51748], [119.02347, 33.516429], [119.023105, 33.514747], [119.022934, 33.5137]]]}, "properties": {"display_name": "枚乘街道, 淮安经济技术开发区, 清江浦区, 淮安市, 江苏省, 223001, 中国", "type": "administrative", "osm_type": "relation", "osm_id": 17576334, "class": null, "keyword": "subdistrict"}}, {"type": "Feature", "geometry": {"type": "Polygon", "coordinates": [[[119.046246, 33.594329], [119.048624, 33.592387], [119.053581, 33.588267], [119.050587, 33.584401], [119.057894, 33.580696], [119.062142, 33.57839], [119.067442, 33.57544], [119.07079, 33.573134], [119.073343, 33.571257], [119.077328, 33.568007], [119.085843, 33.561768], [119.088778, 33.559443], [119.092841, 33.563269], [119.094173, 33.560322], [119.100029, 33.563178], [119.106677, 33.566371], [119.107303, 33.564979], [119.107662, 33.564325], [119.107839, 33.564025], [119.108046, 33.563707], [119.108405, 33.56318], [119.1085, 33.563046], [119.110776, 33.564315], [119.11179, 33.564883], [119.109821, 33.566439], [119.107708, 33.568182], [119.106409, 33.569433], [119.105852, 33.57047], [119.105111, 33.571775], [119.104832, 33.572374], [119.104757, 33.572786], [119.104929, 33.573215], [119.104972, 33.573545], [119.104934, 33.57384], [119.104854, 33.574086], [119.104714, 33.574314], [119.104446, 33.574725], [119.107493, 33.577711], [119.106635, 33.578328], [119.10303, 33.576915], [119.102375, 33.577997], [119.102021, 33.57814], [119.101582, 33.577997], [119.101388, 33.578042], [119.101077, 33.57822], [119.100809, 33.578748], [119.100433, 33.579262], [119.099956, 33.580013], [119.099683, 33.580598], [119.099382, 33.581317], [119.09832, 33.581635], [119.097521, 33.581957], [119.096898, 33.58231], [119.096035, 33.582868], [119.095359, 33.583337], [119.094796, 33.58386], [119.094254, 33.584531], [119.095445, 33.58504], [119.096271, 33.585751], [119.096078, 33.586055], [119.09589, 33.586484], [119.095418, 33.587091], [119.095203, 33.587722], [119.095107, 33.58807], [119.095069, 33.588477], [119.095128, 33.588825], [119.095268, 33.589183], [119.095573, 33.589536], [119.096126, 33.590112], [119.097859, 33.591368], [119.098545, 33.591926], [119.098824, 33.592315], [119.099034, 33.592758], [119.099221, 33.593388], [119.099296, 33.5937], [119.099232, 33.593951], [119.099092, 33.594286], [119.098878, 33.59459], [119.098438, 33.595112], [119.098036, 33.595568], [119.101887, 33.596583], [119.098856, 33.601846], [119.09422, 33.600505], [119.092382, 33.599974], [119.088921, 33.598951], [119.088138, 33.600171], [119.087516, 33.600912], [119.086406, 33.600246], [119.084727, 33.601506], [119.084431, 33.601524], [119.084136, 33.601484], [119.083375, 33.601372], [119.081551, 33.601095], [119.081637, 33.600805], [119.082747, 33.598383], [119.081111, 33.597861], [119.080746, 33.598549], [119.079014, 33.598115], [119.079158, 33.597735], [119.071471, 33.595403], [119.069974, 33.598879], [119.061874, 33.597427], [119.062641, 33.59555], [119.06112, 33.595104], [119.060571, 33.59507], [119.052717, 33.59467], [119.046246, 33.594329]]]}, "properties": {"display_name": "钵池街道, 淮安经济技术开发区, 清江浦区, 淮安市, 江苏省, 中国", "type": "administrative", "osm_type": "relation", "osm_id": 17557893, "class": null, "keyword": "subdistrict"}}, {"type": "Feature", "geometry": {"type": "Polygon", "coordinates": [[[118.941276, 33.576661], [118.944082, 33.576781], [118.946518, 33.576701], [118.956388, 33.574493], [118.961538, 33.572938], [118.966656, 33.571829], [118.967267, 33.572964], [118.968029, 33.573277], [118.97157, 33.574091], [118.974692, 33.574922], [118.976612, 33.575709], [118.978769, 33.576746], [118.980711, 33.577836], [118.982899, 33.579025], [118.984562, 33.579874], [118.986504, 33.580517], [118.988435, 33.580902], [118.990924, 33.581286], [118.992609, 33.581619], [118.993413, 33.581778], [118.99616, 33.582546], [118.999271, 33.583503], [119.001868, 33.584397], [119.004936, 33.585474], [119.003381, 33.588356], [119.002973, 33.589111], [119.00264, 33.590103], [119.002506, 33.590649], [119.002292, 33.591895], [119.002184, 33.592552], [119.002152, 33.59291], [119.002163, 33.593611], [119.002206, 33.594054], [119.002284, 33.594545], [119.002393, 33.595298], [119.002557, 33.596417], [119.002686, 33.597195], [118.998367, 33.597644], [118.997453, 33.597744], [118.997753, 33.599527], [118.998091, 33.600988], [118.998274, 33.601788], [118.998322, 33.602668], [118.99844, 33.603401], [118.998558, 33.604049], [118.998842, 33.605014], [118.999121, 33.605787], [118.999314, 33.606274], [118.999379, 33.606631], [118.999448, 33.607672], [118.999609, 33.609678], [118.999717, 33.611532], [119.001085, 33.611765], [119.002737, 33.612051], [119.00345, 33.612127], [119.004062, 33.612131], [119.005338, 33.612046], [119.006819, 33.611966], [119.007345, 33.611934], [119.008477, 33.611716], [119.010601, 33.611331], [119.012302, 33.611014], [119.013063, 33.610831], [119.013804, 33.61063], [119.015083, 33.610286], [119.014539, 33.612278], [119.013637, 33.615446], [119.013444, 33.616044], [119.01316, 33.616634], [119.012425, 33.618198], [119.012296, 33.618586], [119.012253, 33.618979], [119.012253, 33.619328], [119.012361, 33.619734], [119.01249, 33.620175], [119.010338, 33.620534], [119.008461, 33.620985], [119.006428, 33.621535], [119.005371, 33.621691], [119.004429, 33.621767], [119.003166, 33.621861], [119.0019, 33.621892], [119.000938, 33.621829], [118.998381, 33.621601], [118.997535, 33.621452], [118.996723, 33.62111], [118.996, 33.620713], [118.99491, 33.61977], [118.99403, 33.618832], [118.991276, 33.614789], [118.989905, 33.613306], [118.988595, 33.612146], [118.986161, 33.6105], [118.983969, 33.608553], [118.977266, 33.602819], [118.968783, 33.596275], [118.966638, 33.59462], [118.961264, 33.589188], [118.956372, 33.585767], [118.947495, 33.579629], [118.944053, 33.578975], [118.941276, 33.576661]]]}, "properties": {"display_name": "柳树湾街道, 清江浦区, 淮安市, 江苏省, 中国", "type": "administrative", "osm_type": "relation", "osm_id": 17557905, "class": null, "keyword": "subdistrict"}}, {"type": "Feature", "geometry": {"type": "Polygon", "coordinates": [[[119.128103, 33.488851], [119.12864, 33.486203], [119.129562, 33.48257], [119.129603, 33.479906], [119.137096, 33.473401], [119.143596, 33.47738], [119.14808, 33.479921], [119.153809, 33.483017], [119.14911, 33.488359], [119.148574, 33.488118], [119.148166, 33.488028], [119.147823, 33.488064], [119.146836, 33.48929], [119.145511, 33.490914], [119.145425, 33.491039], [119.145355, 33.49133], [119.144985, 33.493813], [119.144921, 33.495016], [119.14593, 33.496663], [119.146147, 33.497026], [119.146222, 33.497176], [119.14643, 33.497485], [119.147565, 33.499302], [119.149121, 33.501932], [119.149894, 33.503328], [119.150301, 33.504106], [119.150478, 33.504567], [119.150591, 33.505063], [119.150602, 33.505667], [119.15058, 33.506199], [119.158705, 33.50575], [119.159343, 33.505725], [119.159858, 33.505736], [119.160424, 33.505806], [119.161073, 33.50594], [119.16221, 33.506374], [119.164667, 33.507421], [119.16398, 33.510717], [119.16338, 33.513615], [119.163181, 33.514532], [119.162564, 33.517466], [119.162242, 33.519081], [119.16176, 33.521393], [119.161518, 33.522547], [119.161293, 33.523848], [119.16103, 33.525597], [119.160526, 33.528942], [119.160274, 33.530489], [119.159603, 33.534947], [119.156991, 33.534692], [119.155473, 33.534585], [119.155059, 33.53458], [119.149293, 33.534786], [119.149271, 33.533369], [119.149164, 33.531088], [119.149046, 33.529447], [119.137545, 33.531634], [119.137923, 33.526048], [119.137993, 33.524756], [119.138049, 33.524136], [119.138135, 33.523325], [119.138483, 33.521022], [119.13914, 33.516941], [119.139213, 33.516209], [119.139149, 33.515838], [119.138805, 33.515771], [119.132797, 33.516182], [119.132223, 33.515583], [119.131365, 33.514635], [119.1307, 33.513419], [119.130506, 33.512309], [119.130592, 33.510932], [119.130657, 33.509357], [119.130614, 33.507962], [119.130206, 33.506602], [119.129326, 33.504455], [119.129155, 33.503149], [119.129326, 33.502093], [119.129841, 33.500375], [119.129777, 33.498854], [119.129391, 33.495419], [119.128854, 33.492377], [119.128103, 33.488851]]]}, "properties": {"display_name": "淮城街道, 淮安区, 淮安市, 江苏省, 223200, 中国", "type": "administrative", "osm_type": "relation", "osm_id": 17557892, "class": null, "keyword": "subdistrict"}}, {"type": "Feature", "geometry": {"type": "Polygon", "coordinates": [[[119.006567, 33.569375], [119.020085, 33.568986], [119.026887, 33.568508], [119.042573, 33.567914], [119.058452, 33.567163], [119.065339, 33.566823], [119.068193, 33.566555], [119.070425, 33.566001], [119.072142, 33.565393], [119.073601, 33.564838], [119.074674, 33.564302], [119.075925, 33.563561], [119.076843, 33.565493], [119.07794, 33.566257], [119.077328, 33.568007], [119.073343, 33.571257], [119.07079, 33.573134], [119.067442, 33.57544], [119.062142, 33.57839], [119.057894, 33.580696], [119.050587, 33.584401], [119.049509, 33.582801], [119.048806, 33.581809], [119.046108, 33.581729], [119.040878, 33.581581], [119.026024, 33.581219], [119.014286, 33.580862], [119.007171, 33.580643], [119.007248, 33.57982], [119.007651, 33.572777], [119.007063, 33.572448], [119.006749, 33.570895], [119.006567, 33.569375]]]}, "properties": {"display_name": "清浦街道, 清江浦区, 淮安市, 江苏省, 中国", "type": "administrative", "osm_type": "relation", "osm_id": 17557898, "class": null, "keyword": "subdistrict"}}, {"type": "Feature", "geometry": {"type": "Polygon", "coordinates": [[[119.037783, 33.604022], [119.038131, 33.603289], [119.038689, 33.60223], [119.039269, 33.601158], [119.039757, 33.600224], [119.039982, 33.599775], [119.040513, 33.599322], [119.042015, 33.597999], [119.043946, 33.596274], [119.04592, 33.594594], [119.046246, 33.594329], [119.052717, 33.59467], [119.060571, 33.59507], [119.06112, 33.595104], [119.062641, 33.59555], [119.061874, 33.597427], [119.069974, 33.598879], [119.071471, 33.595403], [119.079158, 33.597735], [119.079014, 33.598115], [119.080746, 33.598549], [119.081111, 33.597861], [119.082747, 33.598383], [119.081637, 33.600805], [119.081551, 33.601095], [119.083375, 33.601372], [119.084136, 33.601484], [119.084431, 33.601524], [119.084727, 33.601506], [119.086406, 33.600246], [119.087516, 33.600912], [119.088138, 33.600171], [119.088921, 33.598951], [119.092382, 33.599974], [119.091335, 33.60194], [119.090284, 33.603843], [119.089238, 33.605581], [119.088321, 33.606998], [119.087006, 33.608932], [119.086078, 33.610246], [119.084539, 33.612336], [119.082812, 33.614731], [119.081, 33.617195], [119.080296, 33.616889], [119.079437, 33.616683], [119.078273, 33.61656], [119.07344, 33.616201], [119.07006, 33.61604], [119.068906, 33.615834], [119.068108, 33.615584], [119.067425, 33.615292], [119.066359, 33.614637], [119.06594, 33.614137], [119.065554, 33.613619], [119.06491, 33.613056], [119.063953, 33.612536], [119.061306, 33.611045], [119.059109, 33.61008], [119.055543, 33.608567], [119.054139, 33.60798], [119.053119, 33.607328], [119.052356, 33.606977], [119.049879, 33.606292], [119.048819, 33.606178], [119.04739, 33.606211], [119.046124, 33.606381], [119.044326, 33.606716], [119.041876, 33.606935], [119.03979, 33.607007], [119.038354, 33.607293], [119.037842, 33.604567], [119.037783, 33.604022]]]}, "properties": {"display_name": "水渡口街道, 清江浦区, 淮安市, 江苏省, 中国", "type": "administrative", "osm_type": "relation", "osm_id": 17557895, "class": null, "keyword": "subdistrict"}}, {"type": "Feature", "geometry": {"type": "Polygon", "coordinates": [[[119.081, 33.617195], [119.082812, 33.614731], [119.084539, 33.612336], [119.086078, 33.610246], [119.087006, 33.608932], [119.088321, 33.606998], [119.089238, 33.605581], [119.090284, 33.603843], [119.091335, 33.60194], [119.092382, 33.599974], [119.09422, 33.600505], [119.098856, 33.601846], [119.10701, 33.60408], [119.112702, 33.605648], [119.117514, 33.606975], [119.119783, 33.607587], [119.121966, 33.607833], [119.125426, 33.608173], [119.124911, 33.610322], [119.124348, 33.612609], [119.123935, 33.6147], [119.123667, 33.616062], [119.123543, 33.621838], [119.121473, 33.622499], [119.120518, 33.622727], [119.119676, 33.622808], [119.118426, 33.62291], [119.117911, 33.621879], [119.117466, 33.621141], [119.116977, 33.620525], [119.116495, 33.620011], [119.115899, 33.619453], [119.115309, 33.618984], [119.114687, 33.618559], [119.113925, 33.618113], [119.113083, 33.61772], [119.11231, 33.617416], [119.111586, 33.617201], [119.110535, 33.616884], [119.109191, 33.616527], [119.109097, 33.617456], [119.109019, 33.61845], [119.108571, 33.623362], [119.105852, 33.623323], [119.105401, 33.623317], [119.103888, 33.623299], [119.102719, 33.623232], [119.101624, 33.623116], [119.10031, 33.622888], [119.098996, 33.622562], [119.097612, 33.622106], [119.097564, 33.622347], [119.097499, 33.623064], [119.097443, 33.623337], [119.097379, 33.623576], [119.097255, 33.623918], [119.097057, 33.624404], [119.096558, 33.625702], [119.096053, 33.627016], [119.095265, 33.626728], [119.092714, 33.625886], [119.090456, 33.62551], [119.089458, 33.625242], [119.0885, 33.624912], [119.087409, 33.624465], [119.086572, 33.624018], [119.085853, 33.623577], [119.085027, 33.622928], [119.08463, 33.622517], [119.084237, 33.621966], [119.083902, 33.621333], [119.082969, 33.618798], [119.082822, 33.618448], [119.082595, 33.618125], [119.08235, 33.617894], [119.082044, 33.617675], [119.081452, 33.617393], [119.081, 33.617195]]]}, "properties": {"display_name": "清河街道, 清江浦区, 淮安市, 江苏省, 中国", "type": "administrative", "osm_type": "relation", "osm_id": 17557894, "class": null, "keyword": "subdistrict"}}, {"type": "Feature", "geometry": {"type": "Polygon", "coordinates": [[[118.966656, 33.571829], [118.969113, 33.571051], [118.972685, 33.570953], [118.977084, 33.570747], [118.986075, 33.570238], [119.006567, 33.569375], [119.006749, 33.570895], [119.007063, 33.572448], [119.007651, 33.572777], [119.007248, 33.57982], [119.007171, 33.580643], [119.006618, 33.582256], [119.006395, 33.582855], [119.006242, 33.583174], [119.005953, 33.583677], [119.004936, 33.585474], [119.001868, 33.584397], [118.999271, 33.583503], [118.99616, 33.582546], [118.993413, 33.581778], [118.992609, 33.581619], [118.990924, 33.581286], [118.988435, 33.580902], [118.986504, 33.580517], [118.984562, 33.579874], [118.982899, 33.579025], [118.980711, 33.577836], [118.978769, 33.576746], [118.976612, 33.575709], [118.974692, 33.574922], [118.97157, 33.574091], [118.968029, 33.573277], [118.967267, 33.572964], [118.966656, 33.571829]]]}, "properties": {"display_name": "浦楼街道, 清江浦区, 淮安市, 江苏省, 中国", "type": "administrative", "osm_type": "relation", "osm_id": 17557897, "class": null, "keyword": "subdistrict"}}, {"type": "Feature", "geometry": {"type": "Polygon", "coordinates": [[[119.012253, 33.618979], [119.012296, 33.618586], [119.012425, 33.618198], [119.01316, 33.616634], [119.013444, 33.616044], [119.013637, 33.615446], [119.014539, 33.612278], [119.015083, 33.610286], [119.015794, 33.608342], [119.016507, 33.606399], [119.017178, 33.604549], [119.017993, 33.602369], [119.019077, 33.599483], [119.019694, 33.597816], [119.020101, 33.597807], [119.030117, 33.599612], [119.034564, 33.600166], [119.036908, 33.600412], [119.037227, 33.60043], [119.037568, 33.600421], [119.037858, 33.600389], [119.038185, 33.60034], [119.038523, 33.600262], [119.038914, 33.600153], [119.039496, 33.599981], [119.039982, 33.599775], [119.039757, 33.600224], [119.039269, 33.601158], [119.038689, 33.60223], [119.038131, 33.603289], [119.037783, 33.604022], [119.037842, 33.604567], [119.038354, 33.607293], [119.03711, 33.607914], [119.035975, 33.608785], [119.035331, 33.609428], [119.033196, 33.611251], [119.031848, 33.612179], [119.028722, 33.61386], [119.027156, 33.614619], [119.025033, 33.615543], [119.023272, 33.616174], [119.022039, 33.616493], [119.01971, 33.616924], [119.018738, 33.617196], [119.017253, 33.617898], [119.015654, 33.618667], [119.013273, 33.619949], [119.01249, 33.620175], [119.012361, 33.619734], [119.012253, 33.619328], [119.012253, 33.618979]]]}, "properties": {"display_name": "淮海街道, 清江浦区, 淮安市, 江苏省, 中国", "type": "administrative", "osm_type": "relation", "osm_id": 17557904, "class": null, "keyword": "subdistrict"}}, {"type": "Feature", "geometry": {"type": "Polygon", "coordinates": [[[118.997453, 33.597744], [118.998367, 33.597644], [119.002686, 33.597195], [119.003938, 33.59707], [119.00539, 33.596916], [119.005805, 33.596877], [119.006234, 33.59686], [119.006669, 33.596857], [119.007712, 33.596922], [119.009432, 33.597054], [119.011339, 33.597195], [119.013254, 33.597338], [119.015247, 33.597483], [119.017073, 33.597626], [119.019694, 33.597816], [119.019077, 33.599483], [119.017993, 33.602369], [119.017178, 33.604549], [119.016507, 33.606399], [119.015794, 33.608342], [119.015083, 33.610286], [119.013804, 33.61063], [119.013063, 33.610831], [119.012302, 33.611014], [119.010601, 33.611331], [119.008477, 33.611716], [119.007345, 33.611934], [119.006819, 33.611966], [119.005338, 33.612046], [119.004062, 33.612131], [119.00345, 33.612127], [119.002737, 33.612051], [119.001085, 33.611765], [118.999717, 33.611532], [118.999609, 33.609678], [118.999448, 33.607672], [118.999379, 33.606631], [118.999314, 33.606274], [118.999121, 33.605787], [118.998842, 33.605014], [118.998558, 33.604049], [118.99844, 33.603401], [118.998322, 33.602668], [118.998274, 33.601788], [118.998091, 33.600988], [118.997753, 33.599527], [118.997453, 33.597744]]]}, "properties": {"display_name": "府前街道, 清江浦区, 淮安市, 江苏省, 中国", "type": "administrative", "osm_type": "relation", "osm_id": 17557903, "class": null, "keyword": "subdistrict"}}, {"type": "Feature", "geometry": {"type": "Polygon", "coordinates": [[[119.023004, 33.593298], [119.023342, 33.592431], [119.023653, 33.591529], [119.023819, 33.591001], [119.024205, 33.589446], [119.024811, 33.587301], [119.025149, 33.58605], [119.025659, 33.583369], [119.026024, 33.581219], [119.040878, 33.581581], [119.046108, 33.581729], [119.048806, 33.581809], [119.049509, 33.582801], [119.050587, 33.584401], [119.047143, 33.586256], [119.044161, 33.587811], [119.042337, 33.588562], [119.04077, 33.589259], [119.038496, 33.590573], [119.037241, 33.591377], [119.035717, 33.592467], [119.034473, 33.593218], [119.033464, 33.593665], [119.032466, 33.594076], [119.03163, 33.594389], [119.030449, 33.594853], [119.029956, 33.595041], [119.029366, 33.594907], [119.027756, 33.594451], [119.023004, 33.593298]]]}, "properties": {"display_name": "闸口街道, 清江浦区, 淮安市, 江苏省, 中国", "type": "administrative", "osm_type": "relation", "osm_id": 17557899, "class": null, "keyword": "subdistrict"}}, {"type": "Feature", "geometry": {"type": "Polygon", "coordinates": [[[119.019694, 33.597816], [119.019941, 33.597463], [119.021351, 33.595675], [119.022215, 33.594541], [119.022644, 33.593946], [119.023004, 33.593298], [119.027756, 33.594451], [119.029366, 33.594907], [119.029956, 33.595041], [119.030449, 33.594853], [119.03163, 33.594389], [119.032466, 33.594076], [119.033464, 33.593665], [119.034473, 33.593218], [119.035717, 33.592467], [119.037241, 33.591377], [119.038496, 33.590573], [119.04077, 33.589259], [119.042337, 33.588562], [119.044161, 33.587811], [119.047143, 33.586256], [119.050587, 33.584401], [119.053581, 33.588267], [119.048624, 33.592387], [119.046246, 33.594329], [119.04592, 33.594594], [119.043946, 33.596274], [119.042015, 33.597999], [119.040513, 33.599322], [119.039982, 33.599775], [119.039496, 33.599981], [119.038914, 33.600153], [119.038523, 33.600262], [119.038185, 33.60034], [119.037858, 33.600389], [119.037568, 33.600421], [119.037227, 33.60043], [119.036908, 33.600412], [119.034564, 33.600166], [119.030117, 33.599612], [119.020101, 33.597807], [119.019694, 33.597816]]]}, "properties": {"display_name": "长东街道, 清江浦区, 淮安市, 江苏省, 中国", "type": "administrative", "osm_type": "relation", "osm_id": 17557901, "class": null, "keyword": "subdistrict"}}, {"type": "Feature", "geometry": {"type": "Polygon", "coordinates": [[[119.004936, 33.585474], [119.005953, 33.583677], [119.006242, 33.583174], [119.006395, 33.582855], [119.006618, 33.582256], [119.007171, 33.580643], [119.014286, 33.580862], [119.026024, 33.581219], [119.025659, 33.583369], [119.025149, 33.58605], [119.024811, 33.587301], [119.024205, 33.589446], [119.023819, 33.591001], [119.023653, 33.591529], [119.023342, 33.592431], [119.023004, 33.593298], [119.022092, 33.593039], [119.02111, 33.592731], [119.019506, 33.592083], [119.016244, 33.590778], [119.013262, 33.589402], [119.009861, 33.587891], [119.007661, 33.586676], [119.004936, 33.585474]]]}, "properties": {"display_name": "清江街道, 清江浦区, 淮安市, 江苏省, 中国", "type": "administrative", "osm_type": "relation", "osm_id": 17557900, "class": null, "keyword": "subdistrict"}}, {"type": "Feature", "geometry": {"type": "Polygon", "coordinates": [[[119.002152, 33.59291], [119.002184, 33.592552], [119.002292, 33.591895], [119.002506, 33.590649], [119.00264, 33.590103], [119.002973, 33.589111], [119.003381, 33.588356], [119.004936, 33.585474], [119.007661, 33.586676], [119.009861, 33.587891], [119.013262, 33.589402], [119.016244, 33.590778], [119.019506, 33.592083], [119.02111, 33.592731], [119.022092, 33.593039], [119.023004, 33.593298], [119.022644, 33.593946], [119.022215, 33.594541], [119.021351, 33.595675], [119.019941, 33.597463], [119.019694, 33.597816], [119.017073, 33.597626], [119.015247, 33.597483], [119.013254, 33.597338], [119.011339, 33.597195], [119.009432, 33.597054], [119.007712, 33.596922], [119.006669, 33.596857], [119.006234, 33.59686], [119.005805, 33.596877], [119.00539, 33.596916], [119.003938, 33.59707], [119.002686, 33.597195], [119.002557, 33.596417], [119.002393, 33.595298], [119.002284, 33.594545], [119.002206, 33.594054], [119.002163, 33.593611], [119.002152, 33.59291]]]}, "properties": {"display_name": "长西街道, 清江浦区, 淮安市, 江苏省, 中国", "type": "administrative", "osm_type": "relation", "osm_id": 17557902, "class": null, "keyword": "subdistrict"}}, {"type": "Feature", "geometry": {"type": "Polygon", "coordinates": [[[119.073043, 33.539533], [119.073046, 33.539299], [119.073103, 33.53907], [119.073212, 33.538855], [119.073369, 33.538661], [119.073569, 33.538496], [119.073802, 33.538366], [119.074062, 33.538277], [119.074337, 33.538231], [119.074618, 33.53823], [119.074894, 33.538275], [119.075154, 33.538363], [119.075389, 33.538491], [119.075581, 33.538648], [119.075736, 33.538831], [119.075847, 33.539035], [119.075911, 33.539253], [119.075925, 33.539477], [119.07589, 33.539699], [119.075806, 33.539912], [119.075675, 33.540108], [119.075504, 33.54028], [119.075297, 33.540423], [119.075062, 33.540532], [119.074806, 33.540602], [119.07454, 33.540632], [119.074271, 33.54062], [119.07401, 33.540567], [119.073765, 33.540475], [119.073545, 33.540346], [119.07335, 33.540177], [119.073198, 33.539981], [119.073094, 33.539763], [119.073043, 33.539533]], [[119.073765, 33.539457], [119.073778, 33.539586], [119.073824, 33.539764], [119.07391, 33.539958], [119.074028, 33.540097], [119.074172, 33.5402], [119.07432, 33.540238], [119.074494, 33.540257], [119.07466, 33.540233], [119.074795, 33.540201], [119.074934, 33.540101], [119.075047, 33.539988], [119.075115, 33.539873], [119.075161, 33.539758], [119.075198, 33.539573], [119.075208, 33.539406], [119.075197, 33.539263], [119.075169, 33.539119], [119.075122, 33.539004], [119.075052, 33.538878], [119.074958, 33.538754], [119.07481, 33.538649], [119.074644, 33.538609], [119.074456, 33.538586], [119.074275, 33.53862], [119.074116, 33.538671], [119.073994, 33.53877], [119.073919, 33.538867], [119.073853, 33.539007], [119.073812, 33.539135], [119.07378, 33.539296], [119.073765, 33.539457]]]}, "properties": {"display_name": "淮安市体育中心体育场, 枚皋路, 富城路地区, 淮安经济技术开发区, 清江浦区, 淮安市, 江苏省, 223001, 中国", "type": "stadium", "osm_type": "relation", "osm_id": 9104644, "class": null, "keyword": "city centre"}}]}