{"type": "FeatureCollection", "features": [{"type": "Feature", "geometry": {"type": "Polygon", "coordinates": [[[120.259464, 31.923139], [120.260363, 31.921321], [120.261336, 31.921605], [120.261751, 31.920063], [120.262413, 31.920181], [120.264064, 31.920854], [120.263706, 31.922044], [120.264358, 31.922221], [120.264685, 31.921118], [120.265219, 31.921595], [120.265067, 31.922404], [120.265128, 31.92353], [120.264602, 31.923729], [120.264407, 31.924506], [120.262549, 31.924301], [120.259464, 31.923139]]]}, "properties": {"display_name": "中国卫星海上测控部, 春麓路, 黄山社区, 澄江街道, 江阴市, 无锡市, 江苏省, 214400, 中国", "type": "base", "osm_type": "way", "osm_id": 1131036055, "class": null, "keyword": "中心城区"}}, {"type": "Feature", "geometry": {"type": "Polygon", "coordinates": [[[120.344016, 31.922589], [120.344105, 31.922493], [120.345123, 31.922286], [120.345758, 31.922384], [120.345773, 31.922261], [120.34614, 31.922251], [120.346842, 31.922328], [120.346815, 31.922533], [120.34668, 31.922813], [120.346325, 31.924872], [120.344226, 31.924571], [120.344047, 31.924403], [120.344127, 31.923699], [120.344097, 31.923259], [120.344016, 31.922589]]]}, "properties": {"display_name": "江阴高新区实验中学, 龙泉路, 山观, 城东街道, 江阴市, 无锡市, 江苏省, 214400, 中国", "type": "school", "osm_type": "way", "osm_id": 1080235572, "class": null, "keyword": "市中心"}}, {"type": "Feature", "geometry": {"type": "Polygon", "coordinates": [[[120.505441, 31.794879], [120.50553, 31.79324], [120.508901, 31.79337], [120.508751, 31.795103], [120.505441, 31.794879]]]}, "properties": {"display_name": "江阴市新桥中学, 康定路, 新桥镇, 江阴市, 无锡市, 江苏省, 214400, 中国", "type": "school", "osm_type": "way", "osm_id": 1230880273, "class": null, "keyword": "市中心"}}, {"type": "Feature", "geometry": {"type": "Polygon", "coordinates": [[[120.319053, 31.912474], [120.319395, 31.911274], [120.319502, 31.910901], [120.319554, 31.910875], [120.322387, 31.912169], [120.322426, 31.912273], [120.322247, 31.9133], [120.319053, 31.912474]]]}, "properties": {"display_name": "江阴市金童中心小学, 延陵东路, 城东街道, 江阴市, 无锡市, 江苏省, 214400, 中国", "type": "school", "osm_type": "way", "osm_id": 1080533091, "class": null, "keyword": "市中心"}}, {"type": "Feature", "geometry": {"type": "Polygon", "coordinates": [[[120.500586, 31.805115], [120.500855, 31.804289], [120.503805, 31.804773], [120.503478, 31.806254], [120.500683, 31.805648], [120.500817, 31.805178], [120.500586, 31.805115]]]}, "properties": {"display_name": "江阴市新桥中心小学, 陶新中路, 新桥镇, 江阴市, 无锡市, 江苏省, 214400, 中国", "type": "school", "osm_type": "way", "osm_id": 1230880278, "class": null, "keyword": "市中心"}}, {"type": "Feature", "geometry": {"type": "Polygon", "coordinates": [[[120.282229, 31.926139], [120.282528, 31.925703], [120.283308, 31.92476], [120.285507, 31.925402], [120.285348, 31.925763], [120.28519, 31.925988], [120.284788, 31.92629], [120.28434, 31.926492], [120.283779, 31.926623], [120.283467, 31.926627], [120.282285, 31.926214], [120.282229, 31.926139]]]}, "properties": {"display_name": "江阴市民水上活动中心, 澄江街道, 江阴市, 无锡市, 江苏省, 214400, 中国", "type": "park", "osm_type": "way", "osm_id": 1218042860, "class": null, "keyword": "市中心"}}, {"type": "Feature", "geometry": {"type": "Polygon", "coordinates": [[[120.276306, 31.874099], [120.276483, 31.872316], [120.276837, 31.872361], [120.277234, 31.872455], [120.277519, 31.872553], [120.277749, 31.872657], [120.277771, 31.872869], [120.278044, 31.872874], [120.278983, 31.8736], [120.279101, 31.87371], [120.279157, 31.873892], [120.279168, 31.874161], [120.276383, 31.874101], [120.276306, 31.874099]]]}, "properties": {"display_name": "江阴市立新中心小学, 北潮路, 澄江街道, 江阴市, 无锡市, 江苏省, 214400, 中国", "type": "school", "osm_type": "way", "osm_id": 421201190, "class": null, "keyword": "市中心"}}, {"type": "Feature", "geometry": {"type": "Polygon", "coordinates": [[[120.257524, 31.902908], [120.257766, 31.901445], [120.259374, 31.901734], [120.259437, 31.901845], [120.259379, 31.902081], [120.259492, 31.902102], [120.259372, 31.902801], [120.259119, 31.902761], [120.259025, 31.903291], [120.257785, 31.903193], [120.257524, 31.902908]]]}, "properties": {"display_name": "江阴市澄江中心小学, 南街, 西郊, 澄江街道, 江阴市, 无锡市, 江苏省, 214400, 中国", "type": "school", "osm_type": "way", "osm_id": 749325350, "class": null, "keyword": "市中心"}}, {"type": "Feature", "geometry": {"type": "Polygon", "coordinates": [[[120.334787, 31.938953], [120.335506, 31.937618], [120.336973, 31.938209], [120.337131, 31.938283], [120.337, 31.938533], [120.33679, 31.938458], [120.336487, 31.939001], [120.336192, 31.938897], [120.335922, 31.939405], [120.334787, 31.938953]]]}, "properties": {"display_name": "江阴市长山中心小学, 贸易街, 渡江四村, 城东街道, 江阴市, 无锡市, 江苏省, 214400, 中国", "type": "school", "osm_type": "way", "osm_id": 1227621183, "class": null, "keyword": "市中心"}}, {"type": "Feature", "geometry": {"type": "Polygon", "coordinates": [[[120.33611, 31.859433], [120.336995, 31.859447], [120.336995, 31.859672], [120.337403, 31.859742], [120.337308, 31.860202], [120.337497, 31.860246], [120.3373, 31.861069], [120.336153, 31.86079], [120.33611, 31.859433]]]}, "properties": {"display_name": "江阴市云亭中心幼儿园, 云台路, 云亭街道, 江阴市, 无锡市, 江苏省, 214400, 中国", "type": "kindergarten", "osm_type": "way", "osm_id": 1228047995, "class": null, "keyword": "市中心"}}, {"type": "Feature", "geometry": {"type": "Polygon", "coordinates": [[[120.263845, 31.92979], [120.264143, 31.929758], [120.265931, 31.929566], [120.266096, 31.930393], [120.264974, 31.930417], [120.26498, 31.930524], [120.265057, 31.930837], [120.264694, 31.930867], [120.264519, 31.93087], [120.263845, 31.92979]]]}, "properties": {"display_name": "江阴市大桥中心小学, 春申路, 黄山社区, 澄江街道, 江阴市, 无锡市, 江苏省, 214400, 中国", "type": "school", "osm_type": "way", "osm_id": 1080235551, "class": null, "keyword": "市中心"}}, {"type": "Feature", "geometry": {"type": "Polygon", "coordinates": [[[120.290015, 31.878202], [120.291155, 31.877695], [120.29227, 31.878726], [120.292048, 31.878935], [120.290483, 31.878883], [120.290015, 31.878202]]]}, "properties": {"display_name": "江阴市公路事业发展中心, 澄江街道, 江阴市, 无锡市, 江苏省, 214400, 中国", "type": "commercial", "osm_type": "way", "osm_id": 1218297269, "class": null, "keyword": "市中心"}}, {"type": "Feature", "geometry": {"type": "Polygon", "coordinates": [[[120.13516, 31.895086], [120.135576, 31.893992], [120.136829, 31.894265], [120.136303, 31.895511], [120.136286, 31.895547], [120.13516, 31.895086]]]}, "properties": {"display_name": "春申颐养中心, 崇文北路, 申港街道, 江苏江阴临港经济开发区, 江阴市, 无锡市, 江苏省, 214400, 中国", "type": "social_facility", "osm_type": "way", "osm_id": 421014850, "class": null, "keyword": "中心城区"}}, {"type": "Feature", "geometry": {"type": "Polygon", "coordinates": [[[120.250916, 31.90095], [120.250986, 31.900561], [120.251971, 31.900716], [120.252111, 31.900775], [120.252191, 31.900847], [120.252737, 31.900946], [120.25272, 31.901009], [120.253265, 31.90114], [120.253167, 31.90141], [120.252933, 31.901346], [120.252807, 31.901881], [120.251738, 31.90164], [120.251607, 31.901596], [120.251532, 31.901517], [120.251616, 31.901223], [120.25128, 31.901148], [120.251313, 31.901009], [120.250916, 31.90095]]]}, "properties": {"display_name": "江阴市特殊教育中心校, 锡澄路, 西郊, 澄江街道, 江阴市, 无锡市, 江苏省, 214400, 中国", "type": "school", "osm_type": "way", "osm_id": 1267483307, "class": null, "keyword": "市中心"}}, {"type": "Feature", "geometry": {"type": "Polygon", "coordinates": [[[120.271563, 31.903167], [120.272862, 31.903112], [120.272992, 31.903626], [120.272538, 31.903636], [120.272631, 31.904106], [120.272377, 31.904144], [120.272411, 31.904236], [120.272336, 31.904258], [120.272268, 31.90411], [120.271679, 31.904203], [120.271596, 31.903676], [120.271563, 31.903167]]]}, "properties": {"display_name": "江阴市辅延中心小学, 南街, 西郊, 澄江街道, 江阴市, 无锡市, 江苏省, 214400, 中国", "type": "school", "osm_type": "way", "osm_id": 1080235524, "class": null, "keyword": "市中心"}}, {"type": "Feature", "geometry": {"type": "Polygon", "coordinates": [[[120.022319, 31.926449], [120.022472, 31.925304], [120.023358, 31.925389], [120.023206, 31.926535], [120.022319, 31.926449]]]}, "properties": {"display_name": "江阴市石庄中心幼儿园, 石璜线, 石庄, 璜土镇, 江阴市, 无锡市, 江苏省, 214400, 中国", "type": "kindergarten", "osm_type": "way", "osm_id": 1221576376, "class": null, "keyword": "市中心"}}, {"type": "Feature", "geometry": {"type": "Polygon", "coordinates": [[[120.348158, 31.922421], [120.348343, 31.921263], [120.349051, 31.921334], [120.349002, 31.921644], [120.349088, 31.92166], [120.349077, 31.922232], [120.349145, 31.92252], [120.348158, 31.922421]]]}, "properties": {"display_name": "江阴市山观中心幼儿园, 龙山大街, 山观, 城东街道, 江阴市, 无锡市, 江苏省, 214400, 中国", "type": "kindergarten", "osm_type": "way", "osm_id": 1080235569, "class": null, "keyword": "市中心"}}, {"type": "Feature", "geometry": {"type": "Polygon", "coordinates": [[[120.358623, 31.860426], [120.358729, 31.85973], [120.359658, 31.859725], [120.359835, 31.85989], [120.359619, 31.860833], [120.359327, 31.860798], [120.359124, 31.860501], [120.358623, 31.860426]]]}, "properties": {"display_name": "江阴市云亭中心幼儿园东区, 黄思巷路, 云亭街道, 江阴市, 无锡市, 江苏省, 214400, 中国", "type": "kindergarten", "osm_type": "way", "osm_id": 1228048005, "class": null, "keyword": "市中心"}}, {"type": "Feature", "geometry": {"type": "Polygon", "coordinates": [[[120.339074, 31.918554], [120.340564, 31.918541], [120.340508, 31.919243], [120.340406, 31.919308], [120.340299, 31.919308], [120.33986, 31.919183], [120.339553, 31.919031], [120.339309, 31.918858], [120.339135, 31.918702], [120.339074, 31.918554]]]}, "properties": {"display_name": "江阴市山观中心幼儿园西区, 带钢路, 山观, 城东街道, 江阴市, 无锡市, 江苏省, 214400, 中国", "type": "kindergarten", "osm_type": "way", "osm_id": 1080533103, "class": null, "keyword": "市中心"}}, {"type": "Feature", "geometry": {"type": "Polygon", "coordinates": [[[120.281865, 31.915226], [120.281955, 31.914841], [120.282257, 31.914906], [120.282187, 31.915116], [120.283255, 31.915411], [120.283072, 31.915862], [120.282062, 31.915554], [120.282111, 31.915402], [120.281952, 31.915347], [120.281978, 31.915253], [120.281865, 31.915226]]]}, "properties": {"display_name": "江阴市花园中心幼儿园, 香叶路, 澄江街道, 江阴市, 无锡市, 江苏省, 214400, 中国", "type": "kindergarten", "osm_type": "way", "osm_id": 1080235544, "class": null, "keyword": "市中心"}}, {"type": "Feature", "geometry": {"type": "Polygon", "coordinates": [[[120.264123, 31.929095], [120.264973, 31.928869], [120.265031, 31.928853], [120.26522, 31.929527], [120.264472, 31.929599], [120.264123, 31.929095]]]}, "properties": {"display_name": "江阴市春申中心幼儿园, 春晓路, 黄山社区, 澄江街道, 江阴市, 无锡市, 江苏省, 214400, 中国", "type": "kindergarten", "osm_type": "way", "osm_id": 1080235552, "class": null, "keyword": "市中心"}}, {"type": "Feature", "geometry": {"type": "Polygon", "coordinates": [[[120.262464, 31.906899], [120.262529, 31.906433], [120.26323, 31.906492], [120.2632, 31.906792], [120.263222, 31.907035], [120.263042, 31.907043], [120.262998, 31.907154], [120.262547, 31.907083], [120.262576, 31.906918], [120.262464, 31.906899]]]}, "properties": {"display_name": "江阴市澄江中心幼儿园, 中街, 西郊, 澄江街道, 江阴市, 无锡市, 江苏省, 214400, 中国", "type": "kindergarten", "osm_type": "way", "osm_id": 1080235508, "class": null, "keyword": "市中心"}}, {"type": "Feature", "geometry": {"type": "Polygon", "coordinates": [[[120.26751, 31.904604], [120.267522, 31.904563], [120.267623, 31.903949], [120.267921, 31.903989], [120.267909, 31.904095], [120.268293, 31.904149], [120.268248, 31.904423], [120.268205, 31.904686], [120.26751, 31.904604]]]}, "properties": {"display_name": "江阴市老年文化活动中心, 澄江街道, 江阴市, 无锡市, 江苏省, 214400, 中国", "type": "commercial", "osm_type": "way", "osm_id": 1220973791, "class": null, "keyword": "市中心"}}, {"type": "Feature", "geometry": {"type": "Polygon", "coordinates": [[[120.284261, 31.878077], [120.284505, 31.877577], [120.285027, 31.877769], [120.285081, 31.877919], [120.284866, 31.878306], [120.284261, 31.878077]]]}, "properties": {"display_name": "江阴市城南社区卫生服务中心, 花北路, 澄江街道, 江阴市, 无锡市, 江苏省, 214400, 中国", "type": "hospital", "osm_type": "way", "osm_id": 1218297275, "class": null, "keyword": "市中心"}}, {"type": "Feature", "geometry": {"type": "Polygon", "coordinates": [[[120.279008, 31.897668], [120.279053, 31.897221], [120.27973, 31.897084], [120.279654, 31.897718], [120.279008, 31.897668]]]}, "properties": {"display_name": "江阴市要塞中心幼儿园, 小河路, 要塞, 澄江街道, 江阴市, 无锡市, 江苏省, 214400, 中国", "type": "kindergarten", "osm_type": "way", "osm_id": 1080235538, "class": null, "keyword": "市中心"}}, {"type": "Feature", "geometry": {"type": "Polygon", "coordinates": [[[120.272538, 31.903636], [120.272992, 31.903626], [120.273077, 31.903617], [120.273135, 31.904076], [120.272652, 31.904171], [120.272631, 31.904106], [120.272538, 31.903636]]]}, "properties": {"display_name": "江阴市辅延中心幼儿园, 南街, 西郊, 澄江街道, 江阴市, 无锡市, 江苏省, 214400, 中国", "type": "kindergarten", "osm_type": "way", "osm_id": 1080533090, "class": null, "keyword": "市中心"}}, {"type": "Feature", "geometry": {"type": "Polygon", "coordinates": [[[120.26471, 31.910808], [120.264769, 31.910227], [120.26513, 31.910253], [120.265085, 31.910846], [120.26471, 31.910808]]]}, "properties": {"display_name": "江阴市城中中心幼儿园, 庙巷, 西郊, 澄江街道, 江阴市, 无锡市, 江苏省, 214400, 中国", "type": "kindergarten", "osm_type": "way", "osm_id": 1080235512, "class": null, "keyword": "市中心"}}]}