{"type": "FeatureCollection", "features": [{"type": "Feature", "geometry": {"type": "Polygon", "coordinates": [[[112.557948, 22.326145], [112.559581, 22.326387], [112.560958, 22.325277], [112.562247, 22.324803], [112.564138, 22.326155], [112.567318, 22.325048], [112.568264, 22.323064], [112.571444, 22.322115], [112.574193, 22.317829], [112.57385, 22.315923], [112.574795, 22.314971], [112.574279, 22.312032], [112.573678, 22.308695], [112.575053, 22.308457], [112.578575, 22.308223], [112.581323, 22.307749], [112.582011, 22.306557], [112.583814, 22.305288], [112.58244, 22.304096], [112.581839, 22.302427], [112.580723, 22.301791], [112.579521, 22.301155], [112.579262, 22.300598], [112.578576, 22.300439], [112.57806, 22.300836], [112.577631, 22.300438], [112.580465, 22.299249], [112.581925, 22.2979], [112.578131, 22.29383], [112.576515, 22.292096], [112.574195, 22.288122], [112.574026, 22.287713], [112.573418, 22.286241], [112.572838, 22.284835], [112.572917, 22.284872], [112.572952, 22.284876], [112.573021, 22.284861], [112.573073, 22.284839], [112.573117, 22.28482], [112.573394, 22.28472], [112.573567, 22.28467], [112.573767, 22.284618], [112.57395, 22.284581], [112.574089, 22.284559], [112.574228, 22.284512], [112.574358, 22.284464], [112.574496, 22.284449], [112.574661, 22.284418], [112.574774, 22.284371], [112.574992, 22.284305], [112.575191, 22.284243], [112.575469, 22.284173], [112.575659, 22.284099], [112.575789, 22.284047], [112.575973, 22.283954], [112.576267, 22.283792], [112.576432, 22.283692], [112.576597, 22.283598], [112.576831, 22.28342], [112.576919, 22.283362], [112.577257, 22.283162], [112.577673, 22.283058], [112.578394, 22.282932], [112.578568, 22.282934], [112.579158, 22.283153], [112.580017, 22.283655], [112.58046, 22.283856], [112.58073, 22.283949], [112.580773, 22.283973], [112.580903, 22.284009], [112.581016, 22.284052], [112.58112, 22.284084], [112.582092, 22.284242], [112.582309, 22.284278], [112.582448, 22.284258], [112.582604, 22.284232], [112.582795, 22.284212], [112.582969, 22.284154], [112.583064, 22.284141], [112.583099, 22.284138], [112.583168, 22.284156], [112.583246, 22.284195], [112.583351, 22.284303], [112.58355, 22.284497], [112.583698, 22.284603], [112.583845, 22.284705], [112.584332, 22.284939], [112.585208, 22.285358], [112.585547, 22.285562], [112.585755, 22.285879], [112.586067, 22.286347], [112.586111, 22.286398], [112.586223, 22.286526], [112.586381, 22.286691], [112.58652, 22.286799], [112.586658, 22.286884], [112.586875, 22.286973], [112.586971, 22.286996], [112.587136, 22.287025], [112.587405, 22.287098], [112.587613, 22.287155], [112.587865, 22.287207], [112.588003, 22.287253], [112.588177, 22.287292], [112.588272, 22.287331], [112.588342, 22.287407], [112.58842, 22.287517], [112.588489, 22.287639], [112.588533, 22.287737], [112.588646, 22.287869], [112.588689, 22.287938], [112.58875, 22.288021], [112.588828, 22.288127], [112.58888, 22.288209], [112.588923, 22.288253], [112.589001, 22.288309], [112.589079, 22.288344], [112.589175, 22.288372], [112.589288, 22.288381], [112.589409, 22.288384], [112.589584, 22.288395], [112.589757, 22.288379], [112.589879, 22.288377], [112.589974, 22.28839], [112.59007, 22.288405], [112.590183, 22.288416], [112.590287, 22.288431], [112.590356, 22.288453], [112.590408, 22.28849], [112.59079, 22.288824], [112.59101, 22.289017], [112.591311, 22.289281], [112.591519, 22.289747], [112.591606, 22.289814], [112.591693, 22.289842], [112.591788, 22.289825], [112.591927, 22.289759], [112.592162, 22.289621], [112.592318, 22.289532], [112.592405, 22.289486], [112.592535, 22.28944], [112.592604, 22.28938], [112.592682, 22.289299], [112.592812, 22.289208], [112.59296, 22.289137], [112.59316, 22.289063], [112.593351, 22.289019], [112.593533, 22.288985], [112.593793, 22.288937], [112.593932, 22.288883], [112.59408, 22.288856], [112.594227, 22.28885], [112.594427, 22.288848], [112.594609, 22.288852], [112.594887, 22.288837], [112.595052, 22.288811], [112.595217, 22.288761], [112.59533, 22.288724], [112.595486, 22.288691], [112.595599, 22.288672], [112.595686, 22.288668], [112.595729, 22.288668], [112.595764, 22.288674], [112.595798, 22.288717], [112.595842, 22.288789], [112.595859, 22.288893], [112.595877, 22.289023], [112.595885, 22.289119], [112.595955, 22.289234], [112.596007, 22.289299], [112.596085, 22.289344], [112.596172, 22.289355], [112.596276, 22.289349], [112.596415, 22.289323], [112.596588, 22.289284], [112.596805, 22.289219], [112.596944, 22.289175], [112.597057, 22.289117], [112.597161, 22.289025], [112.597231, 22.288934], [112.597326, 22.288847], [112.597448, 22.288761], [112.5975, 22.288696], [112.597535, 22.288633], [112.597925, 22.287932], [112.597934, 22.2878], [112.597977, 22.287702], [112.598012, 22.287641], [112.598073, 22.287613], [112.598151, 22.287604], [112.598247, 22.287593], [112.598403, 22.287656], [112.598533, 22.287724], [112.598681, 22.287774], [112.598872, 22.287832], [112.598958, 22.28786], [112.599063, 22.287871], [112.599228, 22.287884], [112.599462, 22.287891], [112.599627, 22.287912], [112.599757, 22.287943], [112.599888, 22.287967], [112.599948, 22.288012], [112.600295, 22.288806], [112.600416, 22.288965], [112.600486, 22.289128], [112.60052, 22.289297], [112.60052, 22.289501], [112.60052, 22.28965], [112.600512, 22.289765], [112.600512, 22.289865], [112.600555, 22.289978], [112.600599, 22.290024], [112.600659, 22.290032], [112.600729, 22.290008], [112.601936, 22.290644], [112.602014, 22.29069], [112.602926, 22.291215], [112.602977, 22.291248], [112.603064, 22.291278], [112.603142, 22.291289], [112.603229, 22.29128], [112.603298, 22.291263], [112.603376, 22.291226], [112.603446, 22.291172], [112.603515, 22.291098], [112.603576, 22.291013], [112.603646, 22.290914], [112.60368, 22.290838], [112.603715, 22.290751], [112.603706, 22.290619], [112.603706, 22.290488], [112.603724, 22.290421], [112.603741, 22.290352], [112.603802, 22.290245], [112.603897, 22.29012], [112.604002, 22.290026], [112.60408, 22.289944], [112.604201, 22.28984], [112.604288, 22.289777], [112.604366, 22.289737], [112.604462, 22.289707], [112.604592, 22.289674], [112.604722, 22.289633], [112.604801, 22.289598], [112.604879, 22.289551], [112.604966, 22.289481], [112.605044, 22.289403], [112.605122, 22.289301], [112.605235, 22.289182], [112.605304, 22.289091], [112.605391, 22.289006], [112.605495, 22.288919], [112.606215, 22.288203], [112.606345, 22.288101], [112.606432, 22.288005], [112.60651, 22.287882], [112.606589, 22.287765], [112.606667, 22.287654], [112.606728, 22.287524], [112.606806, 22.28737], [112.606866, 22.287237], [112.606927, 22.287109], [112.607014, 22.286988], [112.607101, 22.286888], [112.60717, 22.286843], [112.607301, 22.286786], [112.608403, 22.286287], [112.608594, 22.286198], [112.608689, 22.286198], [112.608794, 22.286205], [112.609002, 22.286233], [112.609193, 22.286278], [112.609531, 22.286331], [112.609739, 22.28636], [112.610052, 22.286419], [112.610261, 22.286449], [112.6104, 22.286465], [112.610478, 22.286467], [112.610547, 22.286456], [112.610617, 22.286419], [112.610824, 22.286291], [112.610929, 22.286198], [112.611033, 22.286088], [112.611198, 22.285905], [112.611424, 22.285633], [112.611554, 22.285477], [112.61165, 22.285334], [112.611745, 22.28523], [112.611806, 22.285165], [112.611867, 22.285126], [112.611928, 22.285124], [112.612006, 22.285163], [112.612152, 22.2853], [112.612283, 22.285378], [112.612387, 22.285423], [112.612465, 22.285447], [112.612535, 22.285465], [112.61263, 22.285473], [112.612734, 22.285471], [112.612804, 22.285461], [112.612873, 22.285414], [112.613082, 22.285267], [112.613221, 22.285158], [112.61335, 22.285067], [112.613524, 22.284952], [112.61368, 22.284848], [112.613837, 22.284768], [112.613932, 22.284742], [112.614037, 22.284731], [112.614106, 22.284726], [112.614176, 22.284722], [112.614228, 22.28472], [112.614297, 22.284737], [112.614358, 22.284776], [112.614435, 22.28483], [112.614566, 22.284909], [112.614705, 22.284993], [112.615026, 22.285165], [112.615183, 22.28523], [112.615295, 22.285287], [112.615426, 22.285337], [112.615842, 22.285499], [112.616016, 22.285564], [112.616198, 22.285642], [112.616328, 22.285701], [112.616545, 22.285799], [112.616684, 22.285862], [112.616814, 22.28591], [112.61691, 22.285964], [112.616979, 22.286051], [112.617014, 22.286127], [112.616997, 22.286255], [112.616962, 22.286391], [112.616918, 22.286573], [112.616892, 22.286751], [112.616884, 22.286873], [112.616858, 22.28699], [112.616797, 22.287235], [112.616753, 22.287498], [112.616745, 22.287565], [112.616779, 22.287719], [112.616788, 22.287808], [112.616823, 22.287888], [112.616884, 22.287955], [112.617005, 22.288001], [112.617214, 22.288019], [112.617421, 22.288028], [112.617804, 22.287956], [112.618012, 22.287882], [112.618143, 22.287851], [112.618204, 22.287834], [112.618316, 22.28783], [112.618463, 22.287849], [112.618611, 22.287878], [112.618733, 22.287934], [112.618846, 22.287986], [112.61895, 22.288021], [112.619028, 22.288063], [112.61915, 22.288127], [112.619253, 22.288183], [112.619383, 22.288259], [112.619566, 22.288372], [112.619696, 22.288433], [112.61994, 22.288564], [112.620121, 22.288668], [112.620278, 22.288759], [112.620382, 22.288831], [112.620512, 22.288921], [112.620938, 22.289225], [112.621033, 22.289301], [112.621102, 22.289358], [112.621224, 22.289423], [112.621345, 22.28949], [112.621693, 22.28971], [112.621831, 22.289802], [112.621988, 22.289891], [112.622118, 22.289948], [112.622274, 22.290009], [112.622396, 22.290022], [112.622569, 22.290042], [112.624398, 22.290222], [112.624827, 22.290264], [112.625087, 22.290306], [112.625133, 22.290315], [112.625894, 22.290542], [112.627657, 22.290729], [112.630443, 22.291204], [112.631059, 22.291436], [112.631493, 22.291654], [112.631788, 22.292214], [112.633046, 22.293739], [112.633776, 22.294265], [112.634766, 22.295825], [112.635442, 22.297103], [112.635773, 22.297346], [112.636771, 22.297487], [112.637734, 22.297246], [112.638646, 22.297414], [112.639028, 22.297622], [112.639236, 22.298255], [112.639366, 22.298364], [112.640069, 22.298138], [112.64072, 22.297753], [112.640851, 22.297795], [112.642908, 22.297201], [112.643707, 22.297108], [112.644167, 22.297201], [112.644375, 22.297392], [112.644662, 22.298194], [112.644471, 22.300314], [112.645833, 22.300132], [112.64619, 22.300178], [112.646606, 22.300072], [112.647023, 22.300154], [112.647526, 22.300508], [112.647709, 22.300749], [112.647734, 22.301693], [112.64803, 22.302073], [112.649896, 22.30286], [112.650868, 22.303101], [112.65118, 22.303297], [112.651428, 22.30358], [112.651502, 22.303665], [112.651389, 22.304099], [112.65072, 22.304677], [112.65072, 22.305182], [112.650616, 22.305542], [112.650651, 22.305918], [112.651093, 22.306418], [112.651224, 22.30679], [112.651224, 22.307357], [112.651076, 22.307923], [112.650339, 22.309008], [112.649705, 22.310198], [112.649193, 22.310814], [112.648855, 22.311391], [112.648203, 22.312754], [112.64816, 22.313008], [112.64777, 22.313635], [112.647674, 22.313921], [112.647674, 22.315043], [112.647596, 22.315376], [112.64638, 22.315662], [112.645573, 22.315028], [112.644844, 22.314807], [112.643429, 22.315912], [112.643107, 22.316397], [112.643013, 22.317908], [112.644062, 22.319004], [112.645347, 22.319668], [112.645755, 22.320423], [112.645764, 22.320597], [112.645426, 22.32147], [112.645487, 22.323064], [112.645599, 22.323479], [112.646019, 22.324178], [112.646024, 22.324192], [112.646033, 22.324245], [112.646034, 22.324274], [112.646059, 22.324338], [112.646056, 22.324368], [112.645998, 22.325605], [112.646015, 22.325819], [112.646172, 22.326063], [112.647996, 22.326567], [112.648655, 22.326749], [112.649444, 22.326808], [112.649583, 22.326888], [112.649696, 22.328342], [112.650087, 22.330473], [112.650312, 22.331337], [112.65066, 22.332129], [112.65066, 22.332858], [112.650481, 22.333334], [112.650018, 22.334371], [112.650096, 22.334605], [112.650539, 22.33479], [112.650443, 22.335171], [112.649722, 22.336652], [112.649105, 22.337484], [112.648567, 22.33821], [112.648325, 22.339527], [112.647674, 22.340386], [112.646233, 22.341191], [112.645165, 22.342272], [112.644306, 22.342832], [112.644063, 22.34273], [112.643637, 22.342309], [112.642439, 22.340609], [112.641892, 22.340061], [112.641493, 22.339987], [112.641129, 22.34008], [112.6398, 22.340834], [112.639236, 22.341299], [112.63908, 22.341571], [112.638082, 22.344525], [112.637248, 22.34613], [112.636198, 22.347656], [112.635894, 22.34824], [112.635816, 22.348896], [112.637786, 22.350154], [112.64763, 22.352337], [112.646945, 22.353349], [112.646886, 22.35392], [112.646893, 22.353982], [112.646896, 22.354018], [112.646901, 22.354058], [112.646907, 22.354113], [112.646154, 22.35682], [112.645651, 22.359119], [112.652136, 22.3589], [112.653273, 22.358946], [112.654479, 22.358682], [112.654878, 22.358494], [112.655903, 22.357364], [112.656415, 22.356945], [112.656667, 22.356844], [112.657995, 22.358173], [112.655164, 22.360589], [112.652339, 22.362092], [112.650719, 22.362687], [112.648637, 22.363044], [112.646953, 22.363144], [112.644861, 22.362925], [112.643509, 22.362528], [112.641803, 22.361874], [112.640355, 22.360733], [112.639421, 22.359671], [112.638166, 22.358341], [112.637383, 22.357567], [112.636632, 22.356952], [112.635441, 22.356248], [112.634389, 22.355702], [112.633263, 22.355355], [112.632705, 22.355523], [112.632051, 22.35597], [112.630795, 22.35727], [112.629207, 22.35856], [112.62778, 22.359334], [112.625796, 22.360108], [112.624465, 22.360743], [112.623768, 22.361397], [112.623349, 22.362231], [112.623317, 22.363382], [112.623618, 22.364215], [112.624288, 22.366588], [112.623462, 22.366719], [112.623384, 22.36732], [112.623005, 22.367313], [112.623005, 22.367454], [112.622986, 22.367767], [112.622899, 22.368229], [112.622783, 22.368695], [112.622693, 22.369015], [112.622564, 22.369257], [112.622442, 22.369472], [112.622358, 22.369584], [112.622292, 22.369669], [112.622231, 22.369735], [112.622184, 22.369828], [112.622107, 22.369987], [112.62203, 22.370104], [112.621854, 22.370216], [112.621492, 22.370353], [112.621146, 22.370436], [112.620763, 22.370358], [112.620425, 22.370253], [112.620101, 22.370085], [112.619789, 22.369948], [112.619446, 22.369865], [112.619105, 22.369867], [112.618847, 22.369818], [112.618052, 22.370398], [112.616166, 22.370796], [112.614192, 22.369766], [112.611706, 22.369291], [112.610676, 22.368498], [112.608533, 22.368182], [112.606645, 22.369214], [112.606989, 22.370405], [112.606817, 22.371913], [112.605701, 22.372627], [112.601497, 22.371914], [112.601154, 22.37239], [112.600382, 22.372074], [112.600038, 22.372709], [112.598494, 22.373264], [112.597722, 22.373026], [112.598323, 22.371201], [112.59755, 22.368342], [112.597035, 22.366596], [112.598494, 22.365961], [112.599782, 22.365882], [112.599954, 22.364531], [112.600812, 22.362388], [112.599954, 22.361833], [112.599009, 22.361912], [112.597294, 22.36223], [112.597122, 22.362785], [112.595749, 22.3635], [112.593431, 22.362785], [112.593861, 22.361357], [112.592745, 22.359451], [112.591286, 22.358418], [112.591055, 22.358418], [112.590169, 22.358418], [112.589139, 22.359211], [112.588967, 22.359926], [112.587421, 22.360084], [112.587164, 22.36048], [112.586134, 22.360798], [112.585275, 22.360559], [112.585189, 22.359686], [112.585104, 22.358019], [112.585018, 22.357225], [112.585018, 22.356351], [112.582441, 22.35635], [112.580981, 22.355714], [112.581067, 22.354522], [112.578577, 22.353647], [112.576601, 22.35301], [112.575656, 22.350627], [112.576686, 22.348882], [112.577632, 22.347453], [112.578577, 22.345787], [112.576859, 22.346102], [112.57746, 22.344038], [112.578062, 22.342928], [112.57746, 22.341895], [112.578205, 22.340672], [112.579007, 22.339355], [112.576773, 22.337845], [112.576344, 22.337923], [112.574626, 22.337683], [112.574024, 22.338239], [112.573595, 22.338238], [112.572649, 22.338634], [112.572994, 22.334585], [112.572048, 22.334901], [112.571558, 22.333995], [112.571189, 22.333313], [112.5699, 22.334501], [112.570845, 22.337759], [112.569298, 22.339504], [112.566484, 22.338056], [112.564657, 22.337115], [112.565345, 22.334972], [112.564743, 22.332827], [112.563884, 22.330523], [112.562164, 22.329646], [112.559242, 22.330039], [112.55864, 22.328449], [112.557948, 22.326145]]]}, "properties": {"display_name": "赤坎镇, 开平市, 江门市, 广东省, 中国", "type": "administrative", "osm_type": "relation", "osm_id": 19261632, "class": null, "keyword": "old town"}}, {"type": "Feature", "geometry": {"type": "Polygon", "coordinates": [[[112.908692, 22.794651], [112.908821, 22.793725], [112.909937, 22.791961], [112.912451, 22.789595], [112.912714, 22.792846], [112.914205, 22.792744], [112.914356, 22.794607], [112.911619, 22.794795], [112.911756, 22.796487], [112.911138, 22.796859], [112.909602, 22.796424], [112.908692, 22.794651]]]}, "properties": {"display_name": "鹤山(古劳)万洋众创城, 古劳镇, 鹤山市, 江门市, 广东省, 中国", "type": "industrial", "osm_type": "way", "osm_id": 1308802567, "class": null, "keyword": "老城"}}, {"type": "Feature", "geometry": {"type": "Polygon", "coordinates": [[[112.799734, 22.248131], [112.800641, 22.247506], [112.80114, 22.248091], [112.801077, 22.248199], [112.801264, 22.24828], [112.801439, 22.248527], [112.801464, 22.248816], [112.800241, 22.249019], [112.799734, 22.248131]]]}, "properties": {"display_name": "台城中心小学, 环市东路, 富城社区, 台城街道, 台山市, 江门市, 广东省, 529200, 中国", "type": "school", "osm_type": "way", "osm_id": 860535873, "class": null, "keyword": "中心城区"}}, {"type": "Feature", "geometry": {"type": "Polygon", "coordinates": [[[113.04971, 22.544107], [113.050123, 22.543762], [113.050421, 22.54391], [113.050532, 22.544053], [113.050745, 22.544334], [113.050545, 22.544471], [113.050452, 22.544417], [113.049972, 22.544781], [113.049922, 22.544761], [113.049821, 22.544701], [113.04971, 22.544107]]]}, "properties": {"display_name": "新会区会城都会中学, 会城大道, 会城街道, 新会区, 江门市, 广东省, 529100, 中国", "type": "school", "osm_type": "way", "osm_id": 660407365, "class": null, "keyword": "中心城区"}}, {"type": "Feature", "geometry": {"type": "Polygon", "coordinates": [[[112.947952, 22.827394], [112.947967, 22.827324], [112.948005, 22.827262], [112.948062, 22.827214], [112.948133, 22.827185], [112.948214, 22.827179], [112.948292, 22.827198], [112.948359, 22.82724], [112.948407, 22.827299], [112.948431, 22.827371], [112.948428, 22.827445], [112.948398, 22.827514], [112.948346, 22.827571], [112.948275, 22.827608], [112.948199, 22.827621], [112.948122, 22.827612], [112.948053, 22.82758], [112.947998, 22.827529], [112.947963, 22.827465], [112.947952, 22.827394]]]}, "properties": {"display_name": "华侨城古劳水乡旅游区游客中心, 上灯桥, 古劳镇, 鹤山市, 江门市, 广东省, 中国", "type": "office", "osm_type": "way", "osm_id": 1412745458, "class": null, "keyword": "老城"}}, {"type": "Feature", "geometry": {"type": "Polygon", "coordinates": [[[113.035994, 22.485892], [113.03608, 22.485629], [113.036364, 22.485718], [113.036305, 22.485976], [113.035994, 22.485892]]]}, "properties": {"display_name": "新会交警城南中队, 今洲路, 新会经济开发区, 新会区, 江门市, 广东省, 529100, 中国", "type": "police", "osm_type": "way", "osm_id": 636318869, "class": null, "keyword": "中心城区"}}, {"type": "Feature", "geometry": {"type": "Polygon", "coordinates": [[[113.049701, 22.520966], [113.049778, 22.520822], [113.050066, 22.520942], [113.049974, 22.521099], [113.049701, 22.520966]]]}, "properties": {"display_name": "中国石油(新会中心城市加油站), 侨兴南路, 会城街道, 新会区, 江门市, 广东省, 529100, 中国", "type": "fuel", "osm_type": "way", "osm_id": 660405907, "class": null, "keyword": "中心城区"}}, {"type": "Feature", "geometry": {"type": "Polygon", "coordinates": [[[113.076655, 22.597223], [113.076765, 22.596948], [113.076904, 22.596995], [113.076786, 22.597273], [113.076655, 22.597223]]]}, "properties": {"display_name": "广东省粉体材料应用工程技术研究中心, 汐水街, 白沙街道, 蓬江区, 江门市, 广东省, 529030, 中国", "type": "university", "osm_type": "way", "osm_id": 1133349465, "class": null, "keyword": "中心城区"}}]}