{"type": "FeatureCollection", "features": [{"type": "Feature", "geometry": {"type": "Polygon", "coordinates": [[[116.393645, 35.498768], [116.394606, 35.498642], [116.395495, 35.492267], [116.39596, 35.492152], [116.396446, 35.487813], [116.395811, 35.487568], [116.3958, 35.487421], [116.394868, 35.487136], [116.394876, 35.481975], [116.396969, 35.482085], [116.396977, 35.481436], [116.39809, 35.481438], [116.398118, 35.480546], [116.399007, 35.480555], [116.399001, 35.480997], [116.399365, 35.481], [116.399028, 35.476778], [116.400181, 35.474939], [116.402073, 35.47296], [116.403866, 35.472116], [116.404132, 35.472445], [116.404841, 35.471755], [116.405051, 35.471754], [116.405056, 35.469285], [116.410906, 35.469161], [116.410939, 35.467957], [116.413672, 35.46794], [116.41369, 35.466102], [116.41456, 35.46607], [116.414449, 35.46353], [116.416013, 35.463517], [116.41564, 35.460298], [116.416791, 35.460281], [116.416805, 35.459763], [116.417892, 35.459738], [116.417978, 35.459305], [116.418702, 35.459263], [116.419091, 35.458906], [116.419111, 35.457506], [116.419307, 35.457497], [116.419302, 35.457107], [116.421157, 35.45709], [116.421183, 35.458129], [116.426621, 35.458106], [116.426618, 35.458788], [116.429249, 35.458762], [116.429248, 35.458579], [116.430284, 35.458527], [116.430346, 35.458359], [116.432182, 35.458228], [116.432269, 35.455654], [116.43258, 35.455728], [116.432521, 35.458529], [116.433528, 35.458502], [116.435539, 35.458205], [116.438143, 35.458184], [116.438194, 35.458688], [116.448112, 35.458588], [116.445868, 35.461354], [116.449775, 35.460864], [116.449744, 35.460588], [116.456784, 35.459785], [116.456837, 35.459254], [116.456976, 35.459245], [116.457006, 35.458445], [116.458616, 35.458436], [116.458606, 35.459508], [116.461782, 35.459472], [116.46174, 35.460639], [116.458978, 35.460629], [116.458905, 35.460739], [116.457797, 35.460722], [116.457739, 35.461029], [116.458823, 35.461079], [116.458813, 35.461261], [116.459546, 35.461258], [116.459528, 35.461597], [116.459384, 35.461596], [116.459354, 35.462534], [116.462612, 35.462581], [116.462156, 35.463471], [116.46496, 35.464534], [116.469895, 35.45774], [116.468319, 35.457881], [116.467231, 35.457857], [116.466531, 35.457693], [116.466211, 35.456204], [116.467667, 35.455913], [116.468036, 35.455282], [116.467709, 35.454561], [116.468597, 35.454373], [116.468751, 35.454193], [116.467964, 35.454337], [116.467924, 35.454187], [116.46891, 35.454019], [116.46918, 35.453663], [116.468241, 35.453823], [116.468165, 35.453608], [116.469244, 35.453419], [116.469243, 35.453332], [116.465083, 35.45408], [116.464975, 35.453957], [116.469217, 35.453183], [116.468957, 35.451407], [116.468791, 35.450912], [116.466517, 35.45114], [116.466518, 35.451326], [116.465202, 35.451427], [116.465217, 35.451088], [116.465637, 35.450623], [116.465554, 35.449446], [116.464641, 35.449431], [116.464921, 35.452179], [116.464694, 35.452198], [116.464395, 35.449437], [116.463509, 35.449526], [116.463526, 35.449717], [116.463215, 35.449746], [116.463401, 35.45144], [116.462884, 35.451468], [116.463104, 35.45333], [116.464823, 35.453204], [116.464841, 35.4533], [116.466787, 35.453082], [116.466821, 35.453258], [116.465762, 35.453383], [116.465787, 35.453477], [116.464749, 35.453595], [116.464646, 35.453749], [116.463856, 35.453847], [116.464056, 35.455662], [116.464669, 35.455592], [116.465067, 35.457518], [116.462698, 35.457633], [116.462723, 35.457999], [116.458241, 35.458252], [116.457213, 35.458312], [116.455809, 35.456429], [116.455974, 35.456266], [116.455087, 35.455463], [116.4547, 35.454158], [116.454717, 35.453386], [116.455471, 35.452055], [116.455803, 35.451844], [116.455927, 35.450898], [116.454642, 35.451036], [116.454634, 35.451344], [116.45438, 35.451337], [116.454316, 35.448487], [116.454556, 35.448485], [116.454543, 35.447813], [116.453761, 35.447555], [116.453651, 35.446115], [116.45562, 35.446686], [116.455663, 35.446533], [116.457369, 35.446539], [116.458555, 35.446768], [116.463228, 35.445701], [116.464417, 35.445163], [116.464165, 35.443745], [116.463788, 35.443453], [116.463228, 35.441975], [116.463417, 35.441951], [116.462658, 35.43976], [116.462008, 35.437224], [116.462036, 35.436247], [116.462588, 35.434898], [116.464726, 35.432775], [116.465269, 35.433187], [116.463548, 35.435095], [116.46291, 35.436733], [116.463053, 35.437178], [116.467335, 35.437535], [116.467474, 35.436618], [116.471665, 35.436842], [116.47351, 35.437046], [116.475794, 35.437488], [116.476584, 35.437697], [116.476584, 35.437985], [116.477585, 35.438134], [116.477615, 35.438101], [116.477535, 35.438022], [116.47708, 35.437974], [116.477197, 35.437394], [116.480689, 35.437957], [116.480786, 35.43753], [116.478357, 35.437241], [116.478867, 35.435439], [116.477426, 35.435052], [116.476901, 35.436818], [116.47601, 35.436578], [116.475789, 35.43674], [116.471063, 35.435373], [116.469903, 35.434705], [116.468087, 35.434402], [116.468043, 35.43431], [116.468054, 35.434273], [116.466588, 35.434053], [116.466753, 35.433569], [116.467279, 35.433568], [116.467311, 35.433503], [116.467317, 35.433404], [116.467301, 35.433031], [116.465833, 35.432675], [116.465455, 35.43299], [116.46492, 35.432517], [116.46528, 35.431905], [116.464819, 35.431866], [116.465145, 35.430795], [116.463449, 35.430851], [116.463409, 35.432148], [116.463111, 35.43212], [116.463183, 35.430799], [116.462743, 35.430809], [116.462679, 35.431066], [116.462208, 35.431077], [116.461931, 35.432218], [116.461226, 35.4322], [116.461208, 35.43206], [116.457238, 35.431924], [116.457188, 35.432582], [116.454259, 35.432226], [116.454286, 35.431316], [116.453648, 35.429885], [116.453566, 35.429846], [116.451, 35.429831], [116.4511, 35.425525], [116.452086, 35.425473], [116.452257, 35.423617], [116.454843, 35.423701], [116.455071, 35.419219], [116.456984, 35.419227], [116.457028, 35.417583], [116.458052, 35.417549], [116.458001, 35.416749], [116.458671, 35.416737], [116.458625, 35.415733], [116.458921, 35.41574], [116.458925, 35.415164], [116.459342, 35.415166], [116.459344, 35.414909], [116.459988, 35.414848], [116.460001, 35.414203], [116.459735, 35.41419], [116.459737, 35.413788], [116.460038, 35.41375], [116.460037, 35.411671], [116.4569, 35.411874], [116.456863, 35.411703], [116.455582, 35.412082], [116.455592, 35.406664], [116.452506, 35.396982], [116.452916, 35.396983], [116.452854, 35.395171], [116.450767, 35.395257], [116.450256, 35.394865], [116.450239, 35.393919], [116.449328, 35.393975], [116.443314, 35.389347], [116.445451, 35.389211], [116.444803, 35.387563], [116.445693, 35.387406], [116.445626, 35.387067], [116.446266, 35.386773], [116.446234, 35.386363], [116.444457, 35.386639], [116.444514, 35.385905], [116.446189, 35.385646], [116.446225, 35.38335], [116.446722, 35.383303], [116.446783, 35.381941], [116.449322, 35.381939], [116.449393, 35.381384], [116.44877, 35.381368], [116.448484, 35.379745], [116.449433, 35.379606], [116.449681, 35.377175], [116.451229, 35.377193], [116.451169, 35.37577], [116.452078, 35.375607], [116.452096, 35.375086], [116.455178, 35.374638], [116.455306, 35.373613], [116.455789, 35.373593], [116.455834, 35.372911], [116.457389, 35.372795], [116.457557, 35.370518], [116.457911, 35.370482], [116.458027, 35.369134], [116.458531, 35.36907], [116.458529, 35.367867], [116.459187, 35.368144], [116.459241, 35.365146], [116.456951, 35.366041], [116.456829, 35.365818], [116.454115, 35.365696], [116.454094, 35.365197], [116.452328, 35.365209], [116.452221, 35.364851], [116.45155, 35.364778], [116.451366, 35.363987], [116.45078, 35.363985], [116.451064, 35.363069], [116.449637, 35.362972], [116.449237, 35.364123], [116.448527, 35.364016], [116.44884, 35.362401], [116.448432, 35.36241], [116.44853, 35.361481], [116.447303, 35.362188], [116.447305, 35.360592], [116.447027, 35.36059], [116.447029, 35.360362], [116.445994, 35.360357], [116.446122, 35.359079], [116.444744, 35.359065], [116.44498, 35.357097], [116.444214, 35.357041], [116.444684, 35.354421], [116.444941, 35.35455], [116.445576, 35.353569], [116.445724, 35.353563], [116.446339, 35.352726], [116.445233, 35.352304], [116.444545, 35.352925], [116.444508, 35.352404], [116.444274, 35.352064], [116.444039, 35.352577], [116.442323, 35.352569], [116.442348, 35.351054], [116.444351, 35.351177], [116.444629, 35.348943], [116.444234, 35.348432], [116.445986, 35.347686], [116.446885, 35.346861], [116.447321, 35.345581], [116.443835, 35.345562], [116.443832, 35.345928], [116.443602, 35.345949], [116.443555, 35.347013], [116.442661, 35.347031], [116.442708, 35.345989], [116.441754, 35.34598], [116.442674, 35.344034], [116.440248, 35.34398], [116.439908, 35.344191], [116.437567, 35.344482], [116.437522, 35.344333], [116.437008, 35.344373], [116.43707, 35.342409], [116.436685, 35.342403], [116.436223, 35.339689], [116.436626, 35.337775], [116.435619, 35.337858], [116.435636, 35.336344], [116.43654, 35.336308], [116.436536, 35.33689], [116.436862, 35.336895], [116.437031, 35.335117], [116.437768, 35.335104], [116.437779, 35.334473], [116.438047, 35.334352], [116.438056, 35.334097], [116.437408, 35.334007], [116.437431, 35.333708], [116.437883, 35.333652], [116.437877, 35.333524], [116.438683, 35.333356], [116.438685, 35.333096], [116.438581, 35.333092], [116.43859, 35.332491], [116.438715, 35.332496], [116.438713, 35.332001], [116.439203, 35.331935], [116.439193, 35.331799], [116.43886, 35.331793], [116.438868, 35.331392], [116.437404, 35.331104], [116.437201, 35.332845], [116.436625, 35.332725], [116.436777, 35.332416], [116.435679, 35.332101], [116.435634, 35.332231], [116.435445, 35.332186], [116.435184, 35.332562], [116.429191, 35.331346], [116.428859, 35.332748], [116.428455, 35.332681], [116.428629, 35.331939], [116.427759, 35.331818], [116.427594, 35.332413], [116.425071, 35.332326], [116.425069, 35.332143], [116.422902, 35.33215], [116.422906, 35.332456], [116.421344, 35.332485], [116.421333, 35.332036], [116.420616, 35.332079], [116.420755, 35.329836], [116.420518, 35.329826], [116.420339, 35.331538], [116.420007, 35.331521], [116.420259, 35.329776], [116.419893, 35.329737], [116.41981, 35.330467], [116.419513, 35.330495], [116.419555, 35.32973], [116.418588, 35.329629], [116.418883, 35.327972], [116.420256, 35.328019], [116.420168, 35.325845], [116.419367, 35.325847], [116.419071, 35.323791], [116.418947, 35.323761], [116.418675, 35.322238], [116.418296, 35.322197], [116.417755, 35.320682], [116.41717, 35.320407], [116.416649, 35.318843], [116.416027, 35.318902], [116.415631, 35.317354], [116.414167, 35.318455], [116.414081, 35.318398], [116.412602, 35.320329], [116.412488, 35.320265], [116.413915, 35.31823], [116.413368, 35.317941], [116.41356, 35.317216], [116.415244, 35.31616], [116.416651, 35.316898], [116.41866, 35.314559], [116.41717, 35.314243], [116.418611, 35.312889], [116.419504, 35.31267], [116.419645, 35.312899], [116.420063, 35.312766], [116.420226, 35.312961], [116.42318, 35.311642], [116.422519, 35.310589], [116.423924, 35.309928], [116.425612, 35.3091], [116.42713, 35.306635], [116.429337, 35.303952], [116.43638, 35.296905], [116.438178, 35.294097], [116.439641, 35.292603], [116.445541, 35.288623], [116.448692, 35.285578], [116.450029, 35.284643], [116.452287, 35.283758], [116.457241, 35.283054], [116.461515, 35.282093], [116.466435, 35.281413], [116.47234, 35.279606], [116.47929, 35.27808], [116.48207, 35.28392], [116.479467, 35.284729], [116.481011, 35.287804], [116.483728, 35.286854], [116.48218, 35.283722], [116.485554, 35.283312], [116.485643, 35.28353], [116.489782, 35.283043], [116.489943, 35.283469], [116.492828, 35.282542], [116.489412, 35.276032], [116.49076, 35.275832], [116.492013, 35.275261], [116.505822, 35.272393], [116.503194, 35.266853], [116.505927, 35.265035], [116.508599, 35.263841], [116.508532, 35.263523], [116.510888, 35.262533], [116.510737, 35.26235], [116.51264, 35.261227], [116.512303, 35.260506], [116.510489, 35.261159], [116.508187, 35.257576], [116.50897, 35.257223], [116.508196, 35.25595], [116.508332, 35.255887], [116.507634, 35.254958], [116.509385, 35.254185], [116.508965, 35.253354], [116.508283, 35.253776], [116.507698, 35.253111], [116.503015, 35.256132], [116.504727, 35.258391], [116.494768, 35.263797], [116.494183, 35.263104], [116.491748, 35.264547], [116.491051, 35.263747], [116.490107, 35.264276], [116.486442, 35.260075], [116.487989, 35.259471], [116.486926, 35.258546], [116.487626, 35.258251], [116.481916, 35.251584], [116.485789, 35.248862], [116.483715, 35.247495], [116.484419, 35.246842], [116.487025, 35.248321], [116.48857, 35.247099], [116.487356, 35.246277], [116.488024, 35.245767], [116.486901, 35.244789], [116.491234, 35.241178], [116.487715, 35.241628], [116.487786, 35.242655], [116.483645, 35.242734], [116.482662, 35.246699], [116.473955, 35.240293], [116.474348, 35.248046], [116.459817, 35.247046], [116.459773, 35.244425], [116.453772, 35.2442], [116.45402, 35.242662], [116.452395, 35.242764], [116.452397, 35.242481], [116.450728, 35.242607], [116.45076, 35.242921], [116.449125, 35.243037], [116.449119, 35.242588], [116.448858, 35.242607], [116.448823, 35.241309], [116.446396, 35.241357], [116.446167, 35.239424], [116.44378, 35.238369], [116.443716, 35.238716], [116.443167, 35.238714], [116.443279, 35.236892], [116.443789, 35.237017], [116.443972, 35.234003], [116.442487, 35.233904], [116.442475, 35.234431], [116.439886, 35.234419], [116.439561, 35.232745], [116.434977, 35.233104], [116.435076, 35.233421], [116.432982, 35.233542], [116.432978, 35.233266], [116.432043, 35.233328], [116.431983, 35.231014], [116.429604, 35.231172], [116.429211, 35.22928], [116.429059, 35.22927], [116.428549, 35.226792], [116.430546, 35.225178], [116.425936, 35.225394], [116.424996, 35.22278], [116.423878, 35.222369], [116.424136, 35.221953], [116.422885, 35.221368], [116.420613, 35.219439], [116.418318, 35.220464], [116.417921, 35.21867], [116.418923, 35.218683], [116.418452, 35.218306], [116.418953, 35.218028], [116.418182, 35.217265], [116.418725, 35.217048], [116.420358, 35.216908], [116.422096, 35.21518], [116.424512, 35.214279], [116.427939, 35.213397], [116.428679, 35.214266], [116.430629, 35.213773], [116.430415, 35.211746], [116.429532, 35.211945], [116.429432, 35.21087], [116.429215, 35.210705], [116.428756, 35.20929], [116.428261, 35.208524], [116.428196, 35.207669], [116.425233, 35.207975], [116.425194, 35.207779], [116.427544, 35.207487], [116.427491, 35.207104], [116.427845, 35.207075], [116.427733, 35.206548], [116.428203, 35.206319], [116.428991, 35.203555], [116.429422, 35.203486], [116.429509, 35.203167], [116.42977, 35.203106], [116.429734, 35.20169], [116.431134, 35.201543], [116.430356, 35.198065], [116.431585, 35.197509], [116.431995, 35.198236], [116.434503, 35.197161], [116.435766, 35.196143], [116.439988, 35.196865], [116.440545, 35.194921], [116.442095, 35.195388], [116.444078, 35.195452], [116.444619, 35.193308], [116.443263, 35.193021], [116.444706, 35.190093], [116.446038, 35.19015], [116.44722, 35.187366], [116.446354, 35.187124], [116.446445, 35.185649], [116.44998, 35.184842], [116.448346, 35.182552], [116.449563, 35.181915], [116.449977, 35.18244], [116.45161, 35.180908], [116.452225, 35.181284], [116.454246, 35.18447], [116.455664, 35.184217], [116.455769, 35.184743], [116.45657, 35.184614], [116.465508, 35.18442], [116.466853, 35.183748], [116.468994, 35.182159], [116.476358, 35.177629], [116.476389, 35.176963], [116.479412, 35.176735], [116.479507, 35.177464], [116.479899, 35.177446], [116.480026, 35.176457], [116.477075, 35.176027], [116.477884, 35.172107], [116.47736, 35.171895], [116.478189, 35.169799], [116.480382, 35.170407], [116.48097, 35.167684], [116.480993, 35.160317], [116.485575, 35.160204], [116.485603, 35.160671], [116.486724, 35.160833], [116.487034, 35.160617], [116.488042, 35.1608], [116.488191, 35.160477], [116.488834, 35.160574], [116.489657, 35.157942], [116.490541, 35.153603], [116.487641, 35.153023], [116.488527, 35.149033], [116.489524, 35.149062], [116.489717, 35.146486], [116.489158, 35.146141], [116.489318, 35.145666], [116.487044, 35.145117], [116.48689, 35.145441], [116.485526, 35.145104], [116.48625, 35.143051], [116.485435, 35.142937], [116.48591, 35.140771], [116.488397, 35.140872], [116.488692, 35.140754], [116.489726, 35.140841], [116.489862, 35.140202], [116.490026, 35.140056], [116.490186, 35.137413], [116.490341, 35.137233], [116.490403, 35.135228], [116.492426, 35.135327], [116.493347, 35.134572], [116.493355, 35.132929], [116.494516, 35.132954], [116.494492, 35.13338], [116.495311, 35.1334], [116.495332, 35.133215], [116.496265, 35.13321], [116.496266, 35.133], [116.497435, 35.132961], [116.496988, 35.131941], [116.499613, 35.131932], [116.499743, 35.131722], [116.501636, 35.132005], [116.501767, 35.132051], [116.501797, 35.133369], [116.502792, 35.133383], [116.502792, 35.133907], [116.505072, 35.133856], [116.50504, 35.133402], [116.507628, 35.133321], [116.507569, 35.132531], [116.505734, 35.130934], [116.507134, 35.129794], [116.508915, 35.131145], [116.529378, 35.154635], [116.531927, 35.157564], [116.535468, 35.160291], [116.558292, 35.168087], [116.561711, 35.169136], [116.565053, 35.169699], [116.568834, 35.169538], [116.594072, 35.167561], [116.593215, 35.170149], [116.595035, 35.170403], [116.595082, 35.170259], [116.595705, 35.170432], [116.596151, 35.170648], [116.596556, 35.170763], [116.595159, 35.175761], [116.594789, 35.175578], [116.594577, 35.175636], [116.594313, 35.176797], [116.59426, 35.177964], [116.594037, 35.178324], [116.593291, 35.178833], [116.592234, 35.17853], [116.59187, 35.178885], [116.591553, 35.180498], [116.590724, 35.180306], [116.590061, 35.182644], [116.590378, 35.182716], [116.589515, 35.185836], [116.589117, 35.186674], [116.589086, 35.186738], [116.58874, 35.187247], [116.588675, 35.187502], [116.588875, 35.187833], [116.588352, 35.189426], [116.588281, 35.189877], [116.586914, 35.194748], [116.58585, 35.198497], [116.585339, 35.200201], [116.585357, 35.200657], [116.585744, 35.20142], [116.584517, 35.204054], [116.586132, 35.203301], [116.586584, 35.204726], [116.587471, 35.207956], [116.587876, 35.208843], [116.588164, 35.209808], [116.588182, 35.210729], [116.588305, 35.211415], [116.588663, 35.211842], [116.590067, 35.212769], [116.590971, 35.213608], [116.5914, 35.214371], [116.591594, 35.214846], [116.591506, 35.216957], [116.591194, 35.221213], [116.591165, 35.22366], [116.591511, 35.22803], [116.592275, 35.233701], [116.58992, 35.233931], [116.590026, 35.235245], [116.589527, 35.235826], [116.588728, 35.236368], [116.587089, 35.236694], [116.586191, 35.236776], [116.585151, 35.239064], [116.584529, 35.23879], [116.5843, 35.240296], [116.584558, 35.240872], [116.584241, 35.241141], [116.583607, 35.240829], [116.582573, 35.240637], [116.581464, 35.245163], [116.578932, 35.245649], [116.577364, 35.246316], [116.576271, 35.246846], [116.57485, 35.248235], [116.573898, 35.250546], [116.572683, 35.254191], [116.572231, 35.25503], [116.57155, 35.258866], [116.573267, 35.265769], [116.573082, 35.27108], [116.575737, 35.271569], [116.576324, 35.271608], [116.576512, 35.272461], [116.577816, 35.272519], [116.578485, 35.272619], [116.580247, 35.272596], [116.581063, 35.273962], [116.580741, 35.274298], [116.581017, 35.274389], [116.581404, 35.275348], [116.579096, 35.275808], [116.57919, 35.277031], [116.579031, 35.278315], [116.578996, 35.279922], [116.576594, 35.281882], [116.578585, 35.282477], [116.577628, 35.286657], [116.577117, 35.287122], [116.577052, 35.290483], [116.576988, 35.291063], [116.577082, 35.29147], [116.580793, 35.29472], [116.582097, 35.296125], [116.582643, 35.296997], [116.589362, 35.296983], [116.590937, 35.297176], [116.591871, 35.297684], [116.609406, 35.299705], [116.609395, 35.299293], [116.609994, 35.299326], [116.611344, 35.299399], [116.612983, 35.299073], [116.613682, 35.299576], [116.614721, 35.300664], [116.614851, 35.301915], [116.615491, 35.30343], [116.618333, 35.305002], [116.618635, 35.30582], [116.618656, 35.305879], [116.618603, 35.306535], [116.617358, 35.308936], [116.619144, 35.312497], [116.621676, 35.31414], [116.624055, 35.315256], [116.624155, 35.315175], [116.624122, 35.315019], [116.623923, 35.314598], [116.625377, 35.303227], [116.625516, 35.302418], [116.625477, 35.302137], [116.626627, 35.293063], [116.629582, 35.293171], [116.629833, 35.291282], [116.626825, 35.291045], [116.627195, 35.288094], [116.630329, 35.285973], [116.632933, 35.283923], [116.635762, 35.28246], [116.637818, 35.281829], [116.64033, 35.281138], [116.64111, 35.28096], [116.644336, 35.280674], [116.645043, 35.280372], [116.645644, 35.279908], [116.647548, 35.278802], [116.655408, 35.275737], [116.658237, 35.271916], [116.661243, 35.268222], [116.663684, 35.265013], [116.663737, 35.261424], [116.666433, 35.258509], [116.665944, 35.257997], [116.66532, 35.257815], [116.663115, 35.258164], [116.658898, 35.254537], [116.660141, 35.253846], [116.65977, 35.249743], [116.661, 35.248998], [116.657338, 35.246418], [116.659655, 35.244357], [116.661158, 35.241659], [116.660814, 35.240257], [116.665492, 35.237873], [116.67798, 35.252663], [116.686435, 35.26188], [116.685061, 35.262581], [116.68386, 35.26633], [116.684761, 35.267592], [116.689696, 35.267907], [116.691713, 35.269729], [116.693001, 35.269449], [116.699181, 35.274529], [116.701455, 35.275895], [116.704931, 35.277927], [116.706777, 35.278383], [116.709738, 35.281466], [116.710768, 35.284338], [116.718578, 35.285775], [116.717462, 35.29278], [116.717806, 35.297194], [116.719351, 35.299436], [116.728449, 35.300626], [116.730337, 35.302308], [116.730509, 35.308051], [116.732998, 35.311833], [116.739572, 35.318458], [116.739283, 35.32101], [116.735704, 35.325467], [116.736256, 35.32558], [116.735365, 35.327783], [116.735892, 35.328387], [116.737022, 35.330585], [116.734956, 35.330765], [116.734912, 35.330959], [116.73684, 35.330821], [116.736909, 35.33139], [116.735145, 35.331482], [116.735189, 35.331723], [116.734642, 35.331769], [116.734667, 35.332025], [116.735258, 35.331987], [116.735415, 35.33326], [116.741506, 35.333198], [116.742882, 35.337951], [116.745033, 35.346412], [116.753662, 35.357078], [116.758881, 35.364807], [116.752899, 35.373379], [116.749428, 35.381458], [116.756283, 35.386982], [116.759205, 35.392552], [116.74984, 35.402267], [116.747864, 35.403625], [116.745323, 35.405666], [116.741943, 35.407245], [116.739677, 35.408371], [116.737427, 35.408577], [116.732384, 35.40945], [116.727348, 35.408489], [116.724274, 35.407772], [116.72036, 35.407738], [116.717552, 35.408169], [116.714737, 35.40929], [116.712479, 35.410191], [116.709381, 35.411766], [116.706268, 35.413799], [116.695447, 35.415355], [116.695763, 35.417717], [116.698097, 35.417655], [116.698236, 35.419701], [116.699502, 35.419675], [116.699481, 35.422158], [116.700189, 35.422525], [116.699916, 35.422918], [116.703301, 35.425122], [116.703247, 35.427097], [116.703665, 35.427089], [116.703649, 35.428374], [116.701477, 35.428356], [116.701498, 35.430415], [116.701841, 35.430441], [116.701922, 35.431084], [116.702957, 35.431136], [116.702936, 35.433173], [116.70314, 35.436757], [116.701841, 35.436792], [116.701809, 35.439126], [116.699642, 35.438969], [116.699138, 35.44451], [116.698494, 35.444484], [116.698542, 35.441884], [116.69572, 35.441893], [116.695651, 35.44045], [116.692486, 35.44035], [116.692384, 35.442155], [116.68934, 35.442037], [116.689278, 35.442832], [116.688884, 35.442458], [116.688637, 35.442686], [116.686615, 35.440771], [116.686328, 35.44113], [116.685555, 35.449204], [116.686585, 35.449886], [116.685448, 35.459132], [116.686928, 35.459394], [116.686649, 35.461788], [116.685555, 35.465162], [116.684632, 35.467067], [116.683795, 35.470736], [116.681736, 35.470334], [116.683602, 35.472362], [116.681736, 35.481675], [116.681156, 35.481675], [116.680899, 35.484122], [116.681525, 35.487056], [116.677465, 35.489049], [116.675905, 35.495379], [116.671991, 35.495613], [116.665404, 35.497155], [116.666443, 35.499653], [116.664993, 35.502849], [116.663849, 35.504669], [116.663254, 35.507648], [116.662086, 35.510387], [116.660926, 35.512668], [116.660057, 35.514496], [116.658363, 35.51654], [116.656082, 35.518352], [116.656215, 35.520079], [116.656326, 35.520648], [116.657418, 35.523182], [116.657959, 35.525025], [116.658203, 35.527546], [116.656753, 35.531204], [116.654198, 35.533241], [116.651382, 35.534134], [116.648552, 35.53548], [116.646301, 35.536148], [116.643494, 35.537037], [116.640953, 35.537243], [116.638153, 35.537674], [116.635322, 35.538563], [116.632133, 35.53878], [116.628213, 35.539545], [116.622802, 35.539729], [116.621788, 35.543476], [116.619232, 35.545513], [116.615257, 35.548458], [116.610458, 35.55093], [116.609016, 35.552978], [116.60646, 35.555706], [116.603332, 35.558655], [116.599358, 35.561828], [116.596512, 35.564552], [116.593941, 35.567734], [116.591026, 35.569958], [116.584572, 35.570396], [116.58036, 35.569465], [116.575317, 35.567386], [116.5728, 35.566921], [116.56971, 35.56691], [116.567467, 35.565299], [116.564392, 35.56414], [116.559914, 35.562523], [116.557663, 35.561596], [116.554588, 35.559753], [116.551514, 35.55814], [116.549553, 35.556755], [116.547599, 35.554455], [116.545639, 35.552845], [116.544533, 35.551235], [116.542572, 35.548244], [116.53978, 35.545715], [116.536713, 35.543182], [116.534752, 35.541339], [116.532516, 35.539955], [116.529999, 35.537655], [116.526642, 35.536495], [116.523559, 35.536026], [116.52047, 35.536014], [116.51654, 35.536003], [116.514023, 35.536224], [116.511208, 35.537128], [116.507561, 35.537575], [116.504471, 35.537792], [116.501099, 35.538467], [116.497452, 35.539375], [116.494926, 35.539364], [116.492401, 35.539581], [116.490705, 35.539483], [116.48819, 35.539337], [116.484543, 35.539322], [116.481453, 35.539772], [116.478653, 35.539989], [116.474441, 35.540432], [116.471916, 35.54042], [116.469673, 35.540413], [116.46743, 35.540172], [116.462662, 35.539924], [116.459572, 35.539912], [116.456757, 35.540359], [116.45311, 35.541263], [116.449737, 35.542396], [116.447197, 35.544449], [116.444382, 35.547191], [116.44297, 35.54879], [116.441559, 35.550388], [116.440422, 35.552444], [116.439567, 35.555195], [116.438148, 35.557254], [116.436447, 35.559311], [116.432793, 35.56113], [116.42971, 35.561115], [116.427467, 35.56065], [116.424667, 35.5588], [116.4216, 35.556263], [116.420196, 35.554653], [116.419937, 35.552818], [116.419388, 35.550983], [116.418854, 35.547996], [116.418854, 35.545933], [116.419152, 35.54364], [116.419449, 35.541118], [116.420303, 35.538601], [116.421722, 35.536773], [116.423424, 35.534717], [116.425667, 35.531746], [116.426811, 35.529457], [116.427673, 35.527626], [116.427963, 35.525562], [116.427696, 35.521663], [116.425758, 35.519135], [116.422684, 35.517055], [116.420441, 35.516128], [116.417374, 35.515198], [116.414001, 35.514953], [116.409798, 35.514248], [116.406047, 35.512776], [116.404205, 35.511459], [116.401847, 35.513672], [116.400112, 35.512063], [116.396943, 35.506756], [116.394226, 35.507078], [116.393645, 35.498768]]]}, "properties": {"display_name": "任城区, 济宁市, 山东省, 中国", "type": "administrative", "osm_type": "relation", "osm_id": 3286953, "class": null, "keyword": "district"}}, {"type": "Feature", "geometry": {"type": "Polygon", "coordinates": [[[116.544604, 35.35398], [116.556002, 35.350784], [116.55708, 35.351019], [116.556905, 35.352215], [116.556315, 35.353751], [116.556378, 35.353767], [116.55601, 35.355125], [116.556142, 35.355218], [116.557716, 35.355545], [116.559826, 35.348571], [116.560343, 35.346864], [116.560428, 35.346587], [116.56379, 35.335019], [116.564972, 35.331943], [116.567748, 35.326546], [116.569384, 35.326959], [116.57211, 35.319934], [116.575245, 35.319969], [116.575044, 35.319605], [116.574465, 35.31376], [116.574415, 35.312567], [116.574551, 35.311769], [116.575005, 35.310783], [116.576146, 35.309128], [116.576998, 35.308159], [116.579296, 35.306188], [116.580054, 35.305207], [116.580541, 35.304365], [116.580746, 35.303835], [116.581028, 35.303879], [116.581828, 35.302141], [116.582983, 35.297785], [116.583866, 35.297777], [116.584204, 35.297579], [116.584633, 35.297535], [116.585019, 35.297816], [116.585706, 35.29775], [116.586308, 35.297568], [116.587363, 35.297502], [116.588911, 35.297559], [116.590519, 35.297718], [116.590215, 35.299814], [116.59017, 35.301017], [116.590411, 35.301178], [116.590569, 35.301759], [116.591379, 35.301771], [116.592244, 35.3017], [116.592456, 35.301328], [116.592321, 35.300956], [116.592099, 35.30082], [116.59166, 35.300732], [116.59143, 35.300541], [116.591158, 35.300571], [116.590916, 35.300362], [116.590463, 35.300207], [116.590454, 35.299257], [116.590618, 35.297927], [116.590698, 35.29779], [116.590986, 35.297666], [116.591608, 35.297726], [116.591871, 35.297684], [116.609406, 35.299705], [116.609395, 35.299293], [116.609994, 35.299326], [116.611344, 35.299399], [116.612983, 35.299073], [116.613682, 35.299576], [116.614721, 35.300664], [116.614851, 35.301915], [116.615491, 35.30343], [116.618333, 35.305002], [116.618635, 35.30582], [116.618656, 35.305879], [116.618603, 35.306535], [116.617358, 35.308936], [116.619144, 35.312497], [116.621676, 35.31414], [116.624055, 35.315256], [116.622877, 35.327521], [116.630044, 35.328081], [116.629543, 35.333468], [116.628928, 35.340089], [116.631288, 35.340347], [116.630676, 35.346374], [116.635378, 35.350315], [116.634675, 35.3508], [116.633804, 35.350086], [116.626438, 35.344043], [116.622154, 35.339994], [116.621364, 35.342235], [116.621039, 35.351147], [116.61986, 35.351199], [116.619877, 35.35238], [116.618222, 35.352363], [116.617429, 35.370464], [116.619276, 35.378987], [116.617503, 35.378999], [116.618393, 35.382605], [116.616644, 35.383058], [116.616028, 35.383096], [116.613556, 35.383663], [116.612291, 35.380855], [116.611044, 35.381323], [116.611352, 35.378936], [116.611182, 35.379015], [116.607942, 35.378991], [116.608235, 35.376008], [116.605563, 35.375697], [116.605532, 35.375773], [116.605333, 35.375748], [116.605208, 35.376461], [116.604223, 35.376447], [116.603752, 35.37838], [116.600308, 35.378148], [116.600208, 35.378715], [116.600101, 35.37872], [116.59903, 35.377206], [116.597668, 35.376993], [116.597466, 35.377342], [116.596837, 35.379096], [116.595827, 35.378802], [116.596382, 35.377737], [116.595484, 35.377359], [116.596513, 35.375674], [116.596637, 35.375747], [116.59708, 35.375], [116.597301, 35.374389], [116.596816, 35.3744], [116.594725, 35.377123], [116.593194, 35.380422], [116.592144, 35.38017], [116.59189, 35.380814], [116.589294, 35.380423], [116.589253, 35.380618], [116.588579, 35.38046], [116.587897, 35.382801], [116.586696, 35.382535], [116.586581, 35.382678], [116.586373, 35.382934], [116.583888, 35.382591], [116.583911, 35.382244], [116.582517, 35.38213], [116.582509, 35.381864], [116.582412, 35.381772], [116.580753, 35.381644], [116.580807, 35.379512], [116.579057, 35.379459], [116.579263, 35.380034], [116.579025, 35.381981], [116.578875, 35.381991], [116.578754, 35.381024], [116.578486, 35.381042], [116.577782, 35.379832], [116.577638, 35.379834], [116.577191, 35.381182], [116.576705, 35.381191], [116.576671, 35.382093], [116.572734, 35.382457], [116.571786, 35.381626], [116.570521, 35.381767], [116.568705, 35.377302], [116.567674, 35.376809], [116.568085, 35.378206], [116.567616, 35.378197], [116.567642, 35.378956], [116.567129, 35.378996], [116.567081, 35.378448], [116.566223, 35.378487], [116.566747, 35.376532], [116.564297, 35.376666], [116.5629, 35.376317], [116.56093, 35.376009], [116.561235, 35.37519], [116.560099, 35.374958], [116.559372, 35.3748], [116.559123, 35.374746], [116.559045, 35.373201], [116.558674, 35.373186], [116.558597, 35.371918], [116.556365, 35.371957], [116.556343, 35.370612], [116.556471, 35.369227], [116.553578, 35.368692], [116.555197, 35.363534], [116.5514, 35.363792], [116.551324, 35.361998], [116.550737, 35.362025], [116.550734, 35.361442], [116.548847, 35.361478], [116.548618, 35.35893], [116.547186, 35.358867], [116.546981, 35.357274], [116.54561, 35.35737], [116.545573, 35.355283], [116.544606, 35.355351], [116.544604, 35.35398]]]}, "properties": {"display_name": "许庄街道, 任城区, 济宁市, 山东省, 272067, 中国", "type": "administrative", "osm_type": "relation", "osm_id": 13667801, "class": null, "keyword": "subdistrict"}}, {"type": "Feature", "geometry": {"type": "Polygon", "coordinates": [[[116.955869, 35.397327], [116.955879, 35.397317], [116.957823, 35.395177], [116.960207, 35.391573], [116.961799, 35.386699], [116.966322, 35.386921], [116.966637, 35.38418], [116.965293, 35.384033], [116.965501, 35.382799], [116.964339, 35.382671], [116.964395, 35.379996], [116.959996, 35.379318], [116.961186, 35.373323], [116.965367, 35.37395], [116.96719, 35.366666], [116.967745, 35.366649], [116.969322, 35.360822], [116.969536, 35.359757], [116.968221, 35.359662], [116.968096, 35.357312], [116.966609, 35.357351], [116.966573, 35.356521], [116.964956, 35.356529], [116.964969, 35.354493], [116.966798, 35.354053], [116.966901, 35.350921], [116.966892, 35.350921], [116.966922, 35.350794], [116.966997, 35.350472], [116.969277, 35.350411], [116.969325, 35.350054], [116.96967, 35.35006], [116.969699, 35.349314], [116.970078, 35.349334], [116.972162, 35.350799], [116.97175, 35.351741], [116.978147, 35.352208], [116.978061, 35.35296], [116.979989, 35.353121], [116.980061, 35.352977], [116.980357, 35.351712], [116.982279, 35.351852], [116.982299, 35.352497], [116.984064, 35.352229], [116.984227, 35.354506], [116.987441, 35.354497], [116.987494, 35.355225], [116.987696, 35.354497], [116.988178, 35.355213], [116.98867, 35.353673], [116.988781, 35.354636], [116.989773, 35.355096], [116.99067, 35.356534], [116.992961, 35.356278], [116.994214, 35.356812], [116.994382, 35.35822], [116.993969, 35.358686], [116.994816, 35.363473], [116.995939, 35.363533], [116.996615, 35.364036], [117.00141, 35.364214], [117.003056, 35.364896], [117.003517, 35.364545], [117.003639, 35.363281], [117.002696, 35.362747], [117.002838, 35.361919], [117.003749, 35.361006], [117.003733, 35.358973], [117.00345, 35.357177], [117.002766, 35.356313], [117.003785, 35.355813], [117.005239, 35.355869], [117.005249, 35.355427], [117.003741, 35.35525], [117.005965, 35.354994], [117.006198, 35.355947], [117.008946, 35.357068], [117.008528, 35.358794], [117.009193, 35.359741], [117.014565, 35.35998], [117.015087, 35.36014], [117.015165, 35.360655], [117.017581, 35.360962], [117.019709, 35.362903], [117.019687, 35.363319], [117.020521, 35.363298], [117.021687, 35.362272], [117.022026, 35.362549], [117.021739, 35.362995], [117.022703, 35.363124], [117.025214, 35.362673], [117.025231, 35.3631], [117.024481, 35.363188], [117.024488, 35.363477], [117.025175, 35.364069], [117.02604, 35.363972], [117.026219, 35.3645], [117.029128, 35.363957], [117.030269, 35.365502], [117.032137, 35.365525], [117.033416, 35.36437], [117.033435, 35.363615], [117.034582, 35.363917], [117.03463, 35.362997], [117.035526, 35.36312], [117.036146, 35.361647], [117.037008, 35.361836], [117.0374, 35.361503], [117.037589, 35.363359], [117.039166, 35.362982], [117.039431, 35.363536], [117.039004, 35.363996], [117.040301, 35.363899], [117.038582, 35.365799], [117.038577, 35.365807], [117.037264, 35.365773], [117.037045, 35.366107], [117.035781, 35.365487], [117.032439, 35.367679], [117.033742, 35.36741], [117.03345, 35.368701], [117.032648, 35.369319], [117.032182, 35.368972], [117.032261, 35.368073], [117.03093, 35.368554], [117.031909, 35.370044], [117.032889, 35.370324], [117.032879, 35.371416], [117.033451, 35.372412], [117.033175, 35.373149], [117.034274, 35.373275], [117.03446, 35.373822], [117.033099, 35.374288], [117.03364, 35.374352], [117.033988, 35.374897], [117.033567, 35.375199], [117.033814, 35.375728], [117.037251, 35.378029], [117.036545, 35.379152], [117.037264, 35.379897], [117.037157, 35.381898], [117.037563, 35.381917], [117.036797, 35.382786], [117.037071, 35.384057], [117.037837, 35.384166], [117.037589, 35.385178], [117.039066, 35.385646], [117.037454, 35.388671], [117.038972, 35.388605], [117.03828, 35.389876], [117.038987, 35.389881], [117.039045, 35.390936], [117.050421, 35.410358], [117.050428, 35.410364], [117.048734, 35.41159], [117.035794, 35.412588], [117.029549, 35.414441], [117.028541, 35.415935], [117.024628, 35.415308], [117.024846, 35.412763], [117.025728, 35.411232], [117.025177, 35.411227], [117.024824, 35.411828], [117.0204, 35.411837], [117.020414, 35.413454], [117.01633, 35.413405], [117.016282, 35.414566], [117.013902, 35.414943], [117.013913, 35.414031], [117.013113, 35.414082], [117.01315, 35.413496], [117.012794, 35.414282], [117.012117, 35.414264], [117.012143, 35.413883], [117.009748, 35.41382], [117.009009, 35.412611], [117.005861, 35.41106], [117.006045, 35.410593], [117.004946, 35.41017], [117.005005, 35.409098], [117.003583, 35.409131], [117.003296, 35.409419], [117.002235, 35.408558], [117.001905, 35.408544], [117.000994, 35.410123], [117.002005, 35.410328], [117.001873, 35.411266], [117.000409, 35.40959], [116.998369, 35.410581], [116.99834, 35.411095], [116.997005, 35.411051], [116.996906, 35.412669], [116.993724, 35.411862], [116.993691, 35.411414], [116.991759, 35.411741], [116.991863, 35.412419], [116.9908, 35.412557], [116.990958, 35.412076], [116.983371, 35.410006], [116.979409, 35.409738], [116.979264, 35.407491], [116.978394, 35.404501], [116.975421, 35.404533], [116.974909, 35.401337], [116.974828, 35.400828], [116.971229, 35.400821], [116.971716, 35.398497], [116.971498, 35.396209], [116.961899, 35.397509], [116.956182, 35.397356], [116.955869, 35.397327]]]}, "properties": {"display_name": "千泉街道, 邹城市, 济宁市, 山东省, 中国", "type": "administrative", "osm_type": "relation", "osm_id": 13307182, "class": null, "keyword": "subdistrict"}}, {"type": "Feature", "geometry": {"type": "Polygon", "coordinates": [[[116.932697, 35.42293], [116.933583, 35.421917], [116.938903, 35.415706], [116.938903, 35.414785], [116.940216, 35.413287], [116.946088, 35.40738], [116.946621, 35.406269], [116.951954, 35.400596], [116.955869, 35.397327], [116.956182, 35.397356], [116.961899, 35.397509], [116.971498, 35.396209], [116.971716, 35.398497], [116.971229, 35.400821], [116.974828, 35.400828], [116.974909, 35.401337], [116.975421, 35.404533], [116.978394, 35.404501], [116.979264, 35.407491], [116.979409, 35.409738], [116.983371, 35.410006], [116.990958, 35.412076], [116.9908, 35.412557], [116.991863, 35.412419], [116.991759, 35.411741], [116.993691, 35.411414], [116.993724, 35.411862], [116.996906, 35.412669], [116.997005, 35.411051], [116.99834, 35.411095], [116.998369, 35.410581], [117.000409, 35.40959], [117.001873, 35.411266], [117.002005, 35.410328], [117.000994, 35.410123], [117.001905, 35.408544], [117.002235, 35.408558], [117.003296, 35.409419], [117.003583, 35.409131], [117.005005, 35.409098], [117.004946, 35.41017], [117.006045, 35.410593], [117.005861, 35.41106], [117.009009, 35.412611], [117.009748, 35.41382], [117.012143, 35.413883], [117.012117, 35.414264], [117.012794, 35.414282], [117.01315, 35.413496], [117.013113, 35.414082], [117.013913, 35.414031], [117.013902, 35.414943], [117.016282, 35.414566], [117.01633, 35.413405], [117.020414, 35.413454], [117.0204, 35.411837], [117.024824, 35.411828], [117.025177, 35.411227], [117.025728, 35.411232], [117.024846, 35.412763], [117.024628, 35.415308], [117.028541, 35.415935], [117.029549, 35.414441], [117.035794, 35.412588], [117.048734, 35.41159], [117.050428, 35.410364], [117.05059, 35.412742], [117.048148, 35.413333], [117.048184, 35.415587], [117.046706, 35.4159], [117.046776, 35.417656], [117.044844, 35.417856], [117.045034, 35.420363], [117.043751, 35.42061], [117.045001, 35.423343], [117.04091, 35.423465], [117.040954, 35.424211], [117.039952, 35.424207], [117.03883, 35.424038], [117.038863, 35.423349], [117.038059, 35.423312], [117.038075, 35.422863], [117.03697, 35.422853], [117.036957, 35.423506], [117.035579, 35.423508], [117.035212, 35.426284], [117.032433, 35.424703], [117.027086, 35.424036], [117.026886, 35.4249], [117.026143, 35.425069], [117.026132, 35.425491], [117.027068, 35.425824], [117.026571, 35.428375], [117.027496, 35.428522], [117.027423, 35.43011], [117.028089, 35.430388], [117.027954, 35.431515], [117.027545, 35.431488], [117.027473, 35.432213], [117.026489, 35.432134], [117.026261, 35.433206], [117.026927, 35.433205], [117.026938, 35.434454], [117.028719, 35.435052], [117.029063, 35.437143], [117.026776, 35.436928], [117.026511, 35.437343], [117.025931, 35.436724], [117.024578, 35.436896], [117.02536, 35.436947], [117.025416, 35.437263], [117.023368, 35.437427], [117.023364, 35.438303], [117.022319, 35.438276], [117.022632, 35.437275], [117.021472, 35.437015], [117.021054, 35.438978], [117.019578, 35.440594], [117.019003, 35.440886], [117.019783, 35.439879], [117.01911, 35.439599], [117.018671, 35.438286], [117.017202, 35.437851], [117.016683, 35.438282], [117.016762, 35.440004], [117.016355, 35.439717], [117.016273, 35.43862], [117.014289, 35.439878], [117.013892, 35.438846], [117.01084, 35.439749], [117.009678, 35.438783], [117.009926, 35.438386], [117.00758, 35.437735], [117.007002, 35.439935], [117.007943, 35.440387], [117.007993, 35.440865], [117.006903, 35.441068], [117.006949, 35.441468], [117.005485, 35.441709], [117.004719, 35.443184], [117.005164, 35.443373], [117.004971, 35.444742], [117.004639, 35.444325], [117.004189, 35.444411], [117.003965, 35.445832], [117.001922, 35.446228], [116.999248, 35.446132], [116.999081, 35.448336], [116.99702, 35.448238], [116.996954, 35.448725], [116.993854, 35.44871], [116.991567, 35.449102], [116.991547, 35.450404], [116.98952, 35.450433], [116.989729, 35.450969], [116.992795, 35.450879], [116.989817, 35.451164], [116.990812, 35.452905], [116.986314, 35.452948], [116.986279, 35.449175], [116.983168, 35.449109], [116.98356, 35.448925], [116.983659, 35.447491], [116.981752, 35.447586], [116.980534, 35.448865], [116.977574, 35.448637], [116.977604, 35.44749], [116.977701, 35.443769], [116.977028, 35.443753], [116.976902, 35.444875], [116.975938, 35.444858], [116.976199, 35.443407], [116.975662, 35.443389], [116.975302, 35.439915], [116.974724, 35.438563], [116.973834, 35.438513], [116.97398, 35.436115], [116.974447, 35.436053], [116.974648, 35.435012], [116.973685, 35.434474], [116.973528, 35.431933], [116.972252, 35.4312], [116.972465, 35.430673], [116.973404, 35.430169], [116.971703, 35.429862], [116.970866, 35.427577], [116.969494, 35.427459], [116.970069, 35.424345], [116.967489, 35.424318], [116.967665, 35.429974], [116.966141, 35.429021], [116.965568, 35.42906], [116.962456, 35.430893], [116.962465, 35.43155], [116.960666, 35.432091], [116.95863, 35.43174], [116.958477, 35.432898], [116.959003, 35.433147], [116.959012, 35.433794], [116.958158, 35.435151], [116.957116, 35.435082], [116.956797, 35.43665], [116.955393, 35.436512], [116.955432, 35.435586], [116.953882, 35.435515], [116.95365, 35.437475], [116.95121, 35.437435], [116.951544, 35.438426], [116.949866, 35.438291], [116.949994, 35.437215], [116.948931, 35.436963], [116.948943, 35.437674], [116.946694, 35.437727], [116.946562, 35.438494], [116.943494, 35.438327], [116.943405, 35.43888], [116.94291, 35.438822], [116.94275, 35.439918], [116.941327, 35.439844], [116.941498, 35.438268], [116.942671, 35.438314], [116.942783, 35.437281], [116.941643, 35.437225], [116.942348, 35.432064], [116.941016, 35.431938], [116.941362, 35.430043], [116.938421, 35.430046], [116.938901, 35.429698], [116.944165, 35.429612], [116.943783, 35.429175], [116.943799, 35.424395], [116.934685, 35.424356], [116.934765, 35.42305], [116.93271, 35.422931], [116.932697, 35.42293]]]}, "properties": {"display_name": "钢山街道, 邹城市, 济宁市, 山东省, 中国", "type": "administrative", "osm_type": "relation", "osm_id": 13307181, "class": null, "keyword": "subdistrict"}}, {"type": "Feature", "geometry": {"type": "Polygon", "coordinates": [[[116.589025, 35.387762], [116.590746, 35.384511], [116.592014, 35.382639], [116.592803, 35.381251], [116.593194, 35.380422], [116.594725, 35.377123], [116.596816, 35.3744], [116.597301, 35.374389], [116.59708, 35.375], [116.596637, 35.375747], [116.596513, 35.375674], [116.595484, 35.377359], [116.596382, 35.377737], [116.595827, 35.378802], [116.596837, 35.379096], [116.597466, 35.377342], [116.597668, 35.376993], [116.59903, 35.377206], [116.600101, 35.37872], [116.600208, 35.378715], [116.600308, 35.378148], [116.603752, 35.37838], [116.604223, 35.376447], [116.605208, 35.376461], [116.605333, 35.375748], [116.605532, 35.375773], [116.605563, 35.375697], [116.608235, 35.376008], [116.607942, 35.378991], [116.611182, 35.379015], [116.611352, 35.378936], [116.611044, 35.381323], [116.612291, 35.380855], [116.613556, 35.383663], [116.616028, 35.383096], [116.616644, 35.383058], [116.61676, 35.383685], [116.617161, 35.385475], [116.618677, 35.385259], [116.618967, 35.386805], [116.619752, 35.386711], [116.620634, 35.38542], [116.62093, 35.386961], [116.621315, 35.386901], [116.62154, 35.38778], [116.622897, 35.387814], [116.623633, 35.391126], [116.622541, 35.3913], [116.62265, 35.391767], [116.623029, 35.393316], [116.624093, 35.393152], [116.62791, 35.408489], [116.63541, 35.410908], [116.635086, 35.416247], [116.631031, 35.416212], [116.63161, 35.418905], [116.63043, 35.419133], [116.631435, 35.423187], [116.631218, 35.423147], [116.629821, 35.422862], [116.626498, 35.420594], [116.625805, 35.420583], [116.625076, 35.420615], [116.625156, 35.420495], [116.625158, 35.419783], [116.625579, 35.419789], [116.62558, 35.419868], [116.626394, 35.419862], [116.626405, 35.419446], [116.627362, 35.419479], [116.627438, 35.416485], [116.624786, 35.416476], [116.624697, 35.417298], [116.623441, 35.417246], [116.62306, 35.417138], [116.623058, 35.41736], [116.621893, 35.417344], [116.621982, 35.416211], [116.620664, 35.41616], [116.620859, 35.41433], [116.623351, 35.414379], [116.62338, 35.412554], [116.627143, 35.412261], [116.627024, 35.411812], [116.62402, 35.411924], [116.623388, 35.412014], [116.62093, 35.412022], [116.620903, 35.413775], [116.620739, 35.413769], [116.620485, 35.416121], [116.618423, 35.416075], [116.615992, 35.415883], [116.602413, 35.414253], [116.601721, 35.412305], [116.599267, 35.406453], [116.598591, 35.406451], [116.598539, 35.406858], [116.596906, 35.406928], [116.596908, 35.406593], [116.596138, 35.406575], [116.596158, 35.406418], [116.596034, 35.406412], [116.595821, 35.405507], [116.595387, 35.405506], [116.595359, 35.404799], [116.595632, 35.404775], [116.595572, 35.40451], [116.596093, 35.404527], [116.596075, 35.404304], [116.596162, 35.404284], [116.596037, 35.403328], [116.596676, 35.403345], [116.596703, 35.402878], [116.596077, 35.402784], [116.59612, 35.401484], [116.597084, 35.401096], [116.594827, 35.395758], [116.597173, 35.393317], [116.589184, 35.387876], [116.589025, 35.387762]]]}, "properties": {"display_name": "观音阁街道, 任城区, 济宁市, 山东省, 中国", "type": "administrative", "osm_type": "relation", "osm_id": 13667792, "class": null, "keyword": "subdistrict"}}, {"type": "Feature", "geometry": {"type": "Polygon", "coordinates": [[[116.922143, 35.40401], [116.922241, 35.402178], [116.922606, 35.402133], [116.9269, 35.40111], [116.926982, 35.397844], [116.928355, 35.39785], [116.928366, 35.397521], [116.9307, 35.397645], [116.93139, 35.392907], [116.927718, 35.39261], [116.927934, 35.390923], [116.927383, 35.390891], [116.927526, 35.38927], [116.930117, 35.389559], [116.930232, 35.388658], [116.932078, 35.388911], [116.932252, 35.387652], [116.933984, 35.387801], [116.934022, 35.387445], [116.938163, 35.387857], [116.938397, 35.385895], [116.937663, 35.38573], [116.937716, 35.384449], [116.944834, 35.383866], [116.948866, 35.383536], [116.949074, 35.37946], [116.955446, 35.380164], [116.957368, 35.379306], [116.95977, 35.379269], [116.959996, 35.379318], [116.964395, 35.379996], [116.964339, 35.382671], [116.965501, 35.382799], [116.965293, 35.384033], [116.966637, 35.38418], [116.966322, 35.386921], [116.961799, 35.386699], [116.960207, 35.391573], [116.957823, 35.395177], [116.955879, 35.397317], [116.955869, 35.397327], [116.951954, 35.400596], [116.946621, 35.406269], [116.946088, 35.40738], [116.940216, 35.413287], [116.938903, 35.414785], [116.938903, 35.415706], [116.933583, 35.421917], [116.932697, 35.42293], [116.931856, 35.423927], [116.92981, 35.423417], [116.929822, 35.422935], [116.927392, 35.422863], [116.927508, 35.422618], [116.925928, 35.422455], [116.926343, 35.42137], [116.925797, 35.420795], [116.924724, 35.42058], [116.924774, 35.419646], [116.92569, 35.419621], [116.925425, 35.417776], [116.926303, 35.41776], [116.92632, 35.416481], [116.92721, 35.415883], [116.92722, 35.414892], [116.928596, 35.414872], [116.928562, 35.412389], [116.927728, 35.412441], [116.927494, 35.411003], [116.92496, 35.41111], [116.924964, 35.409775], [116.923627, 35.409962], [116.925111, 35.40965], [116.925007, 35.40904], [116.922995, 35.409526], [116.922964, 35.404009], [116.922143, 35.40401]]]}, "properties": {"display_name": "凫山街道, 邹城市, 济宁市, 山东省, 中国", "type": "administrative", "osm_type": "relation", "osm_id": 13307180, "class": null, "keyword": "subdistrict"}}, {"type": "Feature", "geometry": {"type": "Polygon", "coordinates": [[[116.544853, 35.382962], [116.544914, 35.38243], [116.550564, 35.382374], [116.554644, 35.382936], [116.554738, 35.381545], [116.55564, 35.381695], [116.555679, 35.379753], [116.558244, 35.380226], [116.558237, 35.378192], [116.557018, 35.377836], [116.557636, 35.375792], [116.558945, 35.37609], [116.559372, 35.3748], [116.560099, 35.374958], [116.561235, 35.37519], [116.56093, 35.376009], [116.5629, 35.376317], [116.564297, 35.376666], [116.566747, 35.376532], [116.566223, 35.378487], [116.567081, 35.378448], [116.567129, 35.378996], [116.567642, 35.378956], [116.567616, 35.378197], [116.568085, 35.378206], [116.567674, 35.376809], [116.568705, 35.377302], [116.570521, 35.381767], [116.571786, 35.381626], [116.572734, 35.382457], [116.576671, 35.382093], [116.576705, 35.381191], [116.577191, 35.381182], [116.577638, 35.379834], [116.577782, 35.379832], [116.578486, 35.381042], [116.578754, 35.381024], [116.578875, 35.381991], [116.579025, 35.381981], [116.579263, 35.380034], [116.579057, 35.379459], [116.580807, 35.379512], [116.580753, 35.381644], [116.582412, 35.381772], [116.582509, 35.381864], [116.582517, 35.38213], [116.583911, 35.382244], [116.583888, 35.382591], [116.586373, 35.382934], [116.586581, 35.382678], [116.586696, 35.382535], [116.587897, 35.382801], [116.588579, 35.38046], [116.589253, 35.380618], [116.589294, 35.380423], [116.59189, 35.380814], [116.592144, 35.38017], [116.593194, 35.380422], [116.592803, 35.381251], [116.592014, 35.382639], [116.590746, 35.384511], [116.589025, 35.387762], [116.588739, 35.387596], [116.586626, 35.390981], [116.587089, 35.391217], [116.585583, 35.392888], [116.584905, 35.394142], [116.584845, 35.394443], [116.584069, 35.394488], [116.582897, 35.394556], [116.582739, 35.394552], [116.581114, 35.394506], [116.581116, 35.394474], [116.581175, 35.393537], [116.580426, 35.393486], [116.580521, 35.393207], [116.580534, 35.393169], [116.580109, 35.393121], [116.579747, 35.394111], [116.578676, 35.395424], [116.577299, 35.398005], [116.576898, 35.399145], [116.574339, 35.399108], [116.573049, 35.399294], [116.570742, 35.399901], [116.568341, 35.400983], [116.559829, 35.401007], [116.559864, 35.40469], [116.559859, 35.404809], [116.558097, 35.404919], [116.557524, 35.404623], [116.554394, 35.402079], [116.55358, 35.401012], [116.553718, 35.400935], [116.553029, 35.400156], [116.552375, 35.399597], [116.550962, 35.398595], [116.550906, 35.398075], [116.550388, 35.397706], [116.55001, 35.397581], [116.548523, 35.3961], [116.548351, 35.395907], [116.548428, 35.395683], [116.547783, 35.394802], [116.547811, 35.394397], [116.547578, 35.394009], [116.547065, 35.393299], [116.546556, 35.392781], [116.546236, 35.392588], [116.547479, 35.388418], [116.545211, 35.387957], [116.545348, 35.384711], [116.545586, 35.38297], [116.544853, 35.382962]]]}, "properties": {"display_name": "南苑街道, 任城区, 济宁市, 山东省, 中国", "type": "administrative", "osm_type": "relation", "osm_id": 13667791, "class": null, "keyword": "subdistrict"}}, {"type": "Feature", "geometry": {"type": "Polygon", "coordinates": [[[116.593033, 35.42962], [116.593982, 35.429551], [116.594163, 35.429203], [116.596509, 35.429224], [116.596506, 35.428612], [116.597199, 35.428632], [116.597197, 35.427813], [116.60061, 35.427331], [116.600588, 35.426079], [116.602562, 35.426077], [116.60258, 35.42161], [116.603898, 35.421344], [116.608146, 35.421313], [116.610943, 35.420789], [116.62354, 35.420122], [116.622639, 35.423642], [116.6242, 35.424015], [116.624676, 35.422026], [116.625068, 35.422099], [116.625076, 35.420615], [116.625805, 35.420583], [116.626498, 35.420594], [116.629821, 35.422862], [116.631218, 35.423147], [116.631435, 35.423187], [116.634309, 35.435281], [116.646616, 35.441669], [116.64638, 35.442131], [116.647897, 35.450664], [116.643118, 35.450782], [116.64272, 35.450807], [116.639093, 35.450414], [116.638529, 35.447851], [116.636377, 35.448296], [116.63622, 35.447728], [116.632996, 35.447281], [116.632966, 35.445443], [116.631923, 35.44549], [116.631868, 35.444745], [116.631196, 35.444761], [116.631095, 35.442876], [116.630428, 35.442961], [116.627684, 35.44536], [116.62662, 35.445398], [116.626809, 35.441469], [116.624838, 35.441433], [116.624826, 35.442586], [116.623301, 35.442399], [116.622281, 35.440211], [116.621315, 35.440285], [116.621122, 35.436196], [116.617536, 35.43616], [116.617631, 35.434345], [116.616185, 35.434313], [116.616218, 35.43345], [116.615683, 35.433434], [116.615602, 35.435982], [116.609522, 35.436014], [116.609502, 35.437449], [116.608375, 35.437435], [116.608094, 35.4395], [116.603505, 35.436956], [116.59763, 35.432075], [116.597299, 35.4318], [116.593033, 35.42962]]]}, "properties": {"display_name": "洸河街道, 济宁高新技术产业开发区, 任城区, 济宁市, 山东省, 中国", "type": "administrative", "osm_type": "relation", "osm_id": 13308778, "class": null, "keyword": "subdistrict"}}, {"type": "Feature", "geometry": {"type": "Polygon", "coordinates": [[[116.539757, 35.423082], [116.540592, 35.423011], [116.545644, 35.422579], [116.547338, 35.422632], [116.54867, 35.422588], [116.548679, 35.421764], [116.549906, 35.421523], [116.54987, 35.421186], [116.550776, 35.421192], [116.550764, 35.42109], [116.551214, 35.421097], [116.551332, 35.419407], [116.550742, 35.419439], [116.550643, 35.418586], [116.551665, 35.418532], [116.551636, 35.417921], [116.554883, 35.41768], [116.554883, 35.416729], [116.556051, 35.41669], [116.555813, 35.413696], [116.556277, 35.413644], [116.555975, 35.411642], [116.556458, 35.411621], [116.556434, 35.411319], [116.557872, 35.411316], [116.557881, 35.408759], [116.555931, 35.408893], [116.555921, 35.408766], [116.55418, 35.408815], [116.554142, 35.408469], [116.552593, 35.408517], [116.552583, 35.405608], [116.54725, 35.405627], [116.547174, 35.403682], [116.546744, 35.40368], [116.546712, 35.402249], [116.546947, 35.400378], [116.546669, 35.400271], [116.548053, 35.398118], [116.548276, 35.397793], [116.548403, 35.397609], [116.550386, 35.398857], [116.550679, 35.398663], [116.55091, 35.398791], [116.552071, 35.399649], [116.552843, 35.400391], [116.553428, 35.401097], [116.55358, 35.401012], [116.554394, 35.402079], [116.557524, 35.404623], [116.558097, 35.404919], [116.559859, 35.404809], [116.561099, 35.404701], [116.565173, 35.405182], [116.565301, 35.40604], [116.566133, 35.408243], [116.566194, 35.409071], [116.566196, 35.409092], [116.566361, 35.410905], [116.565415, 35.410931], [116.565553, 35.414106], [116.566469, 35.414063], [116.566457, 35.412745], [116.567352, 35.412723], [116.567348, 35.412599], [116.568663, 35.412634], [116.568653, 35.415462], [116.568862, 35.417674], [116.568883, 35.419803], [116.571387, 35.420217], [116.571987, 35.420258], [116.573273, 35.420099], [116.575332, 35.420076], [116.576188, 35.419914], [116.577701, 35.42004], [116.579203, 35.419833], [116.581125, 35.419732], [116.581127, 35.41964], [116.581904, 35.419593], [116.582515, 35.419439], [116.583458, 35.419411], [116.583471, 35.420635], [116.583629, 35.420853], [116.58365, 35.421272], [116.584225, 35.421265], [116.584222, 35.421539], [116.584367, 35.421546], [116.584366, 35.42178], [116.584945, 35.421768], [116.58497, 35.422288], [116.585122, 35.422466], [116.585095, 35.423061], [116.585382, 35.423063], [116.585386, 35.423482], [116.585514, 35.423485], [116.585504, 35.424208], [116.585809, 35.424209], [116.585925, 35.42537], [116.586179, 35.425736], [116.586646, 35.426101], [116.583298, 35.426761], [116.58081, 35.426755], [116.580814, 35.427457], [116.579743, 35.427525], [116.579724, 35.427794], [116.578721, 35.427784], [116.578718, 35.429028], [116.577733, 35.42904], [116.577715, 35.429273], [116.577112, 35.429314], [116.577119, 35.429406], [116.576249, 35.429432], [116.576252, 35.429664], [116.575593, 35.429653], [116.575481, 35.431309], [116.575466, 35.43154], [116.574088, 35.431508], [116.572587, 35.43018], [116.571852, 35.43116], [116.571097, 35.432488], [116.569689, 35.432253], [116.569264, 35.432193], [116.568413, 35.432026], [116.568901, 35.43027], [116.568601, 35.430252], [116.568682, 35.429585], [116.568045, 35.42956], [116.568626, 35.42861], [116.565651, 35.428619], [116.565646, 35.428769], [116.565094, 35.428766], [116.564974, 35.428523], [116.564933, 35.427909], [116.564616, 35.42791], [116.56464, 35.42727], [116.563188, 35.427284], [116.563186, 35.427953], [116.562672, 35.427956], [116.562667, 35.428089], [116.56069, 35.428081], [116.560705, 35.428178], [116.559949, 35.428228], [116.559937, 35.427709], [116.55812, 35.427869], [116.557521, 35.427996], [116.557526, 35.427715], [116.55714, 35.427721], [116.557318, 35.429678], [116.556521, 35.429744], [116.555857, 35.429938], [116.55541, 35.429949], [116.554102, 35.429424], [116.553611, 35.429325], [116.553269, 35.428878], [116.553237, 35.428612], [116.552538, 35.428627], [116.552404, 35.428241], [116.552008, 35.428222], [116.552016, 35.427928], [116.549854, 35.427995], [116.549316, 35.427958], [116.549287, 35.427861], [116.547201, 35.427813], [116.544943, 35.430087], [116.545009, 35.429571], [116.544323, 35.429678], [116.544071, 35.428423], [116.543991, 35.427899], [116.5447, 35.427779], [116.544327, 35.426062], [116.541976, 35.426389], [116.541774, 35.425315], [116.540002, 35.425486], [116.539757, 35.423082]]]}, "properties": {"display_name": "金城街道, 任城区, 济宁市, 山东省, 中国", "type": "administrative", "osm_type": "relation", "osm_id": 13667798, "class": null, "keyword": "subdistrict"}}, {"type": "Feature", "geometry": {"type": "Polygon", "coordinates": [[[116.575693, 35.405726], [116.575785, 35.40536], [116.575993, 35.405328], [116.577316, 35.404757], [116.577664, 35.404718], [116.578543, 35.404952], [116.581608, 35.405483], [116.581889, 35.405494], [116.582195, 35.405405], [116.582698, 35.404976], [116.582914, 35.404667], [116.583405, 35.403112], [116.584125, 35.401989], [116.584517, 35.400755], [116.584599, 35.396562], [116.584845, 35.394443], [116.584905, 35.394142], [116.585583, 35.392888], [116.587089, 35.391217], [116.586626, 35.390981], [116.588739, 35.387596], [116.589025, 35.387762], [116.589184, 35.387876], [116.597173, 35.393317], [116.594827, 35.395758], [116.597084, 35.401096], [116.59612, 35.401484], [116.596077, 35.402784], [116.596703, 35.402878], [116.596676, 35.403345], [116.596037, 35.403328], [116.596162, 35.404284], [116.596075, 35.404304], [116.596093, 35.404527], [116.595572, 35.40451], [116.595632, 35.404775], [116.595359, 35.404799], [116.595387, 35.405506], [116.595821, 35.405507], [116.596034, 35.406412], [116.596158, 35.406418], [116.596138, 35.406575], [116.596908, 35.406593], [116.596906, 35.406928], [116.598539, 35.406858], [116.598591, 35.406451], [116.599267, 35.406453], [116.601721, 35.412305], [116.602413, 35.414253], [116.615992, 35.415883], [116.618423, 35.416075], [116.620485, 35.416121], [116.620739, 35.413769], [116.620903, 35.413775], [116.62093, 35.412022], [116.623388, 35.412014], [116.62402, 35.411924], [116.627024, 35.411812], [116.627143, 35.412261], [116.62338, 35.412554], [116.623351, 35.414379], [116.620859, 35.41433], [116.620664, 35.41616], [116.621982, 35.416211], [116.621893, 35.417344], [116.623058, 35.41736], [116.62306, 35.417138], [116.623441, 35.417246], [116.624697, 35.417298], [116.624786, 35.416476], [116.627438, 35.416485], [116.627362, 35.419479], [116.626405, 35.419446], [116.626394, 35.419862], [116.62558, 35.419868], [116.625579, 35.419789], [116.625158, 35.419783], [116.625156, 35.420495], [116.625076, 35.420615], [116.625068, 35.422099], [116.624676, 35.422026], [116.6242, 35.424015], [116.622639, 35.423642], [116.62354, 35.420122], [116.610943, 35.420789], [116.608146, 35.421313], [116.603898, 35.421344], [116.60258, 35.42161], [116.601605, 35.421707], [116.599724, 35.421762], [116.599623, 35.421571], [116.599489, 35.420374], [116.599015, 35.420151], [116.59655, 35.419747], [116.595324, 35.419406], [116.595351, 35.420068], [116.593649, 35.419997], [116.593643, 35.420798], [116.590835, 35.42075], [116.590973, 35.418429], [116.589854, 35.418397], [116.589952, 35.417101], [116.58945, 35.41708], [116.589478, 35.416744], [116.58746, 35.416616], [116.587461, 35.416424], [116.585042, 35.416394], [116.5849, 35.417417], [116.585785, 35.417419], [116.585796, 35.418421], [116.583471, 35.418483], [116.583473, 35.418391], [116.583537, 35.407294], [116.578882, 35.405778], [116.577956, 35.405684], [116.575693, 35.405726]]]}, "properties": {"display_name": "阜桥街道, 任城区, 济宁市, 山东省, 272000, 中国", "type": "administrative", "osm_type": "relation", "osm_id": 13667794, "class": null, "keyword": "subdistrict"}}, {"type": "Feature", "geometry": {"type": "Polygon", "coordinates": [[[116.575466, 35.43154], [116.575481, 35.431309], [116.575593, 35.429653], [116.576252, 35.429664], [116.576249, 35.429432], [116.577119, 35.429406], [116.577112, 35.429314], [116.577715, 35.429273], [116.577733, 35.42904], [116.578718, 35.429028], [116.578721, 35.427784], [116.579724, 35.427794], [116.579743, 35.427525], [116.580814, 35.427457], [116.58081, 35.426755], [116.583298, 35.426761], [116.586646, 35.426101], [116.586179, 35.425736], [116.585925, 35.42537], [116.585809, 35.424209], [116.585504, 35.424208], [116.585514, 35.423485], [116.585386, 35.423482], [116.585382, 35.423063], [116.585095, 35.423061], [116.585122, 35.422466], [116.58497, 35.422288], [116.584945, 35.421768], [116.584366, 35.42178], [116.584367, 35.421546], [116.584222, 35.421539], [116.584225, 35.421265], [116.58365, 35.421272], [116.583629, 35.420853], [116.583471, 35.420635], [116.583458, 35.419411], [116.583471, 35.418483], [116.585796, 35.418421], [116.585785, 35.417419], [116.5849, 35.417417], [116.585042, 35.416394], [116.587461, 35.416424], [116.58746, 35.416616], [116.589478, 35.416744], [116.58945, 35.41708], [116.589952, 35.417101], [116.589854, 35.418397], [116.590973, 35.418429], [116.590835, 35.42075], [116.593643, 35.420798], [116.593649, 35.419997], [116.595351, 35.420068], [116.595324, 35.419406], [116.59655, 35.419747], [116.599015, 35.420151], [116.599489, 35.420374], [116.599623, 35.421571], [116.599724, 35.421762], [116.601605, 35.421707], [116.60258, 35.42161], [116.602562, 35.426077], [116.600588, 35.426079], [116.60061, 35.427331], [116.597197, 35.427813], [116.597199, 35.428632], [116.596506, 35.428612], [116.596509, 35.429224], [116.594163, 35.429203], [116.593982, 35.429551], [116.593033, 35.42962], [116.597299, 35.4318], [116.59763, 35.432075], [116.592294, 35.432258], [116.588921, 35.432271], [116.585527, 35.432489], [116.582463, 35.432452], [116.582381, 35.432074], [116.581072, 35.43211], [116.581063, 35.434253], [116.578558, 35.434514], [116.576104, 35.434474], [116.576059, 35.43371], [116.576142, 35.433367], [116.575601, 35.432278], [116.575529, 35.431538], [116.575466, 35.43154]]]}, "properties": {"display_name": "仙营街道, 任城区, 济宁市, 山东省, 中国", "type": "administrative", "osm_type": "relation", "osm_id": 13667799, "class": null, "keyword": "subdistrict"}}, {"type": "Feature", "geometry": {"type": "Polygon", "coordinates": [[[116.565415, 35.410931], [116.566361, 35.410905], [116.566196, 35.409092], [116.568445, 35.409037], [116.568432, 35.408852], [116.569096, 35.408817], [116.569071, 35.405691], [116.574466, 35.405734], [116.575693, 35.405726], [116.577956, 35.405684], [116.578882, 35.405778], [116.583537, 35.407294], [116.583473, 35.418391], [116.583471, 35.418483], [116.583458, 35.419411], [116.582515, 35.419439], [116.581904, 35.419593], [116.581127, 35.41964], [116.581125, 35.419732], [116.579203, 35.419833], [116.577701, 35.42004], [116.576188, 35.419914], [116.575332, 35.420076], [116.573273, 35.420099], [116.571987, 35.420258], [116.571387, 35.420217], [116.568883, 35.419803], [116.568862, 35.417674], [116.568653, 35.415462], [116.568663, 35.412634], [116.567348, 35.412599], [116.567352, 35.412723], [116.566457, 35.412745], [116.566469, 35.414063], [116.565553, 35.414106], [116.565415, 35.410931]]]}, "properties": {"display_name": "古槐街道, 任城区, 济宁市, 山东省, 中国", "type": "administrative", "osm_type": "relation", "osm_id": 13667796, "class": null, "keyword": "subdistrict"}}, {"type": "Feature", "geometry": {"type": "Polygon", "coordinates": [[[116.559829, 35.401007], [116.568341, 35.400983], [116.570742, 35.399901], [116.573049, 35.399294], [116.574339, 35.399108], [116.576898, 35.399145], [116.576571, 35.400047], [116.576415, 35.402953], [116.575785, 35.40536], [116.575693, 35.405726], [116.574466, 35.405734], [116.569071, 35.405691], [116.569096, 35.408817], [116.568432, 35.408852], [116.568445, 35.409037], [116.566196, 35.409092], [116.566194, 35.409071], [116.566133, 35.408243], [116.565301, 35.40604], [116.565173, 35.405182], [116.561099, 35.404701], [116.559859, 35.404809], [116.559864, 35.40469], [116.559829, 35.401007]]]}, "properties": {"display_name": "济阳街道, 任城区, 济宁市, 山东省, 中国", "type": "administrative", "osm_type": "relation", "osm_id": 13667795, "class": null, "keyword": "subdistrict"}}, {"type": "Feature", "geometry": {"type": "Polygon", "coordinates": [[[116.575785, 35.40536], [116.576415, 35.402953], [116.576571, 35.400047], [116.576898, 35.399145], [116.577299, 35.398005], [116.578676, 35.395424], [116.579747, 35.394111], [116.580109, 35.393121], [116.580534, 35.393169], [116.580521, 35.393207], [116.580426, 35.393486], [116.581175, 35.393537], [116.581116, 35.394474], [116.581114, 35.394506], [116.582739, 35.394552], [116.582897, 35.394556], [116.584069, 35.394488], [116.584845, 35.394443], [116.584599, 35.396562], [116.584517, 35.400755], [116.584125, 35.401989], [116.583405, 35.403112], [116.582914, 35.404667], [116.582698, 35.404976], [116.582195, 35.405405], [116.581889, 35.405494], [116.581608, 35.405483], [116.578543, 35.404952], [116.577664, 35.404718], [116.577316, 35.404757], [116.575993, 35.405328], [116.575785, 35.40536]]]}, "properties": {"display_name": "越河街道, 任城区, 济宁市, 山东省, 中国", "type": "administrative", "osm_type": "relation", "osm_id": 13667793, "class": null, "keyword": "subdistrict"}}, {"type": "Feature", "geometry": {"type": "Polygon", "coordinates": [[[117.147602, 34.762915], [117.149978, 34.761161], [117.159102, 34.761722], [117.158643, 34.767184], [117.150578, 34.769225], [117.147818, 34.764241], [117.147602, 34.762915]]]}, "properties": {"display_name": "微山县渔业养殖试验中心, 昭阳街道, 微山县, 济宁市, 山东省, 277600, 中国", "type": "farmland", "osm_type": "way", "osm_id": 774579614, "class": null, "keyword": "市中心"}}, {"type": "Feature", "geometry": {"type": "Polygon", "coordinates": [[[117.005551, 35.396618], [117.005587, 35.395829], [117.005612, 35.39556], [117.005648, 35.395341], [117.005689, 35.395179], [117.00573, 35.395033], [117.005795, 35.394844], [117.00586, 35.394692], [117.005995, 35.394463], [117.006145, 35.394221], [117.006194, 35.394148], [117.006312, 35.394008], [117.006568, 35.39375], [117.00865, 35.391833], [117.008734, 35.391792], [117.008842, 35.39176], [117.008975, 35.391748], [117.009128, 35.39175], [117.011842, 35.393687], [117.010839, 35.3946], [117.010777, 35.394721], [117.010905, 35.396554], [117.010769, 35.3968], [117.010709, 35.3968], [117.010659, 35.396815], [117.010606, 35.396832], [117.010541, 35.396867], [117.010466, 35.396907], [117.010372, 35.396937], [117.010292, 35.396959], [117.010182, 35.396972], [117.010072, 35.396983], [117.009956, 35.39699], [117.009854, 35.39699], [117.009761, 35.396983], [117.009211, 35.396922], [117.009136, 35.396913], [117.009012, 35.396904], [117.008924, 35.396898], [117.008862, 35.396904], [117.008784, 35.396913], [117.008693, 35.396918], [117.008429, 35.39691], [117.008407, 35.396711], [117.008387, 35.396601], [117.008355, 35.396544], [117.008311, 35.396502], [117.008243, 35.39646], [117.008125, 35.396442], [117.006933, 35.39633], [117.006639, 35.396681], [117.005754, 35.396623], [117.005551, 35.396618]]]}, "properties": {"display_name": "邹城体育中心体育场, G104;S319, 千泉街道, 邹城市, 济宁市, 山东省, 中国", "type": "sports_centre", "osm_type": "way", "osm_id": 477340077, "class": null, "keyword": "中心城区"}}, {"type": "Feature", "geometry": {"type": "Polygon", "coordinates": [[[116.639275, 35.442037], [116.639412, 35.441495], [116.643635, 35.44193], [116.645263, 35.442126], [116.645424, 35.442233], [116.645258, 35.443256], [116.644239, 35.443114], [116.644164, 35.443594], [116.645216, 35.443709], [116.645051, 35.444513], [116.644952, 35.445078], [116.643975, 35.444986], [116.643918, 35.445516], [116.64322, 35.445436], [116.643234, 35.445316], [116.642219, 35.445217], [116.642135, 35.445116], [116.641191, 35.445001], [116.641026, 35.444832], [116.640931, 35.444559], [116.640969, 35.444221], [116.640705, 35.444194], [116.640771, 35.443813], [116.640228, 35.443786], [116.639676, 35.443733], [116.639275, 35.442037]]]}, "properties": {"display_name": "圣达汽车博览城, 济宁高新技术产业开发区, 任城区, 济宁市, 山东省, 中国", "type": "commercial", "osm_type": "way", "osm_id": 1239296628, "class": null, "keyword": "中心城区"}}, {"type": "Feature", "geometry": {"type": "Polygon", "coordinates": [[[116.775916, 35.545897], [116.780024, 35.545876], [116.779961, 35.549899], [116.775995, 35.549867], [116.775916, 35.545897]]]}, "properties": {"display_name": "济宁市兖州区文化中心, 龙桥街道, 兖州区, 济宁市, 山东省, 中国", "type": "construction", "osm_type": "way", "osm_id": 1239548343, "class": null, "keyword": "市中心"}}, {"type": "Feature", "geometry": {"type": "Polygon", "coordinates": [[[116.57989, 35.465692], [116.579975, 35.463947], [116.580758, 35.463902], [116.580758, 35.464273], [116.584314, 35.464229], [116.584569, 35.466493], [116.58188, 35.466517], [116.581838, 35.465766], [116.57989, 35.465692]]]}, "properties": {"display_name": "山东戴庄医院, 1, 济岱路, 李营街道, 任城区, 济宁市, 山东省, 272000, 中国", "type": "hospital", "osm_type": "way", "osm_id": 1200626999, "class": null, "keyword": "市中心"}}, {"type": "Feature", "geometry": {"type": "Polygon", "coordinates": [[[117.046188, 35.41664], [117.046238, 35.414355], [117.049485, 35.413598], [117.049571, 35.416658], [117.046188, 35.41664]]]}, "properties": {"display_name": "邹城市国际会展中心, S319, 钢山街道, 邹城市, 济宁市, 山东省, 中国", "type": "conference_centre", "osm_type": "way", "osm_id": 1240093695, "class": null, "keyword": "市中心"}}, {"type": "Feature", "geometry": {"type": "Polygon", "coordinates": [[[116.709817, 35.438413], [116.712413, 35.438406], [116.712427, 35.441692], [116.70983, 35.441699], [116.709817, 35.438413]]]}, "properties": {"display_name": "济宁高新区科技新城中学, 广安路, 黄屯街道, 济宁高新技术产业开发区, 兖州区, 济宁市, 山东省, 272073, 中国", "type": "school", "osm_type": "way", "osm_id": 1127807562, "class": null, "keyword": "中心城区"}}, {"type": "Feature", "geometry": {"type": "Polygon", "coordinates": [[[116.511695, 35.45335], [116.514229, 35.453061], [116.51449, 35.456079], [116.512168, 35.456115], [116.512126, 35.455869], [116.511695, 35.45335]]]}, "properties": {"display_name": "任城区南张中心中学, S321, 南张街道, 任城区, 济宁市, 山东省, 中国", "type": "school", "osm_type": "way", "osm_id": 1239817675, "class": null, "keyword": "中心城区"}}, {"type": "Feature", "geometry": {"type": "Polygon", "coordinates": [[[116.602789, 35.443508], [116.602867, 35.441787], [116.602879, 35.4416], [116.602925, 35.441553], [116.602941, 35.441034], [116.602961, 35.440887], [116.603003, 35.440797], [116.603035, 35.440723], [116.603105, 35.440643], [116.603187, 35.440569], [116.603286, 35.440505], [116.603393, 35.440455], [116.603508, 35.440428], [116.604607, 35.440363], [116.604507, 35.443246], [116.604199, 35.443337], [116.603321, 35.443478], [116.602789, 35.443508]]]}, "properties": {"display_name": "任城区政务服务中心, 环翠路, 李营街道, 任城区, 济宁市, 山东省, 272000, 中国", "type": "government", "osm_type": "way", "osm_id": 1239296595, "class": null, "keyword": "中心城区"}}, {"type": "Feature", "geometry": {"type": "Polygon", "coordinates": [[[116.560156, 35.392711], [116.560166, 35.390656], [116.560345, 35.390436], [116.562139, 35.390396], [116.562194, 35.392702], [116.560156, 35.392711]]]}, "properties": {"display_name": "任城文体中心, 济安桥南路, 南苑街道, 任城区, 济宁市, 山东省, 272067, 中国", "type": "sports_hall", "osm_type": "way", "osm_id": 1239379315, "class": null, "keyword": "中心城区"}}, {"type": "Feature", "geometry": {"type": "Polygon", "coordinates": [[[117.00779, 35.394767], [117.007934, 35.39442], [117.008213, 35.394133], [117.008595, 35.39394], [117.009035, 35.393864], [117.00948, 35.393914], [117.009852, 35.394068], [117.010145, 35.394309], [117.01033, 35.394613], [117.010389, 35.394949], [117.010315, 35.395283], [117.010116, 35.395581], [117.009812, 35.395813], [117.009434, 35.395955], [117.00902, 35.395993], [117.008613, 35.395924], [117.008253, 35.395753], [117.00796, 35.395475], [117.007799, 35.395133], [117.00779, 35.394767]]]}, "properties": {"display_name": "邹城体育中心体育场, G104;S319, 千泉街道, 邹城市, 济宁市, 山东省, 中国", "type": "stadium", "osm_type": "way", "osm_id": 1159659660, "class": null, "keyword": "中心城区"}}, {"type": "Feature", "geometry": {"type": "Polygon", "coordinates": [[[117.138394, 34.80474], [117.138568, 34.804717], [117.139854, 34.804548], [117.141148, 34.804378], [117.141364, 34.805668], [117.138998, 34.805708], [117.138864, 34.804981], [117.138437, 34.805035], [117.138394, 34.80474]]]}, "properties": {"display_name": "微山县职业教育中心学校(微山县教师进修学校), 奎文东路, 夏镇街道, 微山县, 济宁市, 山东省, 277600, 中国", "type": "college", "osm_type": "way", "osm_id": 773077517, "class": null, "keyword": "市中心"}}, {"type": "Feature", "geometry": {"type": "Polygon", "coordinates": [[[116.992748, 35.400486], [116.99284, 35.39937], [116.994223, 35.399504], [116.994222, 35.399549], [116.994895, 35.399594], [116.994777, 35.400605], [116.992748, 35.400486]]]}, "properties": {"display_name": "邹城市老年福利服务中心, 平阳东路, 千泉街道, 邹城市, 济宁市, 山东省, 273599, 中国", "type": "social_facility", "osm_type": "way", "osm_id": 477085830, "class": null, "keyword": "市中心"}}, {"type": "Feature", "geometry": {"type": "Polygon", "coordinates": [[[116.909728, 35.438285], [116.910045, 35.436391], [116.911017, 35.436483], [116.910724, 35.438373], [116.909728, 35.438285]]]}, "properties": {"display_name": "邹城市中心店镇中心小学, 复兴路, 中心店镇(老镇驻地), 中心店镇, 邹城市, 济宁市, 山东省, 273512, 中国", "type": "school", "osm_type": "way", "osm_id": 466941026, "class": null, "keyword": "市中心"}}, {"type": "Feature", "geometry": {"type": "Polygon", "coordinates": [[[116.504717, 35.458229], [116.505227, 35.45811], [116.506435, 35.458064], [116.506513, 35.45891], [116.506369, 35.458927], [116.506375, 35.459118], [116.505409, 35.459143], [116.505384, 35.45922], [116.504867, 35.45924], [116.504792, 35.45928], [116.504733, 35.459285], [116.504717, 35.458229]]]}, "properties": {"display_name": "任城区南张镇中心小学, S321, 南张街道, 任城区, 济宁市, 山东省, 中国", "type": "school", "osm_type": "way", "osm_id": 1239817671, "class": null, "keyword": "中心城区"}}, {"type": "Feature", "geometry": {"type": "Polygon", "coordinates": [[[117.08205, 34.903129], [117.082532, 34.903043], [117.083272, 34.902894], [117.083682, 34.904127], [117.082491, 34.904427], [117.08205, 34.903129]]]}, "properties": {"display_name": "欢城镇敬老院, 冯驩北路, 欢城镇, 微山县, 济宁市, 山东省, 中国", "type": "social_facility", "osm_type": "way", "osm_id": 862928584, "class": null, "keyword": "老城"}}, {"type": "Feature", "geometry": {"type": "Polygon", "coordinates": [[[117.083296, 34.826208], [117.083646, 34.824677], [117.084283, 34.824627], [117.084454, 34.826188], [117.083296, 34.826208]]]}, "properties": {"display_name": "微山县突发公共卫生事件应急救治中心（传染病医院）, 滨湖路, 曹庄村, 夏镇街道, 微山县, 济宁市, 山东省, 中国", "type": "hospital", "osm_type": "way", "osm_id": 1002887934, "class": null, "keyword": "市中心"}}, {"type": "Feature", "geometry": {"type": "Polygon", "coordinates": [[[116.991619, 35.425597], [116.992816, 35.425637], [116.992919, 35.426772], [116.991977, 35.426699], [116.991691, 35.42649], [116.991619, 35.425597]]]}, "properties": {"display_name": "邹城市钢山社区卫生服务中心, 护驾山路, 钢山街道, 邹城市, 济宁市, 山东省, 273599, 中国", "type": "hospital", "osm_type": "way", "osm_id": 477340046, "class": null, "keyword": "市中心"}}, {"type": "Feature", "geometry": {"type": "Polygon", "coordinates": [[[116.946261, 35.403338], [116.946271, 35.402741], [116.94799, 35.402729], [116.947989, 35.403334], [116.946952, 35.403337], [116.946261, 35.403338]]]}, "properties": {"display_name": "中煤新城广场, 凫山街道, 邹城市, 济宁市, 山东省, 中国", "type": "commercial", "osm_type": "way", "osm_id": 477340037, "class": null, "keyword": "中心城区"}}, {"type": "Feature", "geometry": {"type": "Polygon", "coordinates": [[[116.609274, 35.41678], [116.610837, 35.416784], [116.610843, 35.4176], [116.609937, 35.417589], [116.609806, 35.417415], [116.609807, 35.417201], [116.609625, 35.417201], [116.609274, 35.41678]]]}, "properties": {"display_name": "济宁市明珠中心小学, 科苑路, 洸河街道, 阜桥街道, 任城区, 济宁市, 山东省, 272000, 中国", "type": "school", "osm_type": "way", "osm_id": 1364416941, "class": null, "keyword": "市中心"}}, {"type": "Feature", "geometry": {"type": "Polygon", "coordinates": [[[116.64443, 35.016251], [116.644949, 35.016053], [116.64458, 35.015842], [116.644818, 35.015565], [116.645228, 35.015812], [116.645266, 35.015569], [116.645681, 35.015605], [116.64565, 35.015983], [116.645918, 35.015989], [116.645883, 35.016324], [116.645556, 35.0163], [116.645526, 35.016618], [116.645054, 35.016587], [116.645084, 35.016288], [116.644582, 35.016492], [116.64443, 35.016251]]]}, "properties": {"display_name": "鱼台市民中心, 三贤路, 越河头, 滨湖街道, 鱼台县, 济宁市, 山东省, 272300, 中国", "type": "yes", "osm_type": "way", "osm_id": 1181907043, "class": null, "keyword": "市中心"}}, {"type": "Feature", "geometry": {"type": "Polygon", "coordinates": [[[117.00044, 35.404898], [117.000465, 35.404579], [117.000866, 35.404591], [117.000875, 35.404471], [117.002358, 35.404537], [117.002345, 35.404645], [117.002719, 35.404665], [117.002694, 35.405001], [117.00044, 35.404898]]]}, "properties": {"display_name": "邹城市政务服务中心, 太平东路, 千泉街道, 邹城市, 济宁市, 山东省, 中国", "type": "government", "osm_type": "way", "osm_id": 471513843, "class": null, "keyword": "市中心"}}, {"type": "Feature", "geometry": {"type": "Polygon", "coordinates": [[[117.107474, 34.817034], [117.107541, 34.816237], [117.108238, 34.816139], [117.108434, 34.816998], [117.107477, 34.817082], [117.107474, 34.817034]]]}, "properties": {"display_name": "微山县融媒体中心广播电视台, 城后路, 城后, 夏镇街道, 微山县, 济宁市, 山东省, 中国", "type": "studio", "osm_type": "way", "osm_id": 847818515, "class": null, "keyword": "市中心"}}, {"type": "Feature", "geometry": {"type": "Polygon", "coordinates": [[[116.901467, 35.433325], [116.901541, 35.432689], [116.902303, 35.432777], [116.90224, 35.43338], [116.901467, 35.433325]]]}, "properties": {"display_name": "邹城市人民法院中心人民法庭, 邹鲍路, 中心店镇(老镇驻地), 中心店镇, 邹城市, 济宁市, 山东省, 273512, 中国", "type": "courthouse", "osm_type": "way", "osm_id": 535989033, "class": null, "keyword": "市中心"}}, {"type": "Feature", "geometry": {"type": "Polygon", "coordinates": [[[116.948503, 35.546324], [116.949185, 35.546323], [116.949186, 35.546611], [116.948662, 35.546612], [116.948663, 35.54689], [116.948505, 35.546891], [116.948503, 35.546324]]]}, "properties": {"display_name": "工程训练中心, 尚礼路, 陵城镇, 曲阜市, 济宁市, 山东省, 273100, 中国", "type": "university", "osm_type": "way", "osm_id": 1152600236, "class": null, "keyword": "中心城区"}}, {"type": "Feature", "geometry": {"type": "Polygon", "coordinates": [[[116.597336, 35.413344], [116.597338, 35.413153], [116.597374, 35.413147], [116.597371, 35.412904], [116.597407, 35.412898], [116.59741, 35.412784], [116.597704, 35.412782], [116.597774, 35.412781], [116.597763, 35.413345], [116.59741, 35.413345], [116.597336, 35.413344]]]}, "properties": {"display_name": "任城区妇女儿童活动中心, 供销路, 洸河街道, 阜桥街道, 任城区, 济宁市, 山东省, 272000, 中国", "type": "yes", "osm_type": "way", "osm_id": 1035993171, "class": null, "keyword": "中心城区"}}, {"type": "Feature", "geometry": {"type": "Polygon", "coordinates": [[[116.948503, 35.545939], [116.949184, 35.545938], [116.949185, 35.546227], [116.948503, 35.546228], [116.948503, 35.545939]]]}, "properties": {"display_name": "工程训练中心, 杏坛路, 陵城镇, 曲阜市, 济宁市, 山东省, 273100, 中国", "type": "university", "osm_type": "way", "osm_id": 1152600235, "class": null, "keyword": "中心城区"}}, {"type": "Feature", "geometry": {"type": "Polygon", "coordinates": [[[116.972261, 35.441717], [116.972434, 35.441518], [116.972733, 35.441678], [116.972557, 35.441876], [116.972261, 35.441717]]]}, "properties": {"display_name": "邹城市国家税务局中心店税务分局, 国宏大道, 中心店镇, 邹城市, 济宁市, 山东省, 273599, 中国", "type": "government", "osm_type": "way", "osm_id": 468310722, "class": null, "keyword": "市中心"}}]}