{"type": "FeatureCollection", "features": [{"type": "Feature", "geometry": {"type": "Polygon", "coordinates": [[[31.589947, 4.847386], [31.590048, 4.847363], [31.590014, 4.847217], [31.590185, 4.847177], [31.59022, 4.847325], [31.590303, 4.847305], [31.590336, 4.847443], [31.590248, 4.847464], [31.590253, 4.847488], [31.590087, 4.847527], [31.590081, 4.847503], [31.589979, 4.847526], [31.589947, 4.847386]]]}, "properties": {"display_name": "Juba Christian Centre, University Road, Hai Zendia, Juba City, Juba, Central Equatoria الاستوائية المركزية, South Sudan جنوب السودان", "type": "place_of_worship", "osm_type": "way", "osm_id": 207096456, "class": null, "keyword": "city centre"}}, {"type": "Feature", "geometry": {"type": "Polygon", "coordinates": [[[31.589102, 4.86156], [31.589129, 4.861559], [31.589244, 4.861557], [31.58925, 4.861557], [31.589365, 4.861555], [31.58937, 4.861809], [31.589255, 4.86181], [31.58925, 4.86181], [31.589106, 4.861813], [31.589105, 4.861745], [31.589103, 4.861639], [31.589102, 4.86156]]]}, "properties": {"display_name": "International Medical Centre, 23th Street, Tompping, Juba City, Juba, Central Equatoria الاستوائية المركزية, South Sudan جنوب السودان", "type": "clinic", "osm_type": "way", "osm_id": 1005223401, "class": null, "keyword": "centre-ville"}}, {"type": "Feature", "geometry": {"type": "Polygon", "coordinates": [[[31.608978, 4.858326], [31.609358, 4.858269], [31.609391, 4.858494], [31.609318, 4.858504], [31.609293, 4.858336], [31.60908, 4.858367], [31.609106, 4.858541], [31.609011, 4.858554], [31.608978, 4.858326]]]}, "properties": {"display_name": "Living Waters Centre, Hallie Selassie Road, Hai Jalaba, Hai Ghabat, Juba City, Juba, Central Equatoria الاستوائية المركزية, South Sudan جنوب السودان", "type": "yes", "osm_type": "way", "osm_id": 320298607, "class": null, "keyword": "centre-ville"}}, {"type": "Feature", "geometry": {"type": "Polygon", "coordinates": [[[31.607235, 4.84016], [31.607326, 4.840159], [31.607328, 4.840278], [31.607236, 4.840279], [31.607235, 4.84016]]]}, "properties": {"display_name": "Victorious Medical Centre, Nimule Street, Hai Malakal, Juba City, Juba, Central Equatoria الاستوائية المركزية, South Sudan جنوب السودان", "type": "clinic", "osm_type": "way", "osm_id": 264115520, "class": null, "keyword": "centre-ville"}}]}