{"type": "FeatureCollection", "features": [{"type": "Feature", "geometry": {"type": "Polygon", "coordinates": [[[136.633961, 36.611378], [136.633964, 36.610239], [136.633986, 36.610214], [136.634854, 36.610197], [136.634971, 36.610319], [136.635252, 36.610558], [136.635369, 36.610837], [136.635406, 36.610972], [136.635421, 36.611142], [136.635413, 36.611321], [136.634425, 36.611328], [136.634425, 36.61138], [136.633961, 36.611378]]]}, "properties": {"display_name": "鞍月中央公園, 直江西一丁目, 金沢市, 石川県, 日本", "type": "park", "osm_type": "way", "osm_id": 204270003, "class": null, "keyword": "中央区"}}, {"type": "Feature", "geometry": {"type": "Polygon", "coordinates": [[[136.646368, 36.575817], [136.646549, 36.575749], [136.646943, 36.576229], [136.64711, 36.576432], [136.647654, 36.577133], [136.647901, 36.577451], [136.647941, 36.577503], [136.648183, 36.577813], [136.648447, 36.578152], [136.648684, 36.578456], [136.648723, 36.578505], [136.648943, 36.578841], [136.649156, 36.579165], [136.64892, 36.579282], [136.648717, 36.579074], [136.648103, 36.578319], [136.648079, 36.57829], [136.647319, 36.577318], [136.647161, 36.577115], [136.64685, 36.576585], [136.646368, 36.575817]]]}, "properties": {"display_name": "金沢, 昭和大通り, 六枚町, 金沢市, 石川県, 920-0856, 日本", "type": "train_station", "osm_type": "way", "osm_id": 136564093, "class": null, "keyword": "市中心"}}, {"type": "Feature", "geometry": {"type": "Polygon", "coordinates": [[[136.646791, 36.577317], [136.647161, 36.577115], [136.647319, 36.577318], [136.648079, 36.57829], [136.648103, 36.578319], [136.648763, 36.57918], [136.648321, 36.579406], [136.647993, 36.579048], [136.647824, 36.578813], [136.647794, 36.578823], [136.647599, 36.578564], [136.647339, 36.578218], [136.647336, 36.578202], [136.647213, 36.578033], [136.647159, 36.577959], [136.646918, 36.577539], [136.646791, 36.577317]]]}, "properties": {"display_name": "金沢, 大階段, 木ノ新保町, 金沢市, 石川県, 920-0858, 日本", "type": "train_station", "osm_type": "way", "osm_id": 136564094, "class": null, "keyword": "市中心"}}, {"type": "Feature", "geometry": {"type": "Polygon", "coordinates": [[[136.645472, 36.606834], [136.645653, 36.606833], [136.645853, 36.606688], [136.645911, 36.606705], [136.645914, 36.606884], [136.64597, 36.607136], [136.645966, 36.607207], [136.645476, 36.607206], [136.645472, 36.606834]]]}, "properties": {"display_name": "三口町中央公園, 三口町, 金沢市, 石川県, 日本", "type": "park", "osm_type": "way", "osm_id": 187985326, "class": null, "keyword": "中央区"}}, {"type": "Feature", "geometry": {"type": "Polygon", "coordinates": [[[136.591213, 36.557464], [136.5915, 36.557138], [136.591624, 36.557208], [136.591638, 36.557192], [136.591695, 36.557224], [136.591681, 36.557241], [136.591717, 36.557261], [136.59143, 36.557587], [136.591213, 36.557464]]]}, "properties": {"display_name": "金沢市埋蔵文化財センター, 石川県道195号倉部金沢線, 上安原南, 金沢市, 石川県, 921-8065, 日本", "type": "museum", "osm_type": "way", "osm_id": 923382239, "class": null, "keyword": "city centre"}}, {"type": "Feature", "geometry": {"type": "Polygon", "coordinates": [[[136.658724, 36.546997], [136.658748, 36.546969], [136.658763, 36.546952], [136.658833, 36.546992], [136.658793, 36.547037], [136.658724, 36.546997]]]}, "properties": {"display_name": "金沢中警察署寺町交番, 44, 石川県道144号別所野町線, 寺町一丁目, 金沢市, 石川県, 920-0995, 日本", "type": "police", "osm_type": "way", "osm_id": 1037572952, "class": null, "keyword": "中心商圈"}}, {"type": "Feature", "geometry": {"type": "Polygon", "coordinates": [[[136.650886, 36.556018], [136.650942, 36.555963], [136.650967, 36.555979], [136.650911, 36.556035], [136.650886, 36.556018]]]}, "properties": {"display_name": "金沢建築館, 石川県道144号別所野町線, 寺町五丁目, 金沢市, 石川県, 921-8033, 日本", "type": "bicycle_rental", "osm_type": "way", "osm_id": 929093278, "class": null, "keyword": "中心商圈"}}, {"type": "Feature", "geometry": {"type": "Polygon", "coordinates": [[[136.648348, 36.552903], [136.648435, 36.552865], [136.648446, 36.552881], [136.648359, 36.552919], [136.648348, 36.552903]]]}, "properties": {"display_name": "金沢未来のまち創造館, 六斗の広見, 野町三丁目, 金沢市, 石川県, 921-8033, 日本", "type": "bicycle_rental", "osm_type": "way", "osm_id": 983611319, "class": null, "keyword": "中心商圈"}}, {"type": "Feature", "geometry": {"type": "Polygon", "coordinates": [[[136.654201, 36.544709], [136.65422, 36.544699], [136.65426, 36.544754], [136.65424, 36.544763], [136.654201, 36.544709]]]}, "properties": {"display_name": "セブンイレブン金沢泉野町店, 石川県道144号別所野町線, 寺町一丁目, 金沢市, 石川県, 920-0995, 日本", "type": "bicycle_rental", "osm_type": "way", "osm_id": 929137586, "class": null, "keyword": "中心商圈"}}, {"type": "Feature", "geometry": {"type": "Polygon", "coordinates": [[[136.647788, 36.557199], [136.647868, 36.557163], [136.647877, 36.557176], [136.647797, 36.557212], [136.647788, 36.557199]]]}, "properties": {"display_name": "にし茶屋街, 蛤坂, 野町二丁目, 金沢市, 石川県, 921-8031, 日本", "type": "bicycle_rental", "osm_type": "way", "osm_id": 929093279, "class": null, "keyword": "district"}}, {"type": "Feature", "geometry": {"type": "Polygon", "coordinates": [[[136.648908, 36.548077], [136.648938, 36.548025], [136.648952, 36.548031], [136.648922, 36.548082], [136.648908, 36.548077]]]}, "properties": {"display_name": "ローソン金沢弥生店, 金沢鶴来線, 弥生, 金沢市, 石川県, 921-8033, 日本", "type": "bicycle_rental", "osm_type": "way", "osm_id": 929192030, "class": null, "keyword": "中心商圈"}}, {"type": "Feature", "geometry": {"type": "Polygon", "coordinates": [[[136.657187, 36.554852], [136.657234, 36.554828], [136.657244, 36.554841], [136.657196, 36.554865], [136.657187, 36.554852]]]}, "properties": {"display_name": "ファミリーマート金沢幸町店, Shintatemachi-dori, 新竪町, 金沢市, 石川県, 920-0995, 日本", "type": "bicycle_rental", "osm_type": "way", "osm_id": 929180063, "class": null, "keyword": "中心商圈"}}, {"type": "Feature", "geometry": {"type": "Polygon", "coordinates": [[[136.657349, 36.548565], [136.657363, 36.548551], [136.657385, 36.548565], [136.657371, 36.548579], [136.657349, 36.548565]]]}, "properties": {"display_name": "ファミリーマート金沢寺町店, 石川県道144号別所野町線, 寺町一丁目, 金沢市, 石川県, 920-0995, 日本", "type": "bicycle_rental", "osm_type": "way", "osm_id": 929184755, "class": null, "keyword": "中心商圈"}}]}