{"type": "FeatureCollection", "features": [{"type": "Feature", "geometry": {"type": "Polygon", "coordinates": [[[-94.596777, 39.092471], [-94.596744, 39.082392], [-94.593947, 39.082221], [-94.593913, 39.082219], [-94.587295, 39.082001], [-94.58422, 39.081942], [-94.57657, 39.08155], [-94.574748, 39.104311], [-94.574682, 39.106007], [-94.574575, 39.106628], [-94.575123, 39.108164], [-94.576303, 39.111469], [-94.576998, 39.113415], [-94.577072, 39.114111], [-94.577615, 39.114085], [-94.578042, 39.114163], [-94.596699, 39.113279], [-94.596504, 39.104058], [-94.596486, 39.103193], [-94.596777, 39.092471]]]}, "properties": {"display_name": "Downtown Kansas City, Kansas City, Jackson County, Missouri, United States", "type": "suburb", "osm_type": "way", "osm_id": 561193500, "class": null, "keyword": "downtown"}}, {"type": "Feature", "geometry": {"type": "Polygon", "coordinates": [[[-94.593794, 39.100792], [-94.593237, 39.099193], [-94.591756, 39.097761], [-94.591327, 39.097378], [-94.589685, 39.096787], [-94.58858, 39.096695], [-94.588409, 39.100109], [-94.587772, 39.100089], [-94.585641, 39.100018], [-94.583403, 39.099944], [-94.580767, 39.099867], [-94.578602, 39.099776], [-94.578602, 39.096129], [-94.57768, 39.096129], [-94.575427, 39.096829], [-94.573195, 39.097744], [-94.572895, 39.098327], [-94.572187, 39.103889], [-94.570105, 39.106686], [-94.591471, 39.106909], [-94.592335, 39.106919], [-94.593001, 39.105188], [-94.593537, 39.10314], [-94.593763, 39.101074], [-94.593794, 39.100792]]]}, "properties": {"display_name": "Central Business District KC, Downtown Kansas City, Kansas City, Jackson County, Missouri, United States", "type": "neighbourhood", "osm_type": "way", "osm_id": 580390078, "class": null, "keyword": "business district"}}, {"type": "Feature", "geometry": {"type": "Polygon", "coordinates": [[[-94.585429, 39.065831], [-94.585425, 39.065823], [-94.585406, 39.065814], [-94.584918, 39.065798], [-94.584891, 39.066213], [-94.581058, 39.06602], [-94.580435, 39.06599], [-94.579434, 39.067017], [-94.579357, 39.067117], [-94.579283, 39.067231], [-94.579231, 39.06739], [-94.579205, 39.067596], [-94.579151, 39.068192], [-94.579165, 39.068241], [-94.5792, 39.068281], [-94.579211, 39.068295], [-94.579254, 39.068336], [-94.579298, 39.068358], [-94.579341, 39.068364], [-94.57939, 39.068371], [-94.579798, 39.068259], [-94.579993, 39.068205], [-94.580083, 39.068194], [-94.580441, 39.068207], [-94.583879, 39.06828], [-94.584024, 39.068286], [-94.584814, 39.068321], [-94.585242, 39.06822], [-94.58529, 39.068089], [-94.585312, 39.067652], [-94.585325, 39.067385], [-94.585328, 39.067329], [-94.585367, 39.067128], [-94.585429, 39.065831]]]}, "properties": {"display_name": "Midtown Market Place, Kansas City, Jackson County, Missouri, United States", "type": "retail", "osm_type": "way", "osm_id": 180072743, "class": null, "keyword": "midtown"}}, {"type": "Feature", "geometry": {"type": "Polygon", "coordinates": [[[-94.541351, 39.291894], [-94.541263, 39.29116], [-94.54129, 39.290948], [-94.541137, 39.290563], [-94.540884, 39.290181], [-94.540596, 39.289844], [-94.539096, 39.290131], [-94.539791, 39.291929], [-94.539939, 39.292227], [-94.541351, 39.291894]]]}, "properties": {"display_name": "North Kansas City District Football Stadium, NKC District Stadium Drive, Kansas City, Clay County, Missouri, 64166, United States", "type": "stadium", "osm_type": "way", "osm_id": 503492613, "class": null, "keyword": "district"}}, {"type": "Feature", "geometry": {"type": "Polygon", "coordinates": [[[-94.579909, 39.093417], [-94.579762, 39.093411], [-94.579763, 39.093389], [-94.579354, 39.093377], [-94.579353, 39.093398], [-94.579032, 39.093389], [-94.578974, 39.09456], [-94.579018, 39.094561], [-94.578982, 39.095377], [-94.579229, 39.095383], [-94.579221, 39.095548], [-94.579688, 39.09556], [-94.579702, 39.095235], [-94.57983, 39.095238], [-94.579909, 39.093417]]]}, "properties": {"display_name": "Kansas City Star Building, 1601, McGee Street, Kansas City Power & Light District, Downtown Kansas City, Kansas City, Jackson County, Missouri, 64108, United States", "type": "yes", "osm_type": "way", "osm_id": 118650988, "class": null, "keyword": "district"}}, {"type": "Feature", "geometry": {"type": "Polygon", "coordinates": [[[-94.580366, 39.084459], [-94.580282, 39.084458], [-94.580287, 39.084305], [-94.57996, 39.084299], [-94.579958, 39.084342], [-94.579861, 39.08434], [-94.57986, 39.084378], [-94.579742, 39.084376], [-94.579739, 39.08447], [-94.579644, 39.084468], [-94.579642, 39.084549], [-94.579537, 39.084547], [-94.579535, 39.084621], [-94.57944, 39.08462], [-94.579432, 39.084882], [-94.579313, 39.08488], [-94.579307, 39.085105], [-94.579297, 39.085282], [-94.579296, 39.085296], [-94.579185, 39.085301], [-94.579174, 39.08561], [-94.579153, 39.086228], [-94.579609, 39.086236], [-94.579615, 39.086018], [-94.579852, 39.086022], [-94.579841, 39.086285], [-94.580312, 39.086296], [-94.580327, 39.085688], [-94.580331, 39.085403], [-94.580019, 39.085398], [-94.580022, 39.0853], [-94.580027, 39.085123], [-94.580027, 39.085119], [-94.58003, 39.085066], [-94.580037, 39.084785], [-94.580357, 39.084791], [-94.580366, 39.084459]]]}, "properties": {"display_name": "Sheraton Kansas City Hotel at Crown Center, 2345, McGee Street, Downtown Kansas City, Kansas City, Jackson County, Missouri, 64108, United States", "type": "hotel", "osm_type": "way", "osm_id": 37832783, "class": null, "keyword": "city center"}}, {"type": "Feature", "geometry": {"type": "Polygon", "coordinates": [[[-94.567266, 39.091419], [-94.567134, 39.091414], [-94.566071, 39.09138], [-94.566011, 39.092563], [-94.566003, 39.092702], [-94.566315, 39.092712], [-94.567197, 39.09274], [-94.567266, 39.091419]]]}, "properties": {"display_name": "Kansas City Area Transportation Authority, 1200, East 18th Street, 18th & Vine Jazz District, Kansas City, Jackson County, Missouri, 64106, United States", "type": "yes", "osm_type": "way", "osm_id": 170266601, "class": null, "keyword": "district"}}, {"type": "Feature", "geometry": {"type": "Polygon", "coordinates": [[[-94.59243, 39.061534], [-94.591824, 39.061513], [-94.591799, 39.06197], [-94.591012, 39.061943], [-94.59101, 39.061977], [-94.590792, 39.061969], [-94.590791, 39.061984], [-94.590725, 39.061981], [-94.59067, 39.061979], [-94.590658, 39.062184], [-94.590717, 39.062186], [-94.590999, 39.062195], [-94.590996, 39.062252], [-94.592387, 39.062299], [-94.59243, 39.061534]]]}, "properties": {"display_name": "Converge KC Uptown, 3600, Broadway Boulevard, Hanover Place, Westport, Kansas City, Jackson County, Missouri, 64111, United States", "type": "apartments", "osm_type": "way", "osm_id": 171400075, "class": null, "keyword": "uptown"}}, {"type": "Feature", "geometry": {"type": "Polygon", "coordinates": [[[-94.663249, 39.240906], [-94.663127, 39.240687], [-94.663106, 39.24065], [-94.66264, 39.240648], [-94.662641, 39.24056], [-94.662003, 39.240557], [-94.662, 39.240813], [-94.661732, 39.240814], [-94.661738, 39.241116], [-94.661867, 39.24113], [-94.662117, 39.24114], [-94.662178, 39.241177], [-94.662263, 39.241193], [-94.662358, 39.241197], [-94.662503, 39.241189], [-94.662602, 39.241184], [-94.662713, 39.241154], [-94.663106, 39.241167], [-94.663249, 39.240906]]]}, "properties": {"display_name": "The Oaks at Prairie View Neighborhood Park, The Oaks at Prairie View, Kansas City, Platte County, Missouri, United States", "type": "park", "osm_type": "way", "osm_id": 620479991, "class": null, "keyword": "neighborhood"}}, {"type": "Feature", "geometry": {"type": "Polygon", "coordinates": [[[-94.546914, 39.189531], [-94.546864, 39.189531], [-94.546864, 39.1895], [-94.546288, 39.189494], [-94.54629, 39.189613], [-94.546187, 39.189608], [-94.546182, 39.189807], [-94.54628, 39.189807], [-94.546268, 39.190157], [-94.546845, 39.190168], [-94.546854, 39.18981], [-94.546904, 39.189812], [-94.546914, 39.189531]]]}, "properties": {"display_name": "Walmart Neighborhood Market, 5261, North Antioch Road, Kansas City, Clay County, Missouri, 64119, United States", "type": "supermarket", "osm_type": "way", "osm_id": 339593967, "class": null, "keyword": "neighborhood"}}, {"type": "Feature", "geometry": {"type": "Polygon", "coordinates": [[[-94.53674, 39.101171], [-94.535653, 39.101125], [-94.535629, 39.101498], [-94.536726, 39.101531], [-94.53674, 39.101171]]]}, "properties": {"display_name": "Lykins Neighborhood Urban Farm (OSM), Kansas City, Jackson County, Missouri, 64127, United States", "type": "allotments", "osm_type": "way", "osm_id": 251440783, "class": null, "keyword": "neighborhood"}}, {"type": "Feature", "geometry": {"type": "Polygon", "coordinates": [[[-94.591442, 39.061068], [-94.591397, 39.061067], [-94.591411, 39.06078], [-94.59143, 39.06078], [-94.591437, 39.060634], [-94.591256, 39.060628], [-94.59125, 39.06076], [-94.590778, 39.060746], [-94.590706, 39.060744], [-94.590688, 39.061111], [-94.590687, 39.061123], [-94.590689, 39.061138], [-94.5907, 39.061154], [-94.59072, 39.06117], [-94.590736, 39.061177], [-94.590754, 39.061182], [-94.591218, 39.061196], [-94.591218, 39.061179], [-94.591401, 39.061185], [-94.5914, 39.0612], [-94.591435, 39.061201], [-94.591437, 39.061177], [-94.591442, 39.061068]]]}, "properties": {"display_name": "Uptown Theater, 3700, Broadway Boulevard, Westport, Kansas City, Jackson County, Missouri, 64111, United States", "type": "theatre", "osm_type": "way", "osm_id": 171400078, "class": null, "keyword": "uptown"}}, {"type": "Feature", "geometry": {"type": "Polygon", "coordinates": [[[-94.584101, 39.102358], [-94.584075, 39.102357], [-94.584075, 39.102345], [-94.583948, 39.102341], [-94.583798, 39.102336], [-94.583797, 39.102347], [-94.583691, 39.102343], [-94.583684, 39.10246], [-94.583671, 39.102702], [-94.583702, 39.102703], [-94.583683, 39.103034], [-94.584065, 39.103046], [-94.584064, 39.10304], [-94.584065, 39.103017], [-94.584066, 39.102997], [-94.584101, 39.102358]]]}, "properties": {"display_name": "Kansas City Public Library Central Library, 14, West 10th Street, Central Downtown, Central Business District KC, Downtown Kansas City, Kansas City, Jackson County, Missouri, 64105, United States", "type": "library", "osm_type": "way", "osm_id": 132570887, "class": null, "keyword": "district"}}, {"type": "Feature", "geometry": {"type": "Polygon", "coordinates": [[[-94.578265, 39.100451], [-94.57821, 39.10045], [-94.578159, 39.100448], [-94.57816, 39.100437], [-94.57809, 39.100435], [-94.577692, 39.100423], [-94.577692, 39.100432], [-94.577641, 39.100431], [-94.577583, 39.100429], [-94.577567, 39.100751], [-94.577679, 39.100754], [-94.577679, 39.100765], [-94.577701, 39.100765], [-94.577815, 39.100769], [-94.577813, 39.100802], [-94.5779, 39.100805], [-94.577986, 39.100808], [-94.577988, 39.100775], [-94.578115, 39.100779], [-94.578133, 39.10078], [-94.578133, 39.100771], [-94.578249, 39.100774], [-94.578265, 39.100451]]]}, "properties": {"display_name": "Kansas City City Hall, 414, East 12th Street, Central Business District KC, Downtown Kansas City, Kansas City, Jackson County, Missouri, 64106, United States", "type": "townhall", "osm_type": "way", "osm_id": 118650979, "class": null, "keyword": "district"}}, {"type": "Feature", "geometry": {"type": "Polygon", "coordinates": [[[-94.589928, 39.099483], [-94.589873, 39.099481], [-94.589735, 39.099478], [-94.589689, 39.099477], [-94.589647, 39.099476], [-94.58951, 39.099473], [-94.589509, 39.099484], [-94.589508, 39.099542], [-94.589493, 39.099542], [-94.589478, 39.09986], [-94.589493, 39.09986], [-94.589491, 39.099926], [-94.589549, 39.099928], [-94.589637, 39.09993], [-94.589632, 39.100056], [-94.589905, 39.100062], [-94.589921, 39.099651], [-94.589928, 39.099483]]]}, "properties": {"display_name": "Kansas City Southern, 427, West 12th Street, Central Business District KC, Downtown Kansas City, Kansas City, Jackson County, Missouri, 64105, United States", "type": "yes", "osm_type": "way", "osm_id": 195846011, "class": null, "keyword": "district"}}, {"type": "Feature", "geometry": {"type": "Polygon", "coordinates": [[[-94.577241, 39.100452], [-94.577095, 39.100446], [-94.577008, 39.100443], [-94.576956, 39.100441], [-94.576653, 39.100429], [-94.576633, 39.100802], [-94.576925, 39.100812], [-94.577016, 39.100816], [-94.577217, 39.100825], [-94.577234, 39.10056], [-94.577241, 39.100452]]]}, "properties": {"display_name": "Kansas City Municipal Court, 1101, Locust Street, Central Downtown, Central Business District KC, Downtown Kansas City, Kansas City, Jackson County, Missouri, 64106, United States", "type": "courthouse", "osm_type": "way", "osm_id": 132570144, "class": null, "keyword": "district"}}, {"type": "Feature", "geometry": {"type": "Polygon", "coordinates": [[[-94.570734, 39.099891], [-94.570701, 39.099889], [-94.570701, 39.099804], [-94.570541, 39.099799], [-94.57054, 39.09977], [-94.570195, 39.09976], [-94.570198, 39.099739], [-94.570088, 39.099735], [-94.570069, 39.100051], [-94.570728, 39.100072], [-94.570734, 39.099891]]]}, "properties": {"display_name": "Rehabilitation Institute of Kansas City (RIKC), 1020, East 12th Street, Central Business District KC, Kansas City, Jackson County, Missouri, 64106, United States", "type": "yes", "osm_type": "way", "osm_id": 169505435, "class": null, "keyword": "district"}}, {"type": "Feature", "geometry": {"type": "Polygon", "coordinates": [[[-94.574642, 39.105551], [-94.574401, 39.105545], [-94.5744, 39.105556], [-94.574389, 39.105723], [-94.574338, 39.10576], [-94.574301, 39.105759], [-94.573813, 39.105739], [-94.57381, 39.105795], [-94.573793, 39.105794], [-94.573787, 39.105891], [-94.57458, 39.105923], [-94.574594, 39.105705], [-94.574632, 39.105707], [-94.574642, 39.105551]]]}, "properties": {"display_name": "Holiday Inn Kansas City - Downtown, 770, Admiral Boulevard, Central Downtown, Central Business District KC, Kansas City, Jackson County, Missouri, 64106, United States", "type": "hotel", "osm_type": "way", "osm_id": 325344498, "class": null, "keyword": "district"}}, {"type": "Feature", "geometry": {"type": "Polygon", "coordinates": [[[-94.581798, 39.0976], [-94.581781, 39.097575], [-94.581445, 39.097566], [-94.581437, 39.097721], [-94.581458, 39.097735], [-94.581476, 39.097757], [-94.581489, 39.097787], [-94.581489, 39.097811], [-94.581474, 39.097842], [-94.581452, 39.097863], [-94.581441, 39.098073], [-94.581781, 39.098084], [-94.581798, 39.0976]]]}, "properties": {"display_name": "Kansas City Live!, 1300, Grand Boulevard, Power & Light District, Downtown Kansas City, Kansas City, Jackson County, Missouri, 64106, United States", "type": "theatre", "osm_type": "way", "osm_id": 1084359216, "class": null, "keyword": "district"}}, {"type": "Feature", "geometry": {"type": "Polygon", "coordinates": [[[-94.470309, 39.25493], [-94.470171, 39.254876], [-94.470156, 39.2549], [-94.470095, 39.254876], [-94.469928, 39.255132], [-94.469985, 39.255154], [-94.469924, 39.255204], [-94.469847, 39.255203], [-94.469872, 39.255149], [-94.469662, 39.255091], [-94.46964, 39.25514], [-94.469527, 39.255131], [-94.469421, 39.255175], [-94.469368, 39.255281], [-94.469436, 39.255302], [-94.469477, 39.255218], [-94.469559, 39.255184], [-94.469894, 39.255281], [-94.469892, 39.255302], [-94.470031, 39.255356], [-94.470309, 39.25493]]]}, "properties": {"display_name": "Woodneath Farms Neighborhood Swimming Pool Parking Lot, Northeast 90th Street, Woodneath Farms, Kansas City, Clay County, Missouri, 64157, United States", "type": "parking", "osm_type": "way", "osm_id": 650713106, "class": null, "keyword": "neighborhood"}}, {"type": "Feature", "geometry": {"type": "Polygon", "coordinates": [[[-94.573559, 39.104289], [-94.572849, 39.104266], [-94.572845, 39.104344], [-94.572875, 39.104345], [-94.572868, 39.104473], [-94.573266, 39.104486], [-94.573515, 39.104494], [-94.573519, 39.104418], [-94.573521, 39.10437], [-94.573554, 39.104371], [-94.573559, 39.104289]]]}, "properties": {"display_name": "Kansas City Regional Center MR/DD, 705, Charlotte Street, Central Downtown, Central Business District KC, Kansas City, Jackson County, Missouri, 64106, United States", "type": "yes", "osm_type": "way", "osm_id": 365389652, "class": null, "keyword": "district"}}, {"type": "Feature", "geometry": {"type": "Polygon", "coordinates": [[[-94.584332, 39.097358], [-94.583962, 39.097348], [-94.583956, 39.097485], [-94.583952, 39.097566], [-94.583948, 39.097659], [-94.583945, 39.097711], [-94.584314, 39.097721], [-94.584332, 39.097358]]]}, "properties": {"display_name": "Hilton President Kansas City, 1329, West 14th Street, Power & Light District, Downtown Kansas City, Kansas City, Jackson County, Missouri, 64105, United States", "type": "hotel", "osm_type": "way", "osm_id": 65582848, "class": null, "keyword": "district"}}, {"type": "Feature", "geometry": {"type": "Polygon", "coordinates": [[[-94.575239, 39.094345], [-94.574955, 39.094338], [-94.574943, 39.094597], [-94.5748, 39.094594], [-94.574796, 39.094728], [-94.575217, 39.094742], [-94.575239, 39.094345]]]}, "properties": {"display_name": "Kansas City Police Department, 1525, Holmes Street, Kansas City Power & Light District, Kansas City, Jackson County, Missouri, 64108, United States", "type": "yes", "osm_type": "way", "osm_id": 192382834, "class": null, "keyword": "district"}}, {"type": "Feature", "geometry": {"type": "Polygon", "coordinates": [[[-94.584908, 39.097381], [-94.584859, 39.097379], [-94.584548, 39.09737], [-94.58454, 39.097537], [-94.584538, 39.09756], [-94.58453, 39.097727], [-94.58489, 39.097738], [-94.584908, 39.097381]]]}, "properties": {"display_name": "Kansas City Power and Light Building, 106, West 14th Street, Power & Light District, Downtown Kansas City, Kansas City, Jackson County, Missouri, 64105, United States", "type": "apartments", "osm_type": "way", "osm_id": 65582850, "class": null, "keyword": "district"}}, {"type": "Feature", "geometry": {"type": "Polygon", "coordinates": [[[-94.58721, 39.058157], [-94.586696, 39.058137], [-94.586679, 39.058383], [-94.587133, 39.058402], [-94.587168, 39.058399], [-94.587181, 39.058394], [-94.587193, 39.05837], [-94.58721, 39.058157]]]}, "properties": {"display_name": "Midtown KC Streetcar Annex, Hanover Place, Westport, Kansas City, Jackson County, Missouri, United States", "type": "construction", "osm_type": "way", "osm_id": 1337597471, "class": null, "keyword": "midtown"}}, {"type": "Feature", "geometry": {"type": "Polygon", "coordinates": [[[-94.584785, 39.102887], [-94.584723, 39.102887], [-94.584728, 39.1028], [-94.58431, 39.102783], [-94.584296, 39.103059], [-94.584776, 39.103072], [-94.584782, 39.102939], [-94.584785, 39.102887]]]}, "properties": {"display_name": "Kansas City Club, 918, Baltimore Avenue, Central Downtown, Central Business District KC, Downtown Kansas City, Kansas City, Jackson County, Missouri, 64105, United States", "type": "events_venue", "osm_type": "way", "osm_id": 365396681, "class": null, "keyword": "district"}}, {"type": "Feature", "geometry": {"type": "Polygon", "coordinates": [[[-94.573681, 39.102706], [-94.573357, 39.102696], [-94.573348, 39.102869], [-94.573347, 39.102903], [-94.573369, 39.102903], [-94.573368, 39.102921], [-94.573339, 39.10292], [-94.573336, 39.10298], [-94.573343, 39.102981], [-94.573339, 39.103073], [-94.573397, 39.103074], [-94.573395, 39.103116], [-94.573408, 39.103116], [-94.573421, 39.103116], [-94.573433, 39.103117], [-94.573432, 39.103136], [-94.57361, 39.103141], [-94.573622, 39.102908], [-94.573634, 39.102908], [-94.573634, 39.102893], [-94.573635, 39.102877], [-94.573652, 39.102877], [-94.573653, 39.102852], [-94.573674, 39.102852], [-94.573681, 39.102706]]]}, "properties": {"display_name": "Kansas City Police Department HQ Annex, 901, Charlotte Street, Central Downtown, Central Business District KC, Kansas City, Jackson County, Missouri, 64106, United States", "type": "police", "osm_type": "way", "osm_id": 182620591, "class": null, "keyword": "district"}}, {"type": "Feature", "geometry": {"type": "Polygon", "coordinates": [[[-94.58544, 39.101002], [-94.585091, 39.100988], [-94.584937, 39.100982], [-94.584923, 39.101225], [-94.585425, 39.101242], [-94.58544, 39.101002]]]}, "properties": {"display_name": "Kansas City Southern Railway Building, 114, West 11th Street, Central Downtown, Central Business District KC, Downtown Kansas City, Kansas City, Jackson County, Missouri, 64105, United States", "type": "commercial", "osm_type": "way", "osm_id": 365593717, "class": null, "keyword": "district"}}, {"type": "Feature", "geometry": {"type": "Polygon", "coordinates": [[[-94.58499, 39.098745], [-94.584709, 39.098736], [-94.58448, 39.098728], [-94.584478, 39.098785], [-94.584476, 39.098832], [-94.584472, 39.098938], [-94.584978, 39.098952], [-94.58499, 39.098745]]]}, "properties": {"display_name": "Kansas City Club Building, 1228, Baltimore Avenue, Power & Light District, Downtown Kansas City, Kansas City, Jackson County, Missouri, 64105, United States", "type": "yes", "osm_type": "way", "osm_id": 193221893, "class": null, "keyword": "district"}}, {"type": "Feature", "geometry": {"type": "Polygon", "coordinates": [[[-94.571559, 39.063775], [-94.571477, 39.063775], [-94.571297, 39.063767], [-94.571108, 39.063758], [-94.571103, 39.063983], [-94.571551, 39.063998], [-94.571559, 39.063775]]]}, "properties": {"display_name": "Midtown Self-Storage, 3429, Troost Avenue, Center City, Kansas City, Jackson County, Missouri, 64109, United States", "type": "storage_rental", "osm_type": "way", "osm_id": 301093409, "class": null, "keyword": "midtown"}}, {"type": "Feature", "geometry": {"type": "Polygon", "coordinates": [[[-94.577159, 39.099893], [-94.577086, 39.099891], [-94.576843, 39.099882], [-94.576841, 39.099921], [-94.576826, 39.100175], [-94.577088, 39.100183], [-94.577142, 39.100185], [-94.57715, 39.100041], [-94.577152, 39.100006], [-94.577159, 39.099893]]]}, "properties": {"display_name": "Kansas City Police Department, 1120, Cherry Street, Central Downtown, Central Business District KC, Downtown Kansas City, Kansas City, Jackson County, Missouri, 64106, United States", "type": "police", "osm_type": "way", "osm_id": 466563341, "class": null, "keyword": "district"}}, {"type": "Feature", "geometry": {"type": "Polygon", "coordinates": [[[-94.585783, 39.054674], [-94.585685, 39.054482], [-94.585268, 39.054467], [-94.585255, 39.054654], [-94.585562, 39.054666], [-94.585783, 39.054674]]]}, "properties": {"display_name": "Midtown Market, 3967, Main Street, Southmoreland, Westport, Kansas City, Jackson County, Missouri, 64111, United States", "type": "supermarket", "osm_type": "way", "osm_id": 253822513, "class": null, "keyword": "midtown"}}, {"type": "Feature", "geometry": {"type": "Polygon", "coordinates": [[[-94.563163, 39.087904], [-94.563148, 39.087867], [-94.563123, 39.087857], [-94.563126, 39.087798], [-94.56315, 39.087776], [-94.563126, 39.087757], [-94.563126, 39.087711], [-94.562926, 39.087709], [-94.562925, 39.087778], [-94.56295, 39.087778], [-94.562949, 39.087807], [-94.563017, 39.087807], [-94.563015, 39.087858], [-94.562562, 39.087848], [-94.56256, 39.087867], [-94.562534, 39.087876], [-94.562558, 39.087896], [-94.562561, 39.087942], [-94.563121, 39.087953], [-94.563117, 39.087928], [-94.563163, 39.087904]]]}, "properties": {"display_name": "Kansas City Workhouse, 2001, Vine Street, 18th & Vine Jazz District, Kansas City, Jackson County, Missouri, 64108, United States", "type": "ruins", "osm_type": "way", "osm_id": 168731948, "class": null, "keyword": "district"}}, {"type": "Feature", "geometry": {"type": "Polygon", "coordinates": [[[-94.570874, 39.077225], [-94.570348, 39.077215], [-94.570343, 39.077362], [-94.570869, 39.077373], [-94.570874, 39.077225]]]}, "properties": {"display_name": "Inner Space Yoga, 2711, Troost Avenue, Beacon Hill, Kansas City, Jackson County, Missouri, 64109, United States", "type": "fitness_centre", "osm_type": "way", "osm_id": 232370302, "class": null, "keyword": "inner city"}}, {"type": "Feature", "geometry": {"type": "Polygon", "coordinates": [[[-94.58251, 39.111492], [-94.582463, 39.111334], [-94.582269, 39.111371], [-94.582074, 39.111409], [-94.582035, 39.111417], [-94.582054, 39.111479], [-94.582018, 39.111486], [-94.582051, 39.111584], [-94.58251, 39.111492]]]}, "properties": {"display_name": "Old Town Lofts, Walnut Street, River Market, Downtown Kansas City, Kansas City, Jackson County, Missouri, 64106, United States", "type": "parking", "osm_type": "way", "osm_id": 310603524, "class": null, "keyword": "old town"}}, {"type": "Feature", "geometry": {"type": "Polygon", "coordinates": [[[-94.581713, 39.104194], [-94.581338, 39.104182], [-94.581328, 39.10438], [-94.581702, 39.104391], [-94.581707, 39.104291], [-94.581713, 39.104194]]]}, "properties": {"display_name": "Hampton Inn Kansas City/Downtown Financial District, 801, Walnut Street, Central Downtown, Central Business District KC, Downtown Kansas City, Kansas City, Jackson County, Missouri, 64106, United States", "type": "hotel", "osm_type": "way", "osm_id": 365392539, "class": null, "keyword": "district"}}, {"type": "Feature", "geometry": {"type": "Polygon", "coordinates": [[[-94.584994, 39.054376], [-94.584976, 39.054375], [-94.584978, 39.054315], [-94.584752, 39.054307], [-94.58474, 39.054607], [-94.584963, 39.054614], [-94.584972, 39.054564], [-94.584983, 39.054565], [-94.584994, 39.054376]]]}, "properties": {"display_name": "Midtown Baptist Temple, 3953, Walnut Street, Southmoreland, Westport, Kansas City, Jackson County, Missouri, 64111, United States", "type": "place_of_worship", "osm_type": "way", "osm_id": 497360529, "class": null, "keyword": "midtown"}}, {"type": "Feature", "geometry": {"type": "Polygon", "coordinates": [[[-94.578039, 39.098251], [-94.577769, 39.098242], [-94.577753, 39.098241], [-94.577659, 39.098238], [-94.577574, 39.098235], [-94.577566, 39.098371], [-94.577764, 39.098378], [-94.578031, 39.098387], [-94.578036, 39.0983], [-94.578039, 39.098251]]]}, "properties": {"display_name": "Holiday Inn Express Kansas City Downtown, 417, East 13th Street, Central Business District KC, Downtown Kansas City, Kansas City, Jackson County, Missouri, 64106, United States", "type": "hotel", "osm_type": "way", "osm_id": 365029598, "class": null, "keyword": "district"}}, {"type": "Feature", "geometry": {"type": "Polygon", "coordinates": [[[-94.445003, 39.046597], [-94.444633, 39.046581], [-94.444617, 39.046747], [-94.444987, 39.046764], [-94.445003, 39.046597]]]}, "properties": {"display_name": "Applebee's, Truman/Eisenhower Presidential Highway, Kansas City, Jackson County, Missouri, 64052, United States", "type": "restaurant", "osm_type": "way", "osm_id": 176368103, "class": null, "keyword": "neighborhood"}}, {"type": "Feature", "geometry": {"type": "Polygon", "coordinates": [[[-94.591401, 39.056863], [-94.590975, 39.056852], [-94.59094, 39.05687], [-94.590938, 39.056985], [-94.591392, 39.057001], [-94.591401, 39.056863]]]}, "properties": {"display_name": "Gomer's Midtown Liquor Store, 3838, Broadway Boulevard, Westport, Kansas City, Jackson County, Missouri, 64111, United States", "type": "alcohol", "osm_type": "way", "osm_id": 414535319, "class": null, "keyword": "midtown"}}, {"type": "Feature", "geometry": {"type": "Polygon", "coordinates": [[[-94.582323, 39.092936], [-94.582315, 39.092936], [-94.58224, 39.092934], [-94.582181, 39.092932], [-94.581961, 39.092925], [-94.581955, 39.093056], [-94.582318, 39.093067], [-94.582323, 39.092936]]]}, "properties": {"display_name": "Big Brothers Big Sisters Kansas City, 1709, Walnut Street, Kansas City Power & Light District, Downtown Kansas City, Kansas City, Jackson County, Missouri, 64108, United States", "type": "yes", "osm_type": "way", "osm_id": 304159640, "class": null, "keyword": "district"}}, {"type": "Feature", "geometry": {"type": "Polygon", "coordinates": [[[-94.600844, 39.23058], [-94.600639, 39.230579], [-94.600637, 39.230801], [-94.600823, 39.230802], [-94.600823, 39.230782], [-94.600842, 39.230782], [-94.600844, 39.23058]]]}, "properties": {"display_name": "Cedar Ridge Neighborhood Pool, Northwest 75th Street, Kansas City, Clay County, Missouri, 64118, United States", "type": "sports_centre", "osm_type": "way", "osm_id": 1073704578, "class": null, "keyword": "neighborhood"}}, {"type": "Feature", "geometry": {"type": "Polygon", "coordinates": [[[-94.543889, 39.062439], [-94.543718, 39.062434], [-94.543717, 39.062448], [-94.543665, 39.062446], [-94.543657, 39.062594], [-94.543711, 39.062595], [-94.543881, 39.062601], [-94.543889, 39.062439]]]}, "properties": {"display_name": "Palestine Neighborhood Center, East 35th Street, Oak Park Northwest, Kansas City, Jackson County, Missouri, 64128, United States", "type": "community_centre", "osm_type": "way", "osm_id": 500281206, "class": null, "keyword": "neighborhood"}}, {"type": "Feature", "geometry": {"type": "Polygon", "coordinates": [[[-94.571478, 39.065111], [-94.571091, 39.065099], [-94.571086, 39.065185], [-94.571133, 39.065186], [-94.571132, 39.065207], [-94.571184, 39.065209], [-94.571185, 39.065186], [-94.571473, 39.065195], [-94.571478, 39.065111]]]}, "properties": {"display_name": "Alpha Energy and Electric Inc., 3335, Troost Avenue, Center City, Kansas City, Jackson County, Missouri, 64109, United States", "type": "yes", "osm_type": "way", "osm_id": 184842505, "class": null, "keyword": "historic center"}}, {"type": "Feature", "geometry": {"type": "Polygon", "coordinates": [[[-94.585976, 39.06532], [-94.585734, 39.065313], [-94.585727, 39.065444], [-94.58597, 39.065451], [-94.585976, 39.06532]]]}, "properties": {"display_name": "Uptown Lounge, 3402, Main Street, Hanover Place, Westport, Kansas City, Jackson County, Missouri, 64111, United States", "type": "bar", "osm_type": "way", "osm_id": 180072754, "class": null, "keyword": "uptown"}}, {"type": "Feature", "geometry": {"type": "Polygon", "coordinates": [[[-94.57838, 39.069104], [-94.578358, 39.069103], [-94.578299, 39.069102], [-94.578238, 39.0691], [-94.578169, 39.069097], [-94.578099, 39.069095], [-94.578044, 39.069093], [-94.57804, 39.06917], [-94.578098, 39.069173], [-94.578165, 39.069175], [-94.578234, 39.069177], [-94.578294, 39.069179], [-94.578352, 39.069181], [-94.578376, 39.069181], [-94.57838, 39.069104]]]}, "properties": {"display_name": "Midtown Car Wash, 512, East Linwood Boulevard, North Hyde Park, Kansas City, Jackson County, Missouri, 64109, United States", "type": "car_wash", "osm_type": "way", "osm_id": 178841411, "class": null, "keyword": "midtown"}}, {"type": "Feature", "geometry": {"type": "Polygon", "coordinates": [[[-94.538273, 39.069697], [-94.538023, 39.069687], [-94.538016, 39.069796], [-94.538107, 39.069799], [-94.538109, 39.069769], [-94.538268, 39.069775], [-94.538273, 39.069697]]]}, "properties": {"display_name": "Inner City Oil Co., Mersington Avenue, Ingleside, Kansas City, Jackson County, Missouri, 64128, United States", "type": "convenience", "osm_type": "way", "osm_id": 509768386, "class": null, "keyword": "inner city"}}, {"type": "Feature", "geometry": {"type": "Polygon", "coordinates": [[[-94.53861, 39.25443], [-94.538434, 39.254432], [-94.538401, 39.25445], [-94.538396, 39.254478], [-94.538424, 39.254506], [-94.538466, 39.254509], [-94.538493, 39.254494], [-94.538493, 39.254456], [-94.538514, 39.254454], [-94.538509, 39.254575], [-94.538607, 39.254575], [-94.53861, 39.25443]]]}, "properties": {"display_name": "Waterford Neighborhood Pool, 3401, Northeast 89th Street, Waterford, Kansas City, Clay County, Missouri, 64156, United States", "type": "swimming_pool", "osm_type": "way", "osm_id": 364042413, "class": null, "keyword": "neighborhood"}}, {"type": "Feature", "geometry": {"type": "Polygon", "coordinates": [[[-94.606133, 38.940968], [-94.606069, 38.940968], [-94.606069, 38.940979], [-94.606069, 38.941015], [-94.606067, 38.941258], [-94.606131, 38.941258], [-94.606133, 38.940968]]]}, "properties": {"display_name": "Organic Hemp Botanicals (CBD Store), 1215, West 103rd Street, Dallas, Kansas City, Jackson County, Missouri, 64114, United States", "type": "cannabis", "osm_type": "way", "osm_id": 1210091663, "class": null, "keyword": "CBD"}}, {"type": "Feature", "geometry": {"type": "Polygon", "coordinates": [[[-94.571359, 39.288782], [-94.571261, 39.288739], [-94.571172, 39.288865], [-94.571269, 39.288905], [-94.571359, 39.288782]]]}, "properties": {"display_name": "Auburn Hills Neighborhood Pool, 10716, North Holmes Street, Auburn Hills, Kansas City, Clay County, Missouri, 64155, United States", "type": "swimming_pool", "osm_type": "way", "osm_id": 360953154, "class": null, "keyword": "neighborhood"}}, {"type": "Feature", "geometry": {"type": "Polygon", "coordinates": [[[-94.605976, 38.94228], [-94.605778, 38.942275], [-94.605775, 38.942346], [-94.605785, 38.942346], [-94.605972, 38.942352], [-94.605976, 38.94228]]]}, "properties": {"display_name": "CBD American Shaman, 1036, West 103rd Street, Dallas, Kansas City, Jackson County, Missouri, 64114, United States", "type": "cannabis", "osm_type": "way", "osm_id": 1209859033, "class": null, "keyword": "CBD"}}, {"type": "Feature", "geometry": {"type": "Polygon", "coordinates": [[[-94.474184, 39.259633], [-94.474033, 39.259623], [-94.47403, 39.259675], [-94.474181, 39.259685], [-94.474184, 39.259633]]]}, "properties": {"display_name": "Big Suburb House Pool, Northeast 92nd Terrace, Woodneath Farms at the Highlands, Kansas City, Clay County, Missouri, 64157, United States", "type": "swimming_pool", "osm_type": "way", "osm_id": 650713089, "class": null, "keyword": "suburb"}}, {"type": "Feature", "geometry": {"type": "Polygon", "coordinates": [[[-94.571484, 39.070164], [-94.571457, 39.070163], [-94.571454, 39.070229], [-94.571481, 39.070229], [-94.571484, 39.070164]]]}, "properties": {"display_name": "Midtown/31st Street, Troost Avenue, Center City, Kansas City, Jackson County, Missouri, 64131, United States", "type": "shelter", "osm_type": "way", "osm_id": 1390568696, "class": null, "keyword": "midtown"}}]}