{"type": "FeatureCollection", "features": [{"type": "Feature", "geometry": {"type": "Polygon", "coordinates": [[[23.929396, 54.884799], [23.929432, 54.884774], [23.92947, 54.884747], [23.931616, 54.885913], [23.932992, 54.886661], [23.934583, 54.887552], [23.934536, 54.88758], [23.934512, 54.887597], [23.93325, 54.886898], [23.932909, 54.886714], [23.931542, 54.88596], [23.930632, 54.885467], [23.930546, 54.88542], [23.929396, 54.884799]]]}, "properties": {"display_name": "Kaunas, M. K. Čiurlionio g., Karmelitai, Centro seniūnija, Kaunas, Kauno miesto savivaldybė, Kauno apskritis, 44362, Lietuva", "type": "platform", "osm_type": "way", "osm_id": 52116485, "class": null, "keyword": "centro"}}, {"type": "Feature", "geometry": {"type": "Polygon", "coordinates": [[[23.905632, 54.896493], [23.905635, 54.896121], [23.905862, 54.896121], [23.905862, 54.896167], [23.906082, 54.896167], [23.906082, 54.896148], [23.90631, 54.896148], [23.90631, 54.896166], [23.906555, 54.896166], [23.906555, 54.896121], [23.906756, 54.896122], [23.906754, 54.896509], [23.906472, 54.896508], [23.906472, 54.896545], [23.906411, 54.896545], [23.906411, 54.896574], [23.906356, 54.896574], [23.906357, 54.896603], [23.906325, 54.896619], [23.906247, 54.896619], [23.906247, 54.896648], [23.906105, 54.896649], [23.906105, 54.89662], [23.906046, 54.896619], [23.906021, 54.896605], [23.90602, 54.89657], [23.905964, 54.89657], [23.905966, 54.896537], [23.905878, 54.896536], [23.905879, 54.896493], [23.905632, 54.896493]]]}, "properties": {"display_name": "Kauno muzikinis teatras, 91, Laisvės al., Naujamiestis, Centro seniūnija, Kaunas, Kauno miesto savivaldybė, Kauno apskritis, 44297, Lietuva", "type": "theatre", "osm_type": "way", "osm_id": 203394744, "class": null, "keyword": "centro"}}, {"type": "Feature", "geometry": {"type": "Polygon", "coordinates": [[[23.888328, 54.897204], [23.88837, 54.897195], [23.888434, 54.897181], [23.888509, 54.897164], [23.889402, 54.896968], [23.889466, 54.896984], [23.889501, 54.897038], [23.889586, 54.897059], [23.889626, 54.897121], [23.889586, 54.89717], [23.88962, 54.897222], [23.889589, 54.897258], [23.888544, 54.897488], [23.888488, 54.897414], [23.888385, 54.89728], [23.888328, 54.897204]]]}, "properties": {"display_name": "Kauno Šv. apaštalų Petro ir Povilo arkikatedra bazilika, Vilniaus g., Senamiestis, Centro seniūnija, Kaunas, Kauno miesto savivaldybė, Kauno apskritis, 44283, Lietuva", "type": "place_of_worship", "osm_type": "way", "osm_id": 87246199, "class": null, "keyword": "centro"}}, {"type": "Feature", "geometry": {"type": "MultiPolygon", "coordinates": [[[[23.883835, 54.898934], [23.884043, 54.898925], [23.884053, 54.89895], [23.885251, 54.898853], [23.885257, 54.89884], [23.885271, 54.898824], [23.885291, 54.89881], [23.885317, 54.8988], [23.885346, 54.898793], [23.885378, 54.898791], [23.885409, 54.898794], [23.885438, 54.898801], [23.885463, 54.898811], [23.885483, 54.898825], [23.885496, 54.898842], [23.885502, 54.89886], [23.885499, 54.898878], [23.885489, 54.898895], [23.885472, 54.89891], [23.885449, 54.898922], [23.885422, 54.898931], [23.885391, 54.898935], [23.885405, 54.899116], [23.885377, 54.899117], [23.885359, 54.899117], [23.885352, 54.899027], [23.885331, 54.899028], [23.885315, 54.898927], [23.885288, 54.898916], [23.885267, 54.8989], [23.884068, 54.89899], [23.884084, 54.899049], [23.883985, 54.899053], [23.88414, 54.899171], [23.884062, 54.899191], [23.883909, 54.899057], [23.883855, 54.899059], [23.883835, 54.898934]]], [[[23.885044, 54.898824], [23.885045, 54.898803], [23.885057, 54.898783], [23.885073, 54.898764], [23.885095, 54.898744], [23.885117, 54.898728], [23.885145, 54.898711], [23.885182, 54.898694], [23.88522, 54.898681], [23.885263, 54.89867], [23.885308, 54.898663], [23.885358, 54.898658], [23.88541, 54.898658], [23.88546, 54.898662], [23.885508, 54.89867], [23.885553, 54.898682], [23.885593, 54.898696], [23.885636, 54.898717], [23.885674, 54.898743], [23.885703, 54.898771], [23.885724, 54.898801], [23.885733, 54.898822], [23.885738, 54.898844], [23.88574, 54.898864], [23.885737, 54.898885], [23.885726, 54.898918], [23.885713, 54.89894], [23.885693, 54.898963], [23.885671, 54.898982], [23.885643, 54.899002], [23.88561, 54.899019], [23.885577, 54.899033], [23.88554, 54.899045], [23.885491, 54.899056], [23.88548, 54.899007], [23.885529, 54.898993], [23.885571, 54.898975], [23.885612, 54.898947], [23.885628, 54.89893], [23.885641, 54.898913], [23.885651, 54.898889], [23.885655, 54.898864], [23.885652, 54.898839], [23.885642, 54.898817], [23.885625, 54.898792], [23.885599, 54.898769], [23.885565, 54.898748], [23.885525, 54.898732], [23.885463, 54.898716], [23.885423, 54.898711], [23.885387, 54.89871], [23.885346, 54.898712], [23.885308, 54.898717], [23.885278, 54.898724], [23.885247, 54.898734], [23.885215, 54.898747], [23.885192, 54.89876], [23.88517, 54.898776], [23.88515, 54.898796], [23.885141, 54.898808], [23.885137, 54.898822], [23.885044, 54.898824]]]]}, "properties": {"display_name": "Kauno pilis, 17, Pilies g., Senamiestis, Centro seniūnija, Kaunas, Kauno miesto savivaldybė, Kauno apskritis, 44322, Lietuva", "type": "castle", "osm_type": "relation", "osm_id": 7330354, "class": null, "keyword": "centro"}}, {"type": "Feature", "geometry": {"type": "Polygon", "coordinates": [[[23.909284, 54.898063], [23.909546, 54.898054], [23.909556, 54.898145], [23.909614, 54.898689], [23.909406, 54.898696], [23.909404, 54.89867], [23.909349, 54.898672], [23.909294, 54.898154], [23.909284, 54.898063]]]}, "properties": {"display_name": "Moxy, 19, Maironio g., Naujamiestis, Centro seniūnija, Kaunas, Kauno miesto savivaldybė, Kauno apskritis, 44250, Lietuva", "type": "hotel", "osm_type": "way", "osm_id": 157470018, "class": null, "keyword": "town center"}}, {"type": "Feature", "geometry": {"type": "Polygon", "coordinates": [[[23.885177, 54.895607], [23.885324, 54.895567], [23.885555, 54.895851], [23.88559, 54.895841], [23.885614, 54.895871], [23.885579, 54.89588], [23.885863, 54.896227], [23.88598, 54.896198], [23.886036, 54.896269], [23.885787, 54.896332], [23.885177, 54.895607]]]}, "properties": {"display_name": "Kauno Jėzuitų gimnazija, 9, Rotušės a., Senamiestis, Centro seniūnija, Kaunas, Kauno miesto savivaldybė, Kauno apskritis, 44279, Lietuva", "type": "school", "osm_type": "way", "osm_id": 122741805, "class": null, "keyword": "centro"}}, {"type": "Feature", "geometry": {"type": "Polygon", "coordinates": [[[23.884133, 54.897921], [23.884261, 54.897896], [23.884277, 54.897921], [23.884689, 54.897838], [23.884677, 54.897814], [23.884824, 54.897789], [23.884838, 54.897787], [23.884853, 54.897816], [23.884839, 54.897818], [23.884906, 54.897952], [23.884861, 54.897972], [23.884258, 54.898095], [23.884176, 54.897949], [23.884153, 54.897954], [23.884133, 54.897921]]]}, "properties": {"display_name": "Kunigų seminarija, 5, Papilio g., Senamiestis, Centro seniūnija, Kaunas, Kauno miesto savivaldybė, Kauno apskritis, 44279, Lietuva", "type": "university", "osm_type": "way", "osm_id": 134995736, "class": null, "keyword": "centro"}}]}