{"type": "FeatureCollection", "features": [{"type": "Feature", "geometry": {"type": "Polygon", "coordinates": [[[19.923765, 50.062552], [19.923768, 50.062502], [19.923777, 50.062435], [19.9238, 50.062359], [19.923811, 50.062356], [19.92383, 50.062301], [19.923869, 50.062202], [19.92393, 50.062081], [19.924064, 50.061814], [19.924213, 50.061523], [19.924348, 50.061255], [19.924458, 50.061039], [19.924547, 50.060866], [19.924628, 50.060725], [19.924627, 50.060724], [19.924687, 50.06062], [19.924688, 50.06062], [19.924767, 50.060481], [19.924863, 50.060315], [19.924862, 50.060314], [19.924922, 50.060208], [19.925019, 50.060041], [19.925214, 50.059746], [19.925212, 50.059744], [19.925229, 50.059713], [19.925234, 50.059713], [19.925261, 50.059713], [19.925285, 50.059649], [19.925279, 50.059647], [19.92531, 50.059565], [19.925314, 50.059565], [19.925421, 50.059379], [19.925511, 50.059224], [19.92551, 50.059218], [19.925557, 50.059149], [19.925684, 50.05896], [19.925787, 50.058805], [19.925792, 50.058806], [19.925806, 50.058787], [19.9258, 50.058785], [19.925963, 50.058546], [19.926011, 50.058473], [19.926009, 50.058473], [19.926071, 50.058381], [19.926074, 50.058381], [19.926134, 50.058293], [19.926196, 50.058195], [19.926309, 50.058018], [19.926424, 50.057838], [19.926486, 50.057734], [19.92651, 50.057696], [19.926526, 50.057671], [19.926534, 50.057654], [19.926573, 50.057582], [19.926596, 50.057539], [19.926664, 50.057409], [19.926721, 50.057298], [19.926715, 50.057296], [19.926724, 50.057279], [19.92673, 50.05728], [19.926787, 50.057169], [19.926788, 50.057167], [19.926786, 50.057167], [19.926895, 50.056957], [19.926897, 50.056957], [19.926998, 50.056758], [19.927124, 50.056592], [19.927183, 50.056467], [19.927253, 50.056327], [19.92726, 50.056301], [19.927322, 50.056111], [19.927341, 50.056072], [19.927338, 50.056071], [19.92735, 50.056044], [19.927353, 50.056045], [19.927436, 50.05587], [19.927445, 50.055872], [19.927457, 50.055847], [19.927449, 50.055844], [19.927462, 50.055815], [19.927529, 50.055766], [19.927517, 50.05576], [19.927583, 50.05571], [19.927595, 50.055717], [19.927778, 50.055579], [19.927956, 50.055438], [19.928102, 50.05532], [19.928001, 50.055253], [19.928015, 50.055237], [19.92794, 50.055197], [19.927932, 50.055189], [19.927929, 50.055182], [19.927929, 50.055169], [19.927934, 50.055155], [19.927943, 50.055136], [19.928052, 50.054996], [19.927889, 50.054943], [19.927905, 50.05492], [19.927896, 50.054917], [19.928089, 50.054682], [19.928486, 50.054166], [19.929159, 50.054361], [19.92955, 50.054423], [19.92981, 50.054453], [19.930149, 50.054452], [19.930503, 50.054405], [19.930759, 50.054371], [19.931382, 50.0542], [19.931651, 50.053962], [19.931802, 50.053702], [19.931975, 50.053398], [19.932196, 50.052974], [19.93237, 50.052636], [19.932531, 50.052363], [19.932582, 50.052279], [19.932935, 50.051685], [19.933084, 50.051435], [19.933134, 50.051351], [19.933291, 50.051108], [19.933506, 50.050775], [19.93371, 50.050458], [19.933749, 50.050396], [19.933982, 50.05007], [19.934162, 50.049817], [19.934199, 50.049766], [19.934206, 50.049756], [19.934303, 50.04962], [19.934833, 50.048877], [19.93553, 50.04803], [19.937074, 50.046365], [19.937798, 50.045776], [19.938618, 50.04538], [19.938753, 50.045315], [19.939659, 50.045032], [19.940339, 50.044913], [19.940953, 50.044861], [19.941364, 50.044839], [19.941894, 50.044834], [19.942062, 50.044832], [19.942757, 50.044883], [19.94345, 50.044973], [19.944134, 50.045131], [19.944435, 50.045238], [19.944702, 50.045332], [19.945015, 50.045442], [19.945218, 50.045514], [19.94568, 50.045709], [19.946163, 50.045912], [19.946802, 50.046161], [19.947491, 50.046448], [19.94818, 50.046729], [19.948289, 50.046777], [19.948861, 50.047032], [19.949097, 50.047147], [19.949576, 50.047383], [19.950057, 50.047634], [19.950398, 50.047817], [19.95084, 50.048054], [19.951393, 50.048364], [19.95182, 50.048589], [19.954664, 50.050108], [19.954157, 50.050614], [19.953819, 50.050862], [19.953692, 50.050791], [19.953678, 50.050782], [19.953638, 50.050756], [19.953601, 50.050733], [19.95353, 50.050686], [19.953504, 50.050669], [19.953466, 50.050643], [19.953437, 50.050628], [19.953384, 50.050673], [19.953345, 50.050652], [19.953166, 50.050782], [19.953156, 50.050799], [19.953117, 50.050858], [19.953085, 50.050902], [19.953093, 50.050909], [19.952082, 50.051737], [19.949603, 50.053771], [19.949462, 50.053824], [19.949322, 50.053905], [19.949199, 50.053958], [19.948925, 50.054074], [19.949053, 50.054411], [19.948643, 50.054978], [19.948485, 50.055232], [19.948358, 50.055434], [19.948339, 50.055472], [19.948254, 50.05548], [19.948228, 50.055476], [19.948058, 50.055495], [19.948034, 50.055483], [19.948018, 50.055499], [19.94788, 50.055514], [19.947854, 50.055534], [19.947855, 50.055538], [19.947862, 50.055541], [19.947886, 50.055668], [19.947908, 50.055765], [19.947969, 50.055991], [19.947992, 50.05609], [19.947932, 50.056284], [19.947927, 50.05629], [19.947906, 50.056381], [19.947904, 50.056384], [19.947877, 50.056467], [19.947871, 50.056474], [19.947866, 50.056524], [19.947834, 50.056614], [19.947767, 50.056843], [19.947609, 50.057253], [19.947603, 50.05727], [19.94757, 50.057345], [19.947519, 50.057463], [19.947456, 50.057621], [19.947443, 50.057619], [19.947434, 50.057719], [19.947445, 50.057716], [19.947447, 50.057783], [19.947452, 50.057816], [19.947467, 50.057926], [19.947399, 50.05795], [19.947345, 50.058391], [19.947345, 50.058393], [19.947337, 50.058446], [19.947519, 50.058557], [19.947525, 50.058777], [19.947501, 50.059326], [19.947478, 50.059775], [19.947387, 50.059779], [19.947293, 50.059784], [19.947317, 50.059804], [19.947313, 50.059853], [19.947311, 50.059853], [19.9473, 50.059978], [19.947407, 50.059969], [19.947481, 50.060683], [19.947585, 50.060721], [19.947595, 50.060891], [19.947598, 50.060963], [19.947448, 50.061145], [19.947441, 50.06115], [19.947643, 50.061284], [19.947641, 50.061291], [19.947638, 50.06129], [19.947623, 50.061406], [19.94756, 50.061382], [19.9475, 50.061523], [19.947481, 50.061578], [19.947458, 50.062037], [19.947457, 50.062118], [19.947456, 50.062184], [19.947445, 50.062617], [19.947521, 50.062621], [19.947432, 50.063322], [19.947329, 50.063989], [19.947332, 50.063989], [19.947328, 50.064012], [19.947405, 50.064012], [19.947406, 50.064021], [19.947429, 50.064024], [19.94745, 50.064034], [19.947456, 50.064056], [19.947456, 50.064085], [19.94745, 50.064189], [19.947446, 50.064437], [19.947437, 50.06459], [19.947413, 50.064608], [19.947418, 50.064616], [19.94742, 50.064663], [19.94742, 50.064671], [19.947405, 50.064757], [19.947393, 50.064835], [19.947438, 50.06484], [19.947768, 50.064872], [19.947769, 50.06487], [19.94779, 50.064871], [19.94779, 50.064873], [19.947849, 50.064879], [19.94785, 50.064877], [19.947872, 50.064878], [19.94787, 50.064884], [19.948159, 50.064909], [19.948161, 50.064903], [19.948183, 50.064904], [19.948184, 50.064907], [19.948241, 50.064913], [19.948243, 50.06491], [19.948263, 50.064912], [19.948265, 50.064916], [19.948293, 50.064917], [19.948714, 50.064953], [19.948731, 50.064954], [19.949136, 50.06499], [19.949258, 50.065006], [19.949242, 50.06509], [19.949235, 50.065151], [19.94922, 50.065319], [19.949286, 50.065549], [19.94935, 50.065691], [19.949975, 50.067094], [19.95, 50.06709], [19.950071, 50.067256], [19.950061, 50.067396], [19.950056, 50.067457], [19.950058, 50.067457], [19.950048, 50.067539], [19.950046, 50.067539], [19.95004, 50.067591], [19.950042, 50.067592], [19.949995, 50.067974], [19.949998, 50.067974], [19.949981, 50.068104], [19.949978, 50.068104], [19.949973, 50.068149], [19.950014, 50.068173], [19.952084, 50.067779], [19.952254, 50.068009], [19.952428, 50.068244], [19.952488, 50.068325], [19.952795, 50.06873], [19.952802, 50.068726], [19.953709, 50.069968], [19.954308, 50.070777], [19.955229, 50.072019], [19.955173, 50.072036], [19.956212, 50.073389], [19.956208, 50.073393], [19.956227, 50.073417], [19.956336, 50.073382], [19.957162, 50.074451], [19.957103, 50.074468], [19.957256, 50.074669], [19.957563, 50.075071], [19.957681, 50.07524], [19.957822, 50.075485], [19.957935, 50.075699], [19.958159, 50.075914], [19.958222, 50.075988], [19.958952, 50.076987], [19.959603, 50.077874], [19.959771, 50.078101], [19.959856, 50.078218], [19.960086, 50.078518], [19.960167, 50.078631], [19.960023, 50.078655], [19.959667, 50.078696], [19.959495, 50.078708], [19.959304, 50.078663], [19.959104, 50.078629], [19.9589, 50.078652], [19.958756, 50.078683], [19.95864, 50.078679], [19.958502, 50.078695], [19.958385, 50.078764], [19.958254, 50.078772], [19.958076, 50.078746], [19.957922, 50.07876], [19.957823, 50.078804], [19.957725, 50.078853], [19.957553, 50.078983], [19.957455, 50.07919], [19.957241, 50.079348], [19.956958, 50.079783], [19.956642, 50.079862], [19.956548, 50.079875], [19.955579, 50.079988], [19.954775, 50.080121], [19.9531, 50.080338], [19.95196, 50.080481], [19.951143, 50.080611], [19.950948, 50.080662], [19.950479, 50.080738], [19.95044, 50.080691], [19.95056, 50.080653], [19.950512, 50.080586], [19.949988, 50.080652], [19.948661, 50.080816], [19.947773, 50.080926], [19.947363, 50.080977], [19.947114, 50.08061], [19.946815, 50.080167], [19.946794, 50.080137], [19.946571, 50.079849], [19.946337, 50.079467], [19.946215, 50.079265], [19.946134, 50.079138], [19.945916, 50.078688], [19.945693, 50.078229], [19.945621, 50.07808], [19.945508, 50.077738], [19.945414, 50.077528], [19.945083, 50.077426], [19.945158, 50.077334], [19.944969, 50.077261], [19.944758, 50.07731], [19.94423, 50.077131], [19.944204, 50.077127], [19.943399, 50.076851], [19.942909, 50.076682], [19.942929, 50.076664], [19.942901, 50.076655], [19.942892, 50.076667], [19.942655, 50.076597], [19.942652, 50.076591], [19.9426, 50.076566], [19.94259, 50.076575], [19.942471, 50.076533], [19.942488, 50.076513], [19.942424, 50.076491], [19.942407, 50.076511], [19.942279, 50.076467], [19.941768, 50.076292], [19.941078, 50.076055], [19.941054, 50.07605], [19.941058, 50.076046], [19.941074, 50.076051], [19.941084, 50.076052], [19.941149, 50.075975], [19.941156, 50.075964], [19.94115, 50.075961], [19.941102, 50.075832], [19.941072, 50.075722], [19.941018, 50.075586], [19.940936, 50.0756], [19.940932, 50.07559], [19.940925, 50.075591], [19.940913, 50.075565], [19.94092, 50.075564], [19.940915, 50.075552], [19.940833, 50.075494], [19.940626, 50.075405], [19.940557, 50.075344], [19.940443, 50.075261], [19.94044, 50.075263], [19.940429, 50.075255], [19.940324, 50.075308], [19.940268, 50.075267], [19.939819, 50.074918], [19.939377, 50.074574], [19.938951, 50.074261], [19.938747, 50.07411], [19.938719, 50.073982], [19.938632, 50.073807], [19.938111, 50.073481], [19.937781, 50.073499], [19.937578, 50.0735], [19.937364, 50.073499], [19.936992, 50.073491], [19.936278, 50.073425], [19.935834, 50.073391], [19.935676, 50.073376], [19.934937, 50.073299], [19.934943, 50.073282], [19.934698, 50.073188], [19.934594, 50.073307], [19.934562, 50.073296], [19.934538, 50.073326], [19.934517, 50.07332], [19.934498, 50.073333], [19.934479, 50.073341], [19.934454, 50.073343], [19.934429, 50.073341], [19.934169, 50.073276], [19.934167, 50.073279], [19.934121, 50.073268], [19.934123, 50.073265], [19.933938, 50.073218], [19.933932, 50.073219], [19.933929, 50.073216], [19.933913, 50.073212], [19.933909, 50.073211], [19.933901, 50.073212], [19.933899, 50.073209], [19.933838, 50.073194], [19.933474, 50.073102], [19.933109, 50.073007], [19.932935, 50.072958], [19.932874, 50.072935], [19.932409, 50.072754], [19.932407, 50.072755], [19.932375, 50.072742], [19.932375, 50.072741], [19.932261, 50.072698], [19.932237, 50.072686], [19.932108, 50.072622], [19.932055, 50.072597], [19.932056, 50.072596], [19.931886, 50.072514], [19.931838, 50.072491], [19.931836, 50.072491], [19.931781, 50.072465], [19.931679, 50.072412], [19.931677, 50.072411], [19.931589, 50.072365], [19.931544, 50.072342], [19.931425, 50.072281], [19.931409, 50.072273], [19.931358, 50.072246], [19.931094, 50.072108], [19.931092, 50.07211], [19.930981, 50.072052], [19.930983, 50.072051], [19.930703, 50.071906], [19.930701, 50.071907], [19.930581, 50.071845], [19.930582, 50.071844], [19.93037, 50.071734], [19.930352, 50.071726], [19.930353, 50.071725], [19.930327, 50.071712], [19.930107, 50.071599], [19.930105, 50.071599], [19.930068, 50.071579], [19.930013, 50.071548], [19.929956, 50.071521], [19.929955, 50.07152], [19.929838, 50.071459], [19.929712, 50.071391], [19.929717, 50.071387], [19.929661, 50.071358], [19.929554, 50.071278], [19.929372, 50.071138], [19.929306, 50.071097], [19.929258, 50.071072], [19.929254, 50.071075], [19.929172, 50.071031], [19.928839, 50.070848], [19.928514, 50.070667], [19.928515, 50.070666], [19.928382, 50.070589], [19.928378, 50.070592], [19.92832, 50.07056], [19.928271, 50.070595], [19.927896, 50.070387], [19.927894, 50.070385], [19.927891, 50.070385], [19.927707, 50.07028], [19.927737, 50.070254], [19.927726, 50.070247], [19.927671, 50.07024], [19.927614, 50.070184], [19.927566, 50.070134], [19.927548, 50.070129], [19.927533, 50.070116], [19.927482, 50.070056], [19.927479, 50.070044], [19.927494, 50.070039], [19.927444, 50.070013], [19.927344, 50.06987], [19.927341, 50.069869], [19.92725, 50.069735], [19.927158, 50.069603], [19.927161, 50.069602], [19.927121, 50.069547], [19.927072, 50.069476], [19.926974, 50.069333], [19.926752, 50.069016], [19.926677, 50.068909], [19.92664, 50.068858], [19.926603, 50.068806], [19.926569, 50.068753], [19.926571, 50.068752], [19.926536, 50.068698], [19.926496, 50.068637], [19.926456, 50.068575], [19.926416, 50.068513], [19.926412, 50.068509], [19.926413, 50.068507], [19.926424, 50.068504], [19.926417, 50.068492], [19.926406, 50.068495], [19.926402, 50.068494], [19.9264, 50.068491], [19.9264, 50.06849], [19.92636, 50.068427], [19.926311, 50.068352], [19.926309, 50.068353], [19.926293, 50.068329], [19.926297, 50.068328], [19.92625, 50.068257], [19.926248, 50.068257], [19.926219, 50.068212], [19.926216, 50.06821], [19.92615, 50.068103], [19.926, 50.067869], [19.925883, 50.06769], [19.92587, 50.067671], [19.92582, 50.067594], [19.925802, 50.067563], [19.925784, 50.067539], [19.925785, 50.067539], [19.925758, 50.067494], [19.92576, 50.067494], [19.925651, 50.067324], [19.925649, 50.067324], [19.925532, 50.067149], [19.925536, 50.067147], [19.925535, 50.067145], [19.925548, 50.067142], [19.925502, 50.067067], [19.925499, 50.067068], [19.925483, 50.067042], [19.92547, 50.06702], [19.925429, 50.066944], [19.925391, 50.066875], [19.925371, 50.066827], [19.925323, 50.066716], [19.92528, 50.066611], [19.925277, 50.066611], [19.925241, 50.066518], [19.925201, 50.066423], [19.925154, 50.066313], [19.925065, 50.066108], [19.924959, 50.065852], [19.924929, 50.065767], [19.924922, 50.065746], [19.924883, 50.065651], [19.924828, 50.065495], [19.924761, 50.065313], [19.924765, 50.065309], [19.924716, 50.065176], [19.924728, 50.065174], [19.924659, 50.064989], [19.924645, 50.06499], [19.924634, 50.064963], [19.924616, 50.064912], [19.924606, 50.064885], [19.92462, 50.064883], [19.924551, 50.064698], [19.924539, 50.064699], [19.924489, 50.064566], [19.924481, 50.064567], [19.924423, 50.064402], [19.924231, 50.063875], [19.924186, 50.063764], [19.924137, 50.06364], [19.924143, 50.063639], [19.92411, 50.063558], [19.924108, 50.063559], [19.924089, 50.063507], [19.924057, 50.063417], [19.924059, 50.063417], [19.924048, 50.063388], [19.924042, 50.063389], [19.924033, 50.063363], [19.924031, 50.063362], [19.924018, 50.063325], [19.92402, 50.063325], [19.924011, 50.063299], [19.924017, 50.063298], [19.924006, 50.063269], [19.923999, 50.063269], [19.923979, 50.06321], [19.923982, 50.06321], [19.923949, 50.063119], [19.923946, 50.06312], [19.923922, 50.063056], [19.923877, 50.062919], [19.923793, 50.062686], [19.92377, 50.062606], [19.923765, 50.062552]]]}, "properties": {"display_name": "Stare Miasto, Kraków, województwo małopolskie, Polska", "type": "administrative", "osm_type": "relation", "osm_id": 2642241, "class": null, "keyword": "old town"}}, {"type": "Feature", "geometry": {"type": "Polygon", "coordinates": [[[19.931775, 50.061968], [19.931776, 50.061923], [19.931781, 50.06187], [19.931811, 50.061777], [19.931828, 50.061737], [19.931961, 50.061454], [19.932152, 50.061045], [19.932257, 50.06082], [19.932397, 50.060521], [19.932569, 50.060152], [19.932786, 50.059698], [19.933008, 50.059239], [19.933135, 50.058978], [19.933246, 50.058735], [19.933348, 50.058506], [19.933446, 50.058289], [19.933575, 50.058013], [19.933704, 50.057738], [19.933829, 50.05747], [19.933937, 50.057238], [19.93403, 50.057042], [19.934141, 50.056801], [19.934287, 50.056493], [19.934432, 50.056184], [19.934564, 50.055904], [19.934741, 50.055528], [19.934845, 50.0553], [19.934663, 50.05526], [19.934491, 50.055222], [19.933933, 50.0551], [19.933408, 50.054988], [19.93336, 50.054906], [19.933167, 50.054595], [19.933032, 50.05438], [19.932919, 50.054211], [19.932919, 50.05419], [19.932897, 50.053945], [19.932957, 50.053694], [19.932993, 50.053524], [19.933072, 50.053395], [19.933303, 50.053115], [19.933543, 50.052905], [19.934004, 50.052567], [19.934079, 50.052529], [19.93422, 50.052495], [19.934395, 50.052483], [19.934586, 50.052482], [19.93478, 50.052492], [19.934926, 50.052517], [19.934953, 50.052474], [19.934956, 50.052468], [19.935504, 50.051372], [19.936405, 50.049911], [19.937178, 50.048878], [19.936556, 50.048616], [19.937532, 50.047307], [19.93839, 50.046322], [19.939141, 50.045964], [19.940439, 50.04564], [19.941469, 50.045626], [19.943315, 50.045785], [19.944237, 50.046212], [19.946898, 50.047286], [19.947928, 50.04761], [19.950122, 50.048761], [19.949623, 50.050435], [19.949017, 50.052474], [19.948577, 50.053383], [19.948368, 50.053621], [19.94619, 50.053087], [19.945654, 50.054096], [19.944093, 50.055347], [19.940105, 50.055742], [19.940084, 50.055744], [19.940356, 50.056769], [19.940411, 50.05697], [19.940619, 50.05795], [19.940672, 50.058137], [19.940714, 50.058324], [19.940733, 50.05837], [19.940726, 50.058371], [19.940735, 50.058397], [19.940834, 50.058615], [19.940935, 50.0588], [19.941109, 50.058946], [19.941312, 50.059101], [19.94189, 50.059486], [19.942041, 50.059611], [19.942209, 50.059748], [19.942956, 50.060283], [19.943604, 50.060757], [19.943802, 50.060902], [19.943853, 50.060954], [19.943917, 50.061054], [19.943955, 50.061113], [19.943952, 50.061124], [19.943943, 50.061137], [19.943917, 50.061146], [19.944007, 50.061202], [19.944093, 50.061255], [19.944828, 50.062551], [19.944873, 50.062763], [19.944883, 50.062808], [19.944966, 50.063283], [19.944971, 50.063384], [19.944967, 50.063483], [19.944836, 50.064393], [19.944851, 50.064655], [19.944748, 50.064691], [19.944048, 50.064931], [19.94322, 50.065213], [19.942423, 50.065485], [19.941655, 50.065751], [19.941565, 50.065769], [19.941048, 50.06596], [19.940628, 50.066102], [19.940504, 50.06614], [19.940401, 50.066166], [19.940107, 50.06624], [19.939995, 50.066263], [19.93994, 50.066271], [19.939903, 50.066276], [19.939814, 50.066284], [19.939689, 50.066286], [19.938898, 50.066262], [19.938384, 50.066244], [19.93788, 50.066229], [19.937085, 50.066205], [19.936442, 50.066183], [19.936236, 50.066176], [19.936145, 50.066167], [19.9361, 50.066157], [19.93606, 50.066145], [19.936016, 50.066128], [19.93597, 50.066103], [19.935922, 50.066069], [19.93583, 50.065987], [19.93553, 50.065719], [19.935418, 50.065619], [19.935155, 50.065385], [19.934615, 50.064902], [19.93422, 50.064546], [19.933867, 50.064228], [19.933713, 50.064089], [19.933526, 50.063922], [19.933179, 50.063609], [19.933051, 50.063494], [19.932696, 50.063177], [19.932212, 50.062748], [19.932104, 50.062652], [19.932058, 50.062603], [19.932035, 50.062573], [19.932001, 50.062522], [19.931818, 50.062114], [19.931791, 50.062048], [19.931775, 50.061968]]]}, "properties": {"display_name": "Historyczne centrum Krakowa, Na Ustroniu, Osiedle Podwawelskie, Ludwinów, Dębniki, Kraków, województwo małopolskie, 31-051, Polska", "type": "district", "osm_type": "relation", "osm_id": 14348348, "class": null, "keyword": "city centre"}}, {"type": "Feature", "geometry": {"type": "Polygon", "coordinates": [[[19.931651, 50.053962], [19.931802, 50.053702], [19.931975, 50.053398], [19.932196, 50.052974], [19.93237, 50.052636], [19.932531, 50.052363], [19.932582, 50.052279], [19.932935, 50.051685], [19.933091, 50.051746], [19.933199, 50.051788], [19.93363, 50.051956], [19.933715, 50.051989], [19.933878, 50.052053], [19.933889, 50.052057], [19.934783, 50.052409], [19.93496, 50.052479], [19.935168, 50.05256], [19.935185, 50.052512], [19.935192, 50.052492], [19.9352, 50.052471], [19.93525, 50.052497], [19.935586, 50.05264], [19.935899, 50.052773], [19.935955, 50.052797], [19.936061, 50.052839], [19.936392, 50.052969], [19.937246, 50.053305], [19.9375, 50.053405], [19.937514, 50.05341], [19.937733, 50.053496], [19.93817, 50.053668], [19.938536, 50.053811], [19.938803, 50.053917], [19.938849, 50.053938], [19.938942, 50.053981], [19.939103, 50.054055], [19.939106, 50.054056], [19.93916, 50.054087], [19.93927, 50.054163], [19.939311, 50.054192], [19.939428, 50.054273], [19.939575, 50.054375], [19.939822, 50.054567], [19.939852, 50.054598], [19.939942, 50.054694], [19.940003, 50.054817], [19.94015, 50.055469], [19.940219, 50.055761], [19.940264, 50.055958], [19.940306, 50.056146], [19.940489, 50.056964], [19.9406, 50.057408], [19.940797, 50.0582], [19.940848, 50.058346], [19.940892, 50.05847], [19.940975, 50.058647], [19.941017, 50.058731], [19.94107, 50.058803], [19.94115, 50.058875], [19.941216, 50.058935], [19.941322, 50.059008], [19.941779, 50.05934], [19.9419, 50.059429], [19.942112, 50.059583], [19.942219, 50.059655], [19.942581, 50.0599], [19.942723, 50.060006], [19.943291, 50.060428], [19.943719, 50.060728], [19.943861, 50.060858], [19.943947, 50.060951], [19.944, 50.061008], [19.94413, 50.061169], [19.944336, 50.061516], [19.944347, 50.061536], [19.944596, 50.061976], [19.944645, 50.062061], [19.944864, 50.062422], [19.944936, 50.0626], [19.944978, 50.062761], [19.945023, 50.063041], [19.945078, 50.063383], [19.945028, 50.063771], [19.944973, 50.064196], [19.944961, 50.064286], [19.944949, 50.064418], [19.944973, 50.064611], [19.944923, 50.064626], [19.944774, 50.064672], [19.944633, 50.064724], [19.944478, 50.064781], [19.944395, 50.064809], [19.942339, 50.065512], [19.942175, 50.06557], [19.941836, 50.065686], [19.941547, 50.065789], [19.941436, 50.065825], [19.940525, 50.066122], [19.940405, 50.066154], [19.940253, 50.066195], [19.940022, 50.066245], [19.939914, 50.066261], [19.939809, 50.066278], [19.939598, 50.066288], [19.939359, 50.06628], [19.93929, 50.066277], [19.939116, 50.066273], [19.93903, 50.066268], [19.938846, 50.066261], [19.93867, 50.066254], [19.938403, 50.066245], [19.938372, 50.066243], [19.938175, 50.066237], [19.937686, 50.06622], [19.9375, 50.066213], [19.936274, 50.066183], [19.936135, 50.066172], [19.936022, 50.066141], [19.935895, 50.066069], [19.935781, 50.065973], [19.935569, 50.065789], [19.935508, 50.065733], [19.935429, 50.065659], [19.935351, 50.065587], [19.934874, 50.065149], [19.934267, 50.064592], [19.933885, 50.064229], [19.933733, 50.064086], [19.933133, 50.063555], [19.933011, 50.063447], [19.932945, 50.063386], [19.932885, 50.063332], [19.932101, 50.062647], [19.932015, 50.062535], [19.931977, 50.062469], [19.931942, 50.062409], [19.93185, 50.062211], [19.9318, 50.062067], [19.931772, 50.061931], [19.931783, 50.061843], [19.93182, 50.061751], [19.931938, 50.06152], [19.932098, 50.061206], [19.932202, 50.060982], [19.932317, 50.060744], [19.932346, 50.060679], [19.932431, 50.060489], [19.932487, 50.060367], [19.932744, 50.059815], [19.932928, 50.059418], [19.933243, 50.05879], [19.933256, 50.058763], [19.93327, 50.058733], [19.933393, 50.058442], [19.933705, 50.057747], [19.934006, 50.057119], [19.934078, 50.05697], [19.934333, 50.056442], [19.934525, 50.056024], [19.934682, 50.055665], [19.93484, 50.0553], [19.934252, 50.055163], [19.93366, 50.055025], [19.933525, 50.055], [19.93345, 50.054989], [19.933446, 50.054989], [19.933412, 50.054988], [19.933409, 50.054988], [19.933407, 50.054988], [19.933401, 50.054976], [19.933386, 50.054951], [19.933308, 50.054823], [19.933041, 50.054393], [19.932922, 50.054221], [19.932919, 50.054171], [19.932898, 50.053943], [19.932679, 50.053928], [19.932135, 50.053884], [19.932122, 50.053883], [19.931724, 50.05395], [19.931651, 50.053962]]]}, "properties": {"display_name": "Stare Miasto, Kraków, województwo małopolskie, Polska", "type": "administrative", "osm_type": "relation", "osm_id": 3228435, "class": null, "keyword": "old town"}}, {"type": "Feature", "geometry": {"type": "Polygon", "coordinates": [[[19.948186, 50.028743], [19.948297, 50.028309], [19.948359, 50.028156], [19.948373, 50.028127], [19.948388, 50.028017], [19.948405, 50.02793], [19.948345, 50.027924], [19.948351, 50.027883], [19.948429, 50.027512], [19.948431, 50.027501], [19.948522, 50.027507], [19.948526, 50.027491], [19.948517, 50.027484], [19.948502, 50.027484], [19.948521, 50.027373], [19.948556, 50.02719], [19.948594, 50.027178], [19.948713, 50.027024], [19.948827, 50.026789], [19.94898, 50.026592], [19.949028, 50.026532], [19.953817, 50.026938], [19.953755, 50.027375], [19.953217, 50.027612], [19.953094, 50.02784], [19.954296, 50.028264], [19.955295, 50.02868], [19.955559, 50.029065], [19.954253, 50.029285], [19.953214, 50.029367], [19.952496, 50.029358], [19.952021, 50.029273], [19.951997, 50.029276], [19.951794, 50.029244], [19.951702, 50.029417], [19.950788, 50.029207], [19.950278, 50.029222], [19.949919, 50.029263], [19.949755, 50.029351], [19.949375, 50.029377], [19.948893, 50.029206], [19.949004, 50.029033], [19.948186, 50.028743]]]}, "properties": {"display_name": "Bonarka City Center, Podgórze Duchackie, Kraków, województwo małopolskie, 30-644, Polska", "type": "retail", "osm_type": "way", "osm_id": 313048450, "class": null, "keyword": "city center"}}, {"type": "Feature", "geometry": {"type": "Polygon", "coordinates": [[[19.94853, 50.028771], [19.948601, 50.028417], [19.948646, 50.028421], [19.948659, 50.028358], [19.948613, 50.028354], [19.948655, 50.028139], [19.948663, 50.028098], [19.948693, 50.027948], [19.948583, 50.02794], [19.948644, 50.027604], [19.948649, 50.027604], [19.948684, 50.027433], [19.948763, 50.027035], [19.949206, 50.027071], [19.949207, 50.027073], [19.949323, 50.027083], [19.949296, 50.027218], [19.949402, 50.027227], [19.949399, 50.027237], [19.949452, 50.027242], [19.94948, 50.027096], [19.94983, 50.027125], [19.949825, 50.02715], [19.949982, 50.027163], [19.949974, 50.0272], [19.950087, 50.027209], [19.9501, 50.027148], [19.950326, 50.027167], [19.950343, 50.027075], [19.950454, 50.027084], [19.950459, 50.027061], [19.95049, 50.027063], [19.950504, 50.026995], [19.950361, 50.026984], [19.950396, 50.026808], [19.950392, 50.026807], [19.950393, 50.026807], [19.950393, 50.026806], [19.950408, 50.026807], [19.950408, 50.02681], [19.950494, 50.026817], [19.950495, 50.026815], [19.95051, 50.026816], [19.950508, 50.026826], [19.950505, 50.026826], [19.950493, 50.026887], [19.950496, 50.026888], [19.950494, 50.026897], [19.950491, 50.026897], [19.950479, 50.026958], [19.950481, 50.026959], [19.950481, 50.02696], [19.950576, 50.026968], [19.950577, 50.026966], [19.950592, 50.026968], [19.950592, 50.026969], [19.950688, 50.026977], [19.950688, 50.026976], [19.950691, 50.026976], [19.950703, 50.026977], [19.950701, 50.026987], [19.950689, 50.026986], [19.950684, 50.02701], [19.950696, 50.027011], [19.950696, 50.027012], [19.950717, 50.027014], [19.95072, 50.027009], [19.950724, 50.027003], [19.950729, 50.027], [19.950738, 50.026996], [19.950745, 50.026994], [19.950753, 50.026993], [19.95076, 50.026993], [19.950768, 50.026995], [19.950775, 50.026997], [19.950781, 50.027], [19.950785, 50.027003], [19.95079, 50.027007], [19.950792, 50.027012], [19.950794, 50.027017], [19.950793, 50.02702], [19.950835, 50.027024], [19.950837, 50.027014], [19.950839, 50.027005], [19.950844, 50.026996], [19.950849, 50.026988], [19.950856, 50.02698], [19.950866, 50.026973], [19.950878, 50.026969], [19.950892, 50.026966], [19.950907, 50.026968], [19.950919, 50.026972], [19.950929, 50.026978], [19.950938, 50.026986], [19.950945, 50.026994], [19.950951, 50.027002], [19.950955, 50.02701], [19.950959, 50.027018], [19.950962, 50.027027], [19.950962, 50.027034], [19.951013, 50.027039], [19.951013, 50.027036], [19.951026, 50.027037], [19.95103, 50.027014], [19.951018, 50.027013], [19.95102, 50.027003], [19.951032, 50.027004], [19.951035, 50.027004], [19.951035, 50.027006], [19.95113, 50.027014], [19.951131, 50.027012], [19.951146, 50.027013], [19.951146, 50.027015], [19.951241, 50.027023], [19.951241, 50.027021], [19.951244, 50.027021], [19.951256, 50.02696], [19.951254, 50.02696], [19.951255, 50.02695], [19.951258, 50.02695], [19.95127, 50.026889], [19.951268, 50.026889], [19.95127, 50.026879], [19.951285, 50.02688], [19.951285, 50.026882], [19.95138, 50.02689], [19.95138, 50.026888], [19.951396, 50.026889], [19.951395, 50.02689], [19.951427, 50.026893], [19.951427, 50.026892], [19.95217, 50.026954], [19.9521, 50.02731], [19.952875, 50.027374], [19.952776, 50.027856], [19.952769, 50.027901], [19.952749, 50.028005], [19.952998, 50.028095], [19.952997, 50.028096], [19.953416, 50.028246], [19.953489, 50.028161], [19.953491, 50.028161], [19.953587, 50.028196], [19.953552, 50.028237], [19.953584, 50.028237], [19.953599, 50.028238], [19.953609, 50.02824], [19.953622, 50.028242], [19.953635, 50.028246], [19.953645, 50.028249], [19.953655, 50.028254], [19.953668, 50.028261], [19.953678, 50.028266], [19.953686, 50.028272], [19.953693, 50.028278], [19.953699, 50.028284], [19.953705, 50.028292], [19.953711, 50.028301], [19.953789, 50.028467], [19.953788, 50.028467], [19.953789, 50.02847], [19.953791, 50.02847], [19.953901, 50.028702], [19.953569, 50.028767], [19.953561, 50.028752], [19.953512, 50.028762], [19.953513, 50.028768], [19.953512, 50.028774], [19.953509, 50.028779], [19.953504, 50.028783], [19.953498, 50.028787], [19.953489, 50.02879], [19.953483, 50.028791], [19.953476, 50.028792], [19.953469, 50.028791], [19.953463, 50.028791], [19.953457, 50.028789], [19.953451, 50.028786], [19.953446, 50.028783], [19.953442, 50.02878], [19.953439, 50.028776], [19.953306, 50.028802], [19.953307, 50.028805], [19.953304, 50.028806], [19.953328, 50.028867], [19.953332, 50.028867], [19.953335, 50.028876], [19.953332, 50.028876], [19.953353, 50.028938], [19.953356, 50.028938], [19.953359, 50.028947], [19.953347, 50.028948], [19.953347, 50.028947], [19.953312, 50.028952], [19.953332, 50.029024], [19.953347, 50.029091], [19.95338, 50.029088], [19.953379, 50.029083], [19.953392, 50.029081], [19.953401, 50.029128], [19.953345, 50.029133], [19.953336, 50.029086], [19.953326, 50.02904], [19.953312, 50.028984], [19.953303, 50.028956], [19.953294, 50.028927], [19.953039, 50.028977], [19.952997, 50.028973], [19.953, 50.028959], [19.952964, 50.028956], [19.952946, 50.029044], [19.95287, 50.029038], [19.952872, 50.02903], [19.95277, 50.029022], [19.95276, 50.029021], [19.95275, 50.029019], [19.952744, 50.029018], [19.952739, 50.029015], [19.952733, 50.029013], [19.952726, 50.02901], [19.952721, 50.029007], [19.952717, 50.029003], [19.952713, 50.028999], [19.952708, 50.028995], [19.952704, 50.028988], [19.952702, 50.028984], [19.952701, 50.028978], [19.952668, 50.028976], [19.952663, 50.029001], [19.952659, 50.029021], [19.952654, 50.029046], [19.952653, 50.029049], [19.952594, 50.029045], [19.952551, 50.029041], [19.952551, 50.029042], [19.951594, 50.028963], [19.95159, 50.028983], [19.951729, 50.028995], [19.951724, 50.029018], [19.951727, 50.029018], [19.951719, 50.029063], [19.95152, 50.029046], [19.951528, 50.029003], [19.951531, 50.029003], [19.95154, 50.028958], [19.950958, 50.028909], [19.950958, 50.028911], [19.950869, 50.028903], [19.950651, 50.028885], [19.950579, 50.02888], [19.950563, 50.028956], [19.95054, 50.028954], [19.950533, 50.028953], [19.950526, 50.028987], [19.950522, 50.028997], [19.950515, 50.029006], [19.950503, 50.029016], [19.950488, 50.029023], [19.950475, 50.029027], [19.950464, 50.029029], [19.95045, 50.029031], [19.950438, 50.02903], [19.95013, 50.029005], [19.950118, 50.029002], [19.950106, 50.028998], [19.950098, 50.028993], [19.95009, 50.028988], [19.950083, 50.028982], [19.95008, 50.028978], [19.950076, 50.028972], [19.950074, 50.028968], [19.950072, 50.028962], [19.950071, 50.028957], [19.950071, 50.028952], [19.950093, 50.02884], [19.949871, 50.028821], [19.949885, 50.02875], [19.949125, 50.028687], [19.94911, 50.028758], [19.949057, 50.028754], [19.949048, 50.028753], [19.949063, 50.028682], [19.948787, 50.028659], [19.948775, 50.028721], [19.94878, 50.028722], [19.948779, 50.028725], [19.948831, 50.028729], [19.948824, 50.028763], [19.94873, 50.028756], [19.948723, 50.028788], [19.948534, 50.028773], [19.948532, 50.028771], [19.94853, 50.028771]]]}, "properties": {"display_name": "Bonarka City Center, 11, Generała Henryka Kamieńskiego, Wola Duchacka, Podgórze Duchackie, Kraków, województwo małopolskie, 30-644, Polska", "type": "mall", "osm_type": "way", "osm_id": 48306888, "class": null, "keyword": "city center"}}, {"type": "Feature", "geometry": {"type": "Polygon", "coordinates": [[[20.009031, 50.060251], [20.009069, 50.059703], [20.009103, 50.059224], [20.010786, 50.059273], [20.010755, 50.059714], [20.010326, 50.059701], [20.01033, 50.059642], [20.010005, 50.059632], [20.01, 50.059714], [20.009832, 50.059709], [20.009829, 50.059758], [20.009915, 50.059761], [20.009909, 50.059841], [20.010276, 50.059852], [20.01028, 50.059794], [20.010745, 50.059807], [20.010741, 50.059866], [20.010889, 50.059871], [20.010893, 50.059812], [20.011082, 50.059817], [20.011051, 50.060257], [20.009788, 50.060221], [20.009785, 50.060273], [20.009031, 50.060251]]]}, "properties": {"display_name": "Międzynarodowe Centrum Targowo-Kongresowe EXPO, 9, Galicyjska, Załęcze, Łęg, Czyżyny, Kraków, województwo małopolskie, 31-586, Polska", "type": "exhibition_centre", "osm_type": "way", "osm_id": 329853261, "class": null, "keyword": "city centre"}}, {"type": "Feature", "geometry": {"type": "Polygon", "coordinates": [[[19.947107, 50.063752], [19.947134, 50.063631], [19.947225, 50.06364], [19.947245, 50.063642], [19.947245, 50.06364], [19.947337, 50.063649], [19.947329, 50.063709], [19.947324, 50.063708], [19.947319, 50.063735], [19.947322, 50.063736], [19.947306, 50.063833], [19.947133, 50.063816], [19.947134, 50.063812], [19.947137, 50.063812], [19.94714, 50.063795], [19.947156, 50.063796], [19.947158, 50.063786], [19.947151, 50.063785], [19.947154, 50.06377], [19.947167, 50.063764], [19.947158, 50.063757], [19.947107, 50.063752]]]}, "properties": {"display_name": "Downtown Kraków, 14, Doktora Ludwika Zamenhofa, Wesoła, Stare Miasto, Kraków, województwo małopolskie, 31-025, Polska", "type": "hotel", "osm_type": "way", "osm_id": 167351789, "class": null, "keyword": "downtown"}}]}