{"type": "FeatureCollection", "features": [{"type": "Feature", "geometry": {"type": "Polygon", "coordinates": [[[120.902835, 31.390786], [120.904068, 31.387804], [120.904009, 31.387445], [120.903717, 31.386146], [120.903778, 31.385771], [120.903946, 31.38546], [120.904423, 31.385002], [120.904623, 31.3845], [120.904689, 31.383589], [120.906728, 31.383571], [120.907369, 31.388636], [120.907786, 31.390435], [120.90517, 31.39081], [120.902835, 31.390786]]]}, "properties": {"display_name": "昆山市体育中心, 共青路, 高新区, 玉山镇, 昆山市, 苏州市, 江苏省, 215316, 中国", "type": "sports_centre", "osm_type": "way", "osm_id": 589110909, "class": null, "keyword": "city center"}}, {"type": "Feature", "geometry": {"type": "Polygon", "coordinates": [[[121.026571, 31.386629], [121.026614, 31.386509], [121.026694, 31.3864], [121.026796, 31.386326], [121.031329, 31.386264], [121.031402, 31.386281], [121.031455, 31.386331], [121.031487, 31.386393], [121.031474, 31.389257], [121.026576, 31.389239], [121.026571, 31.386629]]]}, "properties": {"display_name": "昆山国际会展中心, 前进东路, 昆山经济技术开发区, 玉山镇, 昆山市, 苏州市, 江苏省, 中国", "type": "social_facility", "osm_type": "way", "osm_id": 1201995190, "class": null, "keyword": "city center"}}, {"type": "Feature", "geometry": {"type": "Polygon", "coordinates": [[[120.900763, 31.387199], [120.900768, 31.383549], [120.904533, 31.383543], [120.904505, 31.384492], [120.904328, 31.384897], [120.903882, 31.385392], [120.903691, 31.385749], [120.903606, 31.386178], [120.903783, 31.387144], [120.903589, 31.387193], [120.900763, 31.387199]]]}, "properties": {"display_name": "昆山市文化艺术中心, 前进西路, 高新区, 玉山镇, 昆山市, 苏州市, 江苏省, 215316, 中国", "type": "arts_centre", "osm_type": "way", "osm_id": 589110910, "class": null, "keyword": "市中心"}}, {"type": "Feature", "geometry": {"type": "Polygon", "coordinates": [[[120.886908, 31.385965], [120.886956, 31.383826], [120.890379, 31.383849], [120.89054, 31.383968], [120.89062, 31.384179], [120.89062, 31.384632], [120.890475, 31.384641], [120.890588, 31.387068], [120.89025, 31.3871], [120.889354, 31.387123], [120.88789, 31.38716], [120.887826, 31.385987], [120.886908, 31.385965]]]}, "properties": {"display_name": "昆山市中医医院, 康居路, 仁和社区, 巴城镇, 昆山市, 苏州市, 江苏省, 中国", "type": "hospital", "osm_type": "way", "osm_id": 1115893371, "class": null, "keyword": "市中心"}}, {"type": "Feature", "geometry": {"type": "Polygon", "coordinates": [[[120.979058, 31.412142], [120.97909, 31.409688], [120.979112, 31.409619], [120.979219, 31.409578], [120.981172, 31.409669], [120.981258, 31.409752], [120.981172, 31.412916], [120.979482, 31.412934], [120.979498, 31.412467], [120.979385, 31.412467], [120.979391, 31.412325], [120.97916, 31.412329], [120.979058, 31.412142]]]}, "properties": {"display_name": "昆山市新镇中学西校区, 金浦路, 金威社区, 周市镇, 昆山市, 苏州市, 江苏省, 215300, 中国", "type": "school", "osm_type": "way", "osm_id": 1115893377, "class": null, "keyword": "市中心"}}, {"type": "Feature", "geometry": {"type": "Polygon", "coordinates": [[[120.969172, 31.452984], [120.969922, 31.450797], [120.970577, 31.450957], [120.971773, 31.451177], [120.971564, 31.45308], [120.971548, 31.453208], [120.969172, 31.452984]]]}, "properties": {"display_name": "昆山市陆杨中心小学, 华茂路, 华顺社区, 周市镇, 昆山市, 苏州市, 江苏省, 215316, 中国", "type": "school", "osm_type": "way", "osm_id": 1092912797, "class": null, "keyword": "市中心"}}, {"type": "Feature", "geometry": {"type": "Polygon", "coordinates": [[[121.002073, 31.266993], [121.004179, 31.266337], [121.004453, 31.267561], [121.004357, 31.267689], [121.003559, 31.267788], [121.003804, 31.269363], [121.002545, 31.26942], [121.002073, 31.266993]]]}, "properties": {"display_name": "昆山市千灯中心小学校, 延福街, 河东街社区, 千灯镇, 昆山市, 苏州市, 江苏省, 中国", "type": "school", "osm_type": "way", "osm_id": 624202929, "class": null, "keyword": "市中心"}}, {"type": "Feature", "geometry": {"type": "Polygon", "coordinates": [[[120.904059, 31.386399], [120.904083, 31.386012], [120.904207, 31.385703], [120.904405, 31.38544], [120.904625, 31.385261], [120.904904, 31.385144], [120.905146, 31.385101], [120.905417, 31.385133], [120.905682, 31.385206], [120.905873, 31.385312], [120.906042, 31.385469], [120.906197, 31.385715], [120.906283, 31.385998], [120.906288, 31.386374], [120.906197, 31.386708], [120.906079, 31.386921], [120.905881, 31.387111], [120.905646, 31.387254], [120.905417, 31.387332], [120.905194, 31.387359], [120.904909, 31.387337], [120.904675, 31.387241], [120.90447, 31.387102], [120.904279, 31.386933], [120.904148, 31.386695], [120.904059, 31.386399]]]}, "properties": {"display_name": "昆山体育中心体育场, 共青路, 高新区, 玉山镇, 昆山市, 苏州市, 江苏省, 215316, 中国", "type": "stadium", "osm_type": "way", "osm_id": 656228306, "class": null, "keyword": "city centre"}}, {"type": "Feature", "geometry": {"type": "Polygon", "coordinates": [[[121.001763, 31.402559], [121.001884, 31.401634], [121.001996, 31.400751], [121.001873, 31.400728], [121.002045, 31.399469], [121.002978, 31.39956], [121.002935, 31.399947], [121.003142, 31.399961], [121.003061, 31.400824], [121.003268, 31.400847], [121.00319, 31.401511], [121.003244, 31.401554], [121.00326, 31.401611], [121.00312, 31.402603], [121.001763, 31.402559]]]}, "properties": {"display_name": "昆山市新镇中学, 东方路, 新镇, 周市镇, 昆山市, 苏州市, 江苏省, 215300, 中国", "type": "school", "osm_type": "way", "osm_id": 1115633654, "class": null, "keyword": "市中心"}}, {"type": "Feature", "geometry": {"type": "Polygon", "coordinates": [[[120.93058, 31.401543], [120.931122, 31.401149], [120.932372, 31.400947], [120.932661, 31.400783], [120.932897, 31.400778], [120.93293, 31.40261], [120.930601, 31.402747], [120.93058, 31.401543]]]}, "properties": {"display_name": "昆山市城北中心小学西校区, 虹桥路, 玉山镇, 昆山市, 苏州市, 江苏省, 215316, 中国", "type": "school", "osm_type": "way", "osm_id": 1187641793, "class": null, "keyword": "市中心"}}, {"type": "Feature", "geometry": {"type": "Polygon", "coordinates": [[[120.939402, 31.227627], [120.940762, 31.227348], [120.941319, 31.229705], [120.939983, 31.230085], [120.939827, 31.230053], [120.939402, 31.227627]]]}, "properties": {"display_name": "昆山市大市中心小学, 李园路, 大市, 张浦镇, 昆山市, 苏州市, 江苏省, 中国", "type": "school", "osm_type": "way", "osm_id": 1117545557, "class": null, "keyword": "市中心"}}, {"type": "Feature", "geometry": {"type": "Polygon", "coordinates": [[[120.966967, 31.412655], [120.966972, 31.412394], [120.968308, 31.412229], [120.968453, 31.412243], [120.968571, 31.412329], [120.96885, 31.413181], [120.968989, 31.413808], [120.969, 31.414083], [120.968957, 31.414165], [120.967063, 31.414257], [120.966967, 31.412655]]]}, "properties": {"display_name": "昆山市高新区汉浦中学, 寰庆路, 玉山镇, 昆山市, 苏州市, 江苏省, 215316, 中国", "type": "school", "osm_type": "way", "osm_id": 1115893387, "class": null, "keyword": "市中心"}}, {"type": "Feature", "geometry": {"type": "Polygon", "coordinates": [[[121.005397, 31.249897], [121.008128, 31.249635], [121.008234, 31.249641], [121.008332, 31.249677], [121.008411, 31.249738], [121.00846, 31.249819], [121.008648, 31.250759], [121.007908, 31.25085], [121.006755, 31.250855], [121.005542, 31.250938], [121.005483, 31.250915], [121.00543, 31.250837], [121.005397, 31.249897]]]}, "properties": {"display_name": "昆山市千灯中心小学校南校区, 南浦东路, 淞南社区, 千灯镇, 昆山市, 苏州市, 江苏省, 中国", "type": "school", "osm_type": "way", "osm_id": 719393836, "class": null, "keyword": "市中心"}}, {"type": "Feature", "geometry": {"type": "Polygon", "coordinates": [[[120.992619, 31.470596], [120.994084, 31.469242], [120.995087, 31.470084], [120.995151, 31.470317], [120.995063, 31.47059], [120.994993, 31.470734], [120.994374, 31.471443], [120.99336, 31.470967], [120.992619, 31.470596]]]}, "properties": {"display_name": "昆山市周市中心小学, 惠安路, 周市社区, 周市镇, 昆山市, 苏州市, 江苏省, 215400, 中国", "type": "school", "osm_type": "way", "osm_id": 1092912804, "class": null, "keyword": "市中心"}}, {"type": "Feature", "geometry": {"type": "Polygon", "coordinates": [[[120.881336, 31.446347], [120.881383, 31.445113], [120.883752, 31.445143], [120.88408, 31.445042], [120.884289, 31.444978], [120.884345, 31.445864], [120.881336, 31.446347]]]}, "properties": {"display_name": "昆山市精神卫生中心, 祖冲之中路, 年丰社区, 巴城镇, 昆山市, 苏州市, 江苏省, 中国", "type": "hospital", "osm_type": "way", "osm_id": 1113600332, "class": null, "keyword": "市中心"}}, {"type": "Feature", "geometry": {"type": "Polygon", "coordinates": [[[121.078804, 31.303538], [121.079387, 31.302496], [121.079696, 31.30221], [121.080922, 31.302688], [121.080334, 31.304108], [121.080006, 31.303984], [121.078804, 31.303538]]]}, "properties": {"display_name": "昆山市花桥中心小学, 鸡鸣塘路, 花桥社区, 花桥镇, 昆山市, 苏州市, 江苏省, 中国", "type": "school", "osm_type": "way", "osm_id": 1089792150, "class": null, "keyword": "市中心"}}, {"type": "Feature", "geometry": {"type": "Polygon", "coordinates": [[[120.944158, 31.398912], [120.944224, 31.39788], [120.944697, 31.397866], [120.944715, 31.397475], [120.944275, 31.397447], [120.944315, 31.39713], [120.945982, 31.397244], [120.945892, 31.398334], [120.94517, 31.398304], [120.945105, 31.398969], [120.944158, 31.398912]]]}, "properties": {"display_name": "昆山市城北中心小学, 花园路, 城北, 玉山镇, 昆山市, 苏州市, 江苏省, 215316, 中国", "type": "school", "osm_type": "way", "osm_id": 1162800085, "class": null, "keyword": "市中心"}}, {"type": "Feature", "geometry": {"type": "Polygon", "coordinates": [[[120.904679, 31.38192], [120.904725, 31.381897], [120.906341, 31.38187], [120.906405, 31.381896], [120.906464, 31.381939], [120.906486, 31.381996], [120.906596, 31.382885], [120.906563, 31.382942], [120.906502, 31.38299], [120.90486, 31.383008], [120.904798, 31.382995], [120.90474, 31.382963], [120.904701, 31.382905], [120.904691, 31.382866], [120.904679, 31.38192]]]}, "properties": {"display_name": "昆山市政务服务中心, 玉山镇, 昆山市, 苏州市, 江苏省, 中国", "type": "commercial", "osm_type": "way", "osm_id": 1187641787, "class": null, "keyword": "市中心"}}, {"type": "Feature", "geometry": {"type": "Polygon", "coordinates": [[[120.941177, 31.227615], [120.942187, 31.227183], [120.942622, 31.228644], [120.941446, 31.228878], [120.941177, 31.227615]]]}, "properties": {"display_name": "昆山市大市中心幼儿园, 李园路, 大市, 张浦镇, 昆山市, 苏州市, 江苏省, 中国", "type": "kindergarten", "osm_type": "way", "osm_id": 1117545558, "class": null, "keyword": "市中心"}}, {"type": "Feature", "geometry": {"type": "Polygon", "coordinates": [[[120.852898, 31.373421], [120.853204, 31.37233], [120.853324, 31.372352], [120.853606, 31.372404], [120.854534, 31.372573], [120.854244, 31.373659], [120.852898, 31.373421]]]}, "properties": {"display_name": "正仪中心校, 信义路, 正仪, 巴城镇, 昆山市, 苏州市, 江苏省, 中国", "type": "school", "osm_type": "way", "osm_id": 1255631236, "class": null, "keyword": "中心城区"}}, {"type": "Feature", "geometry": {"type": "Polygon", "coordinates": [[[120.853491, 31.372097], [120.853763, 31.370969], [120.854901, 31.371169], [120.854629, 31.372297], [120.85431, 31.372241], [120.853491, 31.372097]]]}, "properties": {"display_name": "正仪社区卫生服务中心, 信义路, 正仪, 巴城镇, 昆山市, 苏州市, 江苏省, 中国", "type": "hospital", "osm_type": "way", "osm_id": 1255631237, "class": null, "keyword": "中心城区"}}, {"type": "Feature", "geometry": {"type": "Polygon", "coordinates": [[[121.080994, 31.300939], [121.08103, 31.3008], [121.081454, 31.300119], [121.082643, 31.300721], [121.082117, 31.301523], [121.080994, 31.300939]]]}, "properties": {"display_name": "昆山市花桥中心幼儿园, 花溪路, 花桥社区, 花桥镇, 昆山市, 苏州市, 江苏省, 中国", "type": "kindergarten", "osm_type": "way", "osm_id": 1089792152, "class": null, "keyword": "市中心"}}, {"type": "Feature", "geometry": {"type": "Polygon", "coordinates": [[[121.001363, 31.404459], [121.00149, 31.403907], [121.003016, 31.404008], [121.002908, 31.404716], [121.001886, 31.404636], [121.001897, 31.404505], [121.001363, 31.404459]]]}, "properties": {"display_name": "昆山市新镇中心幼儿园, 东方路, 新镇, 周市镇, 昆山市, 苏州市, 江苏省, 215300, 中国", "type": "kindergarten", "osm_type": "way", "osm_id": 1115893376, "class": null, "keyword": "市中心"}}, {"type": "Feature", "geometry": {"type": "Polygon", "coordinates": [[[120.891531, 31.418143], [120.891556, 31.417759], [120.891975, 31.417764], [120.892166, 31.416812], [120.893084, 31.416833], [120.893072, 31.417154], [120.892566, 31.417165], [120.89232, 31.418153], [120.891888, 31.418148], [120.891531, 31.418143]]]}, "properties": {"display_name": "Conference center, Wuhan University Road, 红杨社区, 玉山镇, 昆山市, 苏州市, 江苏省, 中国", "type": "school", "osm_type": "way", "osm_id": 576510807, "class": null, "keyword": "中心城区"}}, {"type": "Feature", "geometry": {"type": "Polygon", "coordinates": [[[121.002851, 31.271227], [121.00371, 31.271125], [121.003815, 31.271236], [121.00389, 31.271341], [121.003991, 31.271473], [121.004053, 31.271575], [121.004096, 31.271705], [121.004092, 31.271782], [121.004067, 31.271847], [121.002966, 31.271982], [121.002851, 31.271227]]]}, "properties": {"display_name": "昆山市千灯中心幼儿园, 秦峰中路, 河东街社区, 千灯镇, 昆山市, 苏州市, 江苏省, 中国", "type": "kindergarten", "osm_type": "way", "osm_id": 1117139076, "class": null, "keyword": "市中心"}}, {"type": "Feature", "geometry": {"type": "Polygon", "coordinates": [[[121.050268, 31.252887], [121.050373, 31.252187], [121.0514, 31.252242], [121.051255, 31.253043], [121.050268, 31.252887]]]}, "properties": {"display_name": "石浦社区卫生服务中心, 卫丰路, 华强社区, 千灯镇, 昆山市, 苏州市, 江苏省, 中国", "type": "clinic", "osm_type": "way", "osm_id": 1117073025, "class": null, "keyword": "市中心"}}, {"type": "Feature", "geometry": {"type": "Polygon", "coordinates": [[[120.917695, 31.378976], [120.918521, 31.378953], [120.918478, 31.37969], [120.917695, 31.379704], [120.917695, 31.378976]]]}, "properties": {"display_name": "昆山市急救中心, 震川西路, 高新区, 玉山镇, 昆山市, 苏州市, 江苏省, 215316, 中国", "type": "hospital", "osm_type": "way", "osm_id": 1174714589, "class": null, "keyword": "市中心"}}]}