{"type": "FeatureCollection", "features": [{"type": "Feature", "geometry": {"type": "Polygon", "coordinates": [[[103.765138, 36.151751], [103.766425, 36.150417], [103.769172, 36.149776], [103.771618, 36.148303], [103.773978, 36.146917], [103.776146, 36.146882], [103.777637, 36.145946], [103.779343, 36.146007], [103.780995, 36.145609], [103.783431, 36.145418], [103.78587, 36.145729], [103.786707, 36.146361], [103.790741, 36.145634], [103.79322, 36.145313], [103.79484, 36.144447], [103.796492, 36.14494], [103.797661, 36.146197], [103.798198, 36.147609], [103.798648, 36.148241], [103.799442, 36.146968], [103.799925, 36.146613], [103.802318, 36.14624], [103.802436, 36.146006], [103.801019, 36.144793], [103.800547, 36.144031], [103.80069, 36.142384], [103.801849, 36.141205], [103.802621, 36.139247], [103.802449, 36.138312], [103.800668, 36.13748], [103.800454, 36.133754], [103.802192, 36.13079], [103.804488, 36.129542], [103.804531, 36.129161], [103.803415, 36.128399], [103.803629, 36.127723], [103.805089, 36.126267], [103.805132, 36.125643], [103.804209, 36.124742], [103.804488, 36.123061], [103.803951, 36.121847], [103.803297, 36.120582], [103.802589, 36.118346], [103.803318, 36.117601], [103.804521, 36.117661], [103.80643, 36.117756], [103.81055, 36.119299], [103.815571, 36.121223], [103.817523, 36.122385], [103.818682, 36.122194], [103.82027, 36.120235], [103.821729, 36.119213], [103.822223, 36.119577], [103.82263, 36.120391], [103.822992, 36.115251], [103.822676, 36.111602], [103.825163, 36.109106], [103.826558, 36.105933], [103.826751, 36.103818], [103.826901, 36.102813], [103.827254, 36.102272], [103.828094, 36.101441], [103.830259, 36.099588], [103.832023, 36.098198], [103.832216, 36.097799], [103.832281, 36.097453], [103.832345, 36.096343], [103.832629, 36.095879], [103.833547, 36.095389], [103.83404, 36.095042], [103.834298, 36.094245], [103.835349, 36.089806], [103.835156, 36.0888], [103.835027, 36.087829], [103.835156, 36.087205], [103.836046, 36.08665], [103.837398, 36.086286], [103.838632, 36.086269], [103.840156, 36.08574], [103.840756, 36.085419], [103.84125, 36.084647], [103.841851, 36.083329], [103.841886, 36.083053], [103.841336, 36.082428], [103.840134, 36.081595], [103.83889, 36.080641], [103.837988, 36.079324], [103.837184, 36.07713], [103.837271, 36.075395], [103.837592, 36.075421], [103.837978, 36.065725], [103.837752, 36.064887], [103.84308, 36.065159], [103.845295, 36.065297], [103.845842, 36.06544], [103.84839, 36.066106], [103.85276, 36.06802], [103.855218, 36.070056], [103.857069, 36.072753], [103.858147, 36.074779], [103.859588, 36.077487], [103.863563, 36.082122], [103.858799, 36.093893], [103.857889, 36.096958], [103.86311, 36.101303], [103.864073, 36.105126], [103.868002, 36.109833], [103.869627, 36.110708], [103.86988, 36.112288], [103.868614, 36.113128], [103.867412, 36.113232], [103.867037, 36.113614], [103.867091, 36.115321], [103.867638, 36.116058], [103.867809, 36.117098], [103.867745, 36.117384], [103.867133, 36.117497], [103.866908, 36.117791], [103.866737, 36.118467], [103.86502, 36.118831], [103.864323, 36.119204], [103.86384, 36.120599], [103.862949, 36.121631], [103.862027, 36.122428], [103.861683, 36.12345], [103.861823, 36.125305], [103.861222, 36.125998], [103.859183, 36.127463], [103.858947, 36.127887], [103.858958, 36.128745], [103.859484, 36.129612], [103.860192, 36.131726], [103.859462, 36.132359], [103.859119, 36.132896], [103.86046, 36.134048], [103.85928, 36.135937], [103.858964, 36.137129], [103.858942, 36.138585], [103.859173, 36.138944], [103.860036, 36.139416], [103.859865, 36.140127], [103.85847, 36.140803], [103.858062, 36.142535], [103.856775, 36.143541], [103.854371, 36.144268], [103.854801, 36.14581], [103.855187, 36.14659], [103.854457, 36.147093], [103.853706, 36.148132], [103.853234, 36.14815], [103.852161, 36.148635], [103.850831, 36.148999], [103.850509, 36.150246], [103.848986, 36.151598], [103.84875, 36.153105], [103.847076, 36.154716], [103.84669, 36.155877], [103.846852, 36.156196], [103.850102, 36.159107], [103.854492, 36.162289], [103.859629, 36.163496], [103.863383, 36.163073], [103.867605, 36.164823], [103.870414, 36.167094], [103.872173, 36.172066], [103.876357, 36.175132], [103.881271, 36.178024], [103.882473, 36.177505], [103.887537, 36.177591], [103.890415, 36.180269], [103.892855, 36.182293], [103.892511, 36.182395], [103.886803, 36.187296], [103.877469, 36.188959], [103.868735, 36.191729], [103.859916, 36.192976], [103.853372, 36.194188], [103.843609, 36.194223], [103.832493, 36.194275], [103.82434, 36.193219], [103.814212, 36.192664], [103.80211, 36.189825], [103.793312, 36.189495], [103.781553, 36.184058], [103.774386, 36.182828], [103.767327, 36.181442], [103.767284, 36.178775], [103.768314, 36.174289], [103.770502, 36.171847], [103.772906, 36.168521], [103.769022, 36.166477], [103.769386, 36.163255], [103.769, 36.160933], [103.769558, 36.158404], [103.771682, 36.155545], [103.770095, 36.15558], [103.767756, 36.155528], [103.765181, 36.155077], [103.765138, 36.151751]]]}, "properties": {"display_name": "盐场路街道, 兰州市, 城关区, 甘肃省, 730046, 中国", "type": "administrative", "osm_type": "relation", "osm_id": 7034357, "class": null, "keyword": "subdistrict"}}, {"type": "Feature", "geometry": {"type": "Polygon", "coordinates": [[[103.802642, 36.044688], [103.803428, 36.044382], [103.8036, 36.044], [103.804115, 36.04374], [103.804619, 36.043289], [103.808535, 36.041918], [103.811432, 36.041346], [103.812355, 36.040696], [103.812912, 36.039455], [103.813331, 36.037806], [103.813706, 36.036939], [103.813921, 36.035793], [103.81435, 36.034449], [103.814425, 36.03372], [103.814661, 36.033355], [103.815455, 36.033034], [103.815938, 36.031837], [103.816217, 36.030336], [103.816549, 36.030015], [103.817546, 36.029376], [103.819468, 36.02762], [103.819843, 36.02684], [103.820583, 36.026432], [103.822922, 36.026223], [103.823416, 36.026032], [103.824253, 36.025998], [103.824643, 36.025728], [103.824836, 36.024886], [103.825566, 36.02453], [103.826006, 36.024079], [103.826907, 36.023498], [103.828076, 36.022604], [103.828999, 36.02145], [103.829074, 36.020851], [103.829686, 36.020487], [103.829997, 36.019532], [103.830812, 36.018144], [103.83107, 36.017415], [103.831456, 36.017059], [103.832765, 36.017094], [103.832904, 36.016599], [103.832765, 36.013961], [103.834024, 36.013075], [103.834217, 36.012172], [103.83411, 36.010627], [103.834324, 36.01035], [103.836771, 36.010289], [103.837361, 36.00995], [103.837822, 36.009473], [103.838198, 36.009369], [103.83882, 36.009681], [103.839152, 36.009681], [103.839367, 36.009291], [103.838391, 36.008596], [103.836417, 36.007963], [103.836073, 36.007789], [103.835762, 36.007277], [103.835773, 36.006904], [103.835312, 36.006409], [103.834442, 36.006158], [103.834475, 36.00568], [103.835258, 36.00483], [103.836846, 36.004917], [103.837962, 36.004891], [103.839045, 36.005142], [103.839635, 36.005108], [103.843197, 36.004457], [103.843412, 36.004266], [103.843315, 36.004118], [103.841609, 36.003788], [103.840848, 36.003424], [103.840376, 36.002859], [103.840376, 36.002096], [103.840708, 36.001965], [103.84206, 36.002104], [103.842275, 36.001792], [103.842221, 36.001601], [103.841695, 36.001419], [103.840558, 36.000967], [103.840193, 36.000646], [103.839807, 35.999744], [103.839786, 35.999145], [103.840354, 35.998016], [103.840826, 35.997383], [103.841931, 35.99635], [103.842521, 35.996133], [103.84397, 35.996271], [103.844453, 35.996133], [103.844925, 35.995334], [103.845365, 35.995247], [103.845955, 35.995334], [103.847392, 35.995751], [103.847703, 35.995629], [103.847714, 35.995317], [103.847167, 35.994292], [103.847263, 35.99365], [103.847703, 35.993754], [103.848519, 35.994292], [103.84913, 35.994457], [103.84972, 35.994362], [103.850643, 35.994761], [103.850943, 35.994822], [103.851137, 35.994674], [103.851373, 35.994397], [103.851298, 35.994084], [103.850429, 35.993294], [103.84869, 35.993173], [103.847499, 35.992686], [103.846899, 35.991862], [103.847006, 35.991272], [103.847349, 35.990768], [103.846834, 35.989726], [103.846974, 35.989205], [103.849066, 35.98937], [103.851244, 35.989084], [103.852027, 35.989188], [103.853636, 35.989188], [103.853647, 35.989032], [103.852145, 35.988459], [103.850482, 35.987608], [103.849302, 35.987426], [103.848948, 35.987174], [103.848905, 35.986705], [103.849216, 35.986228], [103.850064, 35.985559], [103.850364, 35.98483], [103.851078, 35.984548], [103.85376, 35.985069], [103.856163, 35.985329], [103.859087, 35.985308], [103.859838, 35.985082], [103.860353, 35.984769], [103.861211, 35.9845], [103.861361, 35.984353], [103.861329, 35.984127], [103.860245, 35.984257], [103.858969, 35.984283], [103.858046, 35.984162], [103.856383, 35.984049], [103.855423, 35.98355], [103.855358, 35.983107], [103.855455, 35.982951], [103.856356, 35.982239], [103.856603, 35.981805], [103.858427, 35.981831], [103.859843, 35.981692], [103.860519, 35.981388], [103.860884, 35.980685], [103.860766, 35.980372], [103.859382, 35.980363], [103.858953, 35.980129], [103.858266, 35.979426], [103.857633, 35.979252], [103.856549, 35.978523], [103.856378, 35.977993], [103.856399, 35.977611], [103.856978, 35.976708], [103.857676, 35.975718], [103.858438, 35.975658], [103.859832, 35.976135], [103.861485, 35.975988], [103.861699, 35.975797], [103.861871, 35.97551], [103.861474, 35.975232], [103.861227, 35.974841], [103.861152, 35.974407], [103.861774, 35.973878], [103.863427, 35.973183], [103.863845, 35.972792], [103.86436, 35.972619], [103.864768, 35.972237], [103.8651, 35.972158], [103.866034, 35.971386], [103.866817, 35.970639], [103.866774, 35.970344], [103.865637, 35.970509], [103.864317, 35.970318], [103.863158, 35.969936], [103.862751, 35.969606], [103.862633, 35.968807], [103.862815, 35.96839], [103.863319, 35.968051], [103.865572, 35.967053], [103.866077, 35.96707], [103.867225, 35.966679], [103.868662, 35.966011], [103.869488, 35.965794], [103.871119, 35.964812], [103.872246, 35.96371], [103.874665, 35.961938], [103.876328, 35.964239], [103.877508, 35.963935], [103.878055, 35.963875], [103.878248, 35.964187], [103.878281, 35.965698], [103.878463, 35.967009], [103.879793, 35.96806], [103.879954, 35.968746], [103.879665, 35.969779], [103.878474, 35.970682], [103.878323, 35.971255], [103.878999, 35.974894], [103.878871, 35.979139], [103.880244, 35.981397], [103.881167, 35.982647], [103.882025, 35.983003], [103.882537, 35.982922], [103.882741, 35.983539], [103.882602, 35.983747], [103.882521, 35.98379], [103.882473, 35.984064], [103.882596, 35.984615], [103.882838, 35.984949], [103.883058, 35.98514], [103.883235, 35.985709], [103.88317, 35.985978], [103.883342, 35.986143], [103.883535, 35.986174], [103.883546, 35.986304], [103.883454, 35.986378], [103.883546, 35.986456], [103.883519, 35.986525], [103.883658, 35.98676], [103.883739, 35.986786], [103.883889, 35.987155], [103.88413, 35.987333], [103.88405, 35.987476], [103.88434, 35.987519], [103.884817, 35.988031], [103.884833, 35.98817], [103.884581, 35.988383], [103.884613, 35.988557], [103.884951, 35.988665], [103.885101, 35.989173], [103.885504, 35.989516], [103.885632, 35.990258], [103.885734, 35.990471], [103.886689, 35.991486], [103.887242, 35.99248], [103.887435, 35.992706], [103.887253, 35.993123], [103.887274, 35.993318], [103.887751, 35.993822], [103.887741, 35.993982], [103.887531, 35.99426], [103.887698, 35.994399], [103.887961, 35.994477], [103.888068, 35.994867], [103.888781, 35.995662], [103.888792, 35.995788], [103.888728, 35.995948], [103.888556, 35.996209], [103.889243, 35.996621], [103.889549, 35.996656], [103.889253, 35.997155], [103.889382, 35.997302], [103.889865, 35.997398], [103.890005, 35.997484], [103.8899, 35.997782], [103.889954, 35.998185], [103.890216, 35.99829], [103.890241, 35.998626], [103.891734, 35.999327], [103.892212, 35.999349], [103.892705, 35.999197], [103.895103, 35.997921], [103.89557, 35.997825], [103.896938, 35.99786], [103.897501, 35.998003], [103.898429, 35.998489], [103.89917, 35.999205], [103.899213, 35.999678], [103.899078, 35.999869], [103.898397, 36.000321], [103.897909, 36.001089], [103.896927, 36.001714], [103.896788, 36.001992], [103.896745, 36.002608], [103.896825, 36.003328], [103.897018, 36.003879], [103.897855, 36.005429], [103.898054, 36.005602], [103.898241, 36.005667], [103.898553, 36.005628], [103.899652, 36.004812], [103.900124, 36.004973], [103.900591, 36.008401], [103.900419, 36.009147], [103.900634, 36.009286], [103.901964, 36.009582], [103.90337, 36.010501], [103.903531, 36.011647], [103.902758, 36.014676], [103.903338, 36.014823], [103.9044, 36.014519], [103.904926, 36.013903], [103.905462, 36.015769], [103.905795, 36.01609], [103.906546, 36.015917], [103.908101, 36.016012], [103.909475, 36.017809], [103.910022, 36.018399], [103.910548, 36.018668], [103.911588, 36.019362], [103.912876, 36.02147], [103.913477, 36.022104], [103.91471, 36.02403], [103.91471, 36.024377], [103.914946, 36.024733], [103.915923, 36.025219], [103.916859, 36.025563], [103.916132, 36.026195], [103.915571, 36.025784], [103.914168, 36.026266], [103.913922, 36.026805], [103.914326, 36.027372], [103.913116, 36.028535], [103.91259, 36.028323], [103.912292, 36.027968], [103.91252, 36.026706], [103.912151, 36.025841], [103.91152, 36.026025], [103.911643, 36.026606], [103.911537, 36.027245], [103.911117, 36.027613], [103.911169, 36.028152], [103.911117, 36.028592], [103.910626, 36.028947], [103.911239, 36.02957], [103.911257, 36.029797], [103.910941, 36.030081], [103.910626, 36.030336], [103.911064, 36.030833], [103.910205, 36.031272], [103.909433, 36.03123], [103.908118, 36.031485], [103.908925, 36.030592], [103.90917, 36.029315], [103.909328, 36.02767], [103.908346, 36.025855], [103.908311, 36.026379], [103.908609, 36.027727], [103.908539, 36.029301], [103.908136, 36.030464], [103.908153, 36.029741], [103.90803, 36.029159], [103.907767, 36.028408], [103.90796, 36.027869], [103.907189, 36.027543], [103.906259, 36.02655], [103.906417, 36.025458], [103.905593, 36.024692], [103.905803, 36.024167], [103.905172, 36.023628], [103.905312, 36.022706], [103.904733, 36.021983], [103.901858, 36.022337], [103.901542, 36.022933], [103.900805, 36.023429], [103.900227, 36.023486], [103.899683, 36.023614], [103.89942, 36.024706], [103.897824, 36.02533], [103.897614, 36.025756], [103.897105, 36.026011], [103.896982, 36.026309], [103.896719, 36.026422], [103.896439, 36.026734], [103.896088, 36.027004], [103.895527, 36.027514], [103.894668, 36.027344], [103.894247, 36.027372], [103.89465, 36.026062], [103.895271, 36.025695], [103.895985, 36.024113], [103.896071, 36.022631], [103.89557, 36.021787], [103.894526, 36.021671], [103.894411, 36.022215], [103.894798, 36.023256], [103.893911, 36.025269], [103.892966, 36.026079], [103.89032, 36.024459], [103.886472, 36.023129], [103.885184, 36.022851], [103.88293, 36.022915], [103.881479, 36.022955], [103.880793, 36.022666], [103.880292, 36.020815], [103.879262, 36.020479], [103.878976, 36.021301], [103.878862, 36.022631], [103.878761, 36.02299], [103.876884, 36.023397], [103.875357, 36.023594], [103.873835, 36.024403], [103.868978, 36.023206], [103.868398, 36.021684], [103.867188, 36.021159], [103.867245, 36.024023], [103.862581, 36.025014], [103.859599, 36.026266], [103.856667, 36.026314], [103.853067, 36.025892], [103.851054, 36.02676], [103.848616, 36.027311], [103.846703, 36.02772], [103.845521, 36.027128], [103.845824, 36.025736], [103.84514, 36.024163], [103.840606, 36.02656], [103.841744, 36.030247], [103.840087, 36.030992], [103.838026, 36.031473], [103.835724, 36.032365], [103.834551, 36.03214], [103.833074, 36.03236], [103.83233, 36.032336], [103.829624, 36.033606], [103.82802, 36.033324], [103.826661, 36.033416], [103.82636, 36.032722], [103.824543, 36.031508], [103.821921, 36.033296], [103.82131, 36.034514], [103.821256, 36.034622], [103.82036, 36.034971], [103.819086, 36.035468], [103.819027, 36.037566], [103.818606, 36.039348], [103.814636, 36.044728], [103.812809, 36.048009], [103.81135, 36.052381], [103.810614, 36.053679], [103.81137, 36.054327], [103.809855, 36.056521], [103.809361, 36.056332], [103.808428, 36.057809], [103.808156, 36.058466], [103.807713, 36.058824], [103.807374, 36.058765], [103.807103, 36.058627], [103.807061, 36.058141], [103.807516, 36.057763], [103.807513, 36.057569], [103.805654, 36.057929], [103.805626, 36.057599], [103.805133, 36.056623], [103.805074, 36.056287], [103.804671, 36.055765], [103.804443, 36.055348], [103.80436, 36.054889], [103.804395, 36.054277], [103.804459, 36.053926], [103.804476, 36.053691], [103.804642, 36.053407], [103.804647, 36.053167], [103.804645, 36.052957], [103.804629, 36.052833], [103.804561, 36.052796], [103.804373, 36.052786], [103.804271, 36.052879], [103.80407, 36.052983], [103.803982, 36.053097], [103.803741, 36.05313], [103.803633, 36.053069], [103.803556, 36.052933], [103.803569, 36.052588], [103.803633, 36.052329], [103.803808, 36.052078], [103.804028, 36.051911], [103.804215, 36.051872], [103.804296, 36.051844], [103.804451, 36.051666], [103.804655, 36.051358], [103.804779, 36.051137], [103.8048, 36.051063], [103.804881, 36.050781], [103.804966, 36.050255], [103.805009, 36.049858], [103.804859, 36.049628], [103.80465, 36.049489], [103.80429, 36.049385], [103.804226, 36.04925], [103.804189, 36.049116], [103.804164, 36.048805], [103.804119, 36.048473], [103.803943, 36.04821], [103.803795, 36.047985], [103.803683, 36.047847], [103.803748, 36.047618], [103.803916, 36.047393], [103.804124, 36.047117], [103.8043, 36.046795], [103.80421, 36.046642], [103.803554, 36.046288], [103.802688, 36.045224], [103.802642, 36.044688]]]}, "properties": {"display_name": "伏龙坪街道, 城关区, 兰州市, 甘肃省, 中国", "type": "administrative", "osm_type": "relation", "osm_id": 7034376, "class": null, "keyword": "subdistrict"}}, {"type": "Feature", "geometry": {"type": "Polygon", "coordinates": [[[103.776966, 36.077771], [103.782093, 36.075059], [103.786811, 36.072564], [103.793414, 36.069895], [103.798819, 36.066625], [103.801793, 36.065459], [103.805097, 36.064939], [103.806779, 36.064751], [103.809516, 36.064696], [103.81817, 36.065097], [103.819579, 36.065234], [103.825214, 36.065086], [103.825316, 36.066082], [103.82532, 36.066106], [103.825325, 36.066127], [103.825325, 36.066167], [103.825301, 36.066237], [103.825308, 36.066314], [103.825356, 36.066393], [103.825485, 36.066668], [103.825583, 36.066836], [103.825844, 36.067322], [103.826203, 36.067879], [103.82695, 36.068949], [103.827049, 36.069242], [103.827089, 36.069534], [103.827075, 36.069811], [103.826837, 36.070523], [103.826671, 36.071017], [103.826188, 36.07162], [103.824471, 36.073879], [103.823926, 36.074792], [103.823785, 36.075027], [103.823396, 36.075678], [103.823157, 36.075969], [103.823036, 36.076049], [103.822476, 36.076175], [103.821837, 36.076335], [103.820861, 36.076578], [103.820169, 36.076842], [103.819225, 36.077272], [103.818857, 36.077445], [103.81856, 36.077449], [103.818326, 36.077397], [103.817645, 36.07702], [103.817089, 36.077038], [103.815437, 36.078024], [103.815376, 36.078823], [103.815262, 36.07921], [103.814577, 36.079252], [103.813499, 36.081112], [103.813862, 36.081283], [103.813214, 36.082713], [103.812764, 36.082673], [103.812329, 36.083843], [103.811828, 36.085563], [103.811565, 36.086924], [103.81191, 36.087349], [103.812954, 36.088683], [103.814811, 36.089407], [103.814515, 36.091611], [103.814778, 36.094499], [103.81371, 36.097035], [103.812748, 36.098881], [103.814529, 36.101453], [103.810428, 36.105442], [103.811014, 36.108837], [103.80992, 36.109971], [103.808296, 36.110617], [103.807321, 36.112197], [103.806994, 36.114638], [103.805048, 36.115158], [103.803446, 36.115921], [103.803603, 36.116291], [103.805993, 36.116649], [103.804521, 36.117661], [103.803318, 36.117601], [103.802589, 36.118346], [103.803297, 36.120582], [103.803951, 36.121847], [103.804488, 36.123061], [103.804209, 36.124742], [103.805132, 36.125643], [103.805089, 36.126267], [103.803629, 36.127723], [103.803415, 36.128399], [103.804531, 36.129161], [103.804488, 36.129542], [103.802192, 36.13079], [103.800454, 36.133754], [103.800668, 36.13748], [103.802449, 36.138312], [103.802621, 36.139247], [103.801849, 36.141205], [103.80069, 36.142384], [103.800547, 36.144031], [103.801019, 36.144793], [103.802436, 36.146006], [103.802318, 36.14624], [103.799925, 36.146613], [103.799442, 36.146968], [103.798648, 36.148241], [103.798198, 36.147609], [103.797661, 36.146197], [103.796492, 36.14494], [103.79484, 36.144447], [103.79322, 36.145313], [103.790741, 36.145634], [103.786707, 36.146361], [103.78587, 36.145729], [103.785559, 36.144369], [103.786021, 36.143277], [103.787716, 36.141665], [103.790484, 36.140175], [103.791106, 36.139517], [103.791685, 36.137922], [103.791986, 36.136363], [103.791557, 36.135375], [103.791771, 36.134318], [103.791364, 36.133122], [103.791648, 36.132139], [103.791487, 36.131246], [103.791669, 36.129964], [103.79095, 36.128594], [103.790908, 36.127659], [103.791466, 36.126229], [103.791401, 36.125267], [103.791326, 36.123707], [103.791283, 36.123499], [103.79095, 36.123499], [103.790296, 36.123802], [103.789009, 36.124201], [103.788537, 36.124036], [103.787914, 36.123655], [103.78668, 36.122485], [103.785983, 36.12128], [103.783902, 36.119322], [103.783118, 36.119027], [103.781745, 36.119556], [103.780621, 36.119783], [103.779763, 36.118604], [103.778765, 36.116438], [103.778111, 36.11408], [103.77751, 36.11239], [103.777145, 36.111593], [103.778089, 36.110596], [103.77825, 36.109278], [103.778637, 36.108507], [103.779098, 36.108195], [103.779785, 36.106453], [103.781802, 36.105179], [103.782059, 36.104702], [103.782048, 36.10393], [103.782477, 36.10276], [103.782907, 36.10224], [103.784012, 36.101668], [103.784666, 36.100688], [103.784709, 36.100038], [103.78517, 36.099336], [103.785364, 36.098079], [103.7862, 36.096649], [103.786222, 36.095487], [103.785449, 36.09384], [103.78517, 36.092687], [103.785417, 36.092071], [103.785718, 36.091594], [103.784516, 36.090649], [103.783411, 36.090268], [103.78325, 36.090016], [103.783164, 36.088655], [103.783561, 36.087311], [103.783057, 36.085742], [103.781662, 36.083227], [103.781201, 36.080878], [103.780857, 36.080357], [103.779345, 36.079326], [103.776966, 36.077771]]]}, "properties": {"display_name": "靖远路街道, 兰州市, 城关区, 甘肃省, 730047, 中国", "type": "administrative", "osm_type": "relation", "osm_id": 7034359, "class": null, "keyword": "subdistrict"}}, {"type": "Feature", "geometry": {"type": "Polygon", "coordinates": [[[103.803446, 36.115921], [103.805048, 36.115158], [103.806994, 36.114638], [103.807321, 36.112197], [103.808296, 36.110617], [103.80992, 36.109971], [103.811014, 36.108837], [103.810428, 36.105442], [103.814529, 36.101453], [103.812748, 36.098881], [103.81371, 36.097035], [103.814778, 36.094499], [103.814515, 36.091611], [103.814811, 36.089407], [103.812954, 36.088683], [103.81191, 36.087349], [103.811565, 36.086924], [103.811828, 36.085563], [103.812329, 36.083843], [103.812764, 36.082673], [103.813214, 36.082713], [103.813862, 36.081283], [103.813499, 36.081112], [103.814577, 36.079252], [103.815262, 36.07921], [103.815376, 36.078823], [103.815437, 36.078024], [103.817089, 36.077038], [103.817645, 36.07702], [103.818326, 36.077397], [103.81856, 36.077449], [103.818857, 36.077445], [103.819225, 36.077272], [103.820169, 36.076842], [103.820861, 36.076578], [103.821837, 36.076335], [103.822476, 36.076175], [103.823036, 36.076049], [103.823157, 36.075969], [103.823396, 36.075678], [103.823785, 36.075027], [103.823926, 36.074792], [103.824471, 36.073879], [103.826188, 36.07162], [103.826671, 36.071017], [103.826837, 36.070523], [103.827075, 36.069811], [103.827089, 36.069534], [103.827049, 36.069242], [103.82695, 36.068949], [103.826203, 36.067879], [103.825844, 36.067322], [103.825583, 36.066836], [103.825485, 36.066668], [103.825356, 36.066393], [103.825308, 36.066314], [103.825301, 36.066237], [103.825325, 36.066167], [103.825325, 36.066127], [103.82532, 36.066106], [103.825316, 36.066082], [103.825214, 36.065086], [103.830027, 36.065009], [103.837752, 36.064887], [103.837978, 36.065725], [103.837592, 36.075421], [103.837271, 36.075395], [103.837184, 36.07713], [103.837988, 36.079324], [103.83889, 36.080641], [103.840134, 36.081595], [103.841336, 36.082428], [103.841886, 36.083053], [103.841851, 36.083329], [103.84125, 36.084647], [103.840756, 36.085419], [103.840156, 36.08574], [103.838632, 36.086269], [103.837398, 36.086286], [103.836046, 36.08665], [103.835156, 36.087205], [103.835027, 36.087829], [103.835156, 36.0888], [103.835349, 36.089806], [103.834298, 36.094245], [103.83404, 36.095042], [103.833547, 36.095389], [103.832629, 36.095879], [103.832345, 36.096343], [103.832281, 36.097453], [103.832216, 36.097799], [103.832023, 36.098198], [103.830259, 36.099588], [103.828094, 36.101441], [103.827254, 36.102272], [103.826901, 36.102813], [103.826751, 36.103818], [103.826558, 36.105933], [103.825163, 36.109106], [103.822676, 36.111602], [103.822992, 36.115251], [103.82263, 36.120391], [103.822223, 36.119577], [103.821729, 36.119213], [103.82027, 36.120235], [103.818682, 36.122194], [103.817523, 36.122385], [103.815571, 36.121223], [103.81055, 36.119299], [103.80643, 36.117756], [103.804521, 36.117661], [103.805993, 36.116649], [103.803603, 36.116291], [103.803446, 36.115921]]]}, "properties": {"display_name": "草场街街道, 兰州市, 城关区, 甘肃省, 中国", "type": "administrative", "osm_type": "relation", "osm_id": 7034358, "class": null, "keyword": "subdistrict"}}, {"type": "Feature", "geometry": {"type": "MultiPolygon", "coordinates": [[[[103.893668, 36.027954], [103.893756, 36.027571], [103.894247, 36.027372], [103.894668, 36.027344], [103.895527, 36.027514], [103.896088, 36.027004], [103.896439, 36.026734], [103.896719, 36.026422], [103.896982, 36.026309], [103.897105, 36.026011], [103.897614, 36.025756], [103.897824, 36.02533], [103.89942, 36.024706], [103.899683, 36.023614], [103.900227, 36.023486], [103.900805, 36.023429], [103.901542, 36.022933], [103.901858, 36.022337], [103.904733, 36.021983], [103.905312, 36.022706], [103.905172, 36.023628], [103.905803, 36.024167], [103.905593, 36.024692], [103.906417, 36.025458], [103.906259, 36.02655], [103.907189, 36.027543], [103.90796, 36.027869], [103.907767, 36.028408], [103.90803, 36.029159], [103.908153, 36.029741], [103.908136, 36.030464], [103.908539, 36.029301], [103.908609, 36.027727], [103.908311, 36.026379], [103.908346, 36.025855], [103.909328, 36.02767], [103.90917, 36.029315], [103.908925, 36.030592], [103.908118, 36.031485], [103.909433, 36.03123], [103.910205, 36.031272], [103.911064, 36.030833], [103.910626, 36.030336], [103.910941, 36.030081], [103.911257, 36.029797], [103.911239, 36.02957], [103.910626, 36.028947], [103.911117, 36.028592], [103.911169, 36.028152], [103.911117, 36.027613], [103.911537, 36.027245], [103.911643, 36.026606], [103.91152, 36.026025], [103.912151, 36.025841], [103.91252, 36.026706], [103.912292, 36.027968], [103.91259, 36.028323], [103.913116, 36.028535], [103.914326, 36.027372], [103.913922, 36.026805], [103.914168, 36.026266], [103.915571, 36.025784], [103.916132, 36.026195], [103.916859, 36.025563], [103.917221, 36.025696], [103.918186, 36.026417], [103.921126, 36.027197], [103.922038, 36.028386], [103.923551, 36.029072], [103.92384, 36.029679], [103.924752, 36.030468], [103.92634, 36.031154], [103.928078, 36.032395], [103.930042, 36.033418], [103.931748, 36.03472], [103.934312, 36.036012], [103.936447, 36.036498], [103.938153, 36.037071], [103.938721, 36.036915], [103.939344, 36.036403], [103.94002, 36.035345], [103.941157, 36.034598], [103.941522, 36.034477], [103.942176, 36.035145], [103.942294, 36.03557], [103.942101, 36.037461], [103.942251, 36.038589], [103.94208, 36.040047], [103.942198, 36.041652], [103.94047, 36.04441], [103.940202, 36.045052], [103.939902, 36.045382], [103.939816, 36.045764], [103.939977, 36.046431], [103.939859, 36.047533], [103.939129, 36.048323], [103.93841, 36.048956], [103.938013, 36.049433], [103.936543, 36.04952], [103.935535, 36.049468], [103.934205, 36.049841], [103.933153, 36.05063], [103.931555, 36.052096], [103.931415, 36.052694], [103.931522, 36.052937], [103.932209, 36.05357], [103.928233, 36.054706], [103.926121, 36.054402], [103.925686, 36.054274], [103.924273, 36.053886], [103.920308, 36.052727], [103.920244, 36.052711], [103.920136, 36.052674], [103.920077, 36.052657], [103.919674, 36.052536], [103.917247, 36.051876], [103.915747, 36.051653], [103.914211, 36.051524], [103.913547, 36.051475], [103.911168, 36.05126], [103.90936, 36.051099], [103.908712, 36.050987], [103.906372, 36.050423], [103.905865, 36.050222], [103.90539, 36.049998], [103.904641, 36.049417], [103.901538, 36.047055], [103.903081, 36.042323], [103.902696, 36.039273], [103.902244, 36.038523], [103.898206, 36.032398], [103.897158, 36.030932], [103.896667, 36.030521], [103.894001, 36.028436], [103.893668, 36.027954]]], [[[103.941301, 36.023664], [103.941311, 36.02343], [103.94174, 36.023365], [103.942722, 36.023052], [103.943855, 36.022832], [103.943768, 36.021981], [103.943945, 36.021846], [103.945382, 36.021849], [103.945548, 36.021888], [103.945496, 36.022371], [103.947539, 36.027929], [103.944863, 36.028046], [103.944868, 36.028298], [103.943162, 36.028523], [103.942846, 36.028245], [103.942867, 36.027955], [103.942572, 36.027603], [103.942744, 36.027078], [103.942561, 36.026866], [103.942626, 36.026471], [103.942314, 36.026198], [103.94232, 36.025248], [103.94203, 36.025052], [103.941826, 36.02454], [103.941837, 36.024193], [103.941301, 36.023664]]]]}, "properties": {"display_name": "东岗街道, 骆驼滩村, 城关区, 兰州市, 甘肃省, 中国", "type": "administrative", "osm_type": "relation", "osm_id": 7034367, "class": null, "keyword": "subdistrict"}}, {"type": "Feature", "geometry": {"type": "Polygon", "coordinates": [[[103.878595, 36.060359], [103.8836, 36.059161], [103.907734, 36.05349], [103.908176, 36.052453], [103.90921, 36.052579], [103.909739, 36.051683], [103.916713, 36.052312], [103.920518, 36.053384], [103.920132, 36.054024], [103.922068, 36.054462], [103.922398, 36.055428], [103.922081, 36.055675], [103.923814, 36.058153], [103.916659, 36.06308], [103.912797, 36.065612], [103.905158, 36.06915], [103.886103, 36.074839], [103.884224, 36.075989], [103.878595, 36.060359]]]}, "properties": {"display_name": "雁园街道, 兰州市, 城关区, 甘肃省, 中国", "type": "administrative", "osm_type": "relation", "osm_id": 17205650, "class": null, "keyword": "subdistrict"}}, {"type": "Feature", "geometry": {"type": "Polygon", "coordinates": [[[103.845437, 36.062987], [103.845973, 36.062716], [103.847607, 36.061924], [103.847978, 36.06179], [103.848373, 36.061754], [103.848807, 36.061796], [103.849322, 36.061846], [103.850161, 36.061532], [103.850329, 36.061417], [103.850544, 36.061135], [103.850725, 36.061017], [103.851536, 36.060768], [103.852735, 36.060593], [103.853513, 36.060452], [103.853841, 36.060216], [103.854581, 36.060017], [103.855689, 36.059886], [103.856115, 36.05969], [103.856509, 36.059323], [103.857002, 36.059181], [103.857274, 36.059113], [103.857109, 36.058636], [103.85807, 36.058397], [103.85818, 36.058678], [103.859136, 36.058461], [103.859184, 36.058611], [103.860882, 36.058229], [103.862667, 36.05758], [103.865288, 36.056518], [103.866064, 36.056165], [103.868234, 36.054674], [103.869185, 36.05402], [103.871647, 36.052389], [103.872398, 36.051956], [103.872587, 36.051886], [103.873307, 36.051619], [103.874544, 36.051184], [103.875003, 36.051059], [103.875405, 36.051003], [103.875831, 36.050993], [103.877079, 36.051023], [103.880825, 36.051206], [103.88574, 36.051447], [103.886227, 36.051364], [103.887234, 36.054024], [103.882169, 36.055216], [103.8836, 36.059161], [103.878595, 36.060359], [103.863486, 36.063976], [103.863143, 36.063518], [103.862371, 36.062974], [103.861406, 36.062667], [103.85993, 36.062657], [103.858559, 36.062782], [103.862381, 36.073813], [103.858147, 36.074779], [103.857069, 36.072753], [103.855218, 36.070056], [103.85276, 36.06802], [103.84839, 36.066106], [103.845842, 36.06544], [103.845917, 36.063042], [103.845437, 36.062987]]]}, "properties": {"display_name": "雁南街道, 兰州市, 城关区, 兰州市, 甘肃省, 730010, 中国", "type": "administrative", "osm_type": "relation", "osm_id": 17205648, "class": null, "keyword": "subdistrict"}}, {"type": "Feature", "geometry": {"type": "Polygon", "coordinates": [[[103.876884, 36.023397], [103.878761, 36.02299], [103.878862, 36.022631], [103.878976, 36.021301], [103.879262, 36.020479], [103.880292, 36.020815], [103.880793, 36.022666], [103.881479, 36.022955], [103.88293, 36.022915], [103.885184, 36.022851], [103.886472, 36.023129], [103.89032, 36.024459], [103.892966, 36.026079], [103.893911, 36.025269], [103.894798, 36.023256], [103.894411, 36.022215], [103.894526, 36.021671], [103.89557, 36.021787], [103.896071, 36.022631], [103.895985, 36.024113], [103.895271, 36.025695], [103.89465, 36.026062], [103.894247, 36.027372], [103.893756, 36.027571], [103.893668, 36.027954], [103.894001, 36.028436], [103.896667, 36.030521], [103.897158, 36.030932], [103.898206, 36.032398], [103.902244, 36.038523], [103.892759, 36.03946], [103.890206, 36.039929], [103.881024, 36.041946], [103.879355, 36.03721], [103.878127, 36.033627], [103.883498, 36.032334], [103.882815, 36.03036], [103.882817, 36.029483], [103.88287, 36.028656], [103.877047, 36.027581], [103.877145, 36.026777], [103.87694, 36.026764], [103.876884, 36.023397]]]}, "properties": {"display_name": "焦家湾街道, 骆驼滩村, 城关区, 兰州市, 甘肃省, 中国", "type": "administrative", "osm_type": "relation", "osm_id": 7034362, "class": null, "keyword": "subdistrict"}}, {"type": "Feature", "geometry": {"type": "Polygon", "coordinates": [[[103.867477, 36.051561], [103.867878, 36.050575], [103.868154, 36.050387], [103.870004, 36.050244], [103.868967, 36.046822], [103.870918, 36.046361], [103.871741, 36.045991], [103.8764, 36.043212], [103.877171, 36.042921], [103.881024, 36.041946], [103.890206, 36.039929], [103.892759, 36.03946], [103.902244, 36.038523], [103.902696, 36.039273], [103.903081, 36.042323], [103.901538, 36.047055], [103.900783, 36.046498], [103.900466, 36.046317], [103.900135, 36.046213], [103.899754, 36.046147], [103.899424, 36.046141], [103.896405, 36.04639], [103.895847, 36.046462], [103.894532, 36.046607], [103.893978, 36.046665], [103.893502, 36.046763], [103.892947, 36.046993], [103.892442, 36.047344], [103.89171, 36.048156], [103.891117, 36.048837], [103.89, 36.050061], [103.889322, 36.050573], [103.888359, 36.050895], [103.886721, 36.051279], [103.886227, 36.051364], [103.88574, 36.051447], [103.880825, 36.051206], [103.877079, 36.051023], [103.875831, 36.050993], [103.875405, 36.051003], [103.875003, 36.051059], [103.874544, 36.051184], [103.873307, 36.051619], [103.872587, 36.051886], [103.872398, 36.051956], [103.871647, 36.052389], [103.869185, 36.05402], [103.868234, 36.054674], [103.867479, 36.053777], [103.868568, 36.052732], [103.868316, 36.052398], [103.867691, 36.052328], [103.867525, 36.052109], [103.867477, 36.051561]]]}, "properties": {"display_name": "拱星墩街道, 兰州市, 城关区, 甘肃省, 中国", "type": "administrative", "osm_type": "relation", "osm_id": 7034368, "class": null, "keyword": "subdistrict"}}, {"type": "Feature", "geometry": {"type": "Polygon", "coordinates": [[[103.838026, 36.031473], [103.840087, 36.030992], [103.841744, 36.030247], [103.840606, 36.02656], [103.84514, 36.024163], [103.845824, 36.025736], [103.845521, 36.027128], [103.846703, 36.02772], [103.848616, 36.027311], [103.851054, 36.02676], [103.853067, 36.025892], [103.856667, 36.026314], [103.859599, 36.026266], [103.862581, 36.025014], [103.867245, 36.024023], [103.867188, 36.021159], [103.868398, 36.021684], [103.868978, 36.023206], [103.873835, 36.024403], [103.875357, 36.023594], [103.876884, 36.023397], [103.87694, 36.026764], [103.877145, 36.026777], [103.877047, 36.027581], [103.871756, 36.028521], [103.865633, 36.030863], [103.863296, 36.031053], [103.858496, 36.03215], [103.85871, 36.032627], [103.861024, 36.0339], [103.848267, 36.03697], [103.847869, 36.035803], [103.846631, 36.036042], [103.846416, 36.035536], [103.845914, 36.035658], [103.845696, 36.035541], [103.845245, 36.035605], [103.844504, 36.03571], [103.844451, 36.035554], [103.843902, 36.035624], [103.843182, 36.035691], [103.842395, 36.035774], [103.841381, 36.035909], [103.840695, 36.03607], [103.840138, 36.036211], [103.84004, 36.035947], [103.838894, 36.033054], [103.838026, 36.031473]]]}, "properties": {"display_name": "火车站街道, 兰州市, 城关区, 甘肃省, 中国", "type": "administrative", "osm_type": "relation", "osm_id": 7034354, "class": null, "keyword": "subdistrict"}}, {"type": "Feature", "geometry": {"type": "Polygon", "coordinates": [[[103.858496, 36.03215], [103.863296, 36.031053], [103.865633, 36.030863], [103.871756, 36.028521], [103.877047, 36.027581], [103.88287, 36.028656], [103.882817, 36.029483], [103.882815, 36.03036], [103.883498, 36.032334], [103.878127, 36.033627], [103.879355, 36.03721], [103.881024, 36.041946], [103.877171, 36.042921], [103.8764, 36.043212], [103.871741, 36.045991], [103.870918, 36.046361], [103.868967, 36.046822], [103.866919, 36.040068], [103.865944, 36.036851], [103.865383, 36.036312], [103.861024, 36.0339], [103.85871, 36.032627], [103.858496, 36.03215]]]}, "properties": {"display_name": "嘉峪关路街道, 兰州市, 城关区, 甘肃省, 中国", "type": "administrative", "osm_type": "relation", "osm_id": 7034356, "class": null, "keyword": "subdistrict"}}, {"type": "Feature", "geometry": {"type": "Polygon", "coordinates": [[[103.851707, 36.043606], [103.866919, 36.040068], [103.868967, 36.046822], [103.870004, 36.050244], [103.868154, 36.050387], [103.867878, 36.050575], [103.867477, 36.051561], [103.867525, 36.052109], [103.867691, 36.052328], [103.868316, 36.052398], [103.868568, 36.052732], [103.867479, 36.053777], [103.868234, 36.054674], [103.866064, 36.056165], [103.865288, 36.056518], [103.862667, 36.05758], [103.860882, 36.058229], [103.859184, 36.058611], [103.859136, 36.058461], [103.85818, 36.058678], [103.85807, 36.058397], [103.857109, 36.058636], [103.855633, 36.054363], [103.851707, 36.043606]]]}, "properties": {"display_name": "渭源路街道, 兰州市, 城关区, 甘肃省, 中国", "type": "administrative", "osm_type": "relation", "osm_id": 7034363, "class": null, "keyword": "subdistrict"}}, {"type": "Feature", "geometry": {"type": "Polygon", "coordinates": [[[103.882169, 36.055216], [103.887234, 36.054024], [103.886227, 36.051364], [103.886721, 36.051279], [103.888359, 36.050895], [103.889322, 36.050573], [103.89, 36.050061], [103.891117, 36.048837], [103.89171, 36.048156], [103.892442, 36.047344], [103.892947, 36.046993], [103.893502, 36.046763], [103.893978, 36.046665], [103.894532, 36.046607], [103.895847, 36.046462], [103.896405, 36.04639], [103.899424, 36.046141], [103.899754, 36.046147], [103.900135, 36.046213], [103.900466, 36.046317], [103.900783, 36.046498], [103.901538, 36.047055], [103.904641, 36.049417], [103.90539, 36.049998], [103.905865, 36.050222], [103.906372, 36.050423], [103.908712, 36.050987], [103.90936, 36.051099], [103.911168, 36.05126], [103.913547, 36.051475], [103.914211, 36.051524], [103.915747, 36.051653], [103.917247, 36.051876], [103.919674, 36.052536], [103.920077, 36.052657], [103.920136, 36.052674], [103.920244, 36.052711], [103.920308, 36.052727], [103.924273, 36.053886], [103.925686, 36.054274], [103.926121, 36.054402], [103.928233, 36.054706], [103.925629, 36.056904], [103.923814, 36.058153], [103.922081, 36.055675], [103.922398, 36.055428], [103.922068, 36.054462], [103.920132, 36.054024], [103.920518, 36.053384], [103.916713, 36.052312], [103.909739, 36.051683], [103.90921, 36.052579], [103.908176, 36.052453], [103.907734, 36.05349], [103.8836, 36.059161], [103.882169, 36.055216]]]}, "properties": {"display_name": "高新区街道, 兰州市, 城关区, 兰州市, 甘肃省, 730020, 中国", "type": "administrative", "osm_type": "relation", "osm_id": 17205649, "class": null, "keyword": "subdistrict"}}, {"type": "Feature", "geometry": {"type": "Polygon", "coordinates": [[[103.84283, 36.052638], [103.843177, 36.051619], [103.845858, 36.043765], [103.847849, 36.04423], [103.848445, 36.044301], [103.848936, 36.04423], [103.851707, 36.043606], [103.855633, 36.054363], [103.857109, 36.058636], [103.857274, 36.059113], [103.857002, 36.059181], [103.856509, 36.059323], [103.856115, 36.05969], [103.855689, 36.059886], [103.854581, 36.060017], [103.853841, 36.060216], [103.853513, 36.060452], [103.852735, 36.060593], [103.851536, 36.060768], [103.850725, 36.061017], [103.850544, 36.061135], [103.850329, 36.061417], [103.850161, 36.061532], [103.849322, 36.061846], [103.848807, 36.061796], [103.848373, 36.061754], [103.847978, 36.06179], [103.847607, 36.061924], [103.845973, 36.062716], [103.845437, 36.062987], [103.84403, 36.06282], [103.843651, 36.062141], [103.845992, 36.061468], [103.842881, 36.053159], [103.84283, 36.052638]]]}, "properties": {"display_name": "东岗西路街道, 兰州市, 城关区, 兰州市, 甘肃省, 730001, 中国", "type": "administrative", "osm_type": "relation", "osm_id": 7034366, "class": null, "keyword": "subdistrict"}}, {"type": "Feature", "geometry": {"type": "Polygon", "coordinates": [[[103.8295, 36.054807], [103.832056, 36.054982], [103.836135, 36.054355], [103.836551, 36.054234], [103.837967, 36.053852], [103.840306, 36.053523], [103.842881, 36.053159], [103.845992, 36.061468], [103.843651, 36.062141], [103.84403, 36.06282], [103.845437, 36.062987], [103.845917, 36.063042], [103.845842, 36.06544], [103.845295, 36.065297], [103.84308, 36.065159], [103.837752, 36.064887], [103.830027, 36.065009], [103.829973, 36.063129], [103.829522, 36.062063], [103.829513, 36.059508], [103.8295, 36.054807]]]}, "properties": {"display_name": "广武门街道, 兰州市, 城关区, 甘肃省, 中国", "type": "administrative", "osm_type": "relation", "osm_id": 7034371, "class": null, "keyword": "subdistrict"}}, {"type": "Feature", "geometry": {"type": "Polygon", "coordinates": [[[103.818606, 36.039348], [103.819027, 36.037566], [103.819086, 36.035468], [103.82036, 36.034971], [103.821256, 36.034622], [103.82131, 36.034514], [103.821921, 36.033296], [103.824543, 36.031508], [103.82636, 36.032722], [103.826661, 36.033416], [103.82802, 36.033324], [103.829624, 36.033606], [103.83233, 36.032336], [103.833074, 36.03236], [103.831801, 36.033303], [103.832106, 36.033926], [103.831423, 36.034167], [103.832429, 36.035282], [103.832263, 36.036349], [103.831958, 36.037106], [103.829485, 36.038083], [103.829601, 36.038386], [103.827242, 36.038946], [103.825303, 36.039488], [103.8254, 36.039655], [103.826734, 36.039599], [103.827311, 36.040299], [103.82788, 36.040058], [103.828771, 36.040845], [103.83033, 36.040648], [103.830547, 36.041897], [103.831284, 36.042418], [103.83139, 36.042679], [103.831915, 36.042752], [103.832598, 36.04298], [103.832811, 36.044365], [103.829442, 36.04525], [103.827422, 36.045628], [103.823726, 36.04634], [103.822309, 36.046764], [103.821399, 36.045354], [103.819715, 36.04355], [103.820649, 36.042419], [103.821466, 36.041776], [103.818606, 36.039348]]]}, "properties": {"display_name": "五泉街道, 城关区, 兰州市, 甘肃省, 中国", "type": "administrative", "osm_type": "relation", "osm_id": 7034370, "class": null, "keyword": "subdistrict"}}, {"type": "Feature", "geometry": {"type": "Polygon", "coordinates": [[[103.845858, 36.043765], [103.848267, 36.03697], [103.861024, 36.0339], [103.865383, 36.036312], [103.865944, 36.036851], [103.866919, 36.040068], [103.851707, 36.043606], [103.848936, 36.04423], [103.848445, 36.044301], [103.847849, 36.04423], [103.845858, 36.043765]]]}, "properties": {"display_name": "团结新村街道, 兰州市, 城关区, 甘肃省, 中国", "type": "administrative", "osm_type": "relation", "osm_id": 7034369, "class": null, "keyword": "subdistrict"}}, {"type": "Feature", "geometry": {"type": "Polygon", "coordinates": [[[103.810614, 36.053679], [103.81135, 36.052381], [103.812809, 36.048009], [103.814636, 36.044728], [103.818606, 36.039348], [103.821466, 36.041776], [103.820649, 36.042419], [103.819715, 36.04355], [103.821399, 36.045354], [103.822309, 36.046764], [103.823726, 36.04634], [103.823643, 36.054735], [103.817654, 36.055109], [103.814685, 36.055316], [103.812611, 36.053372], [103.81137, 36.054327], [103.810614, 36.053679]]]}, "properties": {"display_name": "白银路街道, 城关区, 甘肃省, 中国", "type": "administrative", "osm_type": "relation", "osm_id": 7034372, "class": null, "keyword": "subdistrict"}}, {"type": "Feature", "geometry": {"type": "Polygon", "coordinates": [[[103.817654, 36.055109], [103.823643, 36.054735], [103.8295, 36.054807], [103.829513, 36.059508], [103.829522, 36.062063], [103.829973, 36.063129], [103.830027, 36.065009], [103.825214, 36.065086], [103.819579, 36.065234], [103.81817, 36.065097], [103.817873, 36.059288], [103.817654, 36.055109]]]}, "properties": {"display_name": "张掖路街道, 城关区, 甘肃省, 730030, 中国", "type": "administrative", "osm_type": "relation", "osm_id": 7034374, "class": null, "keyword": "subdistrict"}}, {"type": "Feature", "geometry": {"type": "Polygon", "coordinates": [[[103.829442, 36.04525], [103.832811, 36.044365], [103.836738, 36.043827], [103.842532, 36.043089], [103.845858, 36.043765], [103.843177, 36.051619], [103.84283, 36.052638], [103.842881, 36.053159], [103.840306, 36.053523], [103.837967, 36.053852], [103.836551, 36.054234], [103.829442, 36.04525]]]}, "properties": {"display_name": "皋兰路街道, 兰州市, 城关区, 甘肃省, 730000, 中国", "type": "administrative", "osm_type": "relation", "osm_id": 7034360, "class": null, "keyword": "subdistrict"}}, {"type": "Feature", "geometry": {"type": "Polygon", "coordinates": [[[103.804644, 36.060038], [103.804679, 36.059839], [103.804982, 36.059512], [103.805385, 36.058996], [103.805535, 36.058796], [103.805632, 36.058579], [103.805664, 36.05828], [103.805669, 36.058102], [103.805654, 36.057929], [103.807513, 36.057569], [103.807516, 36.057763], [103.807061, 36.058141], [103.807103, 36.058627], [103.807374, 36.058765], [103.807713, 36.058824], [103.808156, 36.058466], [103.808428, 36.057809], [103.809361, 36.056332], [103.809855, 36.056521], [103.81137, 36.054327], [103.812611, 36.053372], [103.814685, 36.055316], [103.817654, 36.055109], [103.817873, 36.059288], [103.81817, 36.065097], [103.809516, 36.064696], [103.806779, 36.064751], [103.806664, 36.063711], [103.805591, 36.061902], [103.805111, 36.061123], [103.804712, 36.060409], [103.804661, 36.060266], [103.804644, 36.060038]]]}, "properties": {"display_name": "临夏路街道, 城关区, 甘肃省, 中国", "type": "administrative", "osm_type": "relation", "osm_id": 7034373, "class": null, "keyword": "subdistrict"}}, {"type": "Feature", "geometry": {"type": "Polygon", "coordinates": [[[103.823643, 36.054735], [103.823726, 36.04634], [103.827422, 36.045628], [103.829442, 36.04525], [103.836551, 36.054234], [103.836135, 36.054355], [103.832056, 36.054982], [103.8295, 36.054807], [103.823643, 36.054735]]]}, "properties": {"display_name": "酒泉路街道, 城关区, 甘肃省, 中国", "type": "administrative", "osm_type": "relation", "osm_id": 7034375, "class": null, "keyword": "subdistrict"}}, {"type": "Feature", "geometry": {"type": "Polygon", "coordinates": [[[103.825303, 36.039488], [103.827242, 36.038946], [103.829601, 36.038386], [103.829485, 36.038083], [103.831958, 36.037106], [103.832263, 36.036349], [103.832429, 36.035282], [103.831423, 36.034167], [103.832106, 36.033926], [103.831801, 36.033303], [103.833074, 36.03236], [103.834551, 36.03214], [103.835724, 36.032365], [103.838026, 36.031473], [103.838894, 36.033054], [103.84004, 36.035947], [103.836556, 36.036769], [103.836857, 36.038827], [103.837052, 36.040017], [103.8381, 36.039907], [103.838428, 36.041364], [103.836367, 36.041603], [103.836738, 36.043827], [103.832811, 36.044365], [103.832598, 36.04298], [103.831915, 36.042752], [103.83139, 36.042679], [103.831284, 36.042418], [103.830547, 36.041897], [103.83033, 36.040648], [103.828771, 36.040845], [103.82788, 36.040058], [103.827311, 36.040299], [103.826734, 36.039599], [103.8254, 36.039655], [103.825303, 36.039488]]]}, "properties": {"display_name": "铁路西村街道, 城关区, 甘肃省, 中国", "type": "administrative", "osm_type": "relation", "osm_id": 7034365, "class": null, "keyword": "subdistrict"}}, {"type": "Feature", "geometry": {"type": "Polygon", "coordinates": [[[103.836367, 36.041603], [103.838428, 36.041364], [103.8381, 36.039907], [103.837052, 36.040017], [103.836857, 36.038827], [103.836556, 36.036769], [103.84004, 36.035947], [103.840138, 36.036211], [103.840695, 36.03607], [103.841381, 36.035909], [103.842395, 36.035774], [103.843182, 36.035691], [103.843902, 36.035624], [103.844451, 36.035554], [103.844504, 36.03571], [103.845245, 36.035605], [103.845696, 36.035541], [103.845914, 36.035658], [103.846416, 36.035536], [103.846631, 36.036042], [103.847869, 36.035803], [103.848267, 36.03697], [103.845858, 36.043765], [103.842532, 36.043089], [103.836738, 36.043827], [103.836367, 36.041603]]]}, "properties": {"display_name": "铁路东村街道, 兰州市, 城关区, 甘肃省, 中国", "type": "administrative", "osm_type": "relation", "osm_id": 7034364, "class": null, "keyword": "subdistrict"}}, {"type": "Feature", "geometry": {"type": "Polygon", "coordinates": [[[103.730148, 36.521639], [103.730185, 36.518716], [103.732846, 36.518729], [103.732856, 36.521962], [103.731397, 36.521768], [103.730148, 36.521639]]]}, "properties": {"display_name": "兰州新区贺阳高级中学, 崆峒山路, 西岔镇, 兰州新区, 皋兰县, 甘肃省, 中国", "type": "school", "osm_type": "way", "osm_id": 1363813351, "class": null, "keyword": "中央区"}}, {"type": "Feature", "geometry": {"type": "Polygon", "coordinates": [[[103.824035, 36.057263], [103.824153, 36.057164], [103.826799, 36.057094], [103.826837, 36.058055], [103.827048, 36.05805], [103.827101, 36.058699], [103.82683, 36.05871], [103.826812, 36.058554], [103.826112, 36.058575], [103.826039, 36.058519], [103.82565, 36.058523], [103.825538, 36.058395], [103.824859, 36.058465], [103.824724, 36.058465], [103.824693, 36.05917], [103.824113, 36.059188], [103.824076, 36.058485], [103.82466, 36.058454], [103.824644, 36.058139], [103.824087, 36.058139], [103.824035, 36.057263]]]}, "properties": {"display_name": "兰州中央商务区, 张掖路街道, 城关区, 兰州市, 甘肃省, 中国", "type": "construction", "osm_type": "way", "osm_id": 416861015, "class": null, "keyword": "central business district"}}, {"type": "Feature", "geometry": {"type": "Polygon", "coordinates": [[[103.841698, 36.057809], [103.84177, 36.057726], [103.842054, 36.057692], [103.842084, 36.057859], [103.841853, 36.057886], [103.841887, 36.05807], [103.841749, 36.058086], [103.841698, 36.057809]]]}, "properties": {"display_name": "甘肃省老干部活动中心, 南昌路, 广武门街道, 兰州市, 城关区, 兰州市, 甘肃省, 730000, 中国", "type": "community_centre", "osm_type": "way", "osm_id": 416669989, "class": null, "keyword": "老城区"}}, {"type": "Feature", "geometry": {"type": "Polygon", "coordinates": [[[103.811908, 36.072213], [103.811947, 36.072144], [103.812022, 36.07215], [103.812064, 36.072139], [103.812082, 36.072104], [103.812117, 36.072081], [103.81217, 36.072064], [103.812184, 36.072021], [103.812138, 36.071956], [103.812252, 36.071918], [103.812276, 36.071941], [103.812301, 36.072038], [103.812287, 36.072124], [103.81222, 36.072182], [103.812142, 36.072207], [103.812022, 36.072236], [103.811908, 36.072213]]]}, "properties": {"display_name": "养老院, 白塔山隧道, 金城关, 靖远路街道, 城关区, 兰州市, 甘肃省, 730047, 中国", "type": "yes", "osm_type": "way", "osm_id": 533950590, "class": null, "keyword": "老城区"}}]}