{"type": "FeatureCollection", "features": [{"type": "Feature", "geometry": {"type": "Polygon", "coordinates": [[[-1.673874, 53.908356], [-1.673818, 53.90828], [-1.67373, 53.908209], [-1.673184, 53.907563], [-1.673125, 53.907517], [-1.672899, 53.907496], [-1.671442, 53.907606], [-1.671099, 53.907606], [-1.670644, 53.907672], [-1.670509, 53.907694], [-1.669798, 53.90781], [-1.670344, 53.90944], [-1.670381, 53.90952], [-1.670726, 53.909435], [-1.672357, 53.909051], [-1.672805, 53.908939], [-1.673266, 53.908812], [-1.673634, 53.908607], [-1.673597, 53.908505], [-1.673637, 53.908479], [-1.673842, 53.908399], [-1.673874, 53.908356]]]}, "properties": {"display_name": "The Old Showfield / Otley Town A.F.C, Gallows Hill, Leeds, West Yorkshire, England, LS21 1DY, United Kingdom", "type": "recreation_ground", "osm_type": "way", "osm_id": 120521574, "class": null, "keyword": "old town"}}, {"type": "Feature", "geometry": {"type": "Polygon", "coordinates": [[[-1.577128, 53.775118], [-1.577085, 53.774267], [-1.577038, 53.774262], [-1.576994, 53.774258], [-1.576134, 53.774291], [-1.575802, 53.774312], [-1.575687, 53.774292], [-1.573174, 53.774604], [-1.57319, 53.774755], [-1.573353, 53.775069], [-1.573371, 53.775127], [-1.573399, 53.77522], [-1.57357, 53.775657], [-1.573698, 53.775925], [-1.573803, 53.776127], [-1.573889, 53.776105], [-1.573918, 53.776123], [-1.573974, 53.776138], [-1.57406, 53.776126], [-1.575317, 53.775742], [-1.575446, 53.77569], [-1.575409, 53.775649], [-1.575454, 53.775635], [-1.575463, 53.775647], [-1.57575, 53.775557], [-1.575792, 53.775535], [-1.575816, 53.775514], [-1.57583, 53.775496], [-1.575835, 53.775472], [-1.575831, 53.775441], [-1.576175, 53.775343], [-1.576252, 53.77537], [-1.576348, 53.775373], [-1.576468, 53.775355], [-1.576844, 53.775239], [-1.577128, 53.775118]]]}, "properties": {"display_name": "West Yorkshire Police Leeds District Headquarters, Heathcroft Rise, Cottingley, Beeston, Churwell, Leeds, West Yorkshire, England, LS11 8UB, United Kingdom", "type": "police", "osm_type": "way", "osm_id": 182605276, "class": null, "keyword": "district"}}, {"type": "Feature", "geometry": {"type": "Polygon", "coordinates": [[[-1.533655, 53.749025], [-1.533562, 53.748881], [-1.533152, 53.748244], [-1.532153, 53.74846], [-1.53219, 53.74852], [-1.531897, 53.748586], [-1.531852, 53.748524], [-1.531757, 53.748542], [-1.53178, 53.748595], [-1.531743, 53.7486], [-1.531905, 53.748885], [-1.533059, 53.748635], [-1.533163, 53.748811], [-1.533335, 53.749097], [-1.533655, 53.749025]]]}, "properties": {"display_name": "Middleton District Shopping Center, Middleton Park Road, Middleton, Leeds, West Yorkshire, England, LS10 3LT, United Kingdom", "type": "mall", "osm_type": "way", "osm_id": 360525226, "class": null, "keyword": "district"}}, {"type": "Feature", "geometry": {"type": "Polygon", "coordinates": [[[-1.541616, 53.777911], [-1.541612, 53.777891], [-1.541303, 53.777733], [-1.54077, 53.777467], [-1.540744, 53.777468], [-1.540277, 53.777884], [-1.54028, 53.777901], [-1.540802, 53.778148], [-1.541119, 53.778311], [-1.541189, 53.778299], [-1.541616, 53.777911]]]}, "properties": {"display_name": "Leeds City College: Joseph Priestley Centre Beeston, Burton Avenue, Hunslet Carr, Hunslet, Leeds, West Yorkshire, England, LS11 5ER, United Kingdom", "type": "college", "osm_type": "way", "osm_id": 26720897, "class": null, "keyword": "city centre"}}, {"type": "Feature", "geometry": {"type": "Polygon", "coordinates": [[[-1.530671, 53.80923], [-1.530662, 53.808931], [-1.530639, 53.808889], [-1.530605, 53.808868], [-1.530561, 53.808854], [-1.530484, 53.808845], [-1.530398, 53.808844], [-1.53031, 53.808853], [-1.53019, 53.808876], [-1.529688, 53.809021], [-1.530015, 53.809422], [-1.530118, 53.809391], [-1.530647, 53.809239], [-1.530671, 53.80923]]]}, "properties": {"display_name": "Leeds City College: Enfield Centre, Enfield Terrace, New Town, Sheepscar, Leeds, West Yorkshire, England, LS7 1RG, United Kingdom", "type": "school", "osm_type": "way", "osm_id": 421693272, "class": null, "keyword": "city centre"}}, {"type": "Feature", "geometry": {"type": "Polygon", "coordinates": [[[-1.576443, 53.7372], [-1.576242, 53.737084], [-1.576261, 53.737068], [-1.576088, 53.736973], [-1.576063, 53.736986], [-1.575909, 53.736906], [-1.575702, 53.737046], [-1.57574, 53.737073], [-1.575462, 53.737257], [-1.575675, 53.737371], [-1.575778, 53.737426], [-1.575829, 53.737453], [-1.575934, 53.737508], [-1.575947, 53.737516], [-1.576443, 53.7372]]]}, "properties": {"display_name": "mypetstop Leeds, Topcliffe Close, Burn Knolls, Tingley, Wakefield, West Yorkshire, England, WF3 1BU, United Kingdom", "type": "pet", "osm_type": "way", "osm_id": 170488228, "class": null, "keyword": "borough"}}, {"type": "Feature", "geometry": {"type": "Polygon", "coordinates": [[[-1.544492, 53.785562], [-1.544443, 53.785521], [-1.544451, 53.78551], [-1.544474, 53.785488], [-1.544354, 53.785415], [-1.5444, 53.785386], [-1.544277, 53.785305], [-1.544379, 53.785245], [-1.544109, 53.785081], [-1.5438, 53.785081], [-1.543595, 53.785051], [-1.543411, 53.785165], [-1.543984, 53.785485], [-1.544072, 53.785431], [-1.544347, 53.785582], [-1.54438, 53.785568], [-1.544435, 53.785604], [-1.544492, 53.785562]]]}, "properties": {"display_name": "Leeds City Council - Apex Centre, Apex Way, Apex Centre, Holbeck, Leeds, West Yorkshire, England, LS11 5LN, United Kingdom", "type": "commercial", "osm_type": "way", "osm_id": 162252464, "class": null, "keyword": "city centre"}}, {"type": "Feature", "geometry": {"type": "Polygon", "coordinates": [[[-1.562536, 53.797845], [-1.562494, 53.797811], [-1.562435, 53.797836], [-1.562379, 53.797791], [-1.562369, 53.797795], [-1.562217, 53.79786], [-1.562152, 53.797887], [-1.562107, 53.79785], [-1.561928, 53.797703], [-1.561986, 53.797678], [-1.561908, 53.797614], [-1.561842, 53.797643], [-1.561558, 53.797409], [-1.56137, 53.797489], [-1.561648, 53.797718], [-1.561608, 53.797735], [-1.56169, 53.797802], [-1.561721, 53.797789], [-1.562108, 53.798108], [-1.562236, 53.798054], [-1.56222, 53.798041], [-1.562528, 53.79791], [-1.562478, 53.79787], [-1.562536, 53.797845]]]}, "properties": {"display_name": "Premier Inn Leeds City Centre, Wellington Bridge Street, Holbeck Urban Village, Holbeck, Leeds, West Yorkshire, England, LS3 1LW, United Kingdom", "type": "hotel", "osm_type": "way", "osm_id": 878352317, "class": null, "keyword": "city centre"}}, {"type": "Feature", "geometry": {"type": "Polygon", "coordinates": [[[-1.550059, 53.793516], [-1.549927, 53.793154], [-1.549753, 53.793178], [-1.549184, 53.793252], [-1.549232, 53.79337], [-1.549276, 53.793477], [-1.549747, 53.793415], [-1.549754, 53.793431], [-1.5498, 53.793546], [-1.550059, 53.793516]]]}, "properties": {"display_name": "DoubleTree by Hilton Leeds City Centre, 2, Wharf Approach, Granary Wharf, Holbeck, Leeds, West Yorkshire, England, LS1 4GS, United Kingdom", "type": "hotel", "osm_type": "way", "osm_id": 28941248, "class": null, "keyword": "city centre"}}, {"type": "Feature", "geometry": {"type": "Polygon", "coordinates": [[[-1.535969, 53.80048], [-1.535087, 53.800297], [-1.535079, 53.800309], [-1.53463, 53.800216], [-1.534561, 53.800337], [-1.535899, 53.80062], [-1.535969, 53.80048]]]}, "properties": {"display_name": "Hampton by Hilton Leeds City Centre, 1, Gower Street, Leylands, Sheepscar, Leeds, West Yorkshire, England, LS2 7BP, United Kingdom", "type": "hotel", "osm_type": "way", "osm_id": 162435879, "class": null, "keyword": "city centre"}}, {"type": "Feature", "geometry": {"type": "Polygon", "coordinates": [[[-1.554196, 53.795137], [-1.554042, 53.794938], [-1.554021, 53.794944], [-1.553993, 53.79491], [-1.553506, 53.795041], [-1.553536, 53.795081], [-1.553503, 53.795089], [-1.55365, 53.795289], [-1.554196, 53.795137]]]}, "properties": {"display_name": "Premier Inn Leeds City Centre (Whitehall Road), 1, Whitehall Riverside, Holbeck Urban Village, Holbeck, Leeds, West Yorkshire, England, LS1 4AW, United Kingdom", "type": "hotel", "osm_type": "way", "osm_id": 709209558, "class": null, "keyword": "city centre"}}, {"type": "Feature", "geometry": {"type": "Polygon", "coordinates": [[[-1.543462, 53.801374], [-1.543262, 53.801341], [-1.543241, 53.801382], [-1.543215, 53.801432], [-1.543198, 53.801465], [-1.543192, 53.801476], [-1.543183, 53.801495], [-1.543138, 53.801582], [-1.543131, 53.801595], [-1.543123, 53.80161], [-1.54311, 53.801637], [-1.543029, 53.801621], [-1.542968, 53.801608], [-1.542938, 53.801599], [-1.542911, 53.801614], [-1.542844, 53.801653], [-1.54281, 53.801721], [-1.54285, 53.801727], [-1.542831, 53.801764], [-1.543029, 53.801802], [-1.543199, 53.801834], [-1.543227, 53.801777], [-1.543252, 53.801782], [-1.54326, 53.801769], [-1.543292, 53.801716], [-1.543267, 53.801715], [-1.543313, 53.801626], [-1.543374, 53.80151], [-1.543399, 53.801465], [-1.54341, 53.801442], [-1.543443, 53.801446], [-1.543456, 53.801416], [-1.543444, 53.801414], [-1.543462, 53.801374]]]}, "properties": {"display_name": "Ibis Styles Leeds City Centre Arena, Wade Lane, Arena Quarter, Lovell Park, Leeds, West Yorkshire, England, LS2 8NH, United Kingdom", "type": "hotel", "osm_type": "way", "osm_id": 676684420, "class": null, "keyword": "city centre"}}, {"type": "Feature", "geometry": {"type": "Polygon", "coordinates": [[[-1.565358, 53.800252], [-1.564962, 53.800085], [-1.564925, 53.800115], [-1.56479, 53.800058], [-1.564621, 53.800196], [-1.565153, 53.800421], [-1.565358, 53.800252]]]}, "properties": {"display_name": "Holiday Inn Express Leeds - City Centre, Cavendish Street, Little Woodhouse, Hyde Park, Leeds, West Yorkshire, England, LS3 1LY, United Kingdom", "type": "hotel", "osm_type": "way", "osm_id": 135827029, "class": null, "keyword": "city centre"}}, {"type": "Feature", "geometry": {"type": "Polygon", "coordinates": [[[-1.531558, 53.791287], [-1.530874, 53.791038], [-1.530743, 53.791163], [-1.531427, 53.791412], [-1.531558, 53.791287]]]}, "properties": {"display_name": "Holiday Inn Express Leeds City Centre - Armouries, Armouries Drive, Steander, Richmond Hill, Leeds, West Yorkshire, England, LS10 1LE, United Kingdom", "type": "hotel", "osm_type": "way", "osm_id": 178952465, "class": null, "keyword": "city centre"}}, {"type": "Feature", "geometry": {"type": "Polygon", "coordinates": [[[-1.379698, 53.936942], [-1.379284, 53.936808], [-1.379136, 53.936965], [-1.379221, 53.936993], [-1.379196, 53.937019], [-1.379407, 53.937087], [-1.379431, 53.937061], [-1.37955, 53.9371], [-1.379698, 53.936942]]]}, "properties": {"display_name": "Wetherby And District Social Club, Sandbeck Way, Sandbeck Industrial Estate, Wetherby, Leeds, West Yorkshire, England, LS22 7DN, United Kingdom", "type": "pub", "osm_type": "way", "osm_id": 629912151, "class": null, "keyword": "district"}}, {"type": "Feature", "geometry": {"type": "Polygon", "coordinates": [[[-1.538189, 53.791356], [-1.537984, 53.791224], [-1.537671, 53.791398], [-1.537789, 53.791578], [-1.538189, 53.791356]]]}, "properties": {"display_name": "Neighbourhood, 3, Sheaf Street, Crown Point, Hunslet, Leeds, West Yorkshire, England, LS10 1HD, United Kingdom", "type": "commercial", "osm_type": "way", "osm_id": 201505219, "class": null, "keyword": "neighbourhood"}}, {"type": "Feature", "geometry": {"type": "Polygon", "coordinates": [[[-1.446807, 53.806702], [-1.446795, 53.806587], [-1.446719, 53.80659], [-1.446716, 53.806561], [-1.446711, 53.806525], [-1.44671, 53.806515], [-1.446637, 53.806517], [-1.446631, 53.806464], [-1.446467, 53.80647], [-1.446503, 53.806817], [-1.446675, 53.806811], [-1.446672, 53.806783], [-1.446734, 53.806781], [-1.446729, 53.806733], [-1.446798, 53.80673], [-1.446795, 53.806702], [-1.446807, 53.806702]]]}, "properties": {"display_name": "Crossgates and District Recreational Hall, Poplar Avenue, Cross Gates, Austhorpe, Leeds, West Yorkshire, England, LS15 8EB, United Kingdom", "type": "pub", "osm_type": "way", "osm_id": 195207219, "class": null, "keyword": "district"}}, {"type": "Feature", "geometry": {"type": "Polygon", "coordinates": [[[-1.545096, 53.801725], [-1.545053, 53.801642], [-1.545044, 53.801625], [-1.544797, 53.80167], [-1.544701, 53.801687], [-1.544434, 53.801735], [-1.544448, 53.801761], [-1.544462, 53.80179], [-1.544473, 53.801811], [-1.54448, 53.801822], [-1.544517, 53.80183], [-1.544755, 53.801786], [-1.544807, 53.801777], [-1.544848, 53.80177], [-1.545096, 53.801725]]]}, "properties": {"display_name": "Town Centre House, Woodhouse Lane, Arena Quarter, Lovell Park, Leeds, West Yorkshire, England, LS2 8LY, United Kingdom", "type": "office", "osm_type": "way", "osm_id": 1019782178, "class": null, "keyword": "town centre"}}, {"type": "Feature", "geometry": {"type": "Polygon", "coordinates": [[[-1.478239, 53.74761], [-1.478012, 53.747362], [-1.47782, 53.747424], [-1.477922, 53.747535], [-1.477949, 53.747527], [-1.477995, 53.747576], [-1.478073, 53.747662], [-1.478239, 53.74761]]]}, "properties": {"display_name": "Rothwell Centre (Leeds City College), Marsh Street, Rothwell, Leeds, West Yorkshire, England, LS26 0BB, United Kingdom", "type": "college", "osm_type": "way", "osm_id": 608056050, "class": null, "keyword": "city centre"}}, {"type": "Feature", "geometry": {"type": "Polygon", "coordinates": [[[-1.551683, 53.782343], [-1.551392, 53.782313], [-1.551343, 53.782482], [-1.551634, 53.782511], [-1.551683, 53.782343]]]}, "properties": {"display_name": "City and Holbeck Children's Centre, Hunslet Hall Road, Beeston Hill, Holbeck, Leeds, West Yorkshire, England, LS11 6TT, United Kingdom", "type": "community_centre", "osm_type": "way", "osm_id": 609903491, "class": null, "keyword": "city centre"}}, {"type": "Feature", "geometry": {"type": "Polygon", "coordinates": [[[-1.466425, 53.79871], [-1.466339, 53.798671], [-1.46616, 53.798788], [-1.466235, 53.798829], [-1.466425, 53.79871]]]}, "properties": {"display_name": "Leeds Templars District Scout HQ, Chapel Fold, Halton, Leeds, West Yorkshire, England, LS15 7UF, United Kingdom", "type": "scout", "osm_type": "way", "osm_id": 708069956, "class": null, "keyword": "district"}}, {"type": "Feature", "geometry": {"type": "Polygon", "coordinates": [[[-1.584167, 53.809599], [-1.584124, 53.809562], [-1.584008, 53.809608], [-1.584051, 53.809646], [-1.584167, 53.809599]]]}, "properties": {"display_name": "downtown, 333, Burley Road, Burley, Leeds, West Yorkshire, England, LS4 2JJ, United Kingdom", "type": "cafe", "osm_type": "way", "osm_id": 472162364, "class": null, "keyword": "downtown"}}]}