{"type": "FeatureCollection", "features": [{"type": "Feature", "geometry": {"type": "Polygon", "coordinates": [[[118.376521, 35.032383], [118.388751, 35.004095], [118.392131, 34.99636], [118.403556, 34.98391], [118.412723, 34.968468], [118.41373, 34.966472], [118.412012, 34.959335], [118.415958, 34.950556], [118.42261, 34.942424], [118.424519, 34.936566], [118.430485, 34.933689], [118.431737, 34.933085], [118.436372, 34.930785], [118.438163, 34.933438], [118.447036, 34.928164], [118.448538, 34.93112], [118.450555, 34.930346], [118.448409, 34.923449], [118.446564, 34.923696], [118.444783, 34.923437], [118.445406, 34.921902], [118.445847, 34.912393], [118.443227, 34.912431], [118.439537, 34.906026], [118.437176, 34.906871], [118.435503, 34.90402], [118.444338, 34.901001], [118.449394, 34.899703], [118.449381, 34.898938], [118.452873, 34.89848], [118.453139, 34.898746], [118.453351, 34.898808], [118.453783, 34.898665], [118.45526, 34.902409], [118.469363, 34.894243], [118.488305, 34.878763], [118.492518, 34.874981], [118.492544, 34.87496], [118.495389, 34.872662], [118.49708, 34.871659], [118.497551, 34.873579], [118.497523, 34.87364], [118.497504, 34.873672], [118.49708, 34.873989], [118.497037, 34.874038], [118.496916, 34.874149], [118.496776, 34.874244], [118.496712, 34.87432], [118.496569, 34.874421], [118.496521, 34.874464], [118.496081, 34.874634], [118.496055, 34.874643], [118.49602, 34.874684], [118.49602, 34.874747], [118.495884, 34.874982], [118.496408, 34.876746], [118.4963, 34.876794], [118.496611, 34.877822], [118.496027, 34.877995], [118.496013, 34.878022], [118.496038, 34.878164], [118.498527, 34.877607], [118.499474, 34.880213], [118.509814, 34.877541], [118.509151, 34.874533], [118.517029, 34.873858], [118.517118, 34.873856], [118.519274, 34.873705], [118.519311, 34.873344], [118.519636, 34.873322], [118.519672, 34.873284], [118.519639, 34.872355], [118.519987, 34.872344], [118.519996, 34.872288], [118.520089, 34.868936], [118.520933, 34.867857], [118.521161, 34.86746], [118.522711, 34.866615], [118.5244, 34.865178], [118.526013, 34.86257], [118.526323, 34.860732], [118.526216, 34.859484], [118.528057, 34.859415], [118.527609, 34.854546], [118.525313, 34.854825], [118.52513, 34.853746], [118.525161, 34.852026], [118.524342, 34.849161], [118.522783, 34.843567], [118.522769, 34.843531], [118.524167, 34.843444], [118.524313, 34.844569], [118.524347, 34.844605], [118.524489, 34.844581], [118.524334, 34.843293], [118.524779, 34.843204], [118.524872, 34.843177], [118.525335, 34.843091], [118.525428, 34.843079], [118.527743, 34.842491], [118.527317, 34.840446], [118.528649, 34.840115], [118.528326, 34.838848], [118.529636, 34.838599], [118.529147, 34.837184], [118.532874, 34.836912], [118.532878, 34.836848], [118.532524, 34.835006], [118.5326, 34.834998], [118.532643, 34.83499], [118.532824, 34.834974], [118.53238, 34.83316], [118.534737, 34.832918], [118.535174, 34.833786], [118.535639, 34.833731], [118.535947, 34.834467], [118.5368, 34.834288], [118.536799, 34.834251], [118.53627, 34.832227], [118.539877, 34.831934], [118.541923, 34.836387], [118.542953, 34.844734], [118.546472, 34.850862], [118.55248, 34.857025], [118.554282, 34.862941], [118.552652, 34.868857], [118.552272, 34.869346], [118.547545, 34.875441], [118.545049, 34.87986], [118.54471, 34.88046], [118.540322, 34.88494], [118.53952, 34.887481], [118.539477, 34.891881], [118.542266, 34.89607], [118.544197, 34.906277], [118.543039, 34.914899], [118.540593, 34.921515], [118.538833, 34.927356], [118.53786, 34.93273], [118.537202, 34.936363], [118.540077, 34.945015], [118.542395, 34.952543], [118.545571, 34.962532], [118.546448, 34.967851], [118.547674, 34.98001], [118.545742, 34.98546], [118.545642, 34.994266], [118.545639, 34.994501], [118.545142, 34.999593], [118.539348, 35.006975], [118.529392, 35.013407], [118.526731, 35.018539], [118.528104, 35.022475], [118.531547, 35.026243], [118.535872, 35.030628], [118.545339, 35.035026], [118.549802, 35.040121], [118.553274, 35.044274], [118.553414, 35.044437], [118.545468, 35.047315], [118.546131, 35.047994], [118.544259, 35.04839], [118.544462, 35.04909], [118.542068, 35.049619], [118.54226, 35.05039], [118.539504, 35.050564], [118.537809, 35.051405], [118.531881, 35.051703], [118.524213, 35.052085], [118.523175, 35.04947], [118.52232, 35.05002], [118.521268, 35.050162], [118.520991, 35.048244], [118.518738, 35.048563], [118.519061, 35.049651], [118.515634, 35.050039], [118.515354, 35.048485], [118.512046, 35.049021], [118.511623, 35.044432], [118.510434, 35.044896], [118.508929, 35.038746], [118.503816, 35.039872], [118.503542, 35.040148], [118.50233, 35.038465], [118.496474, 35.039106], [118.49477, 35.039332], [118.493292, 35.039742], [118.493019, 35.038837], [118.491812, 35.03922], [118.492174, 35.040132], [118.491167, 35.040452], [118.486838, 35.042059], [118.483424, 35.043339], [118.483318, 35.042695], [118.481209, 35.042828], [118.480839, 35.040914], [118.478223, 35.041097], [118.476397, 35.041458], [118.475976, 35.03929], [118.474493, 35.03945], [118.472852, 35.039701], [118.472249, 35.038199], [118.471132, 35.038698], [118.470403, 35.037205], [118.467543, 35.038044], [118.466329, 35.038467], [118.465804, 35.03642], [118.46444, 35.036667], [118.464317, 35.035546], [118.461081, 35.035947], [118.460905, 35.03432], [118.460364, 35.034325], [118.460618, 35.035896], [118.458726, 35.036162], [118.45849, 35.034515], [118.457317, 35.034614], [118.457697, 35.03629], [118.454759, 35.036596], [118.455076, 35.038557], [118.459501, 35.038093], [118.461362, 35.037861], [118.461642, 35.040069], [118.463079, 35.0396], [118.463391, 35.040775], [118.463517, 35.040804], [118.463674, 35.041418], [118.463454, 35.041453], [118.463923, 35.042857], [118.464768, 35.042859], [118.464896, 35.04412], [118.462972, 35.044271], [118.463142, 35.045169], [118.462222, 35.04543], [118.46222, 35.045933], [118.461884, 35.045961], [118.461816, 35.043941], [118.461633, 35.043955], [118.461711, 35.045981], [118.461563, 35.046002], [118.461477, 35.045188], [118.461329, 35.045214], [118.461404, 35.04599], [118.461271, 35.04602], [118.461169, 35.044736], [118.46039, 35.044779], [118.460397, 35.045434], [118.459647, 35.045318], [118.459451, 35.043158], [118.459249, 35.042959], [118.458965, 35.043117], [118.458965, 35.043357], [118.458664, 35.043459], [118.457729, 35.043798], [118.457695, 35.043705], [118.457536, 35.043632], [118.457256, 35.043702], [118.457193, 35.043633], [118.456961, 35.04368], [118.456893, 35.043812], [118.455157, 35.044444], [118.454792, 35.043062], [118.452757, 35.043792], [118.4526, 35.04362], [118.451831, 35.043713], [118.45153, 35.04274], [118.449335, 35.042987], [118.44899, 35.041199], [118.44715, 35.041467], [118.446886, 35.040857], [118.44652, 35.040942], [118.446192, 35.040931], [118.446573, 35.04211], [118.446328, 35.042152], [118.445904, 35.040924], [118.445473, 35.0411], [118.444984, 35.04117], [118.445119, 35.041792], [118.444387, 35.041307], [118.444745, 35.042796], [118.444681, 35.043466], [118.443873, 35.043433], [118.444181, 35.044482], [118.443659, 35.044598], [118.443353, 35.04339], [118.442812, 35.043335], [118.443235, 35.045033], [118.442798, 35.045068], [118.442543, 35.045147], [118.442194, 35.045248], [118.441894, 35.045296], [118.441523, 35.045267], [118.440782, 35.045008], [118.440782, 35.045264], [118.440562, 35.045272], [118.4387, 35.045308], [118.438693, 35.046374], [118.437773, 35.046395], [118.437501, 35.048175], [118.435033, 35.048392], [118.434793, 35.049881], [118.427858, 35.050368], [118.427769, 35.04887], [118.424912, 35.04904], [118.42484, 35.04806], [118.420899, 35.048395], [118.420913, 35.047834], [118.420582, 35.047868], [118.420377, 35.045578], [118.417615, 35.04617], [118.417705, 35.047177], [118.414449, 35.047523], [118.414133, 35.044627], [118.412811, 35.044665], [118.412699, 35.043017], [118.409456, 35.043155], [118.405525, 35.04278], [118.403641, 35.042598], [118.40087, 35.042365], [118.400495, 35.042341], [118.40067, 35.042132], [118.398894, 35.041822], [118.395045, 35.041113], [118.392856, 35.040878], [118.390691, 35.040685], [118.384997, 35.040178], [118.385037, 35.040669], [118.383561, 35.040473], [118.383602, 35.040145], [118.38106, 35.039188], [118.376521, 35.032383]]]}, "properties": {"display_name": "临沂经济技术开发区, 河东区, 临沂市, 山东省, 中国", "type": "administrative", "osm_type": "relation", "osm_id": 15446854, "class": null, "keyword": "district"}}, {"type": "Feature", "geometry": {"type": "Polygon", "coordinates": [[[118.271539, 35.119725], [118.271544, 35.117186], [118.272139, 35.116921], [118.273022, 35.116547], [118.273394, 35.117181], [118.274585, 35.117182], [118.274886, 35.117123], [118.274508, 35.115832], [118.275194, 35.115526], [118.277697, 35.114294], [118.277968, 35.11416], [118.278093, 35.114099], [118.280883, 35.112936], [118.282898, 35.111934], [118.282634, 35.111794], [118.28523, 35.110622], [118.285286, 35.110924], [118.285847, 35.110653], [118.287315, 35.109947], [118.287529, 35.109851], [118.288074, 35.109608], [118.289453, 35.10906], [118.290201, 35.108652], [118.290578, 35.108489], [118.290698, 35.108446], [118.2908, 35.108459], [118.290818, 35.108605], [118.290811, 35.109836], [118.290729, 35.113411], [118.290892, 35.113415], [118.290836, 35.118302], [118.29079, 35.118435], [118.290568, 35.118498], [118.2906, 35.118841], [118.290648, 35.119804], [118.290744, 35.119917], [118.291008, 35.120134], [118.292007, 35.121453], [118.292187, 35.121806], [118.292943, 35.122757], [118.293093, 35.122933], [118.2931, 35.123185], [118.292946, 35.12353], [118.29262, 35.123953], [118.292107, 35.124522], [118.29128, 35.125184], [118.29064, 35.125812], [118.290296, 35.126161], [118.290068, 35.126447], [118.289948, 35.12656], [118.289843, 35.126536], [118.289658, 35.126515], [118.289442, 35.126464], [118.289049, 35.126566], [118.288763, 35.12673], [118.285491, 35.125724], [118.285356, 35.126175], [118.285244, 35.126547], [118.285201, 35.127258], [118.285191, 35.128574], [118.285021, 35.129898], [118.285, 35.129986], [118.284695, 35.129978], [118.283243, 35.129975], [118.283024, 35.129998], [118.28196, 35.130271], [118.281698, 35.130331], [118.281347, 35.130328], [118.280768, 35.130325], [118.279492, 35.130321], [118.278164, 35.12998], [118.277822, 35.129974], [118.275497, 35.129955], [118.275413, 35.129895], [118.275347, 35.129835], [118.275316, 35.129744], [118.275198, 35.129435], [118.275106, 35.129236], [118.275063, 35.129047], [118.275054, 35.127994], [118.275161, 35.127989], [118.275163, 35.124674], [118.275188, 35.122732], [118.273308, 35.122732], [118.273301, 35.119715], [118.271539, 35.119725]]]}, "properties": {"display_name": "临沂大学(校本部), 双岭路, 砚台岭社区, 兰山街道, 兰山区, 临沂市, 山东省, 276000, 中国", "type": "university", "osm_type": "way", "osm_id": 172136291, "class": null, "keyword": "district"}}, {"type": "Feature", "geometry": {"type": "Polygon", "coordinates": [[[118.403971, 35.040757], [118.405521, 35.040764], [118.405639, 35.040049], [118.406704, 35.040161], [118.409158, 35.040421], [118.409172, 35.039484], [118.408877, 35.039471], [118.408853, 35.038241], [118.409175, 35.038241], [118.409183, 35.03655], [118.40925, 35.036467], [118.410631, 35.036469], [118.410851, 35.036477], [118.410985, 35.036379], [118.411011, 35.035402], [118.412736, 35.035399], [118.412723, 35.036433], [118.412905, 35.03651], [118.414235, 35.036512], [118.413657, 35.041662], [118.413753, 35.050582], [118.414485, 35.050573], [118.414488, 35.051107], [118.413745, 35.051105], [118.413732, 35.060359], [118.413756, 35.061552], [118.413713, 35.063167], [118.41373, 35.06432], [118.413737, 35.064713], [118.413899, 35.065698], [118.413999, 35.066597], [118.414145, 35.067861], [118.414235, 35.068633], [118.414272, 35.068948], [118.414296, 35.069865], [118.412532, 35.069872], [118.412545, 35.070548], [118.411806, 35.070608], [118.41094, 35.07068], [118.410934, 35.069839], [118.410926, 35.068968], [118.410811, 35.068891], [118.409664, 35.068894], [118.408523, 35.068897], [118.40796, 35.06337], [118.407979, 35.062024], [118.40798, 35.061957], [118.407918, 35.061934], [118.407995, 35.060752], [118.407974, 35.057341], [118.405523, 35.057254], [118.404162, 35.057398], [118.40403, 35.049743], [118.403998, 35.044914], [118.40401, 35.043258], [118.403971, 35.040757]]]}, "properties": {"display_name": "临沂启阳国际机场, 空港大街, 九曲街道, 沂河新区, 河东区, 山东省, 中国", "type": "aerodrome", "osm_type": "way", "osm_id": 154899286, "class": null, "keyword": "district"}}, {"type": "Feature", "geometry": {"type": "Polygon", "coordinates": [[[118.302186, 35.131004], [118.302407, 35.12811], [118.302883, 35.128116], [118.302917, 35.127782], [118.303016, 35.127708], [118.30321, 35.127791], [118.303288, 35.127936], [118.303701, 35.128217], [118.303987, 35.128358], [118.304346, 35.128679], [118.304493, 35.128852], [118.304439, 35.131127], [118.303847, 35.131095], [118.302186, 35.131004]]]}, "properties": {"display_name": "临沂老年医院, 武汉路, 柳青街道, 兰山区, 临沂市, 山东省, 276000, 中国", "type": "hospital", "osm_type": "way", "osm_id": 1102474918, "class": null, "keyword": "老城区"}}, {"type": "Feature", "geometry": {"type": "Polygon", "coordinates": [[[118.372425, 35.196169], [118.372442, 35.19608], [118.372521, 35.196009], [118.372608, 35.195966], [118.372785, 35.195923], [118.373009, 35.195888], [118.373193, 35.195878], [118.373419, 35.195904], [118.373568, 35.195956], [118.374141, 35.196014], [118.37422, 35.195871], [118.374346, 35.195698], [118.374536, 35.19557], [118.374663, 35.195532], [118.374819, 35.19552], [118.374949, 35.195524], [118.375037, 35.195551], [118.375211, 35.195644], [118.375331, 35.195747], [118.375444, 35.195856], [118.375464, 35.195896], [118.375509, 35.195995], [118.376031, 35.19597], [118.3761, 35.195923], [118.376255, 35.195884], [118.376463, 35.195874], [118.376676, 35.19589], [118.37685, 35.195917], [118.376966, 35.195952], [118.377071, 35.196023], [118.377125, 35.196084], [118.377121, 35.196156], [118.377066, 35.196239], [118.376968, 35.196295], [118.376761, 35.196334], [118.376536, 35.19634], [118.37631, 35.196321], [118.376141, 35.196301], [118.37563, 35.196315], [118.375643, 35.196385], [118.375928, 35.196389], [118.375954, 35.196413], [118.375954, 35.196457], [118.375954, 35.196472], [118.375954, 35.196499], [118.375954, 35.196567], [118.375954, 35.1966], [118.375954, 35.196631], [118.375954, 35.196655], [118.375954, 35.196692], [118.375954, 35.19677], [118.375954, 35.196789], [118.375954, 35.196823], [118.375704, 35.196829], [118.375704, 35.196846], [118.375704, 35.196884], [118.375702, 35.19691], [118.375954, 35.196915], [118.375954, 35.196928], [118.375954, 35.196948], [118.375954, 35.196983], [118.375954, 35.197057], [118.375954, 35.197116], [118.375954, 35.197153], [118.375954, 35.197185], [118.375954, 35.197252], [118.375954, 35.197336], [118.375691, 35.197339], [118.375689, 35.197395], [118.373966, 35.197395], [118.373967, 35.197333], [118.373771, 35.197336], [118.373771, 35.197267], [118.373771, 35.197254], [118.37377, 35.197216], [118.37377, 35.197197], [118.37377, 35.197177], [118.37377, 35.19715], [118.37377, 35.197127], [118.373769, 35.197069], [118.373769, 35.197057], [118.373769, 35.197019], [118.373769, 35.197007], [118.373769, 35.196992], [118.373768, 35.196967], [118.373768, 35.196929], [118.373768, 35.196906], [118.373939, 35.196905], [118.373937, 35.19688], [118.373937, 35.196838], [118.373937, 35.196818], [118.373767, 35.196815], [118.373767, 35.196793], [118.373767, 35.196776], [118.373767, 35.196734], [118.373766, 35.196666], [118.373766, 35.196648], [118.373766, 35.196597], [118.373765, 35.196576], [118.373765, 35.196537], [118.373765, 35.196474], [118.373764, 35.196455], [118.373764, 35.196427], [118.373802, 35.196389], [118.374039, 35.196379], [118.374049, 35.196306], [118.373457, 35.196308], [118.373244, 35.196339], [118.372898, 35.19635], [118.372674, 35.196335], [118.372551, 35.196297], [118.372452, 35.196247], [118.372425, 35.196169]]]}, "properties": {"display_name": "临沂北, 出发旅客平台, 白沙埠镇, 沂河新区, 兰山区, 临沂市, 山东省, 中国", "type": "train_station", "osm_type": "way", "osm_id": 649428837, "class": null, "keyword": "district"}}, {"type": "Feature", "geometry": {"type": "Polygon", "coordinates": [[[118.301756, 35.126014], [118.301784, 35.125698], [118.302719, 35.125122], [118.3039, 35.126066], [118.30292, 35.126858], [118.301756, 35.126014]]]}, "properties": {"display_name": "临沂市老年养护院, 武汉路祊河桥, 柳青街道, 兰山区, 临沂市, 山东省, 276000, 中国", "type": "hospital", "osm_type": "way", "osm_id": 1102475604, "class": null, "keyword": "老城区"}}, {"type": "Feature", "geometry": {"type": "Polygon", "coordinates": [[[118.158573, 34.955856], [118.16003, 34.955707], [118.16013, 34.956417], [118.160119, 34.956713], [118.158725, 34.956901], [118.158573, 34.955856]]]}, "properties": {"display_name": "沂堂中心小学, 振兴大道, 沂堂镇, 罗庄区, 临沂市, 山东省, 中国", "type": "school", "osm_type": "way", "osm_id": 579074529, "class": null, "keyword": "中心商圈"}}]}