{"type": "FeatureCollection", "features": [{"type": "Feature", "geometry": {"type": "Polygon", "coordinates": [[[119.820311, 28.362573], [119.821387, 28.361277], [119.822916, 28.361981], [119.823751, 28.361495], [119.829169, 28.365049], [119.829057, 28.365666], [119.831709, 28.367326], [119.831934, 28.367079], [119.835974, 28.369629], [119.836559, 28.368978], [119.836958, 28.369207], [119.836413, 28.369922], [119.843293, 28.374167], [119.843075, 28.374461], [119.844222, 28.375159], [119.844739, 28.375047], [119.85084, 28.378385], [119.850244, 28.379014], [119.850281, 28.379128], [119.850484, 28.37928], [119.849498, 28.380602], [119.847218, 28.379269], [119.84699, 28.379301], [119.846886, 28.379421], [119.838641, 28.374275], [119.838474, 28.374286], [119.838179, 28.374644], [119.837334, 28.374107], [119.837051, 28.374145], [119.836755, 28.374368], [119.836459, 28.374351], [119.833065, 28.378514], [119.832206, 28.377922], [119.832719, 28.377326], [119.832794, 28.377166], [119.83278, 28.376948], [119.832724, 28.376804], [119.832602, 28.37666], [119.832444, 28.376504], [119.832262, 28.37637], [119.831973, 28.376309], [119.831713, 28.376309], [119.831518, 28.376306], [119.831378, 28.376267], [119.831268, 28.376177], [119.831134, 28.37597], [119.830949, 28.375674], [119.830451, 28.374571], [119.828886, 28.373602], [119.831675, 28.370049], [119.827297, 28.367325], [119.827042, 28.367537], [119.825181, 28.366328], [119.824926, 28.366621], [119.824565, 28.36654], [119.824381, 28.366777], [119.82385, 28.36692], [119.822717, 28.366353], [119.823652, 28.365288], [119.82196, 28.364298], [119.822342, 28.363831], [119.820311, 28.362573]]]}, "properties": {"display_name": "丽水莲都机场, 遂松路, 莲都区, 丽水市, 浙江省, 中国", "type": "aerodrome", "osm_type": "way", "osm_id": 1349526413, "class": null, "keyword": "district"}}, {"type": "Feature", "geometry": {"type": "Polygon", "coordinates": [[[119.94233, 28.473207], [119.943109, 28.472187], [119.943718, 28.472622], [119.945346, 28.470992], [119.946903, 28.472237], [119.944723, 28.474937], [119.943838, 28.474333], [119.94233, 28.473207]]]}, "properties": {"display_name": "丽水第二高级中学, 丽阳街, 莲都区, 丽水市, 浙江省, 中国", "type": "school", "osm_type": "way", "osm_id": 1032769209, "class": null, "keyword": "中央区"}}, {"type": "Feature", "geometry": {"type": "Polygon", "coordinates": [[[119.881532, 28.448081], [119.881581, 28.447956], [119.881655, 28.447793], [119.881705, 28.447691], [119.881766, 28.447582], [119.881902, 28.447479], [119.882025, 28.447382], [119.882192, 28.447311], [119.882561, 28.447263], [119.884656, 28.447626], [119.884188, 28.44956], [119.882913, 28.449327], [119.88266, 28.44931], [119.882475, 28.449278], [119.882272, 28.449245], [119.882154, 28.449224], [119.882019, 28.44917], [119.881927, 28.449078], [119.881846, 28.448985], [119.881779, 28.448866], [119.881729, 28.448769], [119.881698, 28.448649], [119.881686, 28.448509], [119.881717, 28.448314], [119.881766, 28.44814], [119.881674, 28.448097], [119.881532, 28.448081]]]}, "properties": {"display_name": "丽水汽车西站, S328, 莲都区, 丽水市, 浙江省, 中国", "type": "bus_station", "osm_type": "way", "osm_id": 447096842, "class": null, "keyword": "district"}}, {"type": "Feature", "geometry": {"type": "Polygon", "coordinates": [[[119.902285, 28.454256], [119.902726, 28.45216], [119.904433, 28.452435], [119.904254, 28.452958], [119.903931, 28.454721], [119.902531, 28.454333], [119.902285, 28.454256]]]}, "properties": {"display_name": "丽水市中心医院, 括苍路, 万象街道, 莲都区, 丽水市, 浙江省, 中国", "type": "hospital", "osm_type": "way", "osm_id": 480636559, "class": null, "keyword": "市中心"}}, {"type": "Feature", "geometry": {"type": "Polygon", "coordinates": [[[119.921618, 28.470965], [119.921627, 28.470761], [119.921684, 28.470563], [119.921786, 28.47038], [119.921928, 28.470219], [119.922105, 28.470087], [119.922309, 28.46999], [119.922532, 28.469932], [119.922763, 28.469915], [119.922993, 28.46994], [119.923213, 28.470006], [119.923412, 28.470111], [119.923583, 28.470249], [119.923691, 28.470376], [119.923774, 28.470517], [119.923831, 28.470667], [119.92386, 28.470824], [119.92386, 28.470983], [119.923779, 28.471278], [119.92367, 28.471458], [119.92352, 28.471614], [119.923337, 28.471739], [119.923129, 28.471829], [119.922904, 28.47188], [119.922672, 28.471889], [119.922443, 28.471856], [119.922227, 28.471782], [119.922033, 28.47167], [119.921868, 28.471526], [119.921741, 28.471356], [119.921656, 28.471166], [119.921618, 28.470965]]]}, "properties": {"display_name": "丽水体育中心, 宇雷北路, 万象街道, 莲都区, 丽水市, 浙江省, 中国", "type": "stadium", "osm_type": "way", "osm_id": 421777878, "class": null, "keyword": "district"}}, {"type": "Feature", "geometry": {"type": "Polygon", "coordinates": [[[119.903655, 28.458456], [119.903778, 28.456929], [119.905479, 28.457318], [119.90559, 28.458467], [119.903655, 28.458456]]]}, "properties": {"display_name": "天宇中学, 丽阳街, 万象街道, 莲都区, 丽水市, 浙江省, 中国", "type": "school", "osm_type": "way", "osm_id": 336158639, "class": null, "keyword": "中央区"}}, {"type": "Feature", "geometry": {"type": "Polygon", "coordinates": [[[119.930092, 28.464169], [119.930349, 28.46333], [119.930392, 28.462858], [119.931368, 28.463226], [119.930971, 28.464376], [119.930092, 28.464169]]]}, "properties": {"display_name": "丽水市疾控中心, 寿尔福路, 莲都区, 丽水市, 浙江省, 中国", "type": "hospital", "osm_type": "way", "osm_id": 1032769196, "class": null, "keyword": "市中心"}}, {"type": "Feature", "geometry": {"type": "Polygon", "coordinates": [[[119.91792, 28.439269], [119.917933, 28.438969], [119.917974, 28.438972], [119.917974, 28.43876], [119.918222, 28.438763], [119.918232, 28.438902], [119.918518, 28.438913], [119.918521, 28.438879], [119.919174, 28.438904], [119.919174, 28.43893], [119.919361, 28.438935], [119.919361, 28.438882], [119.919413, 28.438882], [119.919422, 28.438582], [119.919734, 28.438579], [119.919728, 28.43889], [119.919776, 28.43889], [119.919783, 28.438969], [119.91985, 28.438967], [119.919841, 28.439136], [119.91977, 28.439139], [119.919763, 28.439238], [119.919715, 28.439244], [119.919709, 28.439549], [119.919409, 28.439541], [119.919413, 28.439366], [119.919229, 28.439357], [119.919216, 28.439431], [119.918396, 28.439394], [119.918399, 28.439335], [119.918238, 28.439323], [119.918216, 28.43949], [119.917962, 28.439482], [119.917962, 28.439264], [119.91792, 28.439269]]]}, "properties": {"display_name": "Lishui Museum, 大猷街, 万象街道, 莲都区, 丽水市, 浙江省, 中国", "type": "museum", "osm_type": "way", "osm_id": 1135718201, "class": null, "keyword": "district"}}, {"type": "Feature", "geometry": {"type": "Polygon", "coordinates": [[[119.948753, 28.444208], [119.948764, 28.444175], [119.949107, 28.444009], [119.950141, 28.445591], [119.949798, 28.44578], [119.949755, 28.445773], [119.94958, 28.445495], [119.949547, 28.445483], [119.949417, 28.445486], [119.949392, 28.445467], [119.949388, 28.445436], [119.949398, 28.445391], [119.949232, 28.445361], [119.949205, 28.445333], [119.949209, 28.445215], [119.949196, 28.445185], [119.949165, 28.445177], [119.949034, 28.445181], [119.949, 28.445175], [119.948972, 28.445161], [119.948961, 28.445137], [119.948964, 28.445109], [119.949044, 28.444979], [119.949039, 28.444931], [119.948908, 28.444867], [119.948901, 28.444823], [119.948952, 28.444685], [119.948937, 28.444671], [119.94889, 28.444661], [119.948866, 28.444629], [119.948873, 28.444596], [119.948926, 28.444503], [119.948753, 28.444208]]]}, "properties": {"display_name": "丽水站, 水东路, 莲都区, 丽水市, 浙江省, 中国", "type": "yes", "osm_type": "way", "osm_id": 439506752, "class": null, "keyword": "district"}}, {"type": "Feature", "geometry": {"type": "Polygon", "coordinates": [[[119.9113, 28.455671], [119.912272, 28.455743], [119.911707, 28.456703], [119.911395, 28.456273], [119.9113, 28.455671]]]}, "properties": {"display_name": "丽水老年大学, 城东路, 万象街道, 莲都区, 丽水市, 浙江省, 中国", "type": "college", "osm_type": "way", "osm_id": 336159229, "class": null, "keyword": "老城"}}, {"type": "Feature", "geometry": {"type": "Polygon", "coordinates": [[[119.913478, 28.466888], [119.913553, 28.466461], [119.914409, 28.466577], [119.914334, 28.467004], [119.913478, 28.466888]]]}, "properties": {"display_name": "丽水市中级人民法院, 大洋北路, 莲都区, 丽水市, 浙江省, 中国", "type": "courthouse", "osm_type": "way", "osm_id": 672453273, "class": null, "keyword": "中央区"}}, {"type": "Feature", "geometry": {"type": "Polygon", "coordinates": [[[119.915145, 28.442314], [119.91517, 28.442106], [119.915236, 28.442097], [119.915282, 28.441851], [119.91545, 28.441853], [119.915558, 28.441872], [119.915684, 28.441904], [119.915745, 28.441979], [119.915765, 28.442134], [119.915743, 28.442281], [119.915687, 28.44244], [119.915645, 28.442491], [119.915577, 28.442504], [119.915465, 28.442509], [119.915314, 28.442513], [119.91525, 28.442515], [119.91524, 28.442329], [119.915145, 28.442314]]]}, "properties": {"display_name": "Lishui east city gate, 卢镗街, 万象街道, 莲都区, 丽水市, 浙江省, 中国", "type": "city_gate", "osm_type": "way", "osm_id": 1135711873, "class": null, "keyword": "district"}}, {"type": "Feature", "geometry": {"type": "Polygon", "coordinates": [[[119.915484, 28.470714], [119.915533, 28.470306], [119.91605, 28.470345], [119.915998, 28.470771], [119.915484, 28.470714]]]}, "properties": {"display_name": "行政中心机关食堂, 花园路, 莲都区, 丽水市, 浙江省, 中国", "type": "restaurant", "osm_type": "way", "osm_id": 672453265, "class": null, "keyword": "市中心"}}, {"type": "Feature", "geometry": {"type": "Polygon", "coordinates": [[[119.916164, 28.470586], [119.916179, 28.470516], [119.916221, 28.470454], [119.916284, 28.470408], [119.916361, 28.470384], [119.916442, 28.470384], [119.916519, 28.470408], [119.916582, 28.470454], [119.916624, 28.470515], [119.91664, 28.470586], [119.916627, 28.470657], [119.916588, 28.47072], [119.916527, 28.470768], [119.91646, 28.470793], [119.916388, 28.470799], [119.916317, 28.470785], [119.916254, 28.470754], [119.916205, 28.470707], [119.916174, 28.47065], [119.916164, 28.470586]]]}, "properties": {"display_name": "丽水市行政服务中心, 花园路, 莲都区, 丽水市, 浙江省, 中国", "type": "political_party", "osm_type": "way", "osm_id": 672453264, "class": null, "keyword": "市中心"}}]}