{"type": "FeatureCollection", "features": [{"type": "Feature", "geometry": {"type": "Polygon", "coordinates": [[[109.270949, 24.537417], [109.273802, 24.532782], [109.278693, 24.523512], [109.288882, 24.51999], [109.297238, 24.510719], [109.317209, 24.501633], [109.321284, 24.496441], [109.320469, 24.488466], [109.324086, 24.484272], [109.327677, 24.482158], [109.327786, 24.478232], [109.330591, 24.478159], [109.334123, 24.474927], [109.335397, 24.473443], [109.334359, 24.473271], [109.334359, 24.472673], [109.337107, 24.472347], [109.336197, 24.470708], [109.33645, 24.469357], [109.334478, 24.468541], [109.334598, 24.466964], [109.333605, 24.466924], [109.331312, 24.464572], [109.331969, 24.46256], [109.326082, 24.461875], [109.323965, 24.462397], [109.320739, 24.460059], [109.319146, 24.457185], [109.317334, 24.457612], [109.315564, 24.457113], [109.315108, 24.454879], [109.312317, 24.454989], [109.315474, 24.443818], [109.316635, 24.439711], [109.31737, 24.43498], [109.318323, 24.430421], [109.318925, 24.426513], [109.31923, 24.42158], [109.3182, 24.41648], [109.317231, 24.413203], [109.31683, 24.41138], [109.316809, 24.411282], [109.316201, 24.408513], [109.309849, 24.396476], [109.308588, 24.394323], [109.305729, 24.389441], [109.305231, 24.385226], [109.305215, 24.38178], [109.305742, 24.378832], [109.307781, 24.37662], [109.310668, 24.374267], [109.315273, 24.372418], [109.320321, 24.37205], [109.324727, 24.371403], [109.333299, 24.372664], [109.341105, 24.370534], [109.345462, 24.367001], [109.350624, 24.364999], [109.354152, 24.363442], [109.356742, 24.362482], [109.360338, 24.361149], [109.362893, 24.360202], [109.366544, 24.35896], [109.377141, 24.355354], [109.380696, 24.353498], [109.385025, 24.351239], [109.390382, 24.348357], [109.393035, 24.346701], [109.394264, 24.345326], [109.395005, 24.344216], [109.395696, 24.342849], [109.396367, 24.339089], [109.394815, 24.327505], [109.394908, 24.323956], [109.395861, 24.32058], [109.398617, 24.321082], [109.400377, 24.321386], [109.40155, 24.321772], [109.402307, 24.322375], [109.402604, 24.322831], [109.402836, 24.322633], [109.403324, 24.322524], [109.405612, 24.322546], [109.409041, 24.322608], [109.409691, 24.323964], [109.410854, 24.323784], [109.417146, 24.324294], [109.416517, 24.328088], [109.416443, 24.328541], [109.415421, 24.333145], [109.415651, 24.337564], [109.416018, 24.344584], [109.416993, 24.350646], [109.418024, 24.357053], [109.418583, 24.360525], [109.418698, 24.363659], [109.418784, 24.365997], [109.418306, 24.369721], [109.416976, 24.373916], [109.415837, 24.377507], [109.415936, 24.380686], [109.416686, 24.38393], [109.417568, 24.385674], [109.417996, 24.386471], [109.422618, 24.390642], [109.427397, 24.393581], [109.433162, 24.395302], [109.438767, 24.39632], [109.449633, 24.394965], [109.455104, 24.394413], [109.459696, 24.394295], [109.463738, 24.394831], [109.465736, 24.395288], [109.467259, 24.3959], [109.468561, 24.396423], [109.471359, 24.39821], [109.473371, 24.399861], [109.475969, 24.403333], [109.477354, 24.406588], [109.480079, 24.414322], [109.483953, 24.421738], [109.485847, 24.424652], [109.488476, 24.427944], [109.490745, 24.429294], [109.49387, 24.430709], [109.496919, 24.431602], [109.500527, 24.431925], [109.504272, 24.431994], [109.505582, 24.431788], [109.508462, 24.431334], [109.505436, 24.437282], [109.507119, 24.438491], [109.507385, 24.440266], [109.504816, 24.43954], [109.505379, 24.441519], [109.504107, 24.44333], [109.505844, 24.443605], [109.505898, 24.444631], [109.500749, 24.447664], [109.497984, 24.447589], [109.496432, 24.444805], [109.494266, 24.445737], [109.490447, 24.444163], [109.490617, 24.4487], [109.488516, 24.449459], [109.488162, 24.451798], [109.486679, 24.453297], [109.485923, 24.455797], [109.48562, 24.461937], [109.483529, 24.464087], [109.484587, 24.467002], [109.481483, 24.469587], [109.478242, 24.470267], [109.471721, 24.464342], [109.467697, 24.462646], [109.463933, 24.459117], [109.462107, 24.459177], [109.461181, 24.460059], [109.457864, 24.463266], [109.451396, 24.464429], [109.450922, 24.46118], [109.446353, 24.461346], [109.44448, 24.460363], [109.445351, 24.462343], [109.446781, 24.462599], [109.44556, 24.463642], [109.441408, 24.462615], [109.442364, 24.466474], [109.440673, 24.463809], [109.437521, 24.463557], [109.436705, 24.462881], [109.436879, 24.465086], [109.439146, 24.469149], [109.436808, 24.471369], [109.436828, 24.472664], [109.435196, 24.47512], [109.432627, 24.475936], [109.429565, 24.479774], [109.426395, 24.479118], [109.42516, 24.481862], [109.421896, 24.483236], [109.418111, 24.482514], [109.416951, 24.480259], [109.416445, 24.482216], [109.416674, 24.483885], [109.416612, 24.488343], [109.418111, 24.490234], [109.41726, 24.491814], [109.416496, 24.493344], [109.417095, 24.495289], [109.419365, 24.494746], [109.419462, 24.496069], [109.417199, 24.496475], [109.415937, 24.495858], [109.415774, 24.497831], [109.417305, 24.498873], [109.416665, 24.499999], [109.417215, 24.502682], [109.412265, 24.50226], [109.411726, 24.503439], [109.407119, 24.504639], [109.408034, 24.504995], [109.408376, 24.506159], [109.408052, 24.507017], [109.40655, 24.507237], [109.405925, 24.508548], [109.406125, 24.509425], [109.407716, 24.50964], [109.408975, 24.507899], [109.411497, 24.508137], [109.418486, 24.507962], [109.419881, 24.509658], [109.421396, 24.508988], [109.421908, 24.509897], [109.423845, 24.509531], [109.424383, 24.507846], [109.424682, 24.509477], [109.425518, 24.509857], [109.42649, 24.508412], [109.42737, 24.510075], [109.433135, 24.511306], [109.433762, 24.510184], [109.432412, 24.509614], [109.430741, 24.509604], [109.432446, 24.506727], [109.433642, 24.506379], [109.436749, 24.509151], [109.437286, 24.51089], [109.438343, 24.511241], [109.43763, 24.512382], [109.435213, 24.513206], [109.432621, 24.511827], [109.430804, 24.515175], [109.424562, 24.51513], [109.423124, 24.514064], [109.420778, 24.512635], [109.416066, 24.512644], [109.416709, 24.514349], [109.416508, 24.515836], [109.416821, 24.51802], [109.409656, 24.521164], [109.410989, 24.524645], [109.410688, 24.526364], [109.410033, 24.529668], [109.410522, 24.532327], [109.407871, 24.532448], [109.404999, 24.53217], [109.404538, 24.534527], [109.403814, 24.535882], [109.399824, 24.534621], [109.399275, 24.536542], [109.401371, 24.537012], [109.400964, 24.538101], [109.400556, 24.539167], [109.399563, 24.539932], [109.397831, 24.540187], [109.396964, 24.539793], [109.396098, 24.538171], [109.395512, 24.538009], [109.395436, 24.538704], [109.395512, 24.539585], [109.393806, 24.539353], [109.392277, 24.539283], [109.388686, 24.538565], [109.387718, 24.539052], [109.386826, 24.539237], [109.385833, 24.538959], [109.384406, 24.537638], [109.383566, 24.537244], [109.382903, 24.538426], [109.382521, 24.538611], [109.382012, 24.538241], [109.381986, 24.537939], [109.380865, 24.536062], [109.379796, 24.535645], [109.377936, 24.536224], [109.377197, 24.536062], [109.375541, 24.535923], [109.37542, 24.535252], [109.375822, 24.534403], [109.375666, 24.533677], [109.376471, 24.532933], [109.376857, 24.5302], [109.375602, 24.530496], [109.375055, 24.528658], [109.373252, 24.528911], [109.373488, 24.528599], [109.37439, 24.528365], [109.37424, 24.527788], [109.372394, 24.527076], [109.371815, 24.525124], [109.370956, 24.525026], [109.370313, 24.525944], [109.368995, 24.52531], [109.362881, 24.524846], [109.360141, 24.525963], [109.359777, 24.527408], [109.36115, 24.528091], [109.357808, 24.529398], [109.357504, 24.529305], [109.355133, 24.530891], [109.354091, 24.53305], [109.354671, 24.533637], [109.356365, 24.534162], [109.356022, 24.537051], [109.35658, 24.538632], [109.355421, 24.541424], [109.353898, 24.541756], [109.353572, 24.543366], [109.352082, 24.544839], [109.353814, 24.550877], [109.356023, 24.554502], [109.357707, 24.555199], [109.35894, 24.557502], [109.359187, 24.560018], [109.355052, 24.562589], [109.348555, 24.56703], [109.343983, 24.570174], [109.340557, 24.57327], [109.335108, 24.574948], [109.33387, 24.575738], [109.332406, 24.576395], [109.331701, 24.577242], [109.331399, 24.578646], [109.330453, 24.580198], [109.328805, 24.581461], [109.325639, 24.582272], [109.324579, 24.583111], [109.324813, 24.5837], [109.324858, 24.58429], [109.324603, 24.584389], [109.324075, 24.584509], [109.323261, 24.583839], [109.322589, 24.584059], [109.318379, 24.5849], [109.313394, 24.585302], [109.313209, 24.582863], [109.31061, 24.580639], [109.309693, 24.57823], [109.307808, 24.577396], [109.30628, 24.578369], [109.3047, 24.578323], [109.302866, 24.579157], [109.298842, 24.580871], [109.297619, 24.580454], [109.296142, 24.580269], [109.293543, 24.581288], [109.291403, 24.580315], [109.289664, 24.580409], [109.286134, 24.578837], [109.284837, 24.577068], [109.283252, 24.576871], [109.282243, 24.575954], [109.278785, 24.573071], [109.283828, 24.572416], [109.286782, 24.570581], [109.287719, 24.566256], [109.290168, 24.562455], [109.291033, 24.559507], [109.290529, 24.555837], [109.287791, 24.551643], [109.282387, 24.547186], [109.274894, 24.545875], [109.273597, 24.542861], [109.271764, 24.541495], [109.270949, 24.537417]]]}, "properties": {"display_name": "柳北区, 柳州市, 广西壮族自治区, 545002, 中国", "type": "administrative", "osm_type": "relation", "osm_id": 4586930, "class": null, "keyword": "district"}}, {"type": "Feature", "geometry": {"type": "Polygon", "coordinates": [[[109.395861, 24.32058], [109.396195, 24.317972], [109.39658, 24.315888], [109.396856, 24.315412], [109.397527, 24.314253], [109.39943, 24.312144], [109.401176, 24.311012], [109.402568, 24.310557], [109.404435, 24.310151], [109.406159, 24.310151], [109.408487, 24.309918], [109.410786, 24.310151], [109.412834, 24.310746], [109.414711, 24.311729], [109.415827, 24.312559], [109.416971, 24.313854], [109.418374, 24.316457], [109.419404, 24.318148], [109.420073, 24.320459], [109.419746, 24.324513], [109.422531, 24.324709], [109.435552, 24.325712], [109.441671, 24.326188], [109.447782, 24.326654], [109.447865, 24.326328], [109.450965, 24.314112], [109.451077, 24.313669], [109.451604, 24.313664], [109.457041, 24.313602], [109.458209, 24.313499], [109.45921, 24.313362], [109.459798, 24.313241], [109.460301, 24.313118], [109.460371, 24.313101], [109.460974, 24.312939], [109.461475, 24.312766], [109.461925, 24.3126], [109.462111, 24.312532], [109.46263, 24.312327], [109.463564, 24.311897], [109.467096, 24.309863], [109.467821, 24.310785], [109.473551, 24.318068], [109.480653, 24.327399], [109.482884, 24.33033], [109.488921, 24.341311], [109.495632, 24.357957], [109.496617, 24.360671], [109.496907, 24.363383], [109.497304, 24.367082], [109.495665, 24.375823], [109.495072, 24.382405], [109.494957, 24.38785], [109.496513, 24.394326], [109.499454, 24.398083], [109.504686, 24.403115], [109.506916, 24.404774], [109.510895, 24.407735], [109.516467, 24.413201], [109.517903, 24.41461], [109.518075, 24.421643], [109.513611, 24.428052], [109.508462, 24.431334], [109.505582, 24.431788], [109.504272, 24.431994], [109.500527, 24.431925], [109.496919, 24.431602], [109.49387, 24.430709], [109.490745, 24.429294], [109.488476, 24.427944], [109.485847, 24.424652], [109.483953, 24.421738], [109.480079, 24.414322], [109.477354, 24.406588], [109.475969, 24.403333], [109.473371, 24.399861], [109.471359, 24.39821], [109.468561, 24.396423], [109.467259, 24.3959], [109.465736, 24.395288], [109.463738, 24.394831], [109.459696, 24.394295], [109.455104, 24.394413], [109.449633, 24.394965], [109.438767, 24.39632], [109.433162, 24.395302], [109.427397, 24.393581], [109.422618, 24.390642], [109.417996, 24.386471], [109.417568, 24.385674], [109.416686, 24.38393], [109.415936, 24.380686], [109.415837, 24.377507], [109.416976, 24.373916], [109.418306, 24.369721], [109.418784, 24.365997], [109.418698, 24.363659], [109.418583, 24.360525], [109.418024, 24.357053], [109.416993, 24.350646], [109.416018, 24.344584], [109.415651, 24.337564], [109.415421, 24.333145], [109.416443, 24.328541], [109.416517, 24.328088], [109.417146, 24.324294], [109.410854, 24.323784], [109.409691, 24.323964], [109.409041, 24.322608], [109.405612, 24.322546], [109.403324, 24.322524], [109.402836, 24.322633], [109.402604, 24.322831], [109.402307, 24.322375], [109.40155, 24.321772], [109.400377, 24.321386], [109.398617, 24.321082], [109.395861, 24.32058]]]}, "properties": {"display_name": "城中区, 柳州市, 广西壮族自治区, 中国", "type": "administrative", "osm_type": "relation", "osm_id": 4586929, "class": null, "keyword": "district"}}, {"type": "Feature", "geometry": {"type": "Polygon", "coordinates": [[[109.429612, 24.344609], [109.429798, 24.344447], [109.433641, 24.344439], [109.433835, 24.344609], [109.433151, 24.350256], [109.432872, 24.350441], [109.431442, 24.350456], [109.431411, 24.348716], [109.429624, 24.348694], [109.429612, 24.344609]]]}, "properties": {"display_name": "柳州体育中心, 东环大道, 潭东社区, 沿江街道, 柳州市, 城中区, 柳州市, 广西壮族自治区, 545006, 中国", "type": "sports_centre", "osm_type": "way", "osm_id": 835017640, "class": null, "keyword": "city centre"}}, {"type": "Feature", "geometry": {"type": "Polygon", "coordinates": [[[109.420711, 24.316473], [109.420971, 24.31646], [109.421351, 24.316046], [109.42151, 24.315991], [109.421734, 24.316004], [109.422888, 24.316119], [109.42335, 24.316114], [109.423593, 24.316097], [109.424289, 24.315991], [109.424994, 24.315761], [109.425461, 24.315501], [109.425615, 24.315348], [109.425735, 24.315246], [109.425779, 24.315187], [109.426418, 24.315446], [109.422823, 24.322479], [109.422617, 24.322353], [109.4225, 24.322204], [109.422477, 24.322089], [109.422519, 24.321191], [109.422426, 24.320647], [109.422253, 24.320085], [109.42194, 24.319366], [109.421291, 24.317702], [109.421417, 24.317629], [109.421225, 24.317272], [109.420959, 24.316953], [109.420898, 24.316846], [109.420819, 24.316812], [109.420711, 24.316473]]]}, "properties": {"display_name": "窑埠古镇, 箭盘山街道, 驾鹤村, 鱼峰区, 柳州市, 广西壮族自治区, 中国", "type": "retail", "osm_type": "way", "osm_id": 991474796, "class": null, "keyword": "old town"}}, {"type": "Feature", "geometry": {"type": "Polygon", "coordinates": [[[109.449925, 24.289436], [109.450017, 24.288979], [109.450681, 24.288699], [109.451217, 24.288921], [109.451451, 24.288872], [109.451861, 24.289027], [109.453138, 24.28893], [109.453158, 24.289001], [109.453372, 24.289068], [109.453416, 24.289294], [109.453597, 24.289356], [109.453626, 24.289525], [109.45367, 24.289592], [109.453626, 24.289659], [109.453802, 24.289868], [109.453348, 24.290241], [109.453021, 24.291059], [109.452675, 24.291512], [109.451217, 24.292566], [109.450778, 24.292663], [109.4505, 24.292615], [109.45032, 24.29253], [109.450173, 24.292281], [109.450159, 24.292015], [109.450076, 24.291815], [109.449959, 24.291668], [109.449959, 24.291548], [109.45009, 24.291383], [109.450558, 24.291206], [109.451129, 24.290886], [109.451319, 24.290632], [109.451388, 24.290223], [109.451266, 24.289925], [109.450924, 24.289534], [109.450641, 24.289481], [109.450071, 24.289454], [109.449925, 24.289436]]]}, "properties": {"display_name": "柳州市白云颐养中心, 白云路, 麒麟街道, 鸡喇村‘, 鱼峰区, 柳州市, 广西壮族自治区, 545006, 中国", "type": "social_facility", "osm_type": "way", "osm_id": 952685854, "class": null, "keyword": "市中心"}}, {"type": "Feature", "geometry": {"type": "Polygon", "coordinates": [[[109.455835, 24.314391], [109.456597, 24.314405], [109.4566, 24.314157], [109.457012, 24.314149], [109.457033, 24.313882], [109.457675, 24.313851], [109.457696, 24.314122], [109.459569, 24.315409], [109.459729, 24.315519], [109.459708, 24.316126], [109.455928, 24.316011], [109.455862, 24.315956], [109.455835, 24.314391]]]}, "properties": {"display_name": "柳州市新世纪高中, 西江路, 静兰街道, 柳州市, 城中区, 柳州市, 广西壮族自治区, 545006, 中国", "type": "school", "osm_type": "way", "osm_id": 952685833, "class": null, "keyword": "市中心"}}, {"type": "Feature", "geometry": {"type": "Polygon", "coordinates": [[[109.549947, 24.369733], [109.550011, 24.369388], [109.550089, 24.369153], [109.550308, 24.36903], [109.552085, 24.369514], [109.552209, 24.369717], [109.551543, 24.371809], [109.55143, 24.3719], [109.550563, 24.371674], [109.550375, 24.371493], [109.550241, 24.370971], [109.549947, 24.370049], [109.549947, 24.369733]]]}, "properties": {"display_name": "柳州市城市档案中心, 柳东新区, 鱼峰区, 柳州市, 广西壮族自治区, 中国", "type": "commercial", "osm_type": "way", "osm_id": 1158968484, "class": null, "keyword": "市中心"}}, {"type": "Feature", "geometry": {"type": "Polygon", "coordinates": [[[109.386329, 24.31193], [109.386362, 24.311795], [109.3883, 24.3105], [109.388671, 24.311398], [109.388672, 24.312599], [109.386958, 24.31252], [109.386783, 24.31249], [109.386598, 24.312365], [109.386329, 24.31193]]]}, "properties": {"display_name": "中房柳铁新城, 南站街道, 红桥三区, 柳南区, 柳州市, 广西壮族自治区, 中国", "type": "residential", "osm_type": "way", "osm_id": 775896077, "class": null, "keyword": "中心城区"}}, {"type": "Feature", "geometry": {"type": "Polygon", "coordinates": [[[109.364167, 24.318157], [109.364198, 24.316025], [109.366081, 24.316042], [109.366079, 24.316417], [109.366077, 24.316945], [109.365016, 24.316927], [109.365007, 24.31817], [109.364167, 24.318157]]]}, "properties": {"display_name": "柳州铁路工程质量检测中心有限公司, 河西街道, 柳南区, 柳州市, 广西壮族自治区, 中国", "type": "commercial", "osm_type": "way", "osm_id": 839644578, "class": null, "keyword": "中心城区"}}, {"type": "Feature", "geometry": {"type": "Polygon", "coordinates": [[[109.390766, 24.3366], [109.392104, 24.336845], [109.392478, 24.337996], [109.391297, 24.337989], [109.390778, 24.337781], [109.390766, 24.3366]]]}, "properties": {"display_name": "柳州市疾病预防控制中心, 磨滩路, 潭西街道, 柳南区, 柳州市, 广西壮族自治区, 545002, 中国", "type": "centre", "osm_type": "way", "osm_id": 1019519645, "class": null, "keyword": "市中心"}}, {"type": "Feature", "geometry": {"type": "Polygon", "coordinates": [[[109.430048, 24.331965], [109.430274, 24.331918], [109.43048, 24.331869], [109.430736, 24.331806], [109.431113, 24.331703], [109.431175, 24.331713], [109.431252, 24.331751], [109.431281, 24.331809], [109.43129, 24.331871], [109.43129, 24.332905], [109.431087, 24.333067], [109.430564, 24.333058], [109.430128, 24.333051], [109.430052, 24.33305], [109.430048, 24.331965]]]}, "properties": {"display_name": "中央美地丹桂苑小区, 潭中街道, 柳州市, 城中区, 柳州市, 广西壮族自治区, 中国", "type": "residential", "osm_type": "way", "osm_id": 598870179, "class": null, "keyword": "中央区"}}, {"type": "Feature", "geometry": {"type": "Polygon", "coordinates": [[[109.430318, 24.347425], [109.430338, 24.347273], [109.430383, 24.347125], [109.430454, 24.346986], [109.430548, 24.346859], [109.430663, 24.346747], [109.430796, 24.346654], [109.430944, 24.34658], [109.431102, 24.346529], [109.431267, 24.346501], [109.431436, 24.346497], [109.431602, 24.346518], [109.431745, 24.346556], [109.43188, 24.346612], [109.432005, 24.346684], [109.432118, 24.346772], [109.432216, 24.346873], [109.432298, 24.346986], [109.432362, 24.347108], [109.432406, 24.347237], [109.432431, 24.347371], [109.432434, 24.347506], [109.432417, 24.34764], [109.432379, 24.347771], [109.432322, 24.347895], [109.432246, 24.348012], [109.432153, 24.348117], [109.432044, 24.348209], [109.431923, 24.348287], [109.431791, 24.348349], [109.43165, 24.348393], [109.431505, 24.348419], [109.431357, 24.348425], [109.431189, 24.34841], [109.431027, 24.348371], [109.430873, 24.34831], [109.430732, 24.348226], [109.430607, 24.348124], [109.430501, 24.348004], [109.430418, 24.347871], [109.430359, 24.347728], [109.430325, 24.347578], [109.430318, 24.347425]], [[109.430702, 24.347425], [109.430708, 24.347577], [109.43073, 24.347695], [109.430767, 24.347807], [109.430822, 24.347925], [109.430865, 24.347995], [109.430916, 24.348065], [109.430995, 24.348139], [109.431035, 24.348175], [109.431087, 24.348214], [109.431173, 24.348251], [109.43125, 24.348276], [109.431327, 24.348287], [109.431423, 24.348293], [109.431485, 24.348282], [109.431596, 24.348253], [109.431682, 24.34822], [109.431777, 24.348144], [109.431851, 24.34806], [109.431931, 24.347945], [109.431987, 24.347824], [109.432033, 24.347689], [109.432055, 24.347535], [109.432058, 24.347397], [109.432039, 24.347246], [109.432002, 24.347106], [109.431934, 24.346948], [109.431854, 24.346813], [109.431765, 24.346721], [109.431676, 24.346665], [109.431556, 24.346609], [109.431444, 24.346589], [109.43134, 24.346589], [109.43122, 24.346606], [109.431133, 24.346634], [109.431059, 24.346679], [109.430976, 24.346746], [109.430922, 24.346802], [109.430865, 24.346887], [109.430841, 24.346923], [109.430788, 24.347027], [109.430745, 24.34715], [109.430711, 24.347282], [109.430702, 24.347425]]]}, "properties": {"display_name": "柳州体育中心体育场, 体育路, 潭东社区, 沿江街道, 柳州市, 城中区, 柳州市, 广西壮族自治区, 545006, 中国", "type": "stadium", "osm_type": "relation", "osm_id": 9598811, "class": null, "keyword": "city centre"}}, {"type": "Feature", "geometry": {"type": "Polygon", "coordinates": [[[109.378264, 24.32283], [109.37884, 24.322758], [109.379466, 24.322528], [109.379998, 24.322428], [109.380614, 24.32253], [109.380586, 24.322785], [109.380546, 24.322992], [109.38046, 24.323198], [109.380184, 24.323466], [109.379489, 24.323235], [109.378264, 24.32283]]]}, "properties": {"display_name": "柳州市柳铁中心医院西院, 西环路东一巷, 河西街道, 磨滩四区, 柳南区, 柳州市, 广西壮族自治区, 545000, 中国", "type": "hospital", "osm_type": "way", "osm_id": 544057939, "class": null, "keyword": "市中心"}}, {"type": "Feature", "geometry": {"type": "Polygon", "coordinates": [[[109.538966, 24.374433], [109.539307, 24.373338], [109.539324, 24.373285], [109.539757, 24.373396], [109.53974, 24.373451], [109.539996, 24.373517], [109.540005, 24.373488], [109.540359, 24.37358], [109.540289, 24.373806], [109.54041, 24.373837], [109.540328, 24.374099], [109.540501, 24.374144], [109.540437, 24.374349], [109.540386, 24.374514], [109.540303, 24.374778], [109.538966, 24.374433]], [[109.539345, 24.374243], [109.539912, 24.374391], [109.539961, 24.374229], [109.540167, 24.374281], [109.540231, 24.374075], [109.540288, 24.373892], [109.54005, 24.373831], [109.539741, 24.37375], [109.53963, 24.374101], [109.539408, 24.374043], [109.539345, 24.374243]]]}, "properties": {"display_name": "柳州市民服务中心, 九子岭大道, 雒容镇, 柳东新区, 鱼峰区, 柳州市, 广西壮族自治区, 545616, 中国", "type": "yes", "osm_type": "relation", "osm_id": 11919231, "class": null, "keyword": "市中心"}}, {"type": "Feature", "geometry": {"type": "Polygon", "coordinates": [[[109.436372, 24.354659], [109.436372, 24.353462], [109.437347, 24.353462], [109.437347, 24.354659], [109.436372, 24.354659]]]}, "properties": {"display_name": "广西广播电视技术中心柳州分中心, 沿江街道, 城中区, 柳州市, 广西壮族自治区, 中国", "type": "commercial", "osm_type": "way", "osm_id": 775904715, "class": null, "keyword": "市中心"}}, {"type": "Feature", "geometry": {"type": "Polygon", "coordinates": [[[109.526084, 24.384289], [109.526088, 24.384163], [109.526134, 24.384044], [109.526218, 24.383943], [109.526332, 24.383871], [109.526465, 24.383835], [109.526605, 24.383837], [109.526738, 24.383879], [109.526849, 24.383957], [109.526929, 24.384062], [109.526968, 24.384185], [109.526964, 24.384313], [109.526917, 24.384433], [109.52683, 24.384534], [109.526714, 24.384606], [109.526579, 24.384641], [109.52644, 24.384636], [109.52631, 24.384593], [109.526201, 24.384515], [109.526122, 24.38441], [109.526084, 24.384289]]]}, "properties": {"display_name": "柳州市网球中心, 职校路, 雒容镇, 柳东新区, 鱼峰区, 柳州市, 广西壮族自治区, 545616, 中国", "type": "pitch", "osm_type": "way", "osm_id": 712661891, "class": null, "keyword": "市中心"}}, {"type": "Feature", "geometry": {"type": "Polygon", "coordinates": [[[109.406653, 24.314613], [109.406683, 24.314565], [109.407471, 24.314536], [109.407482, 24.314785], [109.407523, 24.314784], [109.407526, 24.314842], [109.407537, 24.315113], [109.407363, 24.315119], [109.407366, 24.315192], [109.407032, 24.315204], [109.407028, 24.315128], [109.406676, 24.315141], [109.406653, 24.314613]]]}, "properties": {"display_name": "工贸大厦, 2, 龙城路, 城中街道, 柳州市, 城中区, 柳州市, 广西壮族自治区, 545006, 中国", "type": "mall", "osm_type": "way", "osm_id": 205654205, "class": null, "keyword": "city centre"}}, {"type": "Feature", "geometry": {"type": "Polygon", "coordinates": [[[109.407444, 24.319803], [109.407458, 24.319067], [109.408076, 24.319076], [109.408069, 24.319418], [109.407851, 24.319415], [109.407844, 24.319809], [109.407444, 24.319803]]]}, "properties": {"display_name": "柳州市青少年与儿童活动中心, 广场东通道, 城中街道, 柳州市, 城中区, 柳州市, 广西壮族自治区, 545006, 中国", "type": "community_centre", "osm_type": "way", "osm_id": 205657499, "class": null, "keyword": "市中心"}}, {"type": "Feature", "geometry": {"type": "Polygon", "coordinates": [[[109.420443, 24.346411], [109.420905, 24.346409], [109.420909, 24.347071], [109.420447, 24.347073], [109.420443, 24.346411]]]}, "properties": {"display_name": "柳州市政务服务中心住房公积金分中心, 高新一路北一巷, 桂中社区, 沿江街道, 柳州市, 城中区, 柳州市, 广西壮族自治区, 545006, 中国", "type": "government", "osm_type": "way", "osm_id": 550400895, "class": null, "keyword": "市中心"}}, {"type": "Feature", "geometry": {"type": "Polygon", "coordinates": [[[109.409495, 24.301401], [109.409825, 24.301342], [109.410149, 24.301363], [109.410544, 24.301513], [109.410827, 24.301659], [109.410669, 24.301997], [109.410177, 24.301529], [109.409862, 24.301422], [109.409495, 24.301401]]]}, "properties": {"display_name": "柳州市人防指挥保障中心, 乐群路, 天马街道, 驾鹤村, 鱼峰区, 柳州市, 广西壮族自治区, 545006, 中国", "type": "government", "osm_type": "way", "osm_id": 1299099016, "class": null, "keyword": "市中心"}}, {"type": "Feature", "geometry": {"type": "Polygon", "coordinates": [[[109.63044, 25.887202], [109.630585, 25.886863], [109.631008, 25.88701], [109.630862, 25.887348], [109.63044, 25.887202]]]}, "properties": {"display_name": "程阳八寨南游客中心, S506, 程阳, 三江侗族自治县, 柳州市, 广西壮族自治区, 545505, 中国", "type": "office", "osm_type": "way", "osm_id": 1193779456, "class": null, "keyword": "中心城区"}}, {"type": "Feature", "geometry": {"type": "Polygon", "coordinates": [[[109.446158, 25.369892], [109.44637, 25.36979], [109.44642, 25.369874], [109.446207, 25.369977], [109.446158, 25.369892]]]}, "properties": {"display_name": "丹洲古城游客中心, G209;S208, 丹洲镇, 三江侗族自治县, 融安县, 柳州市, 广西壮族自治区, 中国", "type": "information", "osm_type": "way", "osm_id": 1193779440, "class": null, "keyword": "中心城区"}}, {"type": "Feature", "geometry": {"type": "Polygon", "coordinates": [[[109.641868, 25.913263], [109.642069, 25.91322], [109.642085, 25.913284], [109.641885, 25.913327], [109.641868, 25.913263]]]}, "properties": {"display_name": "程阳八寨北游客中心, S506, 岩寨, 平铺, 三江侗族自治县, 柳州市, 广西壮族自治区, 545505, 中国", "type": "information", "osm_type": "way", "osm_id": 1193779443, "class": null, "keyword": "中心城区"}}]}