{"type": "FeatureCollection", "features": [{"type": "Feature", "geometry": {"type": "Polygon", "coordinates": [[[14.503737, 46.055338], [14.503902, 46.055303], [14.503992, 46.055285], [14.504084, 46.055262], [14.504038, 46.055175], [14.504098, 46.05516], [14.504461, 46.055078], [14.504562, 46.055318], [14.504296, 46.055375], [14.504163, 46.055404], [14.504189, 46.055461], [14.504114, 46.055479], [14.504064, 46.055489], [14.503837, 46.055545], [14.503737, 46.055338]]]}, "properties": {"display_name": "Knjižnica Otona Župančiča, 2, Kersnikova ulica, Grajski grič, Četrtna skupnost Center, Ljubljana, Upravna Enota Ljubljana, 1000, Slovenija", "type": "library", "osm_type": "way", "osm_id": 140118468, "class": null, "keyword": "city center"}}]}