{"type": "FeatureCollection", "features": [{"type": "Feature", "geometry": {"type": "Polygon", "coordinates": [[[1.242466, 6.15331], [1.242659, 6.153235], [1.243097, 6.153075], [1.243273, 6.153019], [1.243391, 6.152945], [1.243975, 6.152583], [1.244128, 6.15251], [1.244282, 6.152465], [1.244432, 6.152467], [1.244525, 6.152595], [1.244605, 6.152721], [1.244691, 6.152842], [1.244806, 6.153145], [1.244945, 6.153374], [1.245013, 6.153445], [1.245206, 6.153602], [1.245536, 6.153855], [1.245863, 6.154094], [1.246357, 6.154441], [1.246628, 6.154585], [1.246925, 6.154685], [1.247466, 6.154869], [1.2488, 6.155459], [1.249121, 6.155855], [1.249589, 6.156438], [1.251017, 6.158238], [1.252396, 6.159982], [1.253801, 6.161772], [1.254298, 6.162401], [1.254952, 6.163204], [1.255912, 6.164366], [1.256779, 6.1645], [1.257825, 6.16587], [1.257495, 6.166281], [1.257556, 6.166436], [1.25984, 6.169293], [1.261182, 6.170982], [1.263049, 6.173332], [1.264015, 6.174548], [1.266172, 6.177236], [1.270898, 6.183164], [1.271233, 6.183884], [1.271217, 6.184633], [1.270871, 6.185302], [1.269318, 6.186547], [1.267802, 6.186595], [1.265195, 6.187262], [1.263602, 6.187673], [1.262918, 6.187833], [1.262486, 6.18767], [1.262309, 6.187601], [1.262036, 6.187499], [1.261786, 6.18739], [1.261059, 6.187121], [1.260622, 6.185595], [1.258761, 6.186078], [1.258219, 6.186222], [1.257371, 6.186446], [1.25709, 6.185475], [1.256309, 6.18551], [1.255928, 6.184065], [1.255749, 6.183414], [1.255459, 6.182137], [1.255022, 6.180366], [1.254332, 6.177546], [1.254021, 6.176278], [1.253788, 6.175262], [1.253345, 6.173514], [1.253084, 6.172434], [1.253161, 6.17239], [1.253193, 6.172372], [1.253003, 6.172125], [1.252967, 6.172078], [1.252671, 6.171709], [1.252359, 6.171296], [1.252141, 6.17103], [1.251983, 6.17084], [1.251861, 6.170692], [1.251052, 6.169713], [1.250581, 6.169132], [1.250446, 6.168973], [1.250148, 6.168589], [1.249547, 6.167834], [1.249146, 6.167352], [1.248936, 6.167033], [1.248717, 6.166592], [1.248669, 6.16656], [1.248478, 6.166406], [1.248366, 6.16631], [1.248277, 6.166217], [1.248737, 6.165809], [1.24873, 6.165798], [1.248699, 6.165756], [1.248402, 6.16535], [1.247621, 6.164401], [1.247549, 6.164444], [1.247469, 6.164356], [1.247705, 6.164161], [1.247033, 6.163289], [1.247104, 6.163204], [1.246817, 6.162855], [1.246701, 6.162708], [1.246506, 6.162472], [1.246457, 6.162481], [1.246435, 6.162453], [1.245886, 6.161782], [1.245122, 6.160806], [1.245511, 6.16047], [1.244969, 6.159803], [1.244564, 6.159953], [1.243614, 6.159876], [1.24363, 6.159829], [1.244022, 6.158705], [1.243955, 6.15867], [1.244204, 6.158052], [1.244253, 6.15807], [1.244526, 6.157371], [1.244177, 6.156931], [1.243987, 6.156644], [1.243815, 6.156534], [1.243817, 6.155419], [1.243999, 6.155283], [1.243831, 6.155069], [1.24363, 6.154809], [1.243567, 6.154713], [1.242874, 6.153849], [1.242466, 6.15331]]]}, "properties": {"display_name": "Aéroport International Gnassingbé Eyadéma de Lomé Tokoin, Boulevard Malfakassa, Bè-Kpota, 2e Arrondissement, Lomé, Région Maritime, Togo", "type": "aerodrome", "osm_type": "relation", "osm_id": 10737115, "class": null, "keyword": "district"}}, {"type": "Feature", "geometry": {"type": "Polygon", "coordinates": [[[1.206168, 6.182056], [1.206614, 6.179233], [1.206975, 6.176878], [1.207113, 6.175979], [1.207288, 6.174827], [1.207486, 6.173567], [1.208108, 6.169646], [1.208586, 6.1665], [1.208789, 6.165184], [1.218339, 6.165138], [1.222709, 6.16517], [1.222543, 6.165541], [1.222422, 6.165853], [1.222077, 6.166709], [1.221563, 6.167932], [1.221402, 6.168336], [1.221223, 6.168726], [1.221039, 6.169152], [1.220953, 6.169341], [1.22081, 6.16964], [1.220705, 6.169856], [1.220571, 6.170123], [1.220406, 6.170448], [1.220208, 6.170796], [1.22008, 6.17103], [1.219794, 6.171576], [1.219567, 6.172044], [1.219454, 6.172253], [1.219287, 6.172568], [1.219128, 6.172861], [1.218945, 6.173221], [1.218821, 6.173479], [1.218648, 6.173822], [1.21854, 6.174024], [1.218437, 6.174216], [1.218344, 6.174391], [1.218148, 6.174764], [1.218093, 6.174884], [1.217886, 6.175302], [1.217811, 6.175439], [1.217727, 6.1756], [1.217635, 6.175786], [1.217574, 6.175916], [1.217507, 6.176049], [1.217437, 6.176182], [1.217356, 6.176335], [1.217222, 6.176593], [1.21712, 6.176804], [1.216789, 6.177422], [1.216732, 6.177532], [1.216532, 6.177913], [1.216337, 6.178295], [1.215961, 6.17904], [1.215584, 6.179787], [1.215411, 6.180124], [1.215244, 6.180469], [1.214891, 6.181162], [1.214395, 6.18215], [1.214321, 6.182352], [1.214128, 6.182765], [1.213976, 6.183079], [1.213888, 6.183266], [1.213563, 6.183917], [1.213444, 6.184197], [1.213172, 6.184756], [1.212195, 6.186791], [1.211625, 6.187983], [1.211315, 6.188611], [1.21127, 6.188706], [1.211226, 6.188684], [1.211184, 6.188663], [1.211031, 6.188582], [1.210969, 6.188544], [1.210809, 6.18847], [1.209755, 6.18793], [1.209608, 6.187849], [1.209449, 6.187758], [1.208966, 6.187503], [1.208614, 6.187291], [1.208432, 6.18716], [1.208246, 6.187016], [1.208089, 6.186853], [1.207801, 6.186553], [1.207546, 6.186239], [1.207314, 6.185864], [1.207172, 6.185585], [1.207075, 6.185412], [1.206997, 6.18527], [1.206936, 6.185086], [1.206733, 6.184426], [1.206168, 6.182056]]]}, "properties": {"display_name": "Université de Lomé, 5e Arrondissement, Lomé, Région Maritime, Togo", "type": "administrative", "osm_type": "relation", "osm_id": 6610613, "class": null, "keyword": "district"}}, {"type": "Feature", "geometry": {"type": "Polygon", "coordinates": [[[1.269525, 6.134447], [1.27366, 6.134541], [1.273713, 6.134543], [1.27371, 6.135195], [1.2737, 6.13673], [1.283554, 6.136716], [1.283545, 6.136945], [1.283543, 6.137005], [1.281313, 6.139216], [1.278673, 6.139208], [1.278222, 6.140325], [1.278188, 6.140446], [1.273366, 6.139113], [1.273313, 6.139098], [1.273266, 6.139085], [1.27282, 6.138962], [1.270049, 6.138173], [1.269688, 6.138071], [1.26953, 6.137856], [1.269525, 6.134447]]]}, "properties": {"display_name": "Lomé Container Terminal, Zone Portuaire, 3e Arrondissement, Lomé, Région Maritime, Togo", "type": "industrial", "osm_type": "way", "osm_id": 696787047, "class": null, "keyword": "district"}}, {"type": "Feature", "geometry": {"type": "Polygon", "coordinates": [[[1.277934, 6.141229], [1.278188, 6.140446], [1.278222, 6.140325], [1.278673, 6.139208], [1.281313, 6.139216], [1.281083, 6.139645], [1.280495, 6.140288], [1.280424, 6.140426], [1.280468, 6.140477], [1.280549, 6.140399], [1.280617, 6.140332], [1.280759, 6.140188], [1.280884, 6.14006], [1.280911, 6.140091], [1.280787, 6.140216], [1.280651, 6.140354], [1.280574, 6.140427], [1.280454, 6.140543], [1.280434, 6.140518], [1.28045, 6.140498], [1.280407, 6.140464], [1.280329, 6.140459], [1.280124, 6.140645], [1.280354, 6.14092], [1.280569, 6.141212], [1.280684, 6.141184], [1.280802, 6.141123], [1.280849, 6.141096], [1.282279, 6.139955], [1.283095, 6.139292], [1.283503, 6.139786], [1.282566, 6.140547], [1.281596, 6.141294], [1.281178, 6.141648], [1.281143, 6.141734], [1.281177, 6.141818], [1.281333, 6.141934], [1.281851, 6.142102], [1.282697, 6.142335], [1.282734, 6.142195], [1.282761, 6.142196], [1.282805, 6.142061], [1.28246, 6.141973], [1.282471, 6.141921], [1.28305, 6.142083], [1.283041, 6.14212], [1.282841, 6.142066], [1.282797, 6.142197], [1.282813, 6.142213], [1.282817, 6.142247], [1.282792, 6.142354], [1.283108, 6.142439], [1.283464, 6.142431], [1.285379, 6.140911], [1.285393, 6.140919], [1.285393, 6.140934], [1.285144, 6.141147], [1.285474, 6.141602], [1.285858, 6.142081], [1.285993, 6.141972], [1.285998, 6.141947], [1.286035, 6.141922], [1.286051, 6.141926], [1.286122, 6.141876], [1.286136, 6.141885], [1.28614, 6.141899], [1.284366, 6.143293], [1.284556, 6.143504], [1.288238, 6.144344], [1.288067, 6.145075], [1.287931, 6.145568], [1.288078, 6.145601], [1.288179, 6.145624], [1.288462, 6.145687], [1.288516, 6.145406], [1.28867, 6.145433], [1.288512, 6.146282], [1.288003, 6.14914], [1.28722, 6.149177], [1.287097, 6.14927], [1.287003, 6.149134], [1.286838, 6.148822], [1.286557, 6.148555], [1.283731, 6.14765], [1.282407, 6.147216], [1.282668, 6.145863], [1.282703, 6.145717], [1.282779, 6.145478], [1.282809, 6.145385], [1.282814, 6.145356], [1.282852, 6.145153], [1.283014, 6.144297], [1.283022, 6.144252], [1.283123, 6.14371], [1.283114, 6.143664], [1.283092, 6.143629], [1.282983, 6.143451], [1.28254, 6.14308], [1.282285, 6.142855], [1.282141, 6.142766], [1.281907, 6.142655], [1.281033, 6.142361], [1.27976, 6.141934], [1.27962, 6.141814], [1.27932, 6.141691], [1.277934, 6.141229]]]}, "properties": {"display_name": "Port autonome de Lomé, Zone Portuaire, 3e Arrondissement, Lomé, Région Maritime, Togo", "type": "industrial", "osm_type": "way", "osm_id": 445479852, "class": null, "keyword": "district"}}, {"type": "Feature", "geometry": {"type": "Polygon", "coordinates": [[[1.214402, 6.126328], [1.214465, 6.126217], [1.214551, 6.126115], [1.214637, 6.126037], [1.214735, 6.125974], [1.214854, 6.125919], [1.214975, 6.125886], [1.214979, 6.125912], [1.215073, 6.1259], [1.215081, 6.125941], [1.215158, 6.125939], [1.215157, 6.125972], [1.215235, 6.125984], [1.215236, 6.126019], [1.215312, 6.126037], [1.215397, 6.126101], [1.215647, 6.126444], [1.215674, 6.126424], [1.215855, 6.126679], [1.215822, 6.126704], [1.216031, 6.127015], [1.216061, 6.12709], [1.216059, 6.12717], [1.216091, 6.127172], [1.216084, 6.127243], [1.216115, 6.127245], [1.216103, 6.127318], [1.216121, 6.127328], [1.216096, 6.127398], [1.216122, 6.127413], [1.21606, 6.127517], [1.215969, 6.127621], [1.215874, 6.127709], [1.215776, 6.127768], [1.21566, 6.127815], [1.215521, 6.127837], [1.21552, 6.127815], [1.215444, 6.127817], [1.215443, 6.127793], [1.215374, 6.127781], [1.215374, 6.127749], [1.215294, 6.127733], [1.215292, 6.127705], [1.215232, 6.12767], [1.215141, 6.127609], [1.215, 6.127424], [1.214908, 6.127488], [1.214559, 6.127019], [1.214652, 6.12695], [1.214548, 6.126809], [1.21449, 6.126719], [1.214466, 6.126648], [1.214457, 6.126572], [1.214429, 6.126564], [1.214442, 6.126486], [1.214407, 6.126478], [1.214429, 6.126411], [1.214404, 6.1264], [1.214428, 6.126342], [1.214402, 6.126328]], [[1.214534, 6.126532], [1.214544, 6.126651], [1.214611, 6.126783], [1.214706, 6.12691], [1.214657, 6.12695], [1.215005, 6.127418], [1.215048, 6.127385], [1.215128, 6.127489], [1.215202, 6.127577], [1.215304, 6.12764], [1.21543, 6.127674], [1.21556, 6.127674], [1.215679, 6.127641], [1.215805, 6.127563], [1.215895, 6.127478], [1.215953, 6.127383], [1.215984, 6.127257], [1.215977, 6.127114], [1.21595, 6.127009], [1.215357, 6.126151], [1.215262, 6.126083], [1.215142, 6.126064], [1.214983, 6.126073], [1.214847, 6.126115], [1.214741, 6.126176], [1.214638, 6.126284], [1.214557, 6.126403], [1.214534, 6.126532]]]}, "properties": {"display_name": "Stade omnisport de Lomé, Rue du Stade, Quartier Administratif, 1er Arrondissement, Lomé, Région Maritime, Togo", "type": "stadium", "osm_type": "relation", "osm_id": 5646897, "class": null, "keyword": "district"}}]}