{"type": "FeatureCollection", "features": [{"type": "Feature", "geometry": {"type": "Polygon", "coordinates": [[[110.826072, 22.414144], [110.830677, 22.410509], [110.83088, 22.407557], [110.830137, 22.406306], [110.828676, 22.403473], [110.828393, 22.402515], [110.828309, 22.399633], [110.82863, 22.397805], [110.829172, 22.39541], [110.830896, 22.390144], [110.834523, 22.388516], [110.837034, 22.387419], [110.838928, 22.384032], [110.840388, 22.378623], [110.847509, 22.379757], [110.849684, 22.376035], [110.856393, 22.365735], [110.856569, 22.363087], [110.85533, 22.35096], [110.86044, 22.351753], [110.862562, 22.351908], [110.865246, 22.350972], [110.863701, 22.341969], [110.867733, 22.335558], [110.86548, 22.328654], [110.867534, 22.32379], [110.867208, 22.321744], [110.866264, 22.322284], [110.86548, 22.320078], [110.873586, 22.308745], [110.876329, 22.311742], [110.882098, 22.315267], [110.88131, 22.312622], [110.883544, 22.309603], [110.886291, 22.303625], [110.885885, 22.299406], [110.895561, 22.298673], [110.898877, 22.298734], [110.901591, 22.299597], [110.902878, 22.296104], [110.903909, 22.296666], [110.9052, 22.297994], [110.90809, 22.297309], [110.908986, 22.296977], [110.908687, 22.293874], [110.909922, 22.293768], [110.911637, 22.2946], [110.912519, 22.300096], [110.914288, 22.298575], [110.915414, 22.297323], [110.919149, 22.295309], [110.921051, 22.297193], [110.92206, 22.293998], [110.924457, 22.292216], [110.929578, 22.290417], [110.931722, 22.292284], [110.934714, 22.293655], [110.93769, 22.294889], [110.939011, 22.297529], [110.938928, 22.298921], [110.937764, 22.300452], [110.937225, 22.301704], [110.934968, 22.303682], [110.934332, 22.305501], [110.934878, 22.306651], [110.935629, 22.308199], [110.936088, 22.308899], [110.936362, 22.309159], [110.936562, 22.309693], [110.936341, 22.310248], [110.936107, 22.310684], [110.935618, 22.311051], [110.934195, 22.311577], [110.931496, 22.312427], [110.930488, 22.313031], [110.93019, 22.313626], [110.930201, 22.314439], [110.930527, 22.315117], [110.932386, 22.31674], [110.932534, 22.318033], [110.93218, 22.319368], [110.931823, 22.32063], [110.932114, 22.322787], [110.932362, 22.325546], [110.93186, 22.328304], [110.93184, 22.329202], [110.932285, 22.331944], [110.932794, 22.335068], [110.932978, 22.336201], [110.933265, 22.337088], [110.933797, 22.338206], [110.934361, 22.338947], [110.937142, 22.340534], [110.938114, 22.341262], [110.938544, 22.341893], [110.938729, 22.343275], [110.938733, 22.344072], [110.938729, 22.344806], [110.938701, 22.349753], [110.938929, 22.351101], [110.939332, 22.352755], [110.940262, 22.353336], [110.941761, 22.353431], [110.942446, 22.353271], [110.943263, 22.352703], [110.944197, 22.352288], [110.944743, 22.352288], [110.944838, 22.352398], [110.94512, 22.352726], [110.945719, 22.355584], [110.946564, 22.357392], [110.947147, 22.35864], [110.948704, 22.360948], [110.949556, 22.36221], [110.95015, 22.363166], [110.950388, 22.364762], [110.950379, 22.365212], [110.950336, 22.367334], [110.949388, 22.372643], [110.949107, 22.373451], [110.949066, 22.37357], [110.948997, 22.373767], [110.947997, 22.37704], [110.94713, 22.380096], [110.946677, 22.381869], [110.946543, 22.382448], [110.946194, 22.383852], [110.945915, 22.385077], [110.945867, 22.385305], [110.94581, 22.385825], [110.945903, 22.386439], [110.946125, 22.38697], [110.947979, 22.389736], [110.948697, 22.390822], [110.950016, 22.393275], [110.950687, 22.394557], [110.951191, 22.395797], [110.951345, 22.397856], [110.951325, 22.398899], [110.951912, 22.399026], [110.952898, 22.399321], [110.953739, 22.399155], [110.953961, 22.400745], [110.955195, 22.402108], [110.956366, 22.403172], [110.95581, 22.406041], [110.953446, 22.403723], [110.951108, 22.40479], [110.946721, 22.405614], [110.943199, 22.407982], [110.939084, 22.415136], [110.939182, 22.418322], [110.937206, 22.420529], [110.929698, 22.422652], [110.926209, 22.423422], [110.923488, 22.422839], [110.920264, 22.420967], [110.917364, 22.419907], [110.911425, 22.419295], [110.907255, 22.417086], [110.903391, 22.416056], [110.900642, 22.416367], [110.896158, 22.416454], [110.892968, 22.416695], [110.89126, 22.417946], [110.890647, 22.412082], [110.889216, 22.411684], [110.884912, 22.409421], [110.875336, 22.410865], [110.867219, 22.414754], [110.871261, 22.421209], [110.873222, 22.42532], [110.87075, 22.42633], [110.871358, 22.432751], [110.869419, 22.431573], [110.868222, 22.429292], [110.865631, 22.428752], [110.863188, 22.429234], [110.862859, 22.426386], [110.861665, 22.426575], [110.852867, 22.427938], [110.853777, 22.431869], [110.852847, 22.436268], [110.851042, 22.439082], [110.847774, 22.435085], [110.847453, 22.432554], [110.845321, 22.432342], [110.843615, 22.43158], [110.834242, 22.425835], [110.831348, 22.420864], [110.8313, 22.419504], [110.830445, 22.418491], [110.826072, 22.414144]]]}, "properties": {"display_name": "东镇街道, 信宜市, 茂名市, 广东省, 525300, 中国", "type": "administrative", "osm_type": "relation", "osm_id": 19228722, "class": null, "keyword": "subdistrict"}}, {"type": "Feature", "geometry": {"type": "Polygon", "coordinates": [[[110.93019, 22.313626], [110.930488, 22.313031], [110.931496, 22.312427], [110.931497, 22.312427], [110.931589, 22.312518], [110.934775, 22.31566], [110.936778, 22.318746], [110.937489, 22.317994], [110.937903, 22.313485], [110.943285, 22.315548], [110.946979, 22.314907], [110.948832, 22.315646], [110.950003, 22.317916], [110.950363, 22.316169], [110.951518, 22.320138], [110.951269, 22.3217], [110.949388, 22.325303], [110.950757, 22.327409], [110.953486, 22.324667], [110.955239, 22.324052], [110.954453, 22.321944], [110.955447, 22.32048], [110.958092, 22.321417], [110.958107, 22.323567], [110.959622, 22.325223], [110.959954, 22.327611], [110.960979, 22.329276], [110.962032, 22.331736], [110.962045, 22.334152], [110.963771, 22.336264], [110.963601, 22.338225], [110.96657, 22.336385], [110.967973, 22.335703], [110.96897, 22.333486], [110.971597, 22.33283], [110.973708, 22.331928], [110.976875, 22.335426], [110.980097, 22.335217], [110.98093, 22.333352], [110.981787, 22.331713], [110.982803, 22.332343], [110.982667, 22.334909], [110.984348, 22.335006], [110.984729, 22.334274], [110.984955, 22.333352], [110.983466, 22.329782], [110.98367, 22.3292], [110.986948, 22.33108], [110.986141, 22.332299], [110.988506, 22.33385], [110.990623, 22.33474], [110.993549, 22.334981], [110.992335, 22.332838], [110.99361, 22.331566], [110.998114, 22.331459], [111.00281, 22.33456], [111.006318, 22.335365], [111.011588, 22.336061], [111.011592, 22.336052], [111.013144, 22.332839], [111.014252, 22.330237], [111.017188, 22.330833], [111.021071, 22.330882], [111.023352, 22.332676], [111.025114, 22.333529], [111.023002, 22.335406], [111.019313, 22.341501], [111.020303, 22.342264], [111.021428, 22.341992], [111.022598, 22.341699], [111.028504, 22.335039], [111.029485, 22.336921], [111.029726, 22.338058], [111.034128, 22.337875], [111.036167, 22.342595], [111.037683, 22.347966], [111.039995, 22.346077], [111.040672, 22.347428], [111.041394, 22.349829], [111.041642, 22.35239], [111.043107, 22.352845], [111.043959, 22.355431], [111.043796, 22.357535], [111.044672, 22.359032], [111.042701, 22.360328], [111.040027, 22.361744], [111.040837, 22.363038], [111.036914, 22.365189], [111.036204, 22.368837], [111.034824, 22.37048], [111.032512, 22.371934], [111.0326, 22.374593], [111.032982, 22.37622], [111.034169, 22.377415], [111.033663, 22.379672], [111.033042, 22.380849], [111.029453, 22.381866], [111.03002, 22.384348], [111.038201, 22.385169], [111.042144, 22.382431], [111.042696, 22.384917], [111.038304, 22.389071], [111.045619, 22.388569], [111.04602, 22.392669], [111.04182, 22.394957], [111.042005, 22.396982], [111.045079, 22.397729], [111.051167, 22.40017], [111.053902, 22.402802], [111.054428, 22.411048], [111.051943, 22.414015], [111.047103, 22.415365], [111.04448, 22.416503], [111.036676, 22.412103], [111.038596, 22.416262], [111.028903, 22.417536], [111.028531, 22.413725], [111.024005, 22.413117], [111.023223, 22.417455], [111.024917, 22.419745], [111.023647, 22.421403], [111.019374, 22.4212], [111.020077, 22.418773], [111.018337, 22.41651], [111.014872, 22.414287], [111.012689, 22.416265], [111.010971, 22.419691], [111.007868, 22.41644], [111.004605, 22.418147], [111.001765, 22.422197], [111.000361, 22.421918], [110.998893, 22.420982], [110.997686, 22.419535], [110.995082, 22.417144], [110.994211, 22.414798], [110.992301, 22.413738], [110.98859, 22.41053], [110.987144, 22.409489], [110.984409, 22.411671], [110.98237, 22.414577], [110.977321, 22.414962], [110.977386, 22.409981], [110.976471, 22.408197], [110.976079, 22.402649], [110.973208, 22.401104], [110.96993, 22.398876], [110.96561, 22.397803], [110.964949, 22.391384], [110.961778, 22.386893], [110.960627, 22.389564], [110.956646, 22.392732], [110.953943, 22.390867], [110.953465, 22.390538], [110.952344, 22.390204], [110.95043, 22.389633], [110.950037, 22.393244], [110.950016, 22.393275], [110.948697, 22.390822], [110.947979, 22.389736], [110.946125, 22.38697], [110.945903, 22.386439], [110.94581, 22.385825], [110.945867, 22.385305], [110.945915, 22.385077], [110.946194, 22.383852], [110.946543, 22.382448], [110.946677, 22.381869], [110.94713, 22.380096], [110.947997, 22.37704], [110.948997, 22.373767], [110.949066, 22.37357], [110.949107, 22.373451], [110.949388, 22.372643], [110.950336, 22.367334], [110.950379, 22.365212], [110.950388, 22.364762], [110.95015, 22.363166], [110.949556, 22.36221], [110.948704, 22.360948], [110.947147, 22.35864], [110.946564, 22.357392], [110.945719, 22.355584], [110.94512, 22.352726], [110.944838, 22.352398], [110.944743, 22.352288], [110.944197, 22.352288], [110.943263, 22.352703], [110.942446, 22.353271], [110.941761, 22.353431], [110.940262, 22.353336], [110.939332, 22.352755], [110.938929, 22.351101], [110.938701, 22.349753], [110.938729, 22.344806], [110.938733, 22.344072], [110.938729, 22.343275], [110.938544, 22.341893], [110.938114, 22.341262], [110.937142, 22.340534], [110.934361, 22.338947], [110.933797, 22.338206], [110.933265, 22.337088], [110.932978, 22.336201], [110.932794, 22.335068], [110.932285, 22.331944], [110.93184, 22.329202], [110.93186, 22.328304], [110.932362, 22.325546], [110.932114, 22.322787], [110.931823, 22.32063], [110.93218, 22.319368], [110.932534, 22.318033], [110.932386, 22.31674], [110.930527, 22.315117], [110.930201, 22.314439], [110.93019, 22.313626]]]}, "properties": {"display_name": "玉都街道, 信宜市, 茂名市, 广东省, 中国", "type": "administrative", "osm_type": "relation", "osm_id": 19177025, "class": null, "keyword": "subdistrict"}}, {"type": "Feature", "geometry": {"type": "Polygon", "coordinates": [[[110.890355, 21.61357], [110.89123, 21.612478], [110.895393, 21.609769], [110.896312, 21.608435], [110.896064, 21.606978], [110.896648, 21.606638], [110.897871, 21.605927], [110.899067, 21.605687], [110.90057, 21.606237], [110.903343, 21.609033], [110.904246, 21.610358], [110.905664, 21.611824], [110.907281, 21.613177], [110.907991, 21.613464], [110.909382, 21.613438], [110.910748, 21.613308], [110.914117, 21.61262], [110.914235, 21.614984], [110.916584, 21.615712], [110.919399, 21.615927], [110.920408, 21.618219], [110.920995, 21.619628], [110.920914, 21.620187], [110.921239, 21.621306], [110.922134, 21.623573], [110.922761, 21.624843], [110.92307, 21.626537], [110.923587, 21.627041], [110.925994, 21.627252], [110.927376, 21.627026], [110.927997, 21.627908], [110.92833, 21.628722], [110.928848, 21.629272], [110.929335, 21.629433], [110.929602, 21.629452], [110.930062, 21.629484], [110.932237, 21.628946], [110.932802, 21.628032], [110.933495, 21.625992], [110.934033, 21.624558], [110.934656, 21.623518], [110.935279, 21.622807], [110.936143, 21.62257], [110.937008, 21.622674], [110.938695, 21.623107], [110.938917, 21.621515], [110.93899, 21.619578], [110.93912, 21.618437], [110.940081, 21.618724], [110.939871, 21.619571], [110.940019, 21.62027], [110.941017, 21.620832], [110.941732, 21.621817], [110.942523, 21.623826], [110.942707, 21.62676], [110.942678, 21.627405], [110.942891, 21.627589], [110.944553, 21.62755], [110.944572, 21.627598], [110.945054, 21.628809], [110.945254, 21.629347], [110.945851, 21.630627], [110.945955, 21.636025], [110.945582, 21.637734], [110.945243, 21.638607], [110.944836, 21.639412], [110.944072, 21.640315], [110.943647, 21.641632], [110.937388, 21.642816], [110.935129, 21.643226], [110.932116, 21.643824], [110.929454, 21.644252], [110.926756, 21.644794], [110.917872, 21.646599], [110.914439, 21.647347], [110.91195, 21.647875], [110.910448, 21.648374], [110.909042, 21.648907], [110.907708, 21.646005], [110.90728, 21.645088], [110.906749, 21.643451], [110.906499, 21.64332], [110.906514, 21.643344], [110.904371, 21.642197], [110.905365, 21.640481], [110.904509, 21.640447], [110.904724, 21.63936], [110.905023, 21.63886], [110.905092, 21.638828], [110.905027, 21.638426], [110.905188, 21.637962], [110.904497, 21.637623], [110.904928, 21.637657], [110.905477, 21.637599], [110.905497, 21.637597], [110.905583, 21.637338], [110.905379, 21.637168], [110.905003, 21.637128], [110.904629, 21.63645], [110.904626, 21.635965], [110.905729, 21.636273], [110.906157, 21.635195], [110.904618, 21.634455], [110.905101, 21.633916], [110.905271, 21.633667], [110.905518, 21.633717], [110.905701, 21.633367], [110.90554, 21.633062], [110.905467, 21.632923], [110.906348, 21.630439], [110.904666, 21.629841], [110.904535, 21.62977], [110.904479, 21.629735], [110.903866, 21.629345], [110.903198, 21.628919], [110.90315, 21.627237], [110.903517, 21.626792], [110.90364, 21.625347], [110.903305, 21.623588], [110.90283, 21.620396], [110.902447, 21.617535], [110.90213, 21.615516], [110.901743, 21.615084], [110.90034, 21.615604], [110.900105, 21.615723], [110.899572, 21.616727], [110.899559, 21.616753], [110.899067, 21.617917], [110.897705, 21.617753], [110.896104, 21.618246], [110.894839, 21.618273], [110.89344, 21.617925], [110.892198, 21.617957], [110.891843, 21.616641], [110.894125, 21.614914], [110.893301, 21.614811], [110.892797, 21.614862], [110.89206, 21.614797], [110.891404, 21.614383], [110.890756, 21.613699], [110.890355, 21.61357]]]}, "properties": {"display_name": "城南街道, 茂南区, 茂名市, 广东省, 中国", "type": "administrative", "osm_type": "relation", "osm_id": 15877051, "class": null, "keyword": "subdistrict"}}, {"type": "Feature", "geometry": {"type": "Polygon", "coordinates": [[[110.902538, 21.669435], [110.904988, 21.668137], [110.908192, 21.66687], [110.909403, 21.66645], [110.910432, 21.66628], [110.913698, 21.666247], [110.929083, 21.666255], [110.932875, 21.666257], [110.93362, 21.666257], [110.93855, 21.666259], [110.938573, 21.666304], [110.939166, 21.66742], [110.939375, 21.668987], [110.939245, 21.670799], [110.93849, 21.673427], [110.937092, 21.676349], [110.934062, 21.68064], [110.932248, 21.682628], [110.92809, 21.686786], [110.925747, 21.689399], [110.924492, 21.689242], [110.922843, 21.689692], [110.919683, 21.690073], [110.920251, 21.688128], [110.920423, 21.686403], [110.919212, 21.686414], [110.918922, 21.686593], [110.917916, 21.686594], [110.917961, 21.685479], [110.91758, 21.685507], [110.916739, 21.682827], [110.915545, 21.683277], [110.914227, 21.683], [110.913894, 21.683119], [110.913327, 21.68312], [110.913348, 21.684057], [110.913498, 21.684426], [110.913466, 21.685713], [110.909609, 21.685635], [110.909587, 21.68354], [110.909319, 21.683661], [110.908848, 21.68371], [110.90753, 21.683381], [110.906694, 21.682703], [110.906544, 21.682364], [110.906651, 21.681865], [110.906587, 21.681067], [110.905105, 21.680572], [110.90521, 21.679061], [110.905167, 21.677246], [110.904995, 21.67549], [110.902538, 21.669435]]]}, "properties": {"display_name": "官渡街道, 茂南区, 茂名市, 广东省, 中国", "type": "administrative", "osm_type": "relation", "osm_id": 12238031, "class": null, "keyword": "subdistrict"}}, {"type": "Feature", "geometry": {"type": "Polygon", "coordinates": [[[110.898539, 21.655125], [110.899193, 21.654048], [110.899616, 21.653485], [110.899804, 21.653236], [110.901854, 21.652393], [110.909042, 21.648907], [110.910448, 21.648374], [110.91195, 21.647875], [110.914439, 21.647347], [110.917872, 21.646599], [110.926756, 21.644794], [110.929454, 21.644252], [110.932116, 21.643824], [110.935129, 21.643226], [110.937388, 21.642816], [110.943647, 21.641632], [110.94393, 21.646174], [110.943338, 21.646836], [110.942735, 21.647039], [110.942352, 21.647067], [110.939962, 21.647321], [110.939912, 21.648436], [110.940207, 21.648652], [110.940313, 21.648751], [110.940547, 21.649256], [110.940356, 21.650462], [110.93993, 21.651669], [110.93902, 21.65301], [110.938212, 21.653816], [110.937109, 21.654699], [110.935799, 21.655449], [110.93467, 21.656309], [110.93414, 21.657101], [110.934065, 21.657497], [110.933026, 21.657497], [110.917294, 21.657504], [110.915206, 21.657469], [110.914556, 21.657479], [110.914441, 21.657479], [110.913776, 21.657483], [110.913674, 21.657483], [110.909044, 21.657479], [110.908946, 21.657515], [110.905529, 21.658757], [110.905137, 21.658987], [110.901927, 21.661311], [110.90079, 21.662089], [110.899472, 21.659223], [110.899858, 21.658236], [110.899934, 21.65672], [110.900856, 21.65679], [110.902852, 21.655783], [110.901696, 21.653721], [110.898743, 21.655254], [110.898539, 21.655125]]]}, "properties": {"display_name": "站前街道, 茂南区, 茂名市, 广东省, 中国", "type": "administrative", "osm_type": "relation", "osm_id": 12238029, "class": null, "keyword": "subdistrict"}}, {"type": "Feature", "geometry": {"type": "Polygon", "coordinates": [[[110.90079, 21.662089], [110.901927, 21.661311], [110.905137, 21.658987], [110.905529, 21.658757], [110.908946, 21.657515], [110.909044, 21.657479], [110.913674, 21.657483], [110.913776, 21.657483], [110.914441, 21.657479], [110.914556, 21.657479], [110.915206, 21.657469], [110.917294, 21.657504], [110.933026, 21.657497], [110.934065, 21.657497], [110.934001, 21.657829], [110.933802, 21.658861], [110.933906, 21.66034], [110.934444, 21.661563], [110.935495, 21.6627], [110.93704, 21.66403], [110.938368, 21.665918], [110.93855, 21.666259], [110.93362, 21.666257], [110.932875, 21.666257], [110.929083, 21.666255], [110.913698, 21.666247], [110.910432, 21.66628], [110.909403, 21.66645], [110.908192, 21.66687], [110.904988, 21.668137], [110.902538, 21.669435], [110.901822, 21.667751], [110.901287, 21.666134], [110.901222, 21.663441], [110.90079, 21.662089]]]}, "properties": {"display_name": "河东街道, 茂南区, 茂名市, 广东省, 中国", "type": "administrative", "osm_type": "relation", "osm_id": 12238030, "class": null, "keyword": "subdistrict"}}, {"type": "Feature", "geometry": {"type": "Polygon", "coordinates": [[[110.877864, 21.693874], [110.878406, 21.693355], [110.878695, 21.69352], [110.87935, 21.692927], [110.88065, 21.694125], [110.88103, 21.693676], [110.882227, 21.692436], [110.88227, 21.692391], [110.882555, 21.692545], [110.882672, 21.691867], [110.882962, 21.691538], [110.883048, 21.691184], [110.882878, 21.690718], [110.882154, 21.690812], [110.881982, 21.690627], [110.88114, 21.690412], [110.880778, 21.689949], [110.879627, 21.689368], [110.879101, 21.688448], [110.879166, 21.688178], [110.879656, 21.68765], [110.881746, 21.687528], [110.882029, 21.687606], [110.882501, 21.687466], [110.884979, 21.687528], [110.885043, 21.688606], [110.884979, 21.689583], [110.887317, 21.689525], [110.887424, 21.687999], [110.888798, 21.68795], [110.888862, 21.687231], [110.889484, 21.687322], [110.889602, 21.686425], [110.890493, 21.686474], [110.890686, 21.686264], [110.890998, 21.686743], [110.894572, 21.685221], [110.896842, 21.685567], [110.897357, 21.68372], [110.897829, 21.682523], [110.897901, 21.682389], [110.899773, 21.682326], [110.899772, 21.682789], [110.90003, 21.682908], [110.900223, 21.683388], [110.900545, 21.683946], [110.900159, 21.684106], [110.898746, 21.691868], [110.898209, 21.696076], [110.897909, 21.695977], [110.897285, 21.695936], [110.896076, 21.692837], [110.894457, 21.694891], [110.894185, 21.694985], [110.894347, 21.694301], [110.893573, 21.694312], [110.893594, 21.694938], [110.892415, 21.695109], [110.89197, 21.695039], [110.891401, 21.695956], [110.891016, 21.695721], [110.890909, 21.696119], [110.890738, 21.696438], [110.889922, 21.696757], [110.889237, 21.697873], [110.888421, 21.698571], [110.886555, 21.700823], [110.884795, 21.701799], [110.883765, 21.702098], [110.883222, 21.702244], [110.882562, 21.702118], [110.882101, 21.702423], [110.879645, 21.701538], [110.883422, 21.699157], [110.883074, 21.698789], [110.882654, 21.697917], [110.881359, 21.696941], [110.877864, 21.693874]]]}, "properties": {"display_name": "露天矿街道, 茂南区, 茂名市, 广东省, 中国", "type": "administrative", "osm_type": "relation", "osm_id": 12238032, "class": null, "keyword": "subdistrict"}}, {"type": "Feature", "geometry": {"type": "Polygon", "coordinates": [[[110.838178, 21.884463], [110.84049, 21.883259], [110.84195, 21.885643], [110.843922, 21.88458], [110.844659, 21.885813], [110.843339, 21.886557], [110.843604, 21.887002], [110.843004, 21.887348], [110.84303, 21.887401], [110.842548, 21.887667], [110.842588, 21.887726], [110.841564, 21.888306], [110.841295, 21.888316], [110.841059, 21.888276], [110.840877, 21.888187], [110.84067, 21.888054], [110.840131, 21.887343], [110.839798, 21.886768], [110.838178, 21.884463]]]}, "properties": {"display_name": "高州市体育中心, 下彭村, 高州市, 茂名市, 广东省, 中国", "type": "construction", "osm_type": "way", "osm_id": 937482064, "class": null, "keyword": "市中心"}}, {"type": "Feature", "geometry": {"type": "Polygon", "coordinates": [[[110.940047, 22.336084], [110.940082, 22.335067], [110.940097, 22.334638], [110.941398, 22.334622], [110.942012, 22.335253], [110.941733, 22.335265], [110.941711, 22.335828], [110.94213, 22.335857], [110.942714, 22.335898], [110.943149, 22.336306], [110.943911, 22.336858], [110.944931, 22.338372], [110.944963, 22.338706], [110.941459, 22.338426], [110.940685, 22.338489], [110.940543, 22.33806], [110.940079, 22.337899], [110.940162, 22.337451], [110.940569, 22.336576], [110.940095, 22.336333], [110.940047, 22.336084]]]}, "properties": {"display_name": "信宜市教育城初中, 教育城大道, 沿江二社区, 玉都街道, 信宜市, 茂名市, 广东省, 525300, 中国", "type": "school", "osm_type": "way", "osm_id": 694848406, "class": null, "keyword": "市中心"}}, {"type": "Feature", "geometry": {"type": "Polygon", "coordinates": [[[110.94286, 21.624707], [110.944429, 21.625138], [110.944811, 21.625175], [110.945087, 21.6251], [110.94651, 21.625394], [110.946543, 21.627201], [110.946266, 21.627413], [110.944128, 21.627443], [110.944006, 21.62736], [110.942949, 21.627329], [110.94286, 21.624707]]]}, "properties": {"display_name": "茂名市中医院新院区, 茂南区, 茂名市, 广东省, 中国", "type": "construction", "osm_type": "way", "osm_id": 1160108967, "class": null, "keyword": "市中心"}}, {"type": "Feature", "geometry": {"type": "Polygon", "coordinates": [[[111.043194, 21.467526], [111.043213, 21.467468], [111.044152, 21.464606], [111.04676, 21.465348], [111.045801, 21.468267], [111.043194, 21.467526]]]}, "properties": {"display_name": "茂名市南海半岛中心广场, 电白区, 茂名市, 广东省, 中国", "type": "square", "osm_type": "way", "osm_id": 1159383361, "class": null, "keyword": "市中心"}}, {"type": "Feature", "geometry": {"type": "Polygon", "coordinates": [[[110.933073, 22.339996], [110.933313, 22.339084], [110.933489, 22.338941], [110.935113, 22.340059], [110.936283, 22.340705], [110.936953, 22.341115], [110.937032, 22.341262], [110.937023, 22.341631], [110.934844, 22.341556], [110.9337, 22.34146], [110.93316, 22.340188], [110.933073, 22.339996]]]}, "properties": {"display_name": "信宜市人民医院, 银湖东路, 沿江二社区, 玉都街道, 信宜市, 茂名市, 广东省, 525300, 中国", "type": "hospital", "osm_type": "relation", "osm_id": 19483772, "class": null, "keyword": "市中心"}}, {"type": "Feature", "geometry": {"type": "Polygon", "coordinates": [[[111.063001, 22.227485], [111.063205, 22.227018], [111.06365, 22.226924], [111.064074, 22.226993], [111.064358, 22.227142], [111.064541, 22.227296], [111.065083, 22.227693], [111.065748, 22.228304], [111.065699, 22.228398], [111.065528, 22.228423], [111.065171, 22.228398], [111.065415, 22.228788], [111.065689, 22.229247], [111.065839, 22.229307], [111.06615, 22.229451], [111.066188, 22.229665], [111.065893, 22.229635], [111.064482, 22.229421], [111.064449, 22.229665], [111.063961, 22.229585], [111.063972, 22.229431], [111.063328, 22.229381], [111.063248, 22.229218], [111.063178, 22.228984], [111.063114, 22.228647], [111.063312, 22.228443], [111.063344, 22.228239], [111.063114, 22.228071], [111.063001, 22.227485]]]}, "properties": {"display_name": "高州市忠信石料有限公司, 白水老村, 高州市, 茂名市, 广东省, 中国", "type": "quarry", "osm_type": "way", "osm_id": 970040799, "class": null, "keyword": "市中心"}}, {"type": "Feature", "geometry": {"type": "Polygon", "coordinates": [[[111.051387, 22.482587], [111.051854, 22.482364], [111.052364, 22.482299], [111.052332, 22.481498], [111.052919, 22.481524], [111.052967, 22.481986], [111.052974, 22.482069], [111.052977, 22.482091], [111.053313, 22.482063], [111.053338, 22.482318], [111.053439, 22.48232], [111.053549, 22.482591], [111.053557, 22.483102], [111.053817, 22.483278], [111.053959, 22.483661], [111.053935, 22.483966], [111.053118, 22.484446], [111.05239, 22.48466], [111.052199, 22.484356], [111.052063, 22.483612], [111.051845, 22.482712], [111.051467, 22.482717], [111.051387, 22.482587]]]}, "properties": {"display_name": "信宜市怀新中学, S291;S280, 信宜市, 茂名市, 广东省, 中国", "type": "school", "osm_type": "way", "osm_id": 1227783042, "class": null, "keyword": "市中心"}}, {"type": "Feature", "geometry": {"type": "Polygon", "coordinates": [[[110.733913, 22.38267], [110.734171, 22.382586], [110.734566, 22.381765], [110.735403, 22.380928], [110.7359, 22.382015], [110.735454, 22.382785], [110.736136, 22.383428], [110.735411, 22.384082], [110.734832, 22.383499], [110.733974, 22.383555], [110.733913, 22.38267]]]}, "properties": {"display_name": "信宜市高坡中学, 中阳信高速, 信宜市, 茂名市, 广东省, 中国", "type": "school", "osm_type": "way", "osm_id": 1420949848, "class": null, "keyword": "市中心"}}, {"type": "Feature", "geometry": {"type": "Polygon", "coordinates": [[[110.872766, 22.207208], [110.872806, 22.206043], [110.87323, 22.206011], [110.873254, 22.206771], [110.873367, 22.207194], [110.874391, 22.207213], [110.874424, 22.20797], [110.874565, 22.20797], [110.874607, 22.209016], [110.873185, 22.20906], [110.873103, 22.209003], [110.87294, 22.20871], [110.872826, 22.208287], [110.872766, 22.207208]]]}, "properties": {"display_name": "信宜市镇隆中学, 镇隆八坊文化广场, 信宜市, 茂名市, 广东省, 中国", "type": "school", "osm_type": "way", "osm_id": 1178701548, "class": null, "keyword": "市中心"}}, {"type": "Feature", "geometry": {"type": "Polygon", "coordinates": [[[110.998074, 21.595622], [111.000328, 21.595631], [111.000334, 21.596096], [110.999571, 21.596105], [110.99958, 21.596832], [110.99809, 21.596849], [110.998074, 21.595622]]]}, "properties": {"display_name": "茂名市会展中心, 潘州大道, 电白区, 茂名市, 广东省, 中国", "type": "public", "osm_type": "way", "osm_id": 1125208419, "class": null, "keyword": "市中心"}}, {"type": "Feature", "geometry": {"type": "Polygon", "coordinates": [[[110.832641, 21.681278], [110.832643, 21.680577], [110.835323, 21.680884], [110.835312, 21.681174], [110.834957, 21.681212], [110.834925, 21.68157], [110.833907, 21.681285], [110.8339, 21.681521], [110.833733, 21.681525], [110.833745, 21.681434], [110.832641, 21.681278]]]}, "properties": {"display_name": "茂名市茂南区公馆中心小学, 化牛公路, 茂南区, 茂名市, 广东省, 中国", "type": "school", "osm_type": "way", "osm_id": 1429030584, "class": null, "keyword": "市中心"}}, {"type": "Feature", "geometry": {"type": "Polygon", "coordinates": [[[110.954991, 22.12633], [110.955243, 22.12593], [110.955458, 22.125961], [110.955649, 22.125528], [110.956698, 22.125757], [110.956352, 22.126251], [110.956214, 22.126224], [110.955702, 22.126823], [110.954991, 22.12633]]]}, "properties": {"display_name": "高州市东岸镇中心小学, S281, 高州市, 茂名市, 广东省, 中国", "type": "school", "osm_type": "way", "osm_id": 1212925384, "class": null, "keyword": "市中心"}}, {"type": "Feature", "geometry": {"type": "Polygon", "coordinates": [[[110.837627, 21.687783], [110.838424, 21.687562], [110.839227, 21.688821], [110.838894, 21.688808], [110.83776, 21.6884], [110.837627, 21.687783]]]}, "properties": {"display_name": "茂名市茂南公馆货台粮食交易中心, S283, 茂南区, 茂名市, 广东省, 中国", "type": "marketplace", "osm_type": "way", "osm_id": 1429030586, "class": null, "keyword": "市中心"}}, {"type": "Feature", "geometry": {"type": "Polygon", "coordinates": [[[111.248582, 22.379214], [111.248724, 22.379069], [111.248906, 22.378887], [111.249503, 22.379009], [111.249543, 22.379684], [111.249596, 22.379855], [111.249513, 22.380146], [111.249377, 22.380382], [111.248946, 22.38034], [111.248684, 22.379459], [111.248582, 22.379214]]]}, "properties": {"display_name": "信宜市钱排中学, 银妃大道, 新屋村, 信宜市, 茂名市, 广东省, 中国", "type": "school", "osm_type": "way", "osm_id": 1388738650, "class": null, "keyword": "市中心"}}, {"type": "Feature", "geometry": {"type": "Polygon", "coordinates": [[[110.896426, 21.65018], [110.896852, 21.648619], [110.897576, 21.648778], [110.897239, 21.649428], [110.897165, 21.649896], [110.8971, 21.650081], [110.896984, 21.650206], [110.896869, 21.650263], [110.896426, 21.65018]]]}, "properties": {"display_name": "茂名市高山镇中心小学, X626, 高山镇, 茂南区, 茂名市, 广东省, 525000, 中国", "type": "school", "osm_type": "way", "osm_id": 1351812749, "class": null, "keyword": "市中心"}}, {"type": "Feature", "geometry": {"type": "Polygon", "coordinates": [[[110.9394, 22.350884], [110.939463, 22.350044], [110.940518, 22.35022], [110.940381, 22.350869], [110.940144, 22.35083], [110.940054, 22.351035], [110.9394, 22.350884]]]}, "properties": {"display_name": "信宜中学教师邨, 玉都街道, 信宜市, 茂名市, 广东省, 中国", "type": "residential", "osm_type": "way", "osm_id": 1097916959, "class": null, "keyword": "市中心"}}, {"type": "Feature", "geometry": {"type": "Polygon", "coordinates": [[[110.832771, 21.681839], [110.832916, 21.681825], [110.832931, 21.681626], [110.83355, 21.681603], [110.833552, 21.682185], [110.834151, 21.682203], [110.834114, 21.682536], [110.833145, 21.682568], [110.832771, 21.681839]]]}, "properties": {"display_name": "茂名市茂南区公馆中心卫生院, 化牛公路, 茂南区, 茂名市, 广东省, 中国", "type": "hospital", "osm_type": "way", "osm_id": 1429030582, "class": null, "keyword": "市中心"}}, {"type": "Feature", "geometry": {"type": "Polygon", "coordinates": [[[110.941718, 21.653994], [110.941722, 21.65347], [110.942745, 21.653477], [110.94274, 21.654002], [110.941718, 21.653994]]]}, "properties": {"display_name": "茂名市青少年活动中心, 南香二巷, 南香塘村, 羊角镇, 茂南区, 茂名市, 广东省, 525000, 中国", "type": "community_centre", "osm_type": "way", "osm_id": 1161975472, "class": null, "keyword": "市中心"}}, {"type": "Feature", "geometry": {"type": "Polygon", "coordinates": [[[110.854384, 21.900887], [110.854775, 21.900632], [110.854858, 21.900639], [110.854958, 21.900686], [110.855196, 21.900984], [110.855346, 21.900888], [110.855378, 21.900934], [110.855406, 21.900973], [110.855113, 21.901107], [110.854648, 21.901326], [110.854384, 21.900887]]]}, "properties": {"display_name": "高州市中心客运站, 石古垌, 高州市, 茂名市, 广东省, 中国", "type": "industrial", "osm_type": "way", "osm_id": 1423546446, "class": null, "keyword": "市中心"}}, {"type": "Feature", "geometry": {"type": "Polygon", "coordinates": [[[110.955243, 22.12593], [110.955377, 22.124989], [110.955743, 22.125004], [110.955649, 22.125528], [110.955458, 22.125961], [110.955243, 22.12593]]]}, "properties": {"display_name": "高州市东岸镇中心幼儿园, Y563, 高州市, 茂名市, 广东省, 中国", "type": "kindergarten", "osm_type": "way", "osm_id": 1212925386, "class": null, "keyword": "市中心"}}, {"type": "Feature", "geometry": {"type": "Polygon", "coordinates": [[[110.9085, 21.678942], [110.908925, 21.678941], [110.908927, 21.679648], [110.908501, 21.679648], [110.9085, 21.678942]]]}, "properties": {"display_name": "茂名石化职工文化中心, 官渡一路, 坡咀社区, 官渡街道, 茂南区, 茂名市, 广东省, 525000, 中国", "type": "theatre", "osm_type": "way", "osm_id": 1212764331, "class": null, "keyword": "市中心"}}, {"type": "Feature", "geometry": {"type": "Polygon", "coordinates": [[[110.755546, 21.836705], [110.755793, 21.836539], [110.756043, 21.836859], [110.756097, 21.836823], [110.75612, 21.836851], [110.756146, 21.836886], [110.755941, 21.837024], [110.755689, 21.836702], [110.755594, 21.836766], [110.755546, 21.836705]]]}, "properties": {"display_name": "综合实训中心, 球场西头校道, 加法坡村, 高州市, 茂名市, 广东省, 中国", "type": "school", "osm_type": "way", "osm_id": 914532701, "class": null, "keyword": "市中心"}}, {"type": "Feature", "geometry": {"type": "Polygon", "coordinates": [[[110.850018, 21.914811], [110.850224, 21.914758], [110.850265, 21.914894], [110.850315, 21.915058], [110.850108, 21.915111], [110.850018, 21.914811]]]}, "properties": {"display_name": "高州市妇幼保健计划生育服务中心, 文明路, 城南社区, 镇头岭, 高州市, 茂名市, 广东省, 525200, 中国", "type": "government", "osm_type": "way", "osm_id": 911964840, "class": null, "keyword": "市中心"}}, {"type": "Feature", "geometry": {"type": "Polygon", "coordinates": [[[110.843865, 21.82659], [110.843895, 21.826427], [110.844246, 21.826482], [110.844217, 21.826645], [110.843865, 21.82659]]]}, "properties": {"display_name": "高铁乘务与安检实训中心, 金山大道, 双花村, 高州市, 茂名市, 广东省, 中国", "type": "school", "osm_type": "way", "osm_id": 1009109761, "class": null, "keyword": "市中心"}}, {"type": "Feature", "geometry": {"type": "Polygon", "coordinates": [[[110.822927, 21.882965], [110.822972, 21.882811], [110.823036, 21.882827], [110.82313, 21.88285], [110.823085, 21.883004], [110.822988, 21.88298], [110.822927, 21.882965]]]}, "properties": {"display_name": "中国石化, G207, 南珠社区, 上彭村, 高州市, 茂名市, 广东省, 525200, 中国", "type": "fuel", "osm_type": "way", "osm_id": 938507119, "class": null, "keyword": "中心商務區"}}, {"type": "Feature", "geometry": {"type": "Polygon", "coordinates": [[[110.935932, 22.352985], [110.936061, 22.352919], [110.93612, 22.353019], [110.936069, 22.353045], [110.936096, 22.353091], [110.936018, 22.35313], [110.935932, 22.352985]]]}, "properties": {"display_name": "中国银行, 新堤东路, 丰村, 东镇街道, 信宜市, 茂名市, 广东省, 525300, 中国", "type": "bank", "osm_type": "way", "osm_id": 1408196882, "class": null, "keyword": "市中心"}}, {"type": "Feature", "geometry": {"type": "Polygon", "coordinates": [[[110.928569, 22.356574], [110.92869, 22.356525], [110.928772, 22.356697], [110.928691, 22.356729], [110.928643, 22.356627], [110.928602, 22.356644], [110.928569, 22.356574]]]}, "properties": {"display_name": "中国银行, 50, 新尚路, 新尚社区, 东镇街道, 信宜市, 茂名市, 广东省, 525300, 中国", "type": "bank", "osm_type": "way", "osm_id": 1416645599, "class": null, "keyword": "市中心"}}]}