{"type": "FeatureCollection", "features": [{"type": "Feature", "geometry": {"type": "Polygon", "coordinates": [[[104.700271, 31.598488], [104.701763, 31.58823], [104.712222, 31.566142], [104.713509, 31.557849], [104.710286, 31.546119], [104.710415, 31.539957], [104.710679, 31.53725], [104.710538, 31.533651], [104.707779, 31.52737], [104.709405, 31.523213], [104.727686, 31.515744], [104.733509, 31.513825], [104.738931, 31.50897], [104.742247, 31.502344], [104.743427, 31.49835], [104.743746, 31.4941], [104.745929, 31.489001], [104.747116, 31.485838], [104.74923, 31.47886], [104.750188, 31.474474], [104.751123, 31.47081], [104.752918, 31.468339], [104.755373, 31.46634], [104.758528, 31.463685], [104.762272, 31.461031], [104.763239, 31.460338], [104.764711, 31.459861], [104.771693, 31.461472], [104.784942, 31.457855], [104.78682, 31.452969], [104.786756, 31.445539], [104.78349, 31.430848], [104.783877, 31.424899], [104.792262, 31.419874], [104.796959, 31.417058], [104.806934, 31.408904], [104.81383, 31.402752], [104.81451, 31.398066], [104.810086, 31.386111], [104.810861, 31.379829], [104.810344, 31.369577], [104.812369, 31.365399], [104.827645, 31.355687], [104.837328, 31.356238], [104.841803, 31.3536], [104.841812, 31.354934], [104.842064, 31.357849], [104.842342, 31.358389], [104.843766, 31.360171], [104.8465, 31.363498], [104.854659, 31.372208], [104.856804, 31.373597], [104.858401, 31.375032], [104.85874, 31.375834], [104.858471, 31.376809], [104.857863, 31.377956], [104.858001, 31.378528], [104.862438, 31.380425], [104.864104, 31.380138], [104.865979, 31.379396], [104.867655, 31.379053], [104.869798, 31.379524], [104.870858, 31.380032], [104.870987, 31.380777], [104.870519, 31.382267], [104.869243, 31.385188], [104.868705, 31.387365], [104.868974, 31.388626], [104.869729, 31.390334], [104.871465, 31.39197], [104.872888, 31.392365], [104.874069, 31.392545], [104.874582, 31.392187], [104.87538, 31.390983], [104.876657, 31.390468], [104.878523, 31.3907], [104.879859, 31.391158], [104.880128, 31.391733], [104.880059, 31.393166], [104.880189, 31.39437], [104.881821, 31.396433], [104.88229, 31.397581], [104.882289, 31.398441], [104.881153, 31.400045], [104.879747, 31.401017], [104.877142, 31.401473], [104.874998, 31.402273], [104.874998, 31.403076], [104.875467, 31.403992], [104.881205, 31.411393], [104.883071, 31.412942], [104.884677, 31.413057], [104.886144, 31.412601], [104.887151, 31.411627], [104.890372, 31.403606], [104.89084, 31.401773], [104.891899, 31.400982], [104.8942, 31.401193], [104.896344, 31.40199], [104.897881, 31.403533], [104.900154, 31.405707], [104.903227, 31.407306], [104.9063, 31.407588], [104.91005, 31.409296], [104.915276, 31.415497], [104.916882, 31.416111], [104.91755, 31.416267], [104.918461, 31.416891], [104.919492, 31.417354], [104.919996, 31.417534], [104.920899, 31.417734], [104.921758, 31.417265], [104.924067, 31.415121], [104.925847, 31.413615], [104.926576, 31.412975], [104.928164, 31.4121], [104.929423, 31.41186], [104.93056, 31.411787], [104.933381, 31.412384], [104.934588, 31.412944], [104.935873, 31.414133], [104.937045, 31.416128], [104.939406, 31.41816], [104.94069, 31.419007], [104.941568, 31.419631], [104.943719, 31.420291], [104.945448, 31.420327], [104.948442, 31.419147], [104.950603, 31.416603], [104.952123, 31.415323], [104.952912, 31.414566], [104.95477, 31.4138], [104.956706, 31.413664], [104.958972, 31.413639], [104.961715, 31.413785], [104.964388, 31.413695], [104.967444, 31.412514], [104.968563, 31.411703], [104.969431, 31.411118], [104.970804, 31.409611], [104.971063, 31.408863], [104.971115, 31.407771], [104.97043, 31.406977], [104.969588, 31.404064], [104.969353, 31.40189], [104.970117, 31.399475], [104.971228, 31.39786], [104.972878, 31.396462], [104.975526, 31.394776], [104.978242, 31.39365], [104.980638, 31.39299], [104.982661, 31.392707], [104.98418, 31.392784], [104.985578, 31.392992], [104.988919, 31.393372], [104.989857, 31.393226], [104.990838, 31.391955], [104.992079, 31.390223], [104.99326, 31.38832], [104.994172, 31.387103], [104.99602, 31.385425], [104.998077, 31.384713], [105.000334, 31.384131], [105.000803, 31.383971], [105.001732, 31.383572], [105.002435, 31.383363], [105.00326, 31.382524], [105.004093, 31.381738], [105.0051, 31.381356], [105.006029, 31.381491], [105.006688, 31.382076], [105.007582, 31.383068], [105.008703, 31.383945], [105.009623, 31.384249], [105.010829, 31.384155], [105.011437, 31.383938], [105.012531, 31.383157], [105.013234, 31.382085], [105.014076, 31.380386], [105.01451, 31.379307], [105.014405, 31.37833], [105.013885, 31.377751], [105.013433, 31.377512], [105.012435, 31.377202], [105.011375, 31.376838], [105.011133, 31.376089], [105.011159, 31.375228], [105.011714, 31.374548], [105.014058, 31.372072], [105.014483, 31.371104], [105.014909, 31.370533], [105.016489, 31.369627], [105.018155, 31.369303], [105.020274, 31.370144], [105.023972, 31.372738], [105.025335, 31.373192], [105.026775, 31.373126], [105.027375, 31.372608], [105.025942, 31.370728], [105.023972, 31.369172], [105.022461, 31.368133], [105.02201, 31.36703], [105.021854, 31.365735], [105.023068, 31.363466], [105.025638, 31.36009], [105.028971, 31.357556], [105.029511, 31.357156], [105.030685, 31.357998], [105.031853, 31.356577], [105.033297, 31.35662], [105.033788, 31.356392], [105.034418, 31.356478], [105.034797, 31.357074], [105.035542, 31.357619], [105.036103, 31.357075], [105.037178, 31.356675], [105.038314, 31.355959], [105.038959, 31.355195], [105.039475, 31.355069], [105.040182, 31.356007], [105.041548, 31.356626], [105.042354, 31.355919], [105.04226, 31.355272], [105.041602, 31.35376], [105.041249, 31.353401], [105.041372, 31.35294], [105.042498, 31.352683], [105.04392, 31.353341], [105.044796, 31.353193], [105.045699, 31.352364], [105.046116, 31.350923], [105.047048, 31.350877], [105.047438, 31.350524], [105.046956, 31.349817], [105.047429, 31.349005], [105.04826, 31.348754], [105.049397, 31.348865], [105.050976, 31.349124], [105.051338, 31.350334], [105.050533, 31.352451], [105.050557, 31.353085], [105.051271, 31.353328], [105.052163, 31.35311], [105.053446, 31.352822], [105.054378, 31.352585], [105.054911, 31.351913], [105.054513, 31.351387], [105.053687, 31.350265], [105.054105, 31.349714], [105.055019, 31.348161], [105.055787, 31.347584], [105.056077, 31.347061], [105.056428, 31.346687], [105.057748, 31.347686], [105.058017, 31.347823], [105.058355, 31.348276], [105.060021, 31.348795], [105.062513, 31.348597], [105.063416, 31.348728], [105.063889, 31.349572], [105.063776, 31.350286], [105.063868, 31.353093], [105.064161, 31.353997], [105.065681, 31.354206], [105.066871, 31.353722], [105.06722, 31.352754], [105.068273, 31.351529], [105.068805, 31.351313], [105.070408, 31.351607], [105.07222, 31.352439], [105.072543, 31.353082], [105.07302, 31.35458], [105.073512, 31.354768], [105.074917, 31.353879], [105.075647, 31.35319], [105.075956, 31.352299], [105.076555, 31.3518], [105.077129, 31.351564], [105.077704, 31.351898], [105.07775, 31.352565], [105.077267, 31.353232], [105.077328, 31.35377], [105.07883, 31.354468], [105.079083, 31.354822], [105.077819, 31.35598], [105.07808, 31.357074], [105.076732, 31.358053], [105.076856, 31.358563], [105.077484, 31.359026], [105.078299, 31.360942], [105.078546, 31.360913], [105.079016, 31.361135], [105.080281, 31.361059], [105.081187, 31.361722], [105.080835, 31.363292], [105.080985, 31.363752], [105.081966, 31.363767], [105.083802, 31.362669], [105.084102, 31.362477], [105.085257, 31.362679], [105.088211, 31.362474], [105.088605, 31.362682], [105.088355, 31.363254], [105.087873, 31.363389], [105.087481, 31.364531], [105.08812, 31.36483], [105.089284, 31.365409], [105.089734, 31.365531], [105.090266, 31.365596], [105.091007, 31.365487], [105.091865, 31.365753], [105.092125, 31.366124], [105.091906, 31.368067], [105.092348, 31.368845], [105.092557, 31.369201], [105.092903, 31.369277], [105.093763, 31.369164], [105.095291, 31.369315], [105.097287, 31.369841], [105.099423, 31.370876], [105.100942, 31.371484], [105.102643, 31.371816], [105.103502, 31.371748], [105.103989, 31.37152], [105.104024, 31.371028], [105.103182, 31.369056], [105.102609, 31.367621], [105.102531, 31.365872], [105.102609, 31.364997], [105.10286, 31.364509], [105.10332, 31.364122], [105.103928, 31.36365], [105.104892, 31.362788], [105.106368, 31.362003], [105.107531, 31.361588], [105.107955, 31.361545], [105.108459, 31.361766], [105.108624, 31.362344], [105.108208, 31.363841], [105.108121, 31.364537], [105.108268, 31.364967], [105.108668, 31.36528], [105.109223, 31.36542], [105.110603, 31.365884], [105.110751, 31.366792], [105.110829, 31.367699], [105.110681, 31.368609], [105.109995, 31.369322], [105.108486, 31.370036], [105.106906, 31.370687], [105.105855, 31.371486], [105.105638, 31.371627], [105.105282, 31.372536], [105.105178, 31.37368], [105.105222, 31.374828], [105.105378, 31.376091], [105.105152, 31.377059], [105.104735, 31.377966], [105.104162, 31.379272], [105.10352, 31.380636], [105.103485, 31.381725], [105.10398, 31.382992], [105.104961, 31.383986], [105.105873, 31.38475], [105.107132, 31.385346], [105.108789, 31.385612], [105.110386, 31.385928], [105.111567, 31.386697], [105.112609, 31.387636], [105.113243, 31.388734], [105.113546, 31.389886], [105.113372, 31.391258], [105.113, 31.392569], [105.112218, 31.394442], [105.111237, 31.396028], [105.110794, 31.397337], [105.110707, 31.398365], [105.111541, 31.399242], [105.11306, 31.399904], [105.113555, 31.400004], [105.113833, 31.400176], [105.114857, 31.400563], [105.115873, 31.400661], [105.117087, 31.400401], [105.118407, 31.399394], [105.119996, 31.397901], [105.121011, 31.397089], [105.12188, 31.396503], [105.123277, 31.396542], [105.123381, 31.397015], [105.124952, 31.397872], [105.125527, 31.399824], [105.124735, 31.400493], [105.124371, 31.401016], [105.125823, 31.402284], [105.125248, 31.402789], [105.123016, 31.403309], [105.122312, 31.40434], [105.123049, 31.404749], [105.1234, 31.405572], [105.124492, 31.40622], [105.125716, 31.406514], [105.127313, 31.40694], [105.129267, 31.407751], [105.131237, 31.407942], [105.133433, 31.407356], [105.135013, 31.40716], [105.137061, 31.408261], [105.144292, 31.414967], [105.148981, 31.41561], [105.150725, 31.416125], [105.151559, 31.417033], [105.151254, 31.418138], [105.150195, 31.419175], [105.148615, 31.419956], [105.144527, 31.420025], [105.141575, 31.420093], [105.138927, 31.420744], [105.137722, 31.422044], [105.13727, 31.42373], [105.137505, 31.425546], [105.139171, 31.426711], [105.141741, 31.426837], [105.144458, 31.426447], [105.145977, 31.426768], [105.148173, 31.428843], [105.149883, 31.4351], [105.149813, 31.43659], [105.149058, 31.438214], [105.14753, 31.439698], [105.147288, 31.440336], [105.14707, 31.441248], [105.146974, 31.442106], [105.145108, 31.442011], [105.143355, 31.442321], [105.14135, 31.44251], [105.139744, 31.442593], [105.13767, 31.442664], [105.136324, 31.442986], [105.135099, 31.443762], [105.134128, 31.444943], [105.133624, 31.446196], [105.132391, 31.449665], [105.131827, 31.450856], [105.131064, 31.452046], [105.129822, 31.453109], [105.12793, 31.453932], [105.126507, 31.454763], [105.125143, 31.455594], [105.122834, 31.456922], [105.121211, 31.457462], [105.119197, 31.457767], [105.117122, 31.458068], [105.115378, 31.458264], [105.113676, 31.459031], [105.112322, 31.459863], [105.110699, 31.460577], [105.109484, 31.460895], [105.107617, 31.460916], [105.106089, 31.460427], [105.10438, 31.459303], [105.103147, 31.45819], [105.102487, 31.457775], [105.101827, 31.457476], [105.10089, 31.457229], [105.100022, 31.457324], [105.099562, 31.457374], [105.098884, 31.457244], [105.098832, 31.456842], [105.099666, 31.455714], [105.100447, 31.454183], [105.10063, 31.452469], [105.100551, 31.450633], [105.100447, 31.449316], [105.100221, 31.447993], [105.099848, 31.446897], [105.099206, 31.445853], [105.098667, 31.445271], [105.098312, 31.445529], [105.097799, 31.445779], [105.097357, 31.445846], [105.096836, 31.445779], [105.096125, 31.445336], [105.095196, 31.444743], [105.093902, 31.444318], [105.093121, 31.444221], [105.092522, 31.444344], [105.090855, 31.445075], [105.090352, 31.445253], [105.089579, 31.445117], [105.088902, 31.444594], [105.087331, 31.443257], [105.086307, 31.442747], [105.085456, 31.442664], [105.084796, 31.442789], [105.084189, 31.443216], [105.08194, 31.445833], [105.081203, 31.447293], [105.080804, 31.448092], [105.080804, 31.448491], [105.081472, 31.451041], [105.081445, 31.451453], [105.081211, 31.451729], [105.080438, 31.451909], [105.079623, 31.451815], [105.078528, 31.4513], [105.077174, 31.450397], [105.075448, 31.448975], [105.074197, 31.447813], [105.074006, 31.447252], [105.07411, 31.446241], [105.074501, 31.444626], [105.074328, 31.443521], [105.073372, 31.442498], [105.072079, 31.441785], [105.071129, 31.442168], [105.070439, 31.442447], [105.069761, 31.44355], [105.06931, 31.445366], [105.068104, 31.447248], [105.066211, 31.448417], [105.063182, 31.44965], [105.060387, 31.450885], [105.058639, 31.452252], [105.056072, 31.45426], [105.054718, 31.455622], [105.054353, 31.456786], [105.054622, 31.457665], [105.055031, 31.459564], [105.054996, 31.461054], [105.055082, 31.462315], [105.055325, 31.463466], [105.055959, 31.464394], [105.056342, 31.465262], [105.056576, 31.466413], [105.056672, 31.467847], [105.056585, 31.468589], [105.056272, 31.470129], [105.056498, 31.473802], [105.056854, 31.475239], [105.056966, 31.4761], [105.056463, 31.47735], [105.056072, 31.479405], [105.055612, 31.481287], [105.05556, 31.48329], [105.05573, 31.484242], [105.055786, 31.484555], [105.055812, 31.486104], [105.055577, 31.4873], [105.055135, 31.488609], [105.053468, 31.490866], [105.05305, 31.491887], [105.052678, 31.492797], [105.053051, 31.493895], [105.053547, 31.495221], [105.055082, 31.497371], [105.056246, 31.499056], [105.056749, 31.500156], [105.057045, 31.501421], [105.057001, 31.502968], [105.057236, 31.504178], [105.057175, 31.506236], [105.05688, 31.507261], [105.057175, 31.508472], [105.05793, 31.510147], [105.059102, 31.511432], [105.059805, 31.514653], [105.05997, 31.516145], [105.060058, 31.516424], [105.060335, 31.5173], [105.060899, 31.518743], [105.061255, 31.520184], [105.061498, 31.521388], [105.061463, 31.522478], [105.061688, 31.523743], [105.062201, 31.524614], [105.063963, 31.526081], [105.064961, 31.526558], [105.065603, 31.527202], [105.065985, 31.527956], [105.06589, 31.529156], [105.064745, 31.531538], [105.063642, 31.532663], [105.062279, 31.533492], [105.061202, 31.533871], [105.060108, 31.534422], [105.059562, 31.535099], [105.059736, 31.535964], [105.060586, 31.536666], [105.061766, 31.537434], [105.062079, 31.538128], [105.061784, 31.539153], [105.06089, 31.539936], [105.060082, 31.540265], [105.058469, 31.540692], [105.056515, 31.541165], [105.054587, 31.541236], [105.053286, 31.541853], [105.051471, 31.542762], [105.050413, 31.544318], [105.050222, 31.546552], [105.050656, 31.547133], [105.051949, 31.548958], [105.052895, 31.55021], [105.053303, 31.551239], [105.053312, 31.552213], [105.052791, 31.553077], [105.051402, 31.554805], [105.051315, 31.554941], [105.04951, 31.556382], [105.047235, 31.556254], [105.043902, 31.555736], [105.042417, 31.556265], [105.041984, 31.557654], [105.041489, 31.558559], [105.041376, 31.560216], [105.040517, 31.562031], [105.039961, 31.562823], [105.039683, 31.563276], [105.039596, 31.563903], [105.039501, 31.564876], [105.039874, 31.56567], [105.041107, 31.567217], [105.042166, 31.569488], [105.042392, 31.571432], [105.042392, 31.573637], [105.042392, 31.575842], [105.043078, 31.577853], [105.04293, 31.579279], [105.042175, 31.580902], [105.041038, 31.582328], [105.039745, 31.582912], [105.032886, 31.581974], [105.030387, 31.581326], [105.029024, 31.580289], [105.027965, 31.578992], [105.027279, 31.577695], [105.02668, 31.577306], [105.025543, 31.577111], [105.025325, 31.577124], [105.024475, 31.577176], [105.022435, 31.577372], [105.021376, 31.577632], [105.021073, 31.578216], [105.021298, 31.578993], [105.022956, 31.580258], [105.023963, 31.581909], [105.023217, 31.583181], [105.022757, 31.583815], [105.022236, 31.584676], [105.022175, 31.585535], [105.022505, 31.586334], [105.023251, 31.587246], [105.024197, 31.588331], [105.025213, 31.589583], [105.025629, 31.590561], [105.025569, 31.591593], [105.025117, 31.593309], [105.024866, 31.595084], [105.025014, 31.596232], [105.025551, 31.597207], [105.026628, 31.597602], [105.027366, 31.598452], [105.027313, 31.599371], [105.027184, 31.600345], [105.027401, 31.60126], [105.027869, 31.602233], [105.028608, 31.602971], [105.029353, 31.603424], [105.03063, 31.603817], [105.030907, 31.604559], [105.030508, 31.605477], [105.030048, 31.606569], [105.02918, 31.607035], [105.028512, 31.606868], [105.027375, 31.606646], [105.026506, 31.607053], [105.025977, 31.607916], [105.025925, 31.609005], [105.025873, 31.610381], [105.025951, 31.611924], [105.026246, 31.615075], [105.026235, 31.615264], [105.026185, 31.616165], [105.025665, 31.617484], [105.024736, 31.618236], [105.022999, 31.619566], [105.022279, 31.620546], [105.022019, 31.621577], [105.022027, 31.622608], [105.022236, 31.623709], [105.021956, 31.624103], [105.021845, 31.62426], [105.02089, 31.624926], [105.019952, 31.624962], [105.018355, 31.624531], [105.017296, 31.624221], [105.014831, 31.623656], [105.012704, 31.62321], [105.010968, 31.622832], [105.00918, 31.622391], [105.007973, 31.622196], [105.006966, 31.622346], [105.006012, 31.623014], [105.005976, 31.623527], [105.00589, 31.624731], [105.005847, 31.626276], [105.006072, 31.627598], [105.006298, 31.629034], [105.005925, 31.630345], [105.005621, 31.631656], [105.005639, 31.633318], [105.005873, 31.634583], [105.005907, 31.635844], [105.005196, 31.637089], [105.003964, 31.638094], [105.00273, 31.638871], [105.001758, 31.63988], [105.001003, 31.640896], [105.000682, 31.642551], [105.000521, 31.643368], [105.000559, 31.644593], [105.001278, 31.646172], [105.002339, 31.649557], [105.003209, 31.651878], [105.003134, 31.653328], [105.002263, 31.655229], [105.001657, 31.656486], [105.001089, 31.657969], [105.001463, 31.659236], [105.002583, 31.660062], [105.005595, 31.660067], [105.006889, 31.659464], [105.008512, 31.658923], [105.011142, 31.658348], [105.014041, 31.65772], [105.016003, 31.65696], [105.017383, 31.655558], [105.018711, 31.653752], [105.019631, 31.652109], [105.020135, 31.651031], [105.020699, 31.649898], [105.021602, 31.649055], [105.02293, 31.649027], [105.024527, 31.649633], [105.025976, 31.650349], [105.027339, 31.651694], [105.028182, 31.652973], [105.028816, 31.654246], [105.02905, 31.655226], [105.028729, 31.656938], [105.028026, 31.658526], [105.027114, 31.659826], [105.026142, 31.660779], [105.025456, 31.663572], [105.025691, 31.665011], [105.025986, 31.666389], [105.026003, 31.666528], [105.026011, 31.66674], [105.025927, 31.666915], [105.025404, 31.668001], [105.025005, 31.669377], [105.024865, 31.670579], [105.024806, 31.672067], [105.024866, 31.673669], [105.024805, 31.675389], [105.024666, 31.677107], [105.024527, 31.679052], [105.024796, 31.680885], [105.025005, 31.682318], [105.025126, 31.683919], [105.024866, 31.685121], [105.024398, 31.686383], [105.024308, 31.68686], [105.024128, 31.687816], [105.024397, 31.689132], [105.024866, 31.690334], [105.025665, 31.691651], [105.026073, 31.692851], [105.026203, 31.693941], [105.025873, 31.695143], [105.025396, 31.696632], [105.024327, 31.698752], [105.023182, 31.701501], [105.022722, 31.702476], [105.022175, 31.704251], [105.021645, 31.705113], [105.021177, 31.705624], [105.020239, 31.706083], [105.019033, 31.707175], [105.017757, 31.708607], [105.01628, 31.710097], [105.014875, 31.711647], [105.013868, 31.712562], [105.01293, 31.713194], [105.011932, 31.713595], [105.010161, 31.713995], [105.009128, 31.714256], [105.007921, 31.714548], [105.00675, 31.714772], [105.005587, 31.714876], [105.004554, 31.714842], [105.003668, 31.71465], [105.002618, 31.713927], [105.001732, 31.713255], [105.000317, 31.71143], [104.996151, 31.711827], [104.996098, 31.711818], [104.995222, 31.711945], [104.994368, 31.712474], [104.994345, 31.712489], [104.992235, 31.714036], [104.992062, 31.714379], [104.992036, 31.714837], [104.992974, 31.715898], [104.993338, 31.718563], [104.993174, 31.718964], [104.992635, 31.719079], [104.990526, 31.719192], [104.990118, 31.719049], [104.989883, 31.718619], [104.989753, 31.718249], [104.989718, 31.717962], [104.989622, 31.717732], [104.989354, 31.717561], [104.988547, 31.717473], [104.987912, 31.71756], [104.987305, 31.717847], [104.986871, 31.718305], [104.98576, 31.719796], [104.985395, 31.720082], [104.984762, 31.720082], [104.984455, 31.72006], [104.984267, 31.719894], [104.984199, 31.719845], [104.983963, 31.719676], [104.983729, 31.71951], [104.982218, 31.718926], [104.981828, 31.718773], [104.981531, 31.71866], [104.980951, 31.718438], [104.980763, 31.7184], [104.980358, 31.718231], [104.979544, 31.717965], [104.97879, 31.717964], [104.977904, 31.718611], [104.97747, 31.718998], [104.977114, 31.719321], [104.976758, 31.71964], [104.976654, 31.719731], [104.976515, 31.719852], [104.976318, 31.720135], [104.975205, 31.72105], [104.974883, 31.721369], [104.974146, 31.72177], [104.973373, 31.7222], [104.97274, 31.722428], [104.972036, 31.722686], [104.971316, 31.722923], [104.971125, 31.722889], [104.969943, 31.721275], [104.968912, 31.720407], [104.96694, 31.718893], [104.961196, 31.721457], [104.958254, 31.720181], [104.954479, 31.718243], [104.952971, 31.714692], [104.948818, 31.713077], [104.945798, 31.712107], [104.945799, 31.71017], [104.945424, 31.706297], [104.942782, 31.703391], [104.940141, 31.700484], [104.935989, 31.699514], [104.931459, 31.699512], [104.927305, 31.7008], [104.928435, 31.704352], [104.93032, 31.707903], [104.931827, 31.711455], [104.931448, 31.714682], [104.930314, 31.715004], [104.927293, 31.715971], [104.92616, 31.715971], [104.921629, 31.715968], [104.91861, 31.713384], [104.915214, 31.711122], [104.915217, 31.707249], [104.915599, 31.703375], [104.914092, 31.699824], [104.909561, 31.699821], [104.90767, 31.70337], [104.906156, 31.70692], [104.902002, 31.707885], [104.898979, 31.710465], [104.897087, 31.714014], [104.895574, 31.716272], [104.893686, 31.71627], [104.889155, 31.715944], [104.885381, 31.714004], [104.884253, 31.710452], [104.888031, 31.708519], [104.892186, 31.707231], [104.892568, 31.703358], [104.888037, 31.703354], [104.884642, 31.701092], [104.885025, 31.697219], [104.885029, 31.693345], [104.881635, 31.691083], [104.880505, 31.688822], [104.87824, 31.68882], [104.874085, 31.69043], [104.870685, 31.692686], [104.868038, 31.695588], [104.865391, 31.698491], [104.86086, 31.698809], [104.858967, 31.702357], [104.858206, 31.70623], [104.854051, 31.707839], [104.849896, 31.708802], [104.846117, 31.710735], [104.842338, 31.712667], [104.837807, 31.712661], [104.835925, 31.709108], [104.83372, 31.708419], [104.831774, 31.707811], [104.831404, 31.703938], [104.8299, 31.700385], [104.825371, 31.699733], [104.82084, 31.699727], [104.81631, 31.699721], [104.813673, 31.696489], [104.811037, 31.69358], [104.814062, 31.691002], [104.816708, 31.689069], [104.817088, 31.688102], [104.819357, 31.685845], [104.820112, 31.685524], [104.821248, 31.683911], [104.814836, 31.681643], [104.81524, 31.667764], [104.820151, 31.665511], [104.820912, 31.662284], [104.823556, 31.660997], [104.824699, 31.655189], [104.824707, 31.651315], [104.81792, 31.648401], [104.815224, 31.648043], [104.81113, 31.647422], [104.80547, 31.647414], [104.802457, 31.644827], [104.798308, 31.644175], [104.790012, 31.642225], [104.786983, 31.646739], [104.789618, 31.649648], [104.794519, 31.651593], [104.792629, 31.652881], [104.779419, 31.65415], [104.774143, 31.651236], [104.772641, 31.648328], [104.773412, 31.641551], [104.777196, 31.637039], [104.777206, 31.632842], [104.774951, 31.629288], [104.775336, 31.626061], [104.772321, 31.624764], [104.765158, 31.622815], [104.758364, 31.624416], [104.756882, 31.624651], [104.752326, 31.625373], [104.746288, 31.626329], [104.744394, 31.628908], [104.740247, 31.627931], [104.736116, 31.621467], [104.733129, 31.610486], [104.728997, 31.604667], [104.723348, 31.602073], [104.719572, 31.603678], [104.718424, 31.60884], [104.713555, 31.609447], [104.710918, 31.604248], [104.707758, 31.601653], [104.700271, 31.598488]], [[104.980464, 31.710186], [104.980473, 31.71113], [104.980491, 31.711432], [104.980543, 31.711697], [104.980595, 31.711799], [104.980648, 31.711851], [104.980786, 31.711905], [104.980916, 31.711927], [104.982184, 31.711994], [104.983408, 31.712203], [104.983686, 31.712231], [104.984649, 31.712278], [104.985118, 31.712246], [104.985387, 31.712226], [104.986098, 31.71225], [104.987183, 31.712224], [104.987453, 31.7122], [104.987722, 31.712155], [104.988729, 31.71181], [104.990283, 31.711398], [104.990509, 31.711315], [104.990821, 31.711176], [104.991185, 31.710935], [104.991394, 31.710751], [104.991759, 31.710197], [104.992044, 31.709848], [104.99234, 31.709446], [104.992462, 31.709134], [104.992513, 31.709041], [104.9926, 31.708984], [104.993112, 31.708937], [104.993329, 31.708858], [104.99346, 31.708783], [104.99359, 31.708684], [104.993798, 31.708479], [104.993998, 31.708327], [104.994197, 31.708061], [104.99451, 31.707131], [104.994536, 31.706805], [104.99438, 31.706337], [104.994171, 31.706082], [104.99412, 31.705865], [104.993624, 31.705143], [104.993381, 31.704717], [104.993277, 31.704457], [104.993208, 31.704134], [104.993129, 31.703891], [104.992991, 31.703681], [104.99287, 31.703539], [104.991637, 31.702599], [104.991455, 31.702426], [104.991307, 31.702201], [104.991272, 31.702119], [104.991264, 31.702027], [104.991159, 31.70191], [104.991063, 31.701885], [104.990499, 31.70191], [104.990039, 31.701946], [104.989718, 31.702026], [104.989284, 31.702222], [104.988425, 31.702569], [104.987609, 31.702834], [104.986697, 31.702957], [104.98497, 31.702795], [104.984058, 31.702658], [104.983841, 31.702638], [104.983425, 31.702628], [104.982418, 31.702639], [104.982236, 31.702688], [104.982157, 31.702734], [104.982096, 31.702813], [104.982036, 31.703021], [104.982002, 31.703537], [104.981871, 31.70427], [104.981802, 31.704562], [104.981611, 31.705837], [104.981628, 31.706416], [104.981819, 31.707183], [104.981853, 31.707535], [104.981836, 31.707749], [104.981706, 31.708291], [104.981637, 31.708478], [104.981576, 31.708585], [104.981402, 31.708782], [104.981099, 31.709053], [104.980725, 31.709444], [104.980525, 31.709683], [104.980482, 31.709761], [104.980464, 31.710186]]]}, "properties": {"display_name": "游仙区, 绵阳市, 四川省, 中国", "type": "administrative", "osm_type": "relation", "osm_id": 2787461, "class": null, "keyword": "district"}}, {"type": "Feature", "geometry": {"type": "MultiPolygon", "coordinates": [[[[104.733509, 31.513825], [104.738931, 31.50897], [104.742247, 31.502344], [104.743427, 31.49835], [104.743746, 31.4941], [104.745929, 31.489001], [104.747116, 31.485838], [104.74923, 31.47886], [104.75227, 31.478939], [104.753226, 31.47911], [104.753504, 31.478978], [104.753458, 31.478202], [104.753226, 31.477978], [104.752587, 31.476595], [104.752208, 31.475464], [104.751884, 31.473424], [104.752223, 31.473385], [104.752517, 31.474345], [104.75318, 31.475359], [104.753273, 31.475767], [104.753921, 31.477136], [104.753967, 31.477491], [104.754137, 31.477701], [104.754307, 31.478136], [104.754091, 31.478333], [104.754245, 31.478754], [104.754168, 31.479202], [104.754199, 31.479741], [104.754908, 31.482084], [104.754893, 31.482834], [104.754846, 31.486196], [104.755008, 31.487522], [104.754846, 31.488904], [104.754133, 31.490506], [104.75355, 31.491446], [104.753809, 31.492661], [104.754554, 31.493711], [104.756595, 31.495258], [104.757146, 31.49675], [104.757341, 31.498159], [104.757146, 31.49907], [104.758013, 31.499485], [104.757824, 31.5007], [104.756822, 31.500755], [104.756077, 31.500479], [104.754295, 31.501667], [104.752286, 31.502634], [104.748787, 31.50338], [104.74571, 31.505037], [104.743798, 31.506971], [104.741368, 31.510589], [104.739489, 31.511998], [104.736962, 31.513904], [104.735342, 31.514843], [104.73437, 31.515119], [104.733509, 31.513825]]], [[[104.739619, 31.550272], [104.740234, 31.549113], [104.741012, 31.547926], [104.741563, 31.547677], [104.742016, 31.547318], [104.743863, 31.546655], [104.745418, 31.545523], [104.745969, 31.544557], [104.746617, 31.544005], [104.747913, 31.54475], [104.749435, 31.544695], [104.750278, 31.544005], [104.750926, 31.544032], [104.751347, 31.544143], [104.7518, 31.543867], [104.752805, 31.542597], [104.75274, 31.541244], [104.75342, 31.539835], [104.75368, 31.538952], [104.753485, 31.538538], [104.75368, 31.537129], [104.753906, 31.535887], [104.753744, 31.534865], [104.752999, 31.534036], [104.75287, 31.532739], [104.752481, 31.531965], [104.751379, 31.531662], [104.750861, 31.531717], [104.750731, 31.531358], [104.750407, 31.530999], [104.749759, 31.531413], [104.748658, 31.531496], [104.747783, 31.531827], [104.747232, 31.531772], [104.746779, 31.531524], [104.746358, 31.53133], [104.746325, 31.530309], [104.745872, 31.530364], [104.744867, 31.529922], [104.744867, 31.529535], [104.745677, 31.529287], [104.744705, 31.528872], [104.744187, 31.528762], [104.744154, 31.528375], [104.742761, 31.528099], [104.741498, 31.528707], [104.740979, 31.52763], [104.74004, 31.527657], [104.740072, 31.52705], [104.740558, 31.526691], [104.740688, 31.525807], [104.740493, 31.524261], [104.740655, 31.52114], [104.741465, 31.520808], [104.741692, 31.519676], [104.742502, 31.519262], [104.744334, 31.520298], [104.744668, 31.521633], [104.744835, 31.522962], [104.745677, 31.523239], [104.746714, 31.522714], [104.748852, 31.522576], [104.74937, 31.522852], [104.750148, 31.522355], [104.751541, 31.522355], [104.75274, 31.523156], [104.754263, 31.522935], [104.755332, 31.522935], [104.756952, 31.52346], [104.758475, 31.523404], [104.759317, 31.523018], [104.759997, 31.522631], [104.760743, 31.523211], [104.761552, 31.522742], [104.76152, 31.521582], [104.760969, 31.521444], [104.760613, 31.521002], [104.759997, 31.52056], [104.759414, 31.520007], [104.759378, 31.519192], [104.759058, 31.51835], [104.757503, 31.516969], [104.756401, 31.515892], [104.756321, 31.515021], [104.755962, 31.513422], [104.755735, 31.511367], [104.755372, 31.510233], [104.754978, 31.509125], [104.75679, 31.509153], [104.758539, 31.511639], [104.759771, 31.513268], [104.760775, 31.513765], [104.761812, 31.513793], [104.762168, 31.513434], [104.761876, 31.512688], [104.76003, 31.510451], [104.759511, 31.509015], [104.758734, 31.506667], [104.758604, 31.505507], [104.758053, 31.504595], [104.757211, 31.50407], [104.757179, 31.502799], [104.758183, 31.500838], [104.758507, 31.499457], [104.759965, 31.499429], [104.76003, 31.499871], [104.761002, 31.500037], [104.762038, 31.49954], [104.762622, 31.498573], [104.760775, 31.497661], [104.760775, 31.496805], [104.760354, 31.496612], [104.760354, 31.496308], [104.760937, 31.49628], [104.760904, 31.496087], [104.760127, 31.495811], [104.759511, 31.495092], [104.759933, 31.494899], [104.759058, 31.493794], [104.75828, 31.494153], [104.757729, 31.493269], [104.757989, 31.491501], [104.757794, 31.490921], [104.757308, 31.4907], [104.756628, 31.490561], [104.756887, 31.487909], [104.757438, 31.487578], [104.758021, 31.486998], [104.7599, 31.487274], [104.760645, 31.487467], [104.761617, 31.48744], [104.761909, 31.486915], [104.762168, 31.486556], [104.762233, 31.486196], [104.761974, 31.486003], [104.760937, 31.48639], [104.76071, 31.485782], [104.761326, 31.48545], [104.761251, 31.485163], [104.7621, 31.485137], [104.762948, 31.484992], [104.763118, 31.485426], [104.763504, 31.485466], [104.763519, 31.485177], [104.76389, 31.485018], [104.764106, 31.4849], [104.764939, 31.483887], [104.765433, 31.483413], [104.765633, 31.483558], [104.766019, 31.482992], [104.76659, 31.482702], [104.766775, 31.482992], [104.766744, 31.48336], [104.766899, 31.483558], [104.767948, 31.482979], [104.76838, 31.482479], [104.768658, 31.48136], [104.76875, 31.480676], [104.767207, 31.476833], [104.76696, 31.476385], [104.764601, 31.47406], [104.765566, 31.47316], [104.767878, 31.474627], [104.771169, 31.47805], [104.772251, 31.479972], [104.772251, 31.481779], [104.773126, 31.482813], [104.774274, 31.483357], [104.775167, 31.48314], [104.777749, 31.48227], [104.779184, 31.482188], [104.780427, 31.482324], [104.780268, 31.483085], [104.780682, 31.484635], [104.78014, 31.485668], [104.780332, 31.487299], [104.781192, 31.487], [104.782563, 31.486565], [104.784859, 31.48613], [104.789163, 31.484825], [104.789354, 31.483656], [104.789194, 31.482623], [104.788748, 31.480937], [104.78827, 31.479687], [104.786931, 31.478953], [104.784093, 31.478246], [104.781702, 31.477566], [104.780746, 31.477811], [104.779917, 31.477892], [104.779694, 31.477593], [104.782053, 31.47656], [104.783297, 31.476669], [104.784476, 31.476614], [104.785386, 31.477936], [104.786618, 31.478046], [104.788175, 31.477639], [104.789504, 31.477248], [104.792849, 31.478968], [104.790879, 31.482406], [104.790695, 31.484204], [104.790879, 31.484907], [104.789825, 31.485845], [104.790695, 31.487603], [104.791795, 31.48858], [104.794865, 31.487994], [104.802058, 31.490963], [104.803158, 31.492604], [104.806778, 31.492135], [104.809481, 31.492526], [104.811909, 31.492526], [104.813559, 31.493659], [104.813925, 31.495495], [104.814567, 31.497214], [104.814429, 31.498074], [104.815987, 31.498933], [104.818324, 31.49905], [104.819882, 31.499129], [104.82199, 31.499675], [104.822626, 31.5001], [104.823043, 31.500379], [104.822814, 31.501746], [104.822356, 31.501316], [104.820432, 31.501394], [104.819286, 31.502176], [104.820065, 31.502449], [104.819653, 31.503035], [104.818232, 31.503387], [104.818003, 31.502879], [104.817041, 31.503113], [104.817683, 31.504559], [104.818461, 31.505535], [104.816216, 31.506942], [104.816354, 31.507645], [104.818095, 31.50784], [104.820019, 31.509559], [104.822264, 31.509988], [104.824693, 31.509363], [104.825288, 31.510379], [104.825838, 31.510223], [104.826067, 31.509715], [104.827396, 31.509129], [104.828083, 31.509246], [104.828954, 31.510067], [104.829275, 31.511317], [104.828954, 31.513231], [104.828221, 31.51491], [104.826617, 31.516434], [104.826205, 31.518269], [104.826709, 31.519637], [104.828037, 31.519285], [104.828404, 31.51784], [104.829137, 31.51823], [104.829, 31.520457], [104.826984, 31.522097], [104.82735, 31.522956], [104.826663, 31.526276], [104.826709, 31.528346], [104.824601, 31.529049], [104.822448, 31.529127], [104.820294, 31.526315], [104.819103, 31.524519], [104.818141, 31.523816], [104.817683, 31.522839], [104.816812, 31.522175], [104.814658, 31.523152], [104.813513, 31.522449], [104.81136, 31.522175], [104.808885, 31.521238], [104.808473, 31.520535], [104.808427, 31.519441], [104.804029, 31.519558], [104.802654, 31.520105], [104.802562, 31.521043], [104.803158, 31.522097], [104.802562, 31.522996], [104.802929, 31.52612], [104.803479, 31.528307], [104.804395, 31.529127], [104.804945, 31.529947], [104.806136, 31.530611], [104.809756, 31.529166], [104.81168, 31.527956], [104.812322, 31.528424], [104.811543, 31.529869], [104.809756, 31.531861], [104.808611, 31.532994], [104.809389, 31.536782], [104.810123, 31.538773], [104.810214, 31.542131], [104.809344, 31.542522], [104.807602, 31.542444], [104.807144, 31.543772], [104.80609, 31.545021], [104.804945, 31.545919], [104.802837, 31.546974], [104.801005, 31.546974], [104.799538, 31.546505], [104.798897, 31.545607], [104.797156, 31.545295], [104.795827, 31.545177], [104.793765, 31.544162], [104.790283, 31.543889], [104.788909, 31.543381], [104.78648, 31.544709], [104.785884, 31.546271], [104.785014, 31.546232], [104.783836, 31.546626], [104.781682, 31.546314], [104.77962, 31.54647], [104.77765, 31.547525], [104.777192, 31.548266], [104.777101, 31.549594], [104.775934, 31.550367], [104.777263, 31.550616], [104.77736, 31.551223], [104.777684, 31.551554], [104.777975, 31.552962], [104.77953, 31.55611], [104.780664, 31.556524], [104.780729, 31.557352], [104.778882, 31.55749], [104.778008, 31.558456], [104.777554, 31.558042], [104.777263, 31.55691], [104.77642, 31.556772], [104.775934, 31.556993], [104.776971, 31.558512], [104.776355, 31.560527], [104.775675, 31.561935], [104.775322, 31.56242], [104.774836, 31.562861], [104.774253, 31.563883], [104.774544, 31.564656], [104.774317, 31.565401], [104.773637, 31.565594], [104.773507, 31.564573], [104.772147, 31.563082], [104.770916, 31.561095], [104.770138, 31.561674], [104.770462, 31.563772], [104.770883, 31.564683], [104.771823, 31.565484], [104.773702, 31.566119], [104.775322, 31.566119], [104.775873, 31.566699], [104.775905, 31.567416], [104.77516, 31.568327], [104.774577, 31.569293], [104.773864, 31.570204], [104.773151, 31.571805], [104.772309, 31.573185], [104.771369, 31.57302], [104.771175, 31.573517], [104.771531, 31.574207], [104.771207, 31.575062], [104.771078, 31.575863], [104.771434, 31.576194], [104.772179, 31.576442], [104.7726, 31.576912], [104.77205, 31.578706], [104.772341, 31.579368], [104.771369, 31.579893], [104.770559, 31.580445], [104.769976, 31.580859], [104.769101, 31.581107], [104.768421, 31.581659], [104.767967, 31.583012], [104.768226, 31.583398], [104.766736, 31.584143], [104.766347, 31.585164], [104.765214, 31.58544], [104.764209, 31.585082], [104.763593, 31.586103], [104.763108, 31.586323], [104.762816, 31.585689], [104.762395, 31.585551], [104.762622, 31.585164], [104.761552, 31.584944], [104.761552, 31.584529], [104.761261, 31.584198], [104.760645, 31.584033], [104.760483, 31.583674], [104.760904, 31.583426], [104.760969, 31.582018], [104.759155, 31.581135], [104.758604, 31.579865], [104.75841, 31.579037], [104.758215, 31.578237], [104.758377, 31.577602], [104.758021, 31.57705], [104.757341, 31.577077], [104.756304, 31.577215], [104.755364, 31.577215], [104.754943, 31.576691], [104.754554, 31.576663], [104.754425, 31.576939], [104.754036, 31.576939], [104.75342, 31.577464], [104.752999, 31.577133], [104.752999, 31.576028], [104.75287, 31.575449], [104.752416, 31.57509], [104.751898, 31.57498], [104.751671, 31.574234], [104.750926, 31.573544], [104.750828, 31.572882], [104.751185, 31.572247], [104.750602, 31.571364], [104.750602, 31.570867], [104.750828, 31.569901], [104.749986, 31.569073], [104.75018, 31.568576], [104.749824, 31.567941], [104.749857, 31.567416], [104.748561, 31.566726], [104.74801, 31.565898], [104.74707, 31.565677], [104.746228, 31.565926], [104.745774, 31.565898], [104.746001, 31.56507], [104.745969, 31.564325], [104.746941, 31.564104], [104.746908, 31.563524], [104.747362, 31.563331], [104.747265, 31.562282], [104.747653, 31.561619], [104.747815, 31.560763], [104.747751, 31.560156], [104.747815, 31.559742], [104.747459, 31.5593], [104.746779, 31.559493], [104.746163, 31.559162], [104.745936, 31.558251], [104.745385, 31.557561], [104.744575, 31.556981], [104.743409, 31.556843], [104.742437, 31.556374], [104.741563, 31.555076], [104.741141, 31.554524], [104.741336, 31.553392], [104.741303, 31.552923], [104.740817, 31.552647], [104.740364, 31.552177], [104.73978, 31.551763], [104.739942, 31.551073], [104.739619, 31.550272]]], [[[104.75727, 31.479873], [104.757594, 31.479689], [104.758334, 31.479702], [104.7596, 31.480149], [104.760294, 31.480018], [104.761436, 31.479886], [104.762022, 31.480768], [104.762609, 31.480768], [104.762778, 31.480518], [104.764152, 31.479689], [104.764754, 31.479531], [104.765278, 31.479281], [104.766436, 31.478702], [104.766652, 31.478386], [104.767562, 31.478228], [104.767717, 31.478689], [104.767238, 31.478833], [104.767285, 31.479097], [104.766544, 31.479399], [104.766667, 31.479741], [104.76693, 31.480018], [104.766204, 31.480347], [104.765741, 31.480597], [104.764522, 31.481071], [104.763488, 31.482044], [104.763041, 31.482229], [104.761019, 31.482558], [104.759476, 31.482597], [104.759445, 31.480992], [104.757285, 31.480939], [104.757347, 31.480162], [104.75727, 31.479873]]], [[[104.76068, 31.478109], [104.761513, 31.478004], [104.761524, 31.477639], [104.763581, 31.477502], [104.764985, 31.476938], [104.76534, 31.477215], [104.765525, 31.477188], [104.765649, 31.477346], [104.766096, 31.477175], [104.766282, 31.477346], [104.766004, 31.47757], [104.766019, 31.477781], [104.765587, 31.477965], [104.765525, 31.478136], [104.764507, 31.478596], [104.764306, 31.478873], [104.763782, 31.478846], [104.763612, 31.478583], [104.763242, 31.478623], [104.76284, 31.478846], [104.761899, 31.478978], [104.761467, 31.478675], [104.760757, 31.478438], [104.76068, 31.478109]]]]}, "properties": {"display_name": "游仙街道, 游仙区, 绵阳市, 四川省, 中国", "type": "administrative", "osm_type": "relation", "osm_id": 8049503, "class": null, "keyword": "subdistrict"}}, {"type": "Feature", "geometry": {"type": "Polygon", "coordinates": [[[104.741626, 31.407332], [104.742098, 31.407112], [104.742376, 31.406947], [104.74298, 31.405926], [104.743384, 31.405244], [104.74407, 31.405024], [104.744498, 31.404512], [104.745441, 31.404219], [104.746041, 31.404054], [104.747241, 31.403614], [104.748356, 31.403193], [104.748891, 31.403065], [104.749985, 31.40279], [104.750434, 31.402295], [104.750907, 31.401069], [104.751288, 31.400438], [104.750795, 31.400329], [104.750195, 31.400127], [104.749766, 31.399706], [104.748996, 31.399496], [104.748289, 31.399313], [104.747646, 31.398654], [104.747667, 31.397646], [104.747345, 31.39706], [104.747238, 31.396237], [104.748138, 31.395724], [104.748546, 31.395211], [104.74907, 31.394912], [104.751621, 31.395095], [104.753143, 31.395132], [104.755244, 31.394034], [104.758096, 31.393338], [104.760605, 31.392479], [104.760862, 31.391252], [104.761848, 31.390117], [104.762706, 31.389531], [104.763372, 31.388543], [104.763136, 31.387809], [104.763071, 31.38704], [104.764167, 31.386757], [104.765079, 31.386611], [104.765454, 31.386895], [104.765744, 31.387554], [104.766419, 31.390403], [104.766076, 31.393205], [104.764489, 31.394706], [104.76155, 31.395712], [104.763759, 31.395768], [104.766118, 31.395586], [104.768349, 31.394873], [104.769894, 31.393903], [104.77131, 31.393118], [104.771996, 31.394144], [104.770602, 31.395242], [104.770259, 31.395791], [104.769915, 31.39645], [104.769744, 31.397218], [104.767769, 31.397107], [104.763952, 31.39705], [104.762215, 31.397287], [104.76155, 31.397489], [104.760992, 31.401571], [104.765281, 31.402892], [104.764852, 31.404136], [104.770273, 31.405841], [104.770788, 31.406002], [104.773223, 31.406768], [104.774077, 31.407036], [104.780385, 31.408983], [104.783256, 31.411127], [104.786224, 31.413345], [104.790108, 31.417397], [104.792262, 31.419874], [104.783877, 31.424899], [104.78349, 31.430848], [104.786756, 31.445539], [104.78682, 31.452969], [104.784942, 31.457855], [104.771693, 31.461472], [104.764711, 31.459861], [104.766452, 31.458251], [104.767311, 31.45725], [104.767445, 31.456844], [104.767351, 31.456477], [104.767096, 31.456168], [104.76675, 31.455918], [104.76474, 31.454806], [104.761656, 31.452641], [104.759617, 31.450729], [104.760992, 31.449663], [104.762002, 31.450526], [104.763016, 31.451286], [104.764784, 31.452639], [104.765428, 31.451817], [104.76502, 31.450774], [104.765642, 31.450124], [104.767004, 31.449566], [104.768034, 31.449605], [104.768087, 31.448269], [104.76917, 31.446861], [104.768816, 31.446367], [104.768323, 31.445351], [104.768138, 31.445266], [104.768238, 31.445127], [104.768603, 31.444843], [104.769091, 31.444432], [104.769482, 31.443878], [104.770308, 31.443316], [104.771032, 31.442616], [104.771814, 31.4423], [104.77264, 31.441679], [104.773295, 31.441043], [104.77441, 31.440216], [104.775279, 31.439265], [104.775537, 31.438643], [104.775054, 31.437326], [104.774882, 31.436218], [104.774217, 31.434864], [104.77294, 31.434479], [104.770881, 31.433855], [104.769831, 31.433481], [104.769282, 31.433322], [104.767921, 31.43291], [104.767449, 31.432791], [104.767235, 31.433212], [104.767041, 31.433716], [104.766805, 31.434154], [104.765604, 31.433806], [104.76525, 31.433815], [104.765133, 31.434217], [104.765142, 31.434858], [104.765539, 31.43494], [104.765894, 31.435015], [104.766226, 31.43506], [104.76628, 31.435161], [104.766183, 31.435408], [104.766044, 31.435875], [104.765722, 31.435792], [104.76495, 31.435563], [104.763703, 31.435571], [104.760583, 31.435891], [104.757914, 31.435533], [104.757527, 31.434224], [104.757978, 31.433657], [104.758, 31.433053], [104.758075, 31.432467], [104.757527, 31.432458], [104.757121, 31.432339], [104.756981, 31.431964], [104.756831, 31.431534], [104.756402, 31.431195], [104.755695, 31.430893], [104.754858, 31.430846], [104.754354, 31.430783], [104.753776, 31.430755], [104.753282, 31.430581], [104.752779, 31.430499], [104.75235, 31.430353], [104.751996, 31.430215], [104.752039, 31.429867], [104.752253, 31.429629], [104.752586, 31.429584], [104.753143, 31.429603], [104.753636, 31.429593], [104.754408, 31.429356], [104.754923, 31.4292], [104.755619, 31.428935], [104.756208, 31.42888], [104.756316, 31.428669], [104.756536, 31.428486], [104.757056, 31.427992], [104.757527, 31.428029], [104.758133, 31.427923], [104.758037, 31.427767], [104.757866, 31.427653], [104.757817, 31.42752], [104.757533, 31.427424], [104.757411, 31.42747], [104.757341, 31.427644], [104.757207, 31.427777], [104.757003, 31.427882], [104.75674, 31.428064], [104.756434, 31.428091], [104.75592, 31.428091], [104.755223, 31.427982], [104.754323, 31.427913], [104.75313, 31.427776], [104.751436, 31.427624], [104.750735, 31.428023], [104.74719, 31.427193], [104.744048, 31.425863], [104.742282, 31.425116], [104.745368, 31.421161], [104.748112, 31.418414], [104.749462, 31.414515], [104.749388, 31.413006], [104.74927, 31.411523], [104.747673, 31.410159], [104.746141, 31.40907], [104.741626, 31.407332]]]}, "properties": {"display_name": "城南街道, 涪城区, 绵阳市, 四川省, 中国", "type": "administrative", "osm_type": "relation", "osm_id": 10612733, "class": null, "keyword": "subdistrict"}}, {"type": "Feature", "geometry": {"type": "Polygon", "coordinates": [[[105.064069, 31.117428], [105.064155, 31.109056], [105.069461, 31.108535], [105.072972, 31.108016], [105.074684, 31.106472], [105.075134, 31.105186], [105.07522, 31.102247], [105.079288, 31.10059], [105.079716, 31.101436], [105.080282, 31.101337], [105.080282, 31.101245], [105.080529, 31.099418], [105.080582, 31.098596], [105.080592, 31.097827], [105.080759, 31.09644], [105.080844, 31.096124], [105.081144, 31.095737], [105.081714, 31.095476], [105.082489, 31.095291], [105.082768, 31.095203], [105.083003, 31.094978], [105.083249, 31.095042], [105.083934, 31.09506], [105.085273, 31.095054], [105.089177, 31.095084], [105.091233, 31.095051], [105.091361, 31.095024], [105.091501, 31.094147], [105.091668, 31.092802], [105.09298, 31.092874], [105.093071, 31.092438], [105.09329, 31.092447], [105.093355, 31.092263], [105.093328, 31.091816], [105.093366, 31.091651], [105.093838, 31.090581], [105.095016, 31.090884], [105.095024, 31.090913], [105.094794, 31.091538], [105.094802, 31.091581], [105.095034, 31.091978], [105.096116, 31.091713], [105.098366, 31.091106], [105.099395, 31.090813], [105.101222, 31.090342], [105.099867, 31.087099], [105.098367, 31.084067], [105.09691, 31.08146], [105.095989, 31.079697], [105.095667, 31.078741], [105.095539, 31.077327], [105.095517, 31.076485], [105.095346, 31.075015], [105.096267, 31.073453], [105.096846, 31.072774], [105.098046, 31.071947], [105.099868, 31.070643], [105.10139, 31.069578], [105.103277, 31.068861], [105.104927, 31.068917], [105.106407, 31.068935], [105.108337, 31.069102], [105.112454, 31.069654], [105.113892, 31.069949], [105.116231, 31.07063], [105.117839, 31.071624], [105.122033, 31.075026], [105.123792, 31.076939], [105.124964, 31.077979], [105.123741, 31.079797], [105.122689, 31.079244], [105.122325, 31.080695], [105.12211, 31.080806], [105.121595, 31.080621], [105.121445, 31.081484], [105.119943, 31.082162], [105.119578, 31.082383], [105.119063, 31.082161], [105.119149, 31.081464], [105.118763, 31.081353], [105.117862, 31.081389], [105.117025, 31.081021], [105.116338, 31.081113], [105.115973, 31.081185], [105.115523, 31.081351], [105.115265, 31.081535], [105.115458, 31.08181], [105.115887, 31.082141], [105.115887, 31.082325], [105.115394, 31.082269], [105.114301, 31.083113], [105.114279, 31.083425], [105.113764, 31.083572], [105.113528, 31.083718], [105.113228, 31.083865], [105.113292, 31.083351], [105.113743, 31.083003], [105.113721, 31.082635], [105.113635, 31.082378], [105.113378, 31.082084], [105.112906, 31.081918], [105.112306, 31.081588], [105.112048, 31.081496], [105.111748, 31.081679], [105.111533, 31.081973], [105.111233, 31.082028], [105.111233, 31.081605], [105.111276, 31.081201], [105.111619, 31.080834], [105.110805, 31.080264], [105.110204, 31.080723], [105.109646, 31.081054], [105.108317, 31.081641], [105.107802, 31.081678], [105.107352, 31.081364], [105.106987, 31.08164], [105.106601, 31.081897], [105.106152, 31.082062], [105.106236, 31.082466], [105.106279, 31.082907], [105.106151, 31.083587], [105.105808, 31.083458], [105.105615, 31.083275], [105.105058, 31.083458], [105.104715, 31.083678], [105.104479, 31.083954], [105.104114, 31.08377], [105.1039, 31.083954], [105.103364, 31.084174], [105.103364, 31.08445], [105.102978, 31.084816], [105.102614, 31.085092], [105.102335, 31.08511], [105.102013, 31.08511], [105.101906, 31.085257], [105.10197, 31.085901], [105.10197, 31.086194], [105.101906, 31.086543], [105.1024, 31.086543], [105.102528, 31.086947], [105.102013, 31.087021], [105.102357, 31.087867], [105.102699, 31.088454], [105.102806, 31.088729], [105.102999, 31.089005], [105.103321, 31.089299], [105.103364, 31.08963], [105.1033, 31.089942], [105.102956, 31.090015], [105.10272, 31.089758], [105.102249, 31.08884], [105.102249, 31.090015], [105.102078, 31.090658], [105.101572, 31.090932], [105.103835, 31.097234], [105.105936, 31.096903], [105.106194, 31.097638], [105.104092, 31.098005], [105.104392, 31.099732], [105.104092, 31.101495], [105.10169, 31.110786], [105.101175, 31.113613], [105.099332, 31.119268], [105.098132, 31.121839], [105.093855, 31.124527], [105.083872, 31.130112], [105.078304, 31.131512], [105.07398, 31.132141], [105.073152, 31.129976], [105.072403, 31.130069], [105.071569, 31.129831], [105.071719, 31.129243], [105.071013, 31.129244], [105.072254, 31.127902], [105.071056, 31.127261], [105.066893, 31.125797], [105.068177, 31.118304], [105.064069, 31.117428]], [[105.083875, 31.100468], [105.085144, 31.100573], [105.085213, 31.100191], [105.083891, 31.100068], [105.083875, 31.100468]]]}, "properties": {"display_name": "北坝街道, 三台县, 绵阳市, 四川省, 中国", "type": "administrative", "osm_type": "relation", "osm_id": 10622035, "class": null, "keyword": "subdistrict"}}, {"type": "Feature", "geometry": {"type": "Polygon", "coordinates": [[[104.723457, 31.76259], [104.729447, 31.76217], [104.728799, 31.760792], [104.7285, 31.757134], [104.728543, 31.7555], [104.729722, 31.753978], [104.730618, 31.752307], [104.731207, 31.750283], [104.73291, 31.754182], [104.735247, 31.755296], [104.73826, 31.75977], [104.738959, 31.763229], [104.739199, 31.764634], [104.742037, 31.766974], [104.74647, 31.769944], [104.749396, 31.772895], [104.751885, 31.773313], [104.752748, 31.773337], [104.754953, 31.775759], [104.756383, 31.77782], [104.757813, 31.780205], [104.759058, 31.783602], [104.758054, 31.784994], [104.75789, 31.786506], [104.757278, 31.787722], [104.756547, 31.788362], [104.755477, 31.790821], [104.755073, 31.791406], [104.755008, 31.792928], [104.755979, 31.797076], [104.75551, 31.797827], [104.759025, 31.802021], [104.760368, 31.805779], [104.762366, 31.810919], [104.761864, 31.813776], [104.759178, 31.819779], [104.757944, 31.819667], [104.756339, 31.817283], [104.756252, 31.815372], [104.755084, 31.813118], [104.754767, 31.811253], [104.753927, 31.809778], [104.752813, 31.807644], [104.752049, 31.806503], [104.750706, 31.805668], [104.748162, 31.804842], [104.746841, 31.804592], [104.746437, 31.804276], [104.745804, 31.803163], [104.7454, 31.80153], [104.745498, 31.799915], [104.745411, 31.799386], [104.744101, 31.797595], [104.742354, 31.796361], [104.74183, 31.79625], [104.740585, 31.796296], [104.739996, 31.796092], [104.739494, 31.795563], [104.738347, 31.794023], [104.737627, 31.793401], [104.735585, 31.792603], [104.733074, 31.79174], [104.732321, 31.791323], [104.731633, 31.79046], [104.731524, 31.789968], [104.731742, 31.789281], [104.732648, 31.788297], [104.733096, 31.787537], [104.734057, 31.786506], [104.734592, 31.785541], [104.735127, 31.783964], [104.736743, 31.782414], [104.737419, 31.78143], [104.737818, 31.77954], [104.734907, 31.779365], [104.733911, 31.778913], [104.732815, 31.77739], [104.732938, 31.776235], [104.733154, 31.774949], [104.731641, 31.774607], [104.731873, 31.770985], [104.73029, 31.770906], [104.730097, 31.770657], [104.729449, 31.770479], [104.72924, 31.77021], [104.729016, 31.770177], [104.728692, 31.770584], [104.728484, 31.770571], [104.72782, 31.770302], [104.727133, 31.770283], [104.726747, 31.770046], [104.725982, 31.769731], [104.725504, 31.768327], [104.725109, 31.765097], [104.723457, 31.76259]]]}, "properties": {"display_name": "中坝街道, 江油市, 绵阳市, 四川省, 中国", "type": "administrative", "osm_type": "relation", "osm_id": 2172909, "class": null, "keyword": "subdistrict"}}, {"type": "Feature", "geometry": {"type": "Polygon", "coordinates": [[[104.727686, 31.515744], [104.733509, 31.513825], [104.73437, 31.515119], [104.735342, 31.514843], [104.736962, 31.513904], [104.739489, 31.511998], [104.741368, 31.510589], [104.743798, 31.506971], [104.74571, 31.505037], [104.748787, 31.50338], [104.752286, 31.502634], [104.754295, 31.501667], [104.756077, 31.500479], [104.756822, 31.500755], [104.757824, 31.5007], [104.758013, 31.499485], [104.757146, 31.49907], [104.757341, 31.498159], [104.757146, 31.49675], [104.756595, 31.495258], [104.754554, 31.493711], [104.753809, 31.492661], [104.75355, 31.491446], [104.754133, 31.490506], [104.754846, 31.488904], [104.755008, 31.487522], [104.754846, 31.486196], [104.754893, 31.482834], [104.755217, 31.48286], [104.755881, 31.482663], [104.759229, 31.482637], [104.759476, 31.484321], [104.759955, 31.48444], [104.760479, 31.48465], [104.760433, 31.485374], [104.761251, 31.485163], [104.761326, 31.48545], [104.76071, 31.485782], [104.760937, 31.48639], [104.761974, 31.486003], [104.762233, 31.486196], [104.762168, 31.486556], [104.761909, 31.486915], [104.761617, 31.48744], [104.760645, 31.487467], [104.7599, 31.487274], [104.758021, 31.486998], [104.757438, 31.487578], [104.756887, 31.487909], [104.756628, 31.490561], [104.757308, 31.4907], [104.757794, 31.490921], [104.757989, 31.491501], [104.757729, 31.493269], [104.75828, 31.494153], [104.759058, 31.493794], [104.759933, 31.494899], [104.759511, 31.495092], [104.760127, 31.495811], [104.760904, 31.496087], [104.760937, 31.49628], [104.760354, 31.496308], [104.760354, 31.496612], [104.760775, 31.496805], [104.760775, 31.497661], [104.762622, 31.498573], [104.762038, 31.49954], [104.761002, 31.500037], [104.76003, 31.499871], [104.759965, 31.499429], [104.758507, 31.499457], [104.758183, 31.500838], [104.757179, 31.502799], [104.757211, 31.50407], [104.758053, 31.504595], [104.758604, 31.505507], [104.758734, 31.506667], [104.759511, 31.509015], [104.76003, 31.510451], [104.761876, 31.512688], [104.762168, 31.513434], [104.761812, 31.513793], [104.760775, 31.513765], [104.759771, 31.513268], [104.758539, 31.511639], [104.75679, 31.509153], [104.754978, 31.509125], [104.755372, 31.510233], [104.755735, 31.511367], [104.755962, 31.513422], [104.756321, 31.515021], [104.756401, 31.515892], [104.757503, 31.516969], [104.759058, 31.51835], [104.759378, 31.519192], [104.759414, 31.520007], [104.759997, 31.52056], [104.760613, 31.521002], [104.760969, 31.521444], [104.76152, 31.521582], [104.761552, 31.522742], [104.760743, 31.523211], [104.759997, 31.522631], [104.759317, 31.523018], [104.758475, 31.523404], [104.756952, 31.52346], [104.755332, 31.522935], [104.754263, 31.522935], [104.75274, 31.523156], [104.751541, 31.522355], [104.750148, 31.522355], [104.74937, 31.522852], [104.748852, 31.522576], [104.746714, 31.522714], [104.745677, 31.523239], [104.744835, 31.522962], [104.744668, 31.521633], [104.744334, 31.520298], [104.742502, 31.519262], [104.741692, 31.519676], [104.741465, 31.520808], [104.740655, 31.52114], [104.740493, 31.524261], [104.740688, 31.525807], [104.740558, 31.526691], [104.740072, 31.52705], [104.73946, 31.527722], [104.736662, 31.530722], [104.736526, 31.533415], [104.731381, 31.533492], [104.731652, 31.528645], [104.733096, 31.528376], [104.734405, 31.527029], [104.733728, 31.52399], [104.736346, 31.523221], [104.737519, 31.518989], [104.73937, 31.51618], [104.739595, 31.514949], [104.741355, 31.512294], [104.741039, 31.511679], [104.739685, 31.513179], [104.738647, 31.514372], [104.736887, 31.51695], [104.736075, 31.518373], [104.73454, 31.521451], [104.733864, 31.521566], [104.72926, 31.517296], [104.727686, 31.515744]]]}, "properties": {"display_name": "春雷街道, 游仙区, 绵阳市, 四川省, 中国", "type": "administrative", "osm_type": "relation", "osm_id": 8049515, "class": null, "keyword": "subdistrict"}}, {"type": "Feature", "geometry": {"type": "Polygon", "coordinates": [[[104.761405, 31.469081], [104.761745, 31.467633], [104.762238, 31.466554], [104.763828, 31.465448], [104.768504, 31.463408], [104.770541, 31.462671], [104.7713, 31.462052], [104.771693, 31.461472], [104.784942, 31.457855], [104.7876, 31.458259], [104.791873, 31.457797], [104.791745, 31.461767], [104.791299, 31.462665], [104.790247, 31.463671], [104.789194, 31.465031], [104.787824, 31.467668], [104.787154, 31.469653], [104.785974, 31.47017], [104.784859, 31.470931], [104.78403, 31.472264], [104.783966, 31.47278], [104.784125, 31.473814], [104.78438, 31.474765], [104.784353, 31.475664], [104.784349, 31.475826], [104.784476, 31.476614], [104.783297, 31.476669], [104.782053, 31.47656], [104.779694, 31.477593], [104.779917, 31.477892], [104.780746, 31.477811], [104.781702, 31.477566], [104.784093, 31.478246], [104.786931, 31.478953], [104.78827, 31.479687], [104.788748, 31.480937], [104.789194, 31.482623], [104.789354, 31.483656], [104.789163, 31.484825], [104.784859, 31.48613], [104.782563, 31.486565], [104.781192, 31.487], [104.780332, 31.487299], [104.78014, 31.485668], [104.780682, 31.484635], [104.780268, 31.483085], [104.780427, 31.482324], [104.779184, 31.482188], [104.777749, 31.48227], [104.775167, 31.48314], [104.774274, 31.483357], [104.773126, 31.482813], [104.772251, 31.481779], [104.772251, 31.479972], [104.771169, 31.47805], [104.767878, 31.474627], [104.765566, 31.47316], [104.763149, 31.471726], [104.762146, 31.470976], [104.761529, 31.470015], [104.761405, 31.469081]]]}, "properties": {"display_name": "富乐街道, 游仙区, 绵阳市, 四川省, 中国", "type": "administrative", "osm_type": "relation", "osm_id": 8049502, "class": null, "keyword": "subdistrict"}}, {"type": "Feature", "geometry": {"type": "Polygon", "coordinates": [[[104.74566, 31.45468], [104.746199, 31.451795], [104.746836, 31.449899], [104.74808, 31.448281], [104.749448, 31.447312], [104.751096, 31.446888], [104.753288, 31.447007], [104.75534, 31.447843], [104.757594, 31.449034], [104.759617, 31.450729], [104.761656, 31.452641], [104.76474, 31.454806], [104.76675, 31.455918], [104.767096, 31.456168], [104.767351, 31.456477], [104.767445, 31.456844], [104.767311, 31.45725], [104.766452, 31.458251], [104.764711, 31.459861], [104.763239, 31.460338], [104.762272, 31.461031], [104.758528, 31.463685], [104.755373, 31.46634], [104.752918, 31.468339], [104.750354, 31.466867], [104.750649, 31.466536], [104.750618, 31.466032], [104.750198, 31.464799], [104.749732, 31.464626], [104.749592, 31.464215], [104.749965, 31.46399], [104.749887, 31.463592], [104.749172, 31.463619], [104.749112, 31.462526], [104.748006, 31.462584], [104.747929, 31.460582], [104.747867, 31.455026], [104.74742, 31.45493], [104.746943, 31.454865], [104.74566, 31.45468]]]}, "properties": {"display_name": "城厢街道, 涪城区, 绵阳市, 四川省, 中国", "type": "administrative", "osm_type": "relation", "osm_id": 10612734, "class": null, "keyword": "subdistrict"}}, {"type": "Feature", "geometry": {"type": "Polygon", "coordinates": [[[104.724699, 31.457325], [104.725694, 31.456622], [104.726782, 31.456344], [104.728678, 31.456092], [104.72985, 31.455831], [104.730684, 31.455564], [104.731139, 31.455385], [104.732002, 31.454855], [104.733109, 31.454069], [104.733675, 31.45357], [104.738705, 31.448917], [104.739483, 31.44832], [104.740182, 31.447936], [104.741208, 31.447631], [104.744877, 31.446875], [104.745275, 31.446523], [104.745541, 31.446215], [104.745749, 31.446025], [104.746191, 31.445739], [104.746613, 31.445559], [104.746958, 31.445457], [104.747483, 31.445358], [104.749083, 31.44515], [104.749606, 31.445128], [104.750703, 31.445145], [104.752521, 31.44537], [104.754409, 31.445846], [104.755952, 31.446178], [104.756446, 31.446262], [104.757051, 31.446303], [104.757586, 31.446267], [104.758116, 31.446198], [104.762161, 31.445326], [104.762568, 31.445154], [104.762993, 31.444942], [104.763404, 31.444635], [104.764009, 31.443929], [104.764445, 31.443349], [104.764619, 31.443075], [104.764734, 31.442884], [104.764975, 31.442395], [104.765274, 31.441734], [104.765569, 31.441008], [104.76634, 31.441441], [104.767077, 31.441875], [104.76759, 31.442299], [104.768352, 31.443121], [104.768072, 31.443599], [104.767341, 31.444686], [104.768138, 31.445266], [104.768323, 31.445351], [104.768816, 31.446367], [104.76917, 31.446861], [104.768087, 31.448269], [104.768034, 31.449605], [104.767004, 31.449566], [104.765642, 31.450124], [104.76502, 31.450774], [104.765428, 31.451817], [104.764784, 31.452639], [104.763016, 31.451286], [104.762002, 31.450526], [104.760992, 31.449663], [104.759617, 31.450729], [104.757594, 31.449034], [104.75534, 31.447843], [104.753288, 31.447007], [104.751096, 31.446888], [104.749448, 31.447312], [104.74808, 31.448281], [104.746836, 31.449899], [104.746199, 31.451795], [104.74566, 31.45468], [104.745048, 31.457962], [104.744504, 31.459314], [104.743416, 31.46019], [104.743083, 31.460262], [104.740112, 31.46109], [104.73018, 31.459609], [104.728774, 31.459224], [104.72632, 31.458557], [104.724699, 31.457325]]]}, "properties": {"display_name": "南山街道, 涪城区, 绵阳市, 四川省, 中国", "type": "administrative", "osm_type": "relation", "osm_id": 10612735, "class": null, "keyword": "subdistrict"}}, {"type": "Feature", "geometry": {"type": "Polygon", "coordinates": [[[104.72595, 31.465104], [104.72596, 31.464966], [104.726008, 31.46481], [104.726071, 31.464684], [104.727302, 31.463137], [104.728428, 31.461507], [104.728554, 31.461309], [104.728638, 31.461077], [104.7287, 31.460414], [104.728774, 31.459224], [104.73018, 31.459609], [104.740112, 31.46109], [104.743083, 31.460262], [104.743416, 31.46019], [104.744504, 31.459314], [104.745048, 31.457962], [104.74566, 31.45468], [104.746943, 31.454865], [104.74742, 31.45493], [104.747867, 31.455026], [104.747929, 31.460582], [104.748006, 31.462584], [104.749112, 31.462526], [104.749172, 31.463619], [104.749887, 31.463592], [104.749965, 31.46399], [104.749592, 31.464215], [104.749732, 31.464626], [104.750198, 31.464799], [104.750618, 31.466032], [104.750649, 31.466536], [104.750354, 31.466867], [104.752918, 31.468339], [104.751123, 31.47081], [104.750188, 31.474474], [104.747075, 31.473567], [104.744712, 31.473594], [104.744681, 31.472334], [104.743453, 31.472374], [104.743329, 31.470677], [104.742676, 31.470319], [104.742163, 31.469696], [104.729275, 31.469603], [104.72898, 31.469006], [104.728591, 31.46833], [104.72814, 31.467574], [104.727596, 31.466951], [104.726225, 31.465713], [104.726077, 31.465515], [104.725993, 31.465345], [104.725966, 31.465228], [104.72595, 31.465104]]]}, "properties": {"display_name": "城北街道, 涪城区, 绵阳市, 四川省, 中国", "type": "administrative", "osm_type": "relation", "osm_id": 10612732, "class": null, "keyword": "subdistrict"}}, {"type": "Feature", "geometry": {"type": "Polygon", "coordinates": [[[104.74923, 31.47886], [104.750188, 31.474474], [104.751123, 31.47081], [104.752918, 31.468339], [104.755373, 31.46634], [104.758528, 31.463685], [104.762272, 31.461031], [104.763239, 31.460338], [104.764711, 31.459861], [104.771693, 31.461472], [104.7713, 31.462052], [104.770541, 31.462671], [104.768504, 31.463408], [104.763828, 31.465448], [104.762238, 31.466554], [104.761745, 31.467633], [104.761405, 31.469081], [104.761529, 31.470015], [104.762146, 31.470976], [104.763149, 31.471726], [104.765566, 31.47316], [104.764601, 31.47406], [104.76696, 31.476385], [104.767207, 31.476833], [104.76875, 31.480676], [104.768658, 31.48136], [104.76838, 31.482479], [104.767948, 31.482979], [104.766899, 31.483558], [104.766744, 31.48336], [104.766775, 31.482992], [104.76659, 31.482702], [104.766019, 31.482992], [104.765633, 31.483558], [104.765433, 31.483413], [104.764939, 31.483887], [104.764106, 31.4849], [104.76389, 31.485018], [104.763519, 31.485177], [104.763504, 31.485466], [104.763118, 31.485426], [104.762948, 31.484992], [104.7621, 31.485137], [104.761251, 31.485163], [104.760433, 31.485374], [104.760479, 31.48465], [104.759955, 31.48444], [104.759476, 31.484321], [104.759229, 31.482637], [104.755881, 31.482663], [104.755217, 31.48286], [104.754893, 31.482834], [104.754908, 31.482084], [104.754199, 31.479741], [104.754168, 31.479202], [104.754245, 31.478754], [104.754091, 31.478333], [104.754307, 31.478136], [104.754137, 31.477701], [104.753967, 31.477491], [104.753921, 31.477136], [104.753273, 31.475767], [104.75318, 31.475359], [104.752517, 31.474345], [104.752223, 31.473385], [104.751884, 31.473424], [104.752208, 31.475464], [104.752587, 31.476595], [104.753226, 31.477978], [104.753458, 31.478202], [104.753504, 31.478978], [104.753226, 31.47911], [104.75227, 31.478939], [104.74923, 31.47886]], [[104.75727, 31.479873], [104.757347, 31.480162], [104.757285, 31.480939], [104.759445, 31.480992], [104.759476, 31.482597], [104.761019, 31.482558], [104.763041, 31.482229], [104.763488, 31.482044], [104.764522, 31.481071], [104.765741, 31.480597], [104.766204, 31.480347], [104.76693, 31.480018], [104.766667, 31.479741], [104.766544, 31.479399], [104.767285, 31.479097], [104.767238, 31.478833], [104.767717, 31.478689], [104.767562, 31.478228], [104.766652, 31.478386], [104.766436, 31.478702], [104.765278, 31.479281], [104.764754, 31.479531], [104.764152, 31.479689], [104.762778, 31.480518], [104.762609, 31.480768], [104.762022, 31.480768], [104.761436, 31.479886], [104.760294, 31.480018], [104.7596, 31.480149], [104.758334, 31.479702], [104.757594, 31.479689], [104.75727, 31.479873]], [[104.76068, 31.478109], [104.760757, 31.478438], [104.761467, 31.478675], [104.761899, 31.478978], [104.76284, 31.478846], [104.763242, 31.478623], [104.763612, 31.478583], [104.763782, 31.478846], [104.764306, 31.478873], [104.764507, 31.478596], [104.765525, 31.478136], [104.765587, 31.477965], [104.766019, 31.477781], [104.766004, 31.47757], [104.766282, 31.477346], [104.766096, 31.477175], [104.765649, 31.477346], [104.765525, 31.477188], [104.76534, 31.477215], [104.764985, 31.476938], [104.763581, 31.477502], [104.761524, 31.477639], [104.761513, 31.478004], [104.76068, 31.478109]]]}, "properties": {"display_name": "涪江街道, 游仙区, 绵阳市, 四川省, 中国", "type": "administrative", "osm_type": "relation", "osm_id": 8049501, "class": null, "keyword": "subdistrict"}}, {"type": "Feature", "geometry": {"type": "Polygon", "coordinates": [[[104.75355, 31.491446], [104.754133, 31.490506], [104.754846, 31.488904], [104.755008, 31.487522], [104.754846, 31.486196], [104.754893, 31.482834], [104.755217, 31.48286], [104.755881, 31.482663], [104.759229, 31.482637], [104.759476, 31.484321], [104.759955, 31.48444], [104.760479, 31.48465], [104.760433, 31.485374], [104.761251, 31.485163], [104.761326, 31.48545], [104.76071, 31.485782], [104.760937, 31.48639], [104.761974, 31.486003], [104.762233, 31.486196], [104.762168, 31.486556], [104.761909, 31.486915], [104.761617, 31.48744], [104.760645, 31.487467], [104.7599, 31.487274], [104.758021, 31.486998], [104.757438, 31.487578], [104.756887, 31.487909], [104.756628, 31.490561], [104.757308, 31.4907], [104.757794, 31.490921], [104.757989, 31.491501], [104.757729, 31.493269], [104.75828, 31.494153], [104.759058, 31.493794], [104.759933, 31.494899], [104.759511, 31.495092], [104.760127, 31.495811], [104.760904, 31.496087], [104.760937, 31.49628], [104.760354, 31.496308], [104.760354, 31.496612], [104.760775, 31.496805], [104.760775, 31.497661], [104.762622, 31.498573], [104.762038, 31.49954], [104.761002, 31.500037], [104.76003, 31.499871], [104.759965, 31.499429], [104.758507, 31.499457], [104.758183, 31.500838], [104.757179, 31.502799], [104.757211, 31.50407], [104.758053, 31.504595], [104.758604, 31.505507], [104.758734, 31.506667], [104.759511, 31.509015], [104.75679, 31.509153], [104.754978, 31.509125], [104.754838, 31.508638], [104.754891, 31.508321], [104.755104, 31.507777], [104.755742, 31.506839], [104.755991, 31.506249], [104.756345, 31.50377], [104.756558, 31.503104], [104.757037, 31.502318], [104.757824, 31.5007], [104.758013, 31.499485], [104.757146, 31.49907], [104.757341, 31.498159], [104.757146, 31.49675], [104.756595, 31.495258], [104.754554, 31.493711], [104.753809, 31.492661], [104.75355, 31.491446]]]}, "properties": {"display_name": "松林街道, 春雷街道, 游仙区, 绵阳市, 四川省, 中国", "type": "historic", "osm_type": "relation", "osm_id": 10627720, "class": null, "keyword": "subdistrict"}}, {"type": "Feature", "geometry": {"type": "MultiPolygon", "coordinates": [[[[104.60202, 31.774127], [104.603228, 31.772472], [104.60224, 31.771585], [104.602624, 31.770909], [104.602624, 31.770512], [104.603008, 31.770209], [104.60342, 31.770186], [104.604352, 31.767457], [104.60652, 31.76839], [104.605861, 31.769439], [104.606081, 31.769696], [104.605834, 31.770232], [104.605806, 31.770582], [104.606108, 31.770909], [104.605944, 31.771235], [104.606408, 31.771521], [104.607045, 31.771589], [104.607922, 31.770934], [104.608639, 31.771589], [104.608692, 31.772334], [104.608506, 31.773057], [104.609463, 31.774366], [104.608772, 31.775157], [104.608055, 31.774344], [104.607205, 31.774186], [104.60686, 31.776218], [104.606053, 31.776203], [104.605313, 31.775714], [104.603859, 31.7752], [104.60202, 31.774127]]], [[[104.772007, 31.880049], [104.772057, 31.878348], [104.775803, 31.878379], [104.778105, 31.878284], [104.777806, 31.879066], [104.777333, 31.87933], [104.777495, 31.880387], [104.77813, 31.880197], [104.778279, 31.880683], [104.777806, 31.880852], [104.777956, 31.88119], [104.778951, 31.880747], [104.779026, 31.881064], [104.778155, 31.881507], [104.778454, 31.882036], [104.77864, 31.881856], [104.77879, 31.882025], [104.779499, 31.881877], [104.779424, 31.881687], [104.779126, 31.881634], [104.779076, 31.881412], [104.779225, 31.881286], [104.779263, 31.88099], [104.779673, 31.880968], [104.779822, 31.881507], [104.781042, 31.881423], [104.781216, 31.882099], [104.781005, 31.883431], [104.779686, 31.883431], [104.779636, 31.884044], [104.779238, 31.884033], [104.779101, 31.882776], [104.780333, 31.882691], [104.780295, 31.882501], [104.779462, 31.88248], [104.779188, 31.882141], [104.778479, 31.882416], [104.77747, 31.881698], [104.777234, 31.88174], [104.776985, 31.881444], [104.776064, 31.881666], [104.775741, 31.88118], [104.775131, 31.881433], [104.774894, 31.881793], [104.774807, 31.88212], [104.774247, 31.882131], [104.774197, 31.882786], [104.774596, 31.882733], [104.774708, 31.882945], [104.774334, 31.882913], [104.774309, 31.883304], [104.774446, 31.883304], [104.774396, 31.883906], [104.77416, 31.883991], [104.774148, 31.884604], [104.774882, 31.884604], [104.775093, 31.885111], [104.775056, 31.885798], [104.774919, 31.885967], [104.774148, 31.885787], [104.772132, 31.885819], [104.772057, 31.883145], [104.772654, 31.883188], [104.773438, 31.883018], [104.773612, 31.881254], [104.773799, 31.881074], [104.773886, 31.880789], [104.7737, 31.880366], [104.773351, 31.879943], [104.772007, 31.880049]]], [[[105.063193, 31.968387], [105.0635, 31.968234], [105.063735, 31.968561], [105.063428, 31.968699], [105.063193, 31.968387]]]]}, "properties": {"display_name": "长城街道, 江油市, 绵阳市, 四川省, 中国", "type": "administrative", "osm_type": "relation", "osm_id": 8053367, "class": null, "keyword": "subdistrict"}}, {"type": "Feature", "geometry": {"type": "MultiPolygon", "coordinates": [[[[104.999531, 32.053686], [105.000385, 32.051534], [104.999585, 32.051291], [104.999554, 32.050086], [105.000113, 32.049014], [105.000866, 32.048915], [105.00165, 32.048704], [105.001441, 32.04823], [105.001581, 32.047895], [105.001883, 32.048066], [105.003592, 32.047855], [105.004197, 32.048408], [105.00516, 32.048171], [105.005448, 32.048757], [105.006247, 32.048474], [105.006309, 32.048671], [105.005106, 32.049415], [105.005106, 32.050027], [105.004593, 32.050238], [105.004259, 32.050139], [105.003452, 32.050593], [105.003786, 32.051199], [105.002932, 32.051534], [105.00245, 32.051383], [105.001945, 32.05185], [105.001076, 32.052081], [104.999787, 32.053765], [104.999531, 32.053686]]], [[[105.099272, 32.045146], [105.099459, 32.044698], [105.100243, 32.044972], [105.100019, 32.04542], [105.099272, 32.045146]]]]}, "properties": {"display_name": "华坪街道, 江油市, 绵阳市, 四川省, 中国", "type": "administrative", "osm_type": "relation", "osm_id": 8053936, "class": null, "keyword": "subdistrict"}}, {"type": "Feature", "geometry": {"type": "Polygon", "coordinates": [[[104.75679, 31.509153], [104.759511, 31.509015], [104.76003, 31.510451], [104.761876, 31.512688], [104.762168, 31.513434], [104.761812, 31.513793], [104.760775, 31.513765], [104.759771, 31.513268], [104.758539, 31.511639], [104.75679, 31.509153]]]}, "properties": {"display_name": "华丰街道, 科学城, 春雷街道, 游仙区, 绵阳市, 四川省, 中国", "type": "historic", "osm_type": "relation", "osm_id": 10627719, "class": null, "keyword": "subdistrict"}}, {"type": "Feature", "geometry": {"type": "Polygon", "coordinates": [[[104.747872, 31.451165], [104.748222, 31.450402], [104.748351, 31.450162], [104.748609, 31.449864], [104.748937, 31.449562], [104.749276, 31.449307], [104.749657, 31.449087], [104.749739, 31.449112], [104.750767, 31.449122], [104.751875, 31.449093], [104.751998, 31.450643], [104.75166, 31.45065], [104.751598, 31.450653], [104.751502, 31.450686], [104.751423, 31.450729], [104.751371, 31.450805], [104.751354, 31.450899], [104.751397, 31.451686], [104.750143, 31.451729], [104.750171, 31.451969], [104.748806, 31.452014], [104.748693, 31.45118], [104.747872, 31.451165]]]}, "properties": {"display_name": "绵阳市南河体育中心, 滨河北路东段, 涪城区, 城厢街道, 涪城区, 绵阳市, 四川省, 621000, 中国", "type": "sports_centre", "osm_type": "way", "osm_id": 481010576, "class": null, "keyword": "市中心"}}, {"type": "Feature", "geometry": {"type": "Polygon", "coordinates": [[[104.691969, 31.493639], [104.692037, 31.493471], [104.694622, 31.492454], [104.694773, 31.492486], [104.696348, 31.494816], [104.696274, 31.495008], [104.693242, 31.495462], [104.693026, 31.495347], [104.691969, 31.493639]]]}, "properties": {"display_name": "绵阳科技城创新中心北区, 涪城区, 绵阳市, 四川省, 中国", "type": "commercial", "osm_type": "way", "osm_id": 1394964739, "class": null, "keyword": "中心城区"}}, {"type": "Feature", "geometry": {"type": "Polygon", "coordinates": [[[104.769364, 31.871287], [104.771644, 31.871378], [104.771762, 31.874325], [104.76961, 31.874098], [104.769594, 31.873792], [104.769364, 31.873788], [104.769364, 31.871287]]]}, "properties": {"display_name": "江油市石材交易中心, 武都镇, 江油市, 绵阳市, 四川省, 中国", "type": "industrial", "osm_type": "way", "osm_id": 1263977874, "class": null, "keyword": "市中心"}}, {"type": "Feature", "geometry": {"type": "Polygon", "coordinates": [[[104.690807, 31.491643], [104.69086, 31.49146], [104.693331, 31.490527], [104.693528, 31.490605], [104.694572, 31.492131], [104.694534, 31.49227], [104.691935, 31.493293], [104.691757, 31.493237], [104.690807, 31.491643]]]}, "properties": {"display_name": "绵阳科技城创新中心南区, 科创园街道, 涪城区, 绵阳市, 四川省, 中国", "type": "commercial", "osm_type": "way", "osm_id": 481067733, "class": null, "keyword": "中心城区"}}, {"type": "Feature", "geometry": {"type": "Polygon", "coordinates": [[[104.755493, 31.78659], [104.755514, 31.785512], [104.756257, 31.785498], [104.756376, 31.783793], [104.757872, 31.783825], [104.757704, 31.786669], [104.755493, 31.78659]]]}, "properties": {"display_name": "江油市体育中心, 南京 - 德令哈, 中坝街道, 江油市, 绵阳市, 四川省, 中国", "type": "sports_centre", "osm_type": "way", "osm_id": 1420466804, "class": null, "keyword": "市中心"}}, {"type": "Feature", "geometry": {"type": "Polygon", "coordinates": [[[104.749151, 31.459089], [104.749629, 31.458016], [104.75012, 31.457243], [104.751383, 31.457661], [104.751193, 31.458147], [104.751322, 31.459124], [104.751087, 31.459104], [104.750708, 31.45913], [104.750781, 31.46054], [104.749869, 31.46055], [104.749833, 31.459428], [104.749151, 31.459089]]]}, "properties": {"display_name": "绵阳市中心医院, 12, 警钟街, 涪城区, 城厢街道, 涪城区, 绵阳市, 四川省, 621000, 中国", "type": "hospital", "osm_type": "way", "osm_id": 827619081, "class": null, "keyword": "市中心"}}, {"type": "Feature", "geometry": {"type": "Polygon", "coordinates": [[[104.74902, 31.45051], [104.749033, 31.450254], [104.749113, 31.449932], [104.749241, 31.449951], [104.749256, 31.449911], [104.749286, 31.449859], [104.749325, 31.449799], [104.749373, 31.449749], [104.749425, 31.449704], [104.749639, 31.449702], [104.749703, 31.449661], [104.749768, 31.449631], [104.749841, 31.449607], [104.749911, 31.449592], [104.749994, 31.449581], [104.750065, 31.449578], [104.750141, 31.449582], [104.750213, 31.449592], [104.750291, 31.44961], [104.750361, 31.449632], [104.750425, 31.449653], [104.750625, 31.44964], [104.750695, 31.449674], [104.750748, 31.449713], [104.750805, 31.449772], [104.750845, 31.449832], [104.750869, 31.449904], [104.750996, 31.449901], [104.751003, 31.4501], [104.751173, 31.450094], [104.751206, 31.450991], [104.751032, 31.450996], [104.751036, 31.451097], [104.750913, 31.4511], [104.750906, 31.451147], [104.750891, 31.451203], [104.750865, 31.45126], [104.75082, 31.451315], [104.750762, 31.451367], [104.750706, 31.451411], [104.750505, 31.451419], [104.750441, 31.451455], [104.750374, 31.451483], [104.750307, 31.451503], [104.750233, 31.451519], [104.750155, 31.451531], [104.750083, 31.451532], [104.750005, 31.451525], [104.749934, 31.451515], [104.749861, 31.451496], [104.749794, 31.451473], [104.749727, 31.451446], [104.749531, 31.451452], [104.74946, 31.451414], [104.749413, 31.451377], [104.749358, 31.451315], [104.749326, 31.451268], [104.7493, 31.451214], [104.749285, 31.45116], [104.749114, 31.451184], [104.749074, 31.451017], [104.749036, 31.450758], [104.74902, 31.45051]]]}, "properties": {"display_name": "绵阳市南河体育中心主体育场, 滨河北路东段, 涪城区, 城厢街道, 涪城区, 绵阳市, 四川省, 621000, 中国", "type": "stadium", "osm_type": "way", "osm_id": 306041289, "class": null, "keyword": "市中心"}}, {"type": "Feature", "geometry": {"type": "Polygon", "coordinates": [[[104.784422, 31.872183], [104.784921, 31.870852], [104.786487, 31.871098], [104.786128, 31.872415], [104.784422, 31.872183]]]}, "properties": {"display_name": "江油市桃花岛老年公寓, 工农路, 武都镇, 江油市, 绵阳市, 四川省, 中国", "type": "residential", "osm_type": "way", "osm_id": 1263977866, "class": null, "keyword": "老城"}}, {"type": "Feature", "geometry": {"type": "Polygon", "coordinates": [[[104.617131, 31.453346], [104.61725, 31.452674], [104.619407, 31.452952], [104.619289, 31.453624], [104.617131, 31.453346]]]}, "properties": {"display_name": "绵阳科技城会展中心, 飞云大道中段, 涪城区, 绵阳市, 四川省, 中国", "type": "company", "osm_type": "way", "osm_id": 481227632, "class": null, "keyword": "中心城区"}}, {"type": "Feature", "geometry": {"type": "Polygon", "coordinates": [[[105.158995, 31.639181], [105.159057, 31.638404], [105.159472, 31.637645], [105.160259, 31.637871], [105.159715, 31.639168], [105.158995, 31.639181]]]}, "properties": {"display_name": "鑫驰·城市中心, 文昌镇, 梓潼县, 绵阳市, 四川省, 中国", "type": "residential", "osm_type": "way", "osm_id": 1346105604, "class": null, "keyword": "市中心"}}, {"type": "Feature", "geometry": {"type": "Polygon", "coordinates": [[[104.688352, 31.465925], [104.688894, 31.465802], [104.688903, 31.465834], [104.689085, 31.466511], [104.688571, 31.466624], [104.688352, 31.465925]]]}, "properties": {"display_name": "中国石油高新加油站, 61, 绵兴东路, 科创园街道, 涪城区, 绵阳市, 四川省, 621000, 中国", "type": "fuel", "osm_type": "way", "osm_id": 1125164876, "class": null, "keyword": "市中心"}}, {"type": "Feature", "geometry": {"type": "Polygon", "coordinates": [[[104.748091, 31.461958], [104.748331, 31.461978], [104.748439, 31.461971], [104.7486, 31.462081], [104.748681, 31.462083], [104.7487, 31.462173], [104.748797, 31.462244], [104.74881, 31.462293], [104.748778, 31.462369], [104.748634, 31.462399], [104.748318, 31.46242], [104.748094, 31.462208], [104.748091, 31.461958]]]}, "properties": {"display_name": "瀚威·城市中心, 2, 公园路, 涪城区, 城厢街道, 涪城区, 绵阳市, 四川省, 621000, 中国", "type": "commercial", "osm_type": "way", "osm_id": 1361395576, "class": null, "keyword": "中心城区"}}, {"type": "Feature", "geometry": {"type": "Polygon", "coordinates": [[[104.686532, 31.466617], [104.686906, 31.466549], [104.687039, 31.46696], [104.686658, 31.467045], [104.686532, 31.466617]]]}, "properties": {"display_name": "雨辰老年病医院, 绵兴东路, 科创园街道, 涪城区, 绵阳市, 四川省, 621000, 中国", "type": "hospital", "osm_type": "way", "osm_id": 1148239381, "class": null, "keyword": "老城"}}, {"type": "Feature", "geometry": {"type": "Polygon", "coordinates": [[[104.432407, 31.794692], [104.432493, 31.794466], [104.433205, 31.794627], [104.433124, 31.794834], [104.432407, 31.794692]]]}, "properties": {"display_name": "擂鼓镇敬老养老院, 泉城路, 擂鼓社区, 擂鼓镇, 北川羌族自治县, 绵阳市, 四川省, 中国", "type": "social_facility", "osm_type": "way", "osm_id": 598474714, "class": null, "keyword": "老城"}}, {"type": "Feature", "geometry": {"type": "Polygon", "coordinates": [[[104.686554, 31.46546], [104.687079, 31.46533], [104.687195, 31.465691], [104.687097, 31.465715], [104.687032, 31.465529], [104.686876, 31.46556], [104.686712, 31.465606], [104.686779, 31.465781], [104.686684, 31.465808], [104.686554, 31.46546]]]}, "properties": {"display_name": "绵阳市福利院老年公寓, 虹苑北路东段, 涪城区, 绵阳市, 四川省, 621000, 中国", "type": "social_facility", "osm_type": "way", "osm_id": 1148239380, "class": null, "keyword": "老城"}}, {"type": "Feature", "geometry": {"type": "Polygon", "coordinates": [[[104.692136, 31.466466], [104.692808, 31.466336], [104.692847, 31.466481], [104.692175, 31.466611], [104.692136, 31.466466]]]}, "properties": {"display_name": "绵阳市疾病预防控制中心, 50, 绵兴东路, 科创园街道, 涪城区, 绵阳市, 四川省, 621000, 中国", "type": "centre", "osm_type": "way", "osm_id": 1125413470, "class": null, "keyword": "市中心"}}, {"type": "Feature", "geometry": {"type": "Polygon", "coordinates": [[[104.689627, 31.468681], [104.689638, 31.468629], [104.689669, 31.468583], [104.689716, 31.468547], [104.689775, 31.468526], [104.689839, 31.468523], [104.6899, 31.468538], [104.689953, 31.468569], [104.68999, 31.468613], [104.690008, 31.468665], [104.690005, 31.46872], [104.689982, 31.46877], [104.68994, 31.468811], [104.689886, 31.468838], [104.689825, 31.468849], [104.689764, 31.468842], [104.689708, 31.468819], [104.689663, 31.468781], [104.689635, 31.468734], [104.689627, 31.468681]]]}, "properties": {"display_name": "老年活动中心, 剑门路西段, 朝阳街道, 涪城区, 绵阳市, 四川省, 621000, 中国", "type": "community_centre", "osm_type": "way", "osm_id": 1143920945, "class": null, "keyword": "老城"}}, {"type": "Feature", "geometry": {"type": "Polygon", "coordinates": [[[104.694595, 31.541785], [104.694599, 31.541594], [104.695135, 31.541602], [104.695127, 31.541759], [104.694595, 31.541785]]]}, "properties": {"display_name": "环境工程试验教学中心, 硅工路, 涪城区, 绵阳市, 四川省, 中国", "type": "school", "osm_type": "way", "osm_id": 1383501898, "class": null, "keyword": "中心城区"}}, {"type": "Feature", "geometry": {"type": "Polygon", "coordinates": [[[104.798155, 31.420009], [104.798213, 31.419972], [104.798199, 31.419957], [104.798423, 31.419812], [104.798506, 31.419905], [104.798521, 31.419895], [104.798537, 31.419884], [104.798608, 31.419838], [104.798616, 31.419846], [104.798623, 31.419855], [104.798587, 31.419878], [104.798239, 31.420103], [104.798186, 31.420044], [104.798155, 31.420009]]]}, "properties": {"display_name": "展示会议中心, 无障碍坡道, 游仙区, 绵阳市, 四川省, 中国", "type": "yes", "osm_type": "way", "osm_id": 1360105154, "class": null, "keyword": "市中心"}}, {"type": "Feature", "geometry": {"type": "Polygon", "coordinates": [[[104.749575, 31.465764], [104.750009, 31.465651], [104.750044, 31.465751], [104.74961, 31.465863], [104.749575, 31.465764]]]}, "properties": {"display_name": "老灶房-四川土菜(铁牛广场店), 新华巷, 城北街道, 涪城区, 绵阳市, 四川省, 621000, 中国", "type": "restaurant", "osm_type": "way", "osm_id": 1362528463, "class": null, "keyword": "老城"}}, {"type": "Feature", "geometry": {"type": "Polygon", "coordinates": [[[104.694844, 31.542443], [104.694852, 31.542359], [104.695419, 31.542359], [104.695419, 31.542417], [104.694844, 31.542443]]]}, "properties": {"display_name": "环境工程试验教学中心办公楼, 青蒿路, 涪城区, 绵阳市, 四川省, 中国", "type": "school", "osm_type": "way", "osm_id": 1383501902, "class": null, "keyword": "中心城区"}}, {"type": "Feature", "geometry": {"type": "Polygon", "coordinates": [[[104.798427, 31.42009], [104.798487, 31.420052], [104.798455, 31.420016], [104.798617, 31.419913], [104.798679, 31.419985], [104.798657, 31.419999], [104.798665, 31.420009], [104.798466, 31.420135], [104.798427, 31.42009]]]}, "properties": {"display_name": "检测试验中心, 无障碍坡道, 游仙区, 绵阳市, 四川省, 中国", "type": "yes", "osm_type": "way", "osm_id": 1360105153, "class": null, "keyword": "市中心"}}, {"type": "Feature", "geometry": {"type": "Polygon", "coordinates": [[[104.793472, 31.425608], [104.793571, 31.425559], [104.79364, 31.425659], [104.793675, 31.425709], [104.793629, 31.425732], [104.793576, 31.425759], [104.793472, 31.425608]]]}, "properties": {"display_name": "绵阳小枧城市生态公园管理中心, 星河路, 游仙区, 绵阳市, 四川省, 中国", "type": "office", "osm_type": "way", "osm_id": 1359801605, "class": null, "keyword": "中心城区"}}]}