{"type": "FeatureCollection", "features": [{"type": "Feature", "geometry": {"type": "Polygon", "coordinates": [[[15.061832, 12.107551], [15.0628, 12.105984], [15.064403, 12.104667], [15.065974, 12.101758], [15.065256, 12.099801], [15.065455, 12.099061], [15.066154, 12.098133], [15.066596, 12.095607], [15.069503, 12.09511], [15.070617, 12.094585], [15.072528, 12.094054], [15.078338, 12.09244], [15.0873, 12.091651], [15.087417, 12.091638], [15.090419, 12.091374], [15.096403, 12.090295], [15.099548, 12.103333], [15.109647, 12.101135], [15.109922, 12.110031], [15.110053, 12.114474], [15.103525, 12.116209], [15.101762, 12.116678], [15.101565, 12.11673], [15.081826, 12.121996], [15.082948, 12.119745], [15.083673, 12.117482], [15.083262, 12.106548], [15.078133, 12.107802], [15.061832, 12.107551]]]}, "properties": {"display_name": "6éme Arrondissement / الدائرة السادسة, N'Djaména انجمينا, Tchad تشاد", "type": "administrative", "osm_type": "relation", "osm_id": 6597886, "class": null, "keyword": "arrondissement"}}, {"type": "Feature", "geometry": {"type": "Polygon", "coordinates": [[[15.034813, 12.120551], [15.036547, 12.113214], [15.036448, 12.113045], [15.036115, 12.11275], [15.036014, 12.112621], [15.035656, 12.112184], [15.035267, 12.111724], [15.038447, 12.109397], [15.042841, 12.106235], [15.042986, 12.106117], [15.044499, 12.107589], [15.044922, 12.108517], [15.044731, 12.109699], [15.051771, 12.109733], [15.051604, 12.110705], [15.051127, 12.111147], [15.05045, 12.11152], [15.050322, 12.118191], [15.050293, 12.120701], [15.050373, 12.122965], [15.050373, 12.123131], [15.050176, 12.128014], [15.050139, 12.128927], [15.050073, 12.131789], [15.050062, 12.13225], [15.050187, 12.132822], [15.050309, 12.133375], [15.051178, 12.134858], [15.052293, 12.136011], [15.054669, 12.138202], [15.061492, 12.144898], [15.059917, 12.148147], [15.058719, 12.150618], [15.052563, 12.156761], [15.046381, 12.161952], [15.04025, 12.161043], [15.04013, 12.161025], [15.035557, 12.160347], [15.035891, 12.150793], [15.039533, 12.148787], [15.04533, 12.140914], [15.03487, 12.120661], [15.034813, 12.120551]]]}, "properties": {"display_name": "2ème Arrondissement / الدائرة الثانية, N'Djaména انجمينا, Tchad تشاد", "type": "administrative", "osm_type": "relation", "osm_id": 6597882, "class": null, "keyword": "arrondissement"}}]}