{"type": "FeatureCollection", "features": [{"type": "Feature", "geometry": {"type": "Polygon", "coordinates": [[[128.746219, 33.010437], [128.813044, 32.964808], [128.878379, 32.927345], [128.899396, 32.920663], [128.921176, 32.914791], [128.927996, 32.903676], [128.929448, 32.901307], [128.932202, 32.893028], [128.946171, 32.891028], [128.95029, 32.889046], [128.959067, 32.883658], [128.960633, 32.879694], [128.959936, 32.877518], [128.960494, 32.874562], [128.961095, 32.873319], [128.961867, 32.871048], [128.963927, 32.867624], [128.965923, 32.865209], [128.971008, 32.858233], [128.974012, 32.852375], [128.984634, 32.838278], [128.985728, 32.828974], [128.988131, 32.821041], [128.995792, 32.818264], [129.008859, 32.812006], [129.017228, 32.807434], [129.028515, 32.797514], [129.03109, 32.79369], [129.036481, 32.787999], [129.060598, 32.768343], [129.067765, 32.761784], [129.327421, 32.586393], [129.342, 32.619192], [129.331335, 32.689235], [129.342444, 32.745511], [129.204378, 32.89049], [129.200129, 32.941484], [129.204402, 32.961462], [129.205452, 32.973965], [129.205172, 32.986807], [129.20554, 32.998947], [129.206505, 33.002177], [129.207299, 33.005029], [129.212642, 33.016239], [129.217706, 33.0302], [129.218307, 33.038889], [129.215474, 33.063745], [129.214981, 33.083812], [129.215882, 33.088324], [129.225431, 33.101645], [129.227276, 33.103568], [129.246792, 33.117027], [129.235684, 33.160871], [129.147858, 33.151458], [129.136034, 33.150829], [129.133095, 33.151584], [129.127119, 33.155096], [129.123782, 33.158392], [129.119877, 33.163907], [129.116615, 33.169924], [129.110972, 33.173121], [129.107303, 33.174774], [129.102196, 33.17445], [129.091896, 33.170032], [129.061426, 33.151745], [129.051448, 33.144182], [129.044219, 33.127211], [129.038039, 33.115512], [128.970876, 33.08258], [128.957637, 33.081609], [128.926997, 33.064231], [128.910087, 33.055122], [128.865476, 33.032656], [128.858422, 33.030696], [128.779844, 33.021826], [128.746219, 33.010437]]]}, "properties": {"display_name": "南松浦郡, 長崎県, 日本", "type": "administrative", "osm_type": "relation", "osm_id": 4012088, "class": null, "keyword": "district"}}, {"type": "Feature", "geometry": {"type": "Polygon", "coordinates": [[[130.187781, 32.605186], [130.188068, 32.605024], [130.188123, 32.605094], [130.188027, 32.605149], [130.18807, 32.605204], [130.188095, 32.605189], [130.188307, 32.605455], [130.188241, 32.605492], [130.18827, 32.605529], [130.188121, 32.605613], [130.187781, 32.605186]]]}, "properties": {"display_name": "特別養護老人ホーム 玉成園, 1, 口之津町甲, 南島原市, 長崎県, 859-2602, 日本", "type": "social_facility", "osm_type": "way", "osm_id": 1123029797, "class": null, "keyword": "老城"}}, {"type": "Feature", "geometry": {"type": "Polygon", "coordinates": [[[130.348747, 32.689439], [130.349007, 32.689263], [130.34926, 32.68959], [130.349202, 32.689628], [130.349142, 32.689574], [130.349016, 32.689657], [130.348747, 32.689439]]]}, "properties": {"display_name": "布津中央地区運動広場, 布津町乙, 南島原市, 長崎県, 日本", "type": "recreation_ground", "osm_type": "way", "osm_id": 1149394742, "class": null, "keyword": "中央区"}}, {"type": "Feature", "geometry": {"type": "Polygon", "coordinates": [[[130.374695, 32.778878], [130.374699, 32.778835], [130.374773, 32.778841], [130.374769, 32.778883], [130.374695, 32.778878]]]}, "properties": {"display_name": "銀水 浜の川湧水観光交流館 (かんざらし), 国道251号, 浦田二丁目, 島原市, 長崎県, 855-0807, 日本", "type": "confectionery", "osm_type": "way", "osm_id": 1336907073, "class": null, "keyword": "centro"}}]}