{"type": "FeatureCollection", "features": [{"type": "Feature", "geometry": {"type": "Polygon", "coordinates": [[[105.947513, 30.895116], [105.947703, 30.895058], [105.949569, 30.89452], [105.951202, 30.893836], [105.952651, 30.893259], [105.953303, 30.893319], [105.953589, 30.893459], [105.954987, 30.893083], [105.955559, 30.89291], [105.955838, 30.892816], [105.956349, 30.892595], [105.956575, 30.89246], [105.956775, 30.892301], [105.95694, 30.892113], [105.957079, 30.8919], [105.957192, 30.89167], [105.957373, 30.891175], [105.957808, 30.889608], [105.957982, 30.889109], [105.958076, 30.888875], [105.958198, 30.88866], [105.958338, 30.888467], [105.958511, 30.888305], [105.958711, 30.888187], [105.958945, 30.888098], [105.959197, 30.888031], [105.959752, 30.88794], [105.960924, 30.887809], [105.961505, 30.887719], [105.961783, 30.887651], [105.962053, 30.887564], [105.962313, 30.887452], [105.962799, 30.887165], [105.96325, 30.886833], [105.964136, 30.886108], [105.965664, 30.884815], [105.96635, 30.884298], [105.966827, 30.883994], [105.967347, 30.883747], [105.967894, 30.883534], [105.968737, 30.88325], [105.970446, 30.882707], [105.971281, 30.882414], [105.971801, 30.882191], [105.972243, 30.882093], [105.972452, 30.881447], [105.97273, 30.880717], [105.973458, 30.879993], [105.974197, 30.879039], [105.975091, 30.87823], [105.975039, 30.877803], [105.975091, 30.877564], [105.975117, 30.877326], [105.975134, 30.877089], [105.975126, 30.876631], [105.975091, 30.876414], [105.97503, 30.876208], [105.974951, 30.876028], [105.974761, 30.875694], [105.974691, 30.875531], [105.974656, 30.875366], [105.974675, 30.875177], [105.974735, 30.874982], [105.974839, 30.874782], [105.97497, 30.87458], [105.975273, 30.874168], [105.976185, 30.873117], [105.977504, 30.871644], [105.978094, 30.871032], [105.978711, 30.87049], [105.979579, 30.869837], [105.980255, 30.869387], [105.980725, 30.869121], [105.980976, 30.869005], [105.981245, 30.868899], [105.981818, 30.868723], [105.982999, 30.868449], [105.98661, 30.867736], [105.987496, 30.867539], [105.988042, 30.86738], [105.988294, 30.867282], [105.98852, 30.867165], [105.98871, 30.867024], [105.988858, 30.866855], [105.988962, 30.86666], [105.989049, 30.866445], [105.989162, 30.86597], [105.98924, 30.865353], [105.989361, 30.863415], [105.989379, 30.863371], [105.993893, 30.862484], [105.994778, 30.862295], [105.995342, 30.862145], [105.995603, 30.862056], [105.995846, 30.861955], [105.996055, 30.861833], [105.996237, 30.861686], [105.996366, 30.861503], [105.996471, 30.861292], [105.996541, 30.861062], [105.996628, 30.860568], [105.996714, 30.859508], [105.996844, 30.857082], [105.997183, 30.851726], [105.997209, 30.851461], [105.997296, 30.850941], [105.997452, 30.850437], [105.997556, 30.850205], [105.997825, 30.849751], [105.998138, 30.849311], [105.999179, 30.848004], [105.999891, 30.847148], [106.000065, 30.846943], [106.000429, 30.846566], [106.000612, 30.846403], [106.000794, 30.846265], [106.000976, 30.846164], [106.001159, 30.846112], [106.001323, 30.846117], [106.00148, 30.846164], [106.001619, 30.846247], [106.001741, 30.846362], [106.001835, 30.846501], [106.001896, 30.846679], [106.001923, 30.847087], [106.00187, 30.847729], [106.001879, 30.8481], [106.001914, 30.848246], [106.001992, 30.84835], [106.002131, 30.848404], [106.002313, 30.848413], [106.002531, 30.848387], [106.002773, 30.848332], [106.003303, 30.848179], [106.00385, 30.847985], [106.004388, 30.847768], [106.004874, 30.847527], [106.005073, 30.847395], [106.005239, 30.847249], [106.005342, 30.847089], [106.005368, 30.846906], [106.005342, 30.846704], [106.005281, 30.846492], [106.005056, 30.846043], [106.004917, 30.845813], [106.003815, 30.844154], [106.003398, 30.843452], [106.003285, 30.84322], [106.003207, 30.842994], [106.003154, 30.842772], [106.003163, 30.842557], [106.003233, 30.842358], [106.003346, 30.842167], [106.003493, 30.841981], [106.003667, 30.841798], [106.004075, 30.841451], [106.004526, 30.841123], [106.00477, 30.840973], [106.005282, 30.840709], [106.00556, 30.840602], [106.006124, 30.840429], [106.007244, 30.840131], [106.007487, 30.840047], [106.007704, 30.839951], [106.007886, 30.839841], [106.008008, 30.839704], [106.008511, 30.839389], [106.007608, 30.838035], [106.006479, 30.83698], [106.006011, 30.835338], [106.005994, 30.833886], [106.007079, 30.832108], [106.007504, 30.832267], [106.007972, 30.83249], [106.008216, 30.832532], [106.008442, 30.832612], [106.008659, 30.832725], [106.008875, 30.832861], [106.009293, 30.833185], [106.009683, 30.83355], [106.010039, 30.83394], [106.010351, 30.834359], [106.01049, 30.834594], [106.010603, 30.834836], [106.010803, 30.835335], [106.011141, 30.83636], [106.012304, 30.840207], [106.012573, 30.840967], [106.012781, 30.84146], [106.013042, 30.841944], [106.013632, 30.84289], [106.014413, 30.84406], [106.014892, 30.844726], [106.015238, 30.845112], [106.015412, 30.845272], [106.015603, 30.845396], [106.015811, 30.845475], [106.016037, 30.845492], [106.016272, 30.84546], [106.016523, 30.84539], [106.016775, 30.845296], [106.017296, 30.845056], [106.017808, 30.844769], [106.018285, 30.844443], [106.018494, 30.844266], [106.018684, 30.844068], [106.01884, 30.843853], [106.018971, 30.843621], [106.019084, 30.84338], [106.019275, 30.842874], [106.019431, 30.842354], [106.020455, 30.838671], [106.021939, 30.833443], [106.023207, 30.831292], [106.02352, 30.8308], [106.023832, 30.830374], [106.023997, 30.830186], [106.024171, 30.830023], [106.024361, 30.829891], [106.024569, 30.829803], [106.024805, 30.829774], [106.025056, 30.829784], [106.025317, 30.82983], [106.025872, 30.829978], [106.026436, 30.83017], [106.028172, 30.830811], [106.029049, 30.831108], [106.02963, 30.831262], [106.029926, 30.831319], [106.030221, 30.831349], [106.030517, 30.831353], [106.030803, 30.831334], [106.031393, 30.831249], [106.031992, 30.831132], [106.035256, 30.830373], [106.035811, 30.830231], [106.03628, 30.830081], [106.03648, 30.830002], [106.036618, 30.829912], [106.036705, 30.829814], [106.036714, 30.829708], [106.036618, 30.829448], [106.036575, 30.829287], [106.03655, 30.829101], [106.036567, 30.828673], [106.036705, 30.827959], [106.037009, 30.82672], [106.037052, 30.826479], [106.037087, 30.826021], [106.037052, 30.825811], [106.036984, 30.825618], [106.036853, 30.825446], [106.036688, 30.82529], [106.03648, 30.825148], [106.036254, 30.825019], [106.03575, 30.824775], [106.034935, 30.824437], [106.032712, 30.823556], [106.031922, 30.8232], [106.031462, 30.822927], [106.031263, 30.82277], [106.031097, 30.822595], [106.030977, 30.822397], [106.030889, 30.822178], [106.030776, 30.821705], [106.030725, 30.821199], [106.030655, 30.820162], [106.030577, 30.819394], [106.030473, 30.818905], [106.030386, 30.818676], [106.030282, 30.818458], [106.029986, 30.818091], [106.029119, 30.817254], [106.02898, 30.817076], [106.028876, 30.81689], [106.028797, 30.816674], [106.028762, 30.816205], [106.028806, 30.815711], [106.028893, 30.815201], [106.029413, 30.812859], [106.029518, 30.812353], [106.029553, 30.812109], [106.029579, 30.811871], [106.029579, 30.811649], [106.029561, 30.81144], [106.029509, 30.811253], [106.029414, 30.811099], [106.029275, 30.810984], [106.029093, 30.810895], [106.028442, 30.810674], [106.028224, 30.810585], [106.028016, 30.810475], [106.027834, 30.81032], [106.027669, 30.810134], [106.027522, 30.809927], [106.02727, 30.809476], [106.027165, 30.809239], [106.027, 30.808773], [106.026931, 30.808341], [106.026957, 30.808153], [106.027027, 30.807996], [106.027165, 30.807879], [106.027356, 30.807792], [106.027582, 30.807727], [106.02812, 30.80764], [106.029613, 30.80751], [106.030195, 30.80744], [106.030472, 30.807391], [106.030724, 30.807323], [106.030959, 30.807234], [106.031158, 30.807115], [106.031323, 30.806953], [106.031454, 30.806761], [106.031654, 30.806316], [106.031914, 30.805611], [106.032017, 30.805387], [106.032139, 30.805181], [106.032286, 30.804999], [106.032469, 30.804858], [106.032669, 30.804736], [106.033355, 30.804424], [106.033571, 30.804311], [106.03378, 30.804179], [106.033971, 30.804011], [106.034145, 30.803819], [106.034292, 30.803608], [106.034561, 30.803148], [106.034839, 30.802575], [106.035664, 30.800611], [106.03792, 30.799214], [106.038442, 30.798873], [106.038866, 30.798549], [106.039049, 30.798385], [106.039196, 30.798217], [106.039292, 30.798048], [106.039335, 30.797874], [106.039309, 30.797698], [106.039222, 30.797519], [106.039101, 30.797338], [106.038936, 30.797155], [106.038572, 30.796792], [106.038155, 30.79644], [106.037712, 30.796119], [106.037487, 30.79598], [106.03726, 30.795856], [106.037026, 30.795761], [106.036818, 30.7957], [106.036254, 30.795585], [106.036106, 30.795541], [106.036011, 30.795479], [106.035959, 30.795381], [106.035942, 30.795255], [106.035942, 30.794951], [106.03589, 30.794617], [106.035863, 30.79445], [106.035863, 30.794288], [106.035907, 30.794138], [106.036019, 30.793998], [106.036185, 30.793875], [106.036393, 30.793762], [106.036897, 30.793555], [106.037747, 30.793276], [106.040715, 30.792389], [106.041584, 30.792091], [106.042139, 30.791857], [106.043086, 30.791781], [106.046358, 30.789573], [106.048354, 30.788799], [106.050351, 30.788642], [106.051784, 30.78899], [106.053103, 30.789379], [106.053615, 30.789888], [106.054101, 30.790227], [106.054605, 30.790533], [106.054856, 30.790661], [106.055116, 30.790765], [106.055386, 30.790834], [106.055646, 30.790863], [106.055907, 30.790854], [106.056167, 30.790817], [106.05641, 30.790757], [106.056653, 30.79067], [106.056861, 30.790557], [106.057044, 30.790413], [106.057192, 30.79024], [106.057304, 30.79004], [106.057391, 30.789823], [106.05753, 30.78935], [106.057816, 30.788117], [106.057981, 30.787657], [106.058094, 30.787447], [106.058234, 30.787254], [106.058398, 30.787087], [106.058589, 30.786937], [106.058797, 30.786798], [106.059466, 30.786407], [106.059865, 30.786121], [106.06003, 30.785956], [106.060168, 30.785755], [106.060281, 30.785532], [106.06036, 30.785297], [106.06049, 30.784792], [106.060577, 30.78427], [106.060967, 30.781032], [106.061072, 30.780514], [106.061133, 30.780264], [106.06122, 30.780027], [106.061332, 30.779806], [106.061471, 30.779609], [106.061645, 30.779443], [106.061861, 30.779298], [106.062087, 30.779172], [106.062339, 30.779055], [106.062877, 30.778851], [106.063433, 30.778677], [106.06372, 30.778604], [106.064006, 30.77854], [106.064587, 30.778462], [106.064891, 30.778456], [106.065498, 30.778497], [106.066419, 30.778628], [106.067929, 30.778883], [106.068502, 30.778951], [106.068781, 30.778964], [106.069032, 30.778955], [106.069266, 30.778919], [106.069465, 30.77884], [106.069631, 30.778708], [106.069761, 30.778536], [106.069874, 30.778332], [106.069969, 30.778107], [106.070125, 30.777616], [106.07042, 30.776727], [106.070522, 30.775487], [106.070872, 30.773801], [106.071836, 30.772577], [106.072825, 30.771286], [106.074344, 30.769151], [106.075238, 30.768009], [106.0763, 30.766979], [106.077556, 30.766507], [106.07857, 30.766418], [106.078842, 30.766394], [106.081316, 30.766526], [106.083016, 30.766495], [106.08796, 30.764678], [106.091578, 30.763676], [106.093328, 30.764377], [106.095371, 30.765581], [106.097413, 30.767386], [106.097787, 30.768821], [106.098268, 30.771108], [106.097825, 30.772119], [106.097139, 30.772896], [106.096194, 30.774878], [106.095543, 30.776896], [106.094587, 30.778038], [106.092868, 30.778807], [106.088982, 30.782072], [106.089604, 30.784521], [106.090724, 30.788654], [106.094092, 30.796076], [106.096819, 30.799668], [106.099143, 30.801664], [106.102757, 30.803467], [106.107763, 30.803267], [106.113747, 30.801488], [106.116556, 30.801584], [106.119506, 30.804215], [106.122252, 30.808541], [106.12363, 30.815738], [106.12604, 30.820701], [106.123975, 30.837385], [106.123628, 30.842948], [106.125381, 30.845957], [106.130004, 30.849431], [106.13669, 30.854775], [106.142348, 30.858046], [106.145314, 30.859319], [106.146664, 30.861637], [106.146318, 30.868179], [106.147987, 30.869714], [106.153552, 30.871107], [106.162559, 30.872693], [106.170975, 30.871901], [106.173989, 30.872093], [106.174531, 30.873861], [106.173164, 30.876011], [106.172003, 30.879897], [106.172813, 30.886053], [106.175927, 30.895651], [106.179496, 30.904544], [106.180297, 30.907589], [106.180183, 30.910838], [106.179896, 30.925756], [106.182347, 30.941954], [106.186091, 30.949834], [106.191538, 30.953524], [106.202755, 30.959259], [106.212326, 30.964699], [106.219049, 30.967057], [106.223173, 30.966972], [106.225489, 30.964758], [106.229721, 30.953335], [106.234537, 30.948103], [106.242346, 30.946773], [106.249655, 30.94763], [106.25537, 30.951342], [106.265592, 30.957076], [106.271396, 30.962026], [106.276048, 30.965884], [106.27926, 30.969882], [106.278727, 30.974584], [106.275612, 30.981564], [106.269256, 30.986223], [106.264, 30.990808], [106.258553, 30.995941], [106.254136, 30.99441], [106.252914, 30.985709], [106.25, 30.984098], [106.250564, 30.987482], [106.245677, 30.987246], [106.241542, 30.991429], [106.237985, 30.993018], [106.235817, 30.987593], [106.233524, 30.981293], [106.2297, 30.982164], [106.22387, 30.987499], [106.216636, 30.984017], [106.213984, 30.983491], [106.206429, 30.984981], [106.193986, 30.988368], [106.191793, 30.990538], [106.198801, 30.993983], [106.197967, 30.996624], [106.198216, 30.999808], [106.200565, 31.001903], [106.201035, 31.005367], [106.207896, 31.008025], [106.206813, 31.010213], [106.204886, 31.011085], [106.202689, 31.014422], [106.19897, 31.015518], [106.198028, 31.017691], [106.198686, 31.019301], [106.201129, 31.019865], [106.202445, 31.024053], [106.203855, 31.024053], [106.206756, 31.020115], [106.20903, 31.021377], [106.211292, 31.022837], [106.216918, 31.022443], [106.219268, 31.021154], [106.221899, 31.021073], [106.22337, 31.02403], [106.223232, 31.027572], [106.217049, 31.031992], [106.212886, 31.031243], [106.207426, 31.030174], [106.203037, 31.03011], [106.199732, 31.036109], [106.195328, 31.036279], [106.192519, 31.037168], [106.192884, 31.043222], [106.189266, 31.047643], [106.184631, 31.053499], [106.177055, 31.053934], [106.174812, 31.055759], [106.175205, 31.059632], [106.176391, 31.062999], [106.176795, 31.0675], [106.175608, 31.07191], [106.175596, 31.07305], [106.16992, 31.070807], [106.166637, 31.073008], [106.16598, 31.075664], [106.167483, 31.078723], [106.168705, 31.082828], [106.167953, 31.090716], [106.165698, 31.093211], [106.163515, 31.093302], [106.157615, 31.089348], [106.153198, 31.09136], [106.151192, 31.094623], [106.151318, 31.102868], [106.150379, 31.10673], [106.143534, 31.105191], [106.140322, 31.105282], [106.137833, 31.109801], [106.132659, 31.112423], [106.13002, 31.11188], [106.12942, 31.110754], [106.130775, 31.104123], [106.128011, 31.099247], [106.127597, 31.087089], [106.124087, 31.085242], [106.118937, 31.087548], [106.115592, 31.088631], [106.110355, 31.086936], [106.107496, 31.087218], [106.106423, 31.089802], [106.101968, 31.093379], [106.100273, 31.095552], [106.095675, 31.093658], [106.094072, 31.093796], [106.08715, 31.103148], [106.085635, 31.103555], [106.0821, 31.101979], [106.079336, 31.102905], [106.079338, 31.101342], [106.071921, 31.100661], [106.07109, 31.098974], [106.071158, 31.098467], [106.071591, 31.0975], [106.071568, 31.09672], [106.071704, 31.096486], [106.072023, 31.096161], [106.072622, 31.095713], [106.072319, 31.0952], [106.072273, 31.095011], [106.072213, 31.09468], [106.072516, 31.093062], [106.072554, 31.092738], [106.072493, 31.092328], [106.071644, 31.090691], [106.071363, 31.090529], [106.071037, 31.090379], [106.070483, 31.090314], [106.070202, 31.090126], [106.069542, 31.090594], [106.068753, 31.091152], [106.067221, 31.092068], [106.065946, 31.092283], [106.065833, 31.092309], [106.064338, 31.092569], [106.063526, 31.092735], [106.059297, 31.091367], [106.058115, 31.085298], [106.059579, 31.083399], [106.066863, 31.0818], [106.066157, 31.075913], [106.062936, 31.074677], [106.0608, 31.071888], [106.060061, 31.070724], [106.058098, 31.065005], [106.054128, 31.066495], [106.05159, 31.064804], [106.051214, 31.061584], [106.052601, 31.059204], [106.053522, 31.058491], [106.053522, 31.057726], [106.055349, 31.056673], [106.055543, 31.056156], [106.055261, 31.055693], [106.054768, 31.055452], [106.050283, 31.050893], [106.047185, 31.048971], [106.044553, 31.045319], [106.04072, 31.044157], [106.041076, 31.041615], [106.045587, 31.043628], [106.047748, 31.0425], [106.047278, 31.041373], [106.043143, 31.039119], [106.036111, 31.039513], [106.035061, 31.032998], [106.037098, 31.027118], [106.035449, 31.02524], [106.034589, 31.023091], [106.035717, 31.020514], [106.030784, 31.019089], [106.030394, 31.017869], [106.030078, 31.014715], [106.027824, 31.007381], [106.021761, 31.000067], [106.019553, 30.996592], [106.016358, 30.99772], [106.0157, 31.000137], [106.01251, 31.002465], [106.010008, 31.001671], [106.006678, 30.999815], [106.010415, 30.993609], [106.011271, 30.99017], [106.011572, 30.985387], [106.012082, 30.978017], [106.013389, 30.973893], [106.01506, 30.972664], [106.017927, 30.969355], [106.01859, 30.968221], [106.017955, 30.964198], [106.013917, 30.957024], [106.011242, 30.954158], [106.007147, 30.953157], [106.001976, 30.954394], [105.999758, 30.953072], [105.990562, 30.946416], [105.984382, 30.94424], [105.982053, 30.943887], [105.978276, 30.948716], [105.975006, 30.949207], [105.972469, 30.949046], [105.970495, 30.946305], [105.969325, 30.938267], [105.966878, 30.937038], [105.961849, 30.936552], [105.959593, 30.933408], [105.960627, 30.929377], [105.961852, 30.927905], [105.96655, 30.922436], [105.967015, 30.919043], [105.962798, 30.912403], [105.961077, 30.90981], [105.959576, 30.909281], [105.956395, 30.9093], [105.956626, 30.90614], [105.955892, 30.905806], [105.95583, 30.9057], [105.956117, 30.904864], [105.956904, 30.903881], [105.957788, 30.902569], [105.957803, 30.900187], [105.956737, 30.899633], [105.952742, 30.897554], [105.947513, 30.895116]]]}, "properties": {"display_name": "顺庆区, 南充市, 四川省, 637000, 中国", "type": "administrative", "osm_type": "relation", "osm_id": 2787933, "class": null, "keyword": "district"}}, {"type": "Feature", "geometry": {"type": "Polygon", "coordinates": [[[105.970967, 31.290782], [105.977211, 31.2875], [105.976653, 31.284969], [105.977726, 31.283942], [105.979743, 31.283612], [105.983348, 31.285116], [105.984249, 31.287867], [105.987714, 31.286835], [105.988342, 31.285286], [105.98927, 31.284951], [105.989887, 31.285497], [105.990236, 31.287793], [105.991588, 31.287738], [105.994677, 31.284933], [105.995879, 31.284602], [105.997853, 31.287005], [106.000053, 31.287692], [106.000514, 31.286831], [106.001447, 31.286069], [106.003325, 31.285098], [106.004784, 31.284621], [106.007177, 31.284813], [106.006007, 31.282677], [106.00605, 31.281485], [106.007273, 31.280018], [106.009827, 31.280321], [106.010138, 31.277341], [106.013217, 31.274883], [106.014848, 31.275653], [106.017551, 31.27459], [106.019611, 31.2758], [106.022058, 31.275543], [106.023517, 31.273746], [106.027551, 31.273416], [106.031885, 31.274259], [106.035576, 31.276497], [106.036434, 31.278624], [106.035147, 31.280715], [106.037421, 31.284988], [106.03682, 31.285299], [106.034181, 31.282384], [106.032915, 31.282292], [106.031284, 31.280495], [106.024847, 31.280678], [106.02459, 31.28596], [106.027937, 31.291827], [106.031756, 31.291901], [106.033055, 31.294642], [106.035876, 31.295293], [106.037378, 31.295329], [106.038698, 31.295091], [106.039578, 31.294578], [106.039969, 31.294069], [106.040141, 31.293093], [106.040254, 31.292263], [106.040597, 31.291428], [106.041288, 31.290339], [106.041927, 31.28987], [106.042625, 31.28965], [106.043193, 31.289645], [106.044143, 31.28981], [106.044937, 31.290053], [106.045409, 31.290411], [106.045645, 31.290924], [106.045806, 31.291671], [106.045768, 31.29323], [106.045849, 31.294812], [106.046036, 31.295641], [106.046417, 31.296393], [106.047083, 31.297003], [106.047732, 31.297227], [106.049019, 31.297264], [106.050108, 31.297131], [106.050907, 31.296837], [106.051519, 31.296214], [106.051889, 31.295604], [106.052034, 31.295192], [106.052131, 31.294128], [106.052334, 31.293478], [106.052678, 31.293175], [106.053407, 31.292937], [106.054448, 31.293093], [106.056572, 31.293633], [106.058863, 31.294371], [106.059861, 31.294477], [106.060515, 31.294426], [106.061765, 31.294179], [106.062993, 31.293716], [106.063728, 31.293409], [106.064147, 31.293001], [106.064715, 31.291974], [106.06522, 31.290736], [106.066239, 31.288655], [106.067312, 31.287225], [106.068063, 31.285666], [106.069822, 31.285996], [106.070337, 31.28882], [106.072183, 31.290507], [106.071239, 31.292634], [106.075401, 31.298831], [106.074972, 31.300372], [106.076217, 31.303012], [106.078448, 31.304607], [106.080723, 31.304662], [106.08201, 31.306349], [106.084499, 31.306349], [106.084843, 31.309575], [106.080809, 31.313682], [106.077547, 31.313755], [106.075659, 31.317275], [106.079521, 31.318594], [106.080894, 31.322261], [106.07965, 31.327869], [106.078277, 31.328126], [106.078534, 31.329189], [106.079392, 31.330069], [106.078663, 31.331352], [106.077719, 31.332232], [106.076603, 31.331682], [106.07523, 31.330802], [106.074157, 31.330802], [106.072655, 31.332415], [106.068003, 31.33331], [106.067038, 31.333163], [106.065664, 31.33287], [106.063776, 31.332723], [106.062574, 31.331844], [106.059828, 31.330817], [106.059313, 31.330817], [106.060381, 31.328493], [106.05742, 31.324204], [106.055789, 31.322004], [106.056518, 31.320684], [106.055059, 31.319584], [106.053128, 31.320428], [106.05021, 31.319511], [106.044202, 31.324534], [106.04249, 31.324805], [106.042147, 31.324805], [106.041284, 31.322517], [106.034632, 31.32336], [106.033988, 31.324644], [106.031756, 31.32347], [106.03004, 31.326037], [106.032786, 31.329922], [106.035747, 31.332305], [106.035833, 31.334981], [106.034245, 31.336337], [106.029096, 31.336301], [106.023388, 31.33707], [106.022358, 31.339196], [106.020169, 31.339746], [106.018152, 31.344218], [106.015963, 31.348983], [106.015277, 31.351145], [106.013174, 31.3536], [106.014461, 31.355433], [106.013989, 31.358145], [106.014719, 31.362029], [106.016929, 31.362469], [106.018775, 31.363477], [106.020234, 31.363532], [106.020893, 31.364122], [106.022369, 31.364429], [106.02077, 31.367159], [106.019311, 31.367086], [106.018013, 31.367361], [106.016908, 31.368652], [106.016779, 31.36922], [106.017079, 31.369944], [106.016747, 31.370127], [106.016178, 31.369908], [106.014075, 31.369285], [106.013517, 31.365034], [106.010041, 31.364924], [106.009827, 31.367672], [106.008453, 31.369248], [106.005954, 31.370109], [106.003915, 31.369779], [106.002166, 31.369981], [106.001008, 31.371007], [106.001244, 31.372161], [106.001051, 31.372793], [106.000611, 31.373636], [106.00031, 31.373865], [105.999752, 31.375046], [105.999302, 31.376503], [105.999216, 31.377034], [105.999441, 31.377556], [105.999237, 31.378765], [105.998937, 31.379819], [105.998958, 31.380506], [105.997156, 31.381834], [105.995847, 31.382301], [105.99501, 31.381953], [105.993701, 31.380139], [105.990987, 31.37893], [105.989528, 31.378371], [105.988133, 31.377052], [105.986931, 31.376759], [105.986052, 31.375917], [105.982876, 31.375184], [105.980966, 31.373874], [105.980151, 31.372536], [105.980119, 31.371511], [105.980365, 31.369614], [105.980794, 31.368918], [105.980161, 31.368112], [105.979657, 31.367095], [105.979271, 31.366683], [105.97911, 31.36552], [105.979207, 31.363861], [105.979786, 31.363073], [105.979153, 31.361342], [105.977672, 31.360124], [105.976117, 31.358786], [105.974894, 31.357916], [105.974926, 31.357073], [105.974475, 31.356385], [105.974497, 31.355259], [105.973295, 31.354993], [105.972619, 31.355158], [105.971954, 31.355039], [105.971289, 31.354782], [105.972791, 31.352977], [105.973568, 31.35127], [105.975151, 31.348176], [105.978455, 31.348964], [105.982296, 31.346215], [105.980902, 31.344768], [105.982232, 31.34277], [105.984721, 31.340076], [105.988219, 31.341707], [105.990193, 31.34222], [105.992532, 31.34343], [105.993626, 31.343521], [105.998518, 31.33927], [105.999334, 31.337547], [105.998926, 31.332452], [105.999012, 31.328713], [105.998368, 31.326587], [105.994635, 31.327393], [105.99236, 31.323251], [105.994077, 31.321564], [105.996394, 31.321307], [105.998626, 31.318924], [105.999741, 31.315112], [106.002445, 31.312838], [106.002831, 31.309575], [106.007638, 31.304809], [106.006104, 31.301884], [106.00458, 31.302847], [106.003304, 31.303195], [106.002188, 31.303397], [106.00148, 31.303259], [106.000589, 31.302746], [105.999345, 31.301215], [105.9981, 31.300216], [105.997231, 31.299877], [105.996426, 31.299932], [105.995579, 31.300463], [105.994549, 31.302168], [105.993733, 31.3049], [105.99368, 31.306825], [105.993444, 31.30743], [105.992854, 31.307834], [105.991759, 31.307944], [105.990483, 31.307604], [105.989313, 31.306935], [105.988616, 31.306037], [105.988047, 31.3049], [105.987854, 31.303378], [105.987918, 31.301838], [105.987554, 31.300262], [105.986695, 31.298831], [105.985955, 31.29819], [105.984871, 31.297786], [105.984131, 31.297823], [105.98353, 31.298116], [105.983021, 31.298644], [105.982758, 31.2994], [105.980263, 31.300303], [105.97999, 31.300248], [105.979673, 31.3], [105.979249, 31.299491], [105.979121, 31.299125], [105.979115, 31.298886], [105.979362, 31.298634], [105.980027, 31.298213], [105.980553, 31.297837], [105.980725, 31.297543], [105.980695, 31.297193], [105.980537, 31.296847], [105.980371, 31.296725], [105.980089, 31.296702], [105.979888, 31.296815], [105.979231, 31.297713], [105.978702, 31.298043], [105.978198, 31.298258], [105.978219, 31.292946], [105.977147, 31.291387], [105.974936, 31.292414], [105.970967, 31.290782]]]}, "properties": {"display_name": "南隆街道, 南部县, 南充市, 四川省, 中国", "type": "administrative", "osm_type": "relation", "osm_id": 8034226, "class": null, "keyword": "subdistrict"}}, {"type": "Feature", "geometry": {"type": "Polygon", "coordinates": [[[105.969357, 31.528213], [105.970768, 31.527638], [105.97144, 31.526744], [105.971957, 31.525598], [105.973818, 31.524514], [105.976718, 31.523105], [105.977312, 31.522851], [105.978356, 31.522464], [105.979394, 31.522399], [105.981404, 31.522455], [105.982371, 31.522961], [105.983415, 31.523342], [105.985048, 31.523527], [105.986609, 31.52365], [105.988097, 31.524473], [105.989063, 31.525487], [105.991445, 31.525608], [105.992706, 31.525348], [105.993527, 31.525155], [105.99531, 31.525212], [105.996499, 31.525655], [105.997242, 31.526288], [105.999102, 31.527684], [105.999697, 31.528319], [106.000367, 31.528887], [106.002673, 31.528689], [106.003339, 31.528113], [106.003789, 31.526649], [106.003938, 31.525123], [106.004084, 31.523916], [106.004678, 31.522769], [106.005944, 31.521935], [106.007359, 31.521869], [106.008769, 31.522439], [106.009364, 31.523454], [106.009663, 31.524532], [106.010702, 31.524847], [106.01234, 31.524842], [106.013602, 31.524586], [106.014867, 31.524073], [106.016132, 31.52388], [106.017916, 31.524127], [106.019404, 31.524759], [106.020965, 31.52571], [106.023197, 31.526402], [106.024386, 31.526589], [106.025575, 31.526585], [106.027063, 31.526391], [106.027808, 31.52588], [106.028552, 31.525878], [106.031752, 31.52587], [106.034889, 31.525814], [106.035334, 31.526573], [106.035932, 31.527589], [106.036625, 31.528425], [106.037721, 31.529749], [106.038311, 31.530641], [106.039946, 31.531398], [106.042034, 31.532284], [106.043077, 31.532787], [106.044413, 31.53342], [106.04532, 31.53396], [106.047836, 31.535454], [106.049625, 31.537483], [106.05037, 31.538243], [106.050815, 31.539003], [106.050669, 31.540788], [106.049326, 31.542063], [106.049025, 31.542824], [106.047245, 31.544101], [106.045756, 31.545121], [106.044113, 31.546142], [106.043368, 31.546911], [106.043368, 31.548432], [106.043368, 31.549581], [106.043667, 31.551357], [106.04531, 31.553013], [106.046956, 31.554738], [106.04919, 31.55779], [106.049044, 31.560461], [106.048, 31.561991], [106.04711, 31.562629], [106.045921, 31.563012], [106.043686, 31.563141], [106.041153, 31.563147], [106.038774, 31.563409], [106.03773, 31.563667], [106.035051, 31.566468], [106.032483, 31.567538], [106.030739, 31.568263], [106.027762, 31.57018], [106.024486, 31.573875], [106.022707, 31.576168], [106.022108, 31.577698], [106.021962, 31.581896], [106.021663, 31.584053], [106.021508, 31.586218], [106.020887, 31.587595], [106.020474, 31.58851], [106.018985, 31.590678], [106.018541, 31.592075], [106.018686, 31.593347], [106.019429, 31.594617], [106.020918, 31.596009], [106.021808, 31.597279], [106.021807, 31.599186], [106.021362, 31.600965], [106.019729, 31.602496], [106.018685, 31.604027], [106.01738, 31.605975], [106.016191, 31.604326], [106.014703, 31.60433], [106.012317, 31.604842], [106.011573, 31.606628], [106.010392, 31.608152], [106.008015, 31.609431], [106.00533, 31.610711], [106.002354, 31.611231], [105.99671, 31.612009], [105.993136, 31.61278], [105.990451, 31.613811], [105.98927, 31.616607], [105.986631, 31.614791], [105.985737, 31.610789], [105.985515, 31.60844], [105.987084, 31.607546], [105.98909, 31.595843], [105.989313, 31.588024], [105.987902, 31.580716], [105.985225, 31.574115], [105.982549, 31.571578], [105.978905, 31.570696], [105.979515, 31.569133], [105.981153, 31.568811], [105.98368, 31.567722], [105.985986, 31.564662], [105.98487, 31.562123], [105.982565, 31.560349], [105.979444, 31.558706], [105.976472, 31.557628], [105.974385, 31.556237], [105.972452, 31.55535], [105.972153, 31.553954], [105.970964, 31.552048], [105.969774, 31.550523], [105.970266, 31.549345], [105.970518, 31.548743], [105.972605, 31.547845], [105.974385, 31.545931], [105.976472, 31.543892], [105.976174, 31.54186], [105.975429, 31.540077], [105.974095, 31.538684], [105.973796, 31.536775], [105.973052, 31.534612], [105.971863, 31.532458], [105.969929, 31.531058], [105.969357, 31.528213]]]}, "properties": {"display_name": "七里街道, 阆中市, 南充市, 四川省, 中国", "type": "administrative", "osm_type": "relation", "osm_id": 10685744, "class": null, "keyword": "subdistrict"}}, {"type": "Feature", "geometry": {"type": "Polygon", "coordinates": [[[105.870703, 31.579449], [105.871166, 31.577551], [105.871166, 31.575898], [105.871613, 31.57513], [105.873108, 31.574116], [105.87475, 31.572977], [105.87505, 31.571193], [105.875343, 31.568525], [105.875197, 31.566492], [105.873857, 31.564705], [105.873109, 31.563433], [105.872653, 31.561274], [105.872507, 31.560126], [105.875712, 31.560283], [105.877206, 31.56054], [105.8784, 31.561046], [105.879148, 31.562195], [105.881089, 31.563849], [105.882583, 31.564999], [105.884378, 31.566141], [105.887357, 31.567795], [105.889152, 31.567796], [105.893633, 31.568179], [105.896913, 31.568055], [105.897368, 31.569204], [105.897214, 31.570088], [105.89632, 31.571996], [105.896466, 31.573013], [105.897513, 31.573905], [105.898706, 31.574286], [105.900345, 31.574286], [105.902285, 31.574418], [105.904078, 31.574798], [105.905871, 31.575433], [105.906618, 31.574285], [105.907064, 31.573269], [105.907665, 31.569707], [105.906763, 31.567039], [105.904524, 31.567039], [105.903332, 31.564494], [105.902139, 31.563733], [105.901393, 31.562585], [105.901248, 31.560932], [105.901248, 31.558132], [105.90184, 31.556099], [105.901548, 31.55152], [105.900801, 31.549991], [105.901093, 31.548975], [105.902887, 31.547197], [105.903934, 31.546305], [105.905126, 31.545668], [105.906019, 31.54618], [105.906019, 31.548089], [105.906319, 31.549487], [105.908112, 31.550883], [105.909604, 31.552031], [105.911989, 31.552154], [105.913927, 31.550244], [105.917803, 31.549737], [105.919741, 31.549736], [105.920787, 31.54795], [105.921978, 31.547444], [105.923469, 31.546675], [105.924215, 31.546418], [105.925852, 31.545912], [105.926898, 31.544258], [105.926898, 31.542225], [105.926753, 31.54044], [105.925407, 31.539044], [105.926452, 31.537771], [105.926753, 31.535985], [105.925562, 31.533572], [105.924516, 31.531664], [105.922425, 31.529888], [105.922133, 31.52836], [105.922279, 31.526194], [105.923616, 31.525432], [105.925563, 31.524413], [105.927644, 31.523519], [105.930027, 31.522499], [105.931372, 31.523258], [105.932118, 31.524274], [105.933008, 31.525421], [105.933754, 31.52618], [105.936135, 31.526946], [105.937926, 31.527704], [105.938371, 31.527703], [105.940161, 31.52808], [105.942396, 31.528712], [105.943732, 31.529223], [105.944477, 31.529857], [105.945222, 31.530105], [105.947012, 31.530102], [105.948347, 31.529974], [105.949836, 31.529715], [105.952165, 31.529209], [105.952388, 31.53042], [105.952759, 31.531626], [105.953581, 31.532388], [105.955589, 31.532511], [105.958045, 31.531742], [105.95849, 31.531679], [105.962063, 31.531095], [105.962658, 31.530776], [105.96519, 31.529179], [105.966007, 31.528606], [105.966679, 31.528476], [105.968018, 31.52841], [105.969357, 31.528213], [105.969929, 31.531058], [105.971863, 31.532458], [105.973052, 31.534612], [105.973796, 31.536775], [105.974095, 31.538684], [105.975429, 31.540077], [105.976174, 31.54186], [105.976472, 31.543892], [105.974385, 31.545931], [105.972605, 31.547845], [105.970518, 31.548743], [105.970266, 31.549345], [105.969774, 31.550523], [105.970964, 31.552048], [105.972153, 31.553954], [105.972452, 31.55535], [105.974385, 31.556237], [105.976472, 31.557628], [105.979444, 31.558706], [105.982565, 31.560349], [105.98487, 31.562123], [105.985986, 31.564662], [105.98368, 31.567722], [105.981153, 31.568811], [105.979515, 31.569133], [105.978905, 31.570696], [105.974606, 31.570848], [105.972953, 31.570907], [105.966258, 31.571813], [105.957179, 31.575777], [105.953533, 31.578267], [105.950631, 31.581641], [105.949959, 31.58393], [105.950704, 31.587807], [105.952492, 31.591431], [105.954338, 31.596213], [105.953448, 31.597479], [105.95076, 31.596725], [105.94927, 31.597488], [105.947181, 31.598764], [105.946598, 31.601061], [105.944509, 31.603097], [105.94391, 31.604882], [105.940329, 31.605521], [105.939661, 31.604948], [105.939061, 31.604631], [105.938766, 31.604061], [105.938394, 31.60317], [105.937426, 31.602663], [105.935118, 31.602477], [105.934522, 31.602416], [105.934, 31.602351], [105.933404, 31.602034], [105.933404, 31.601398], [105.933404, 31.6007], [105.934, 31.600129], [105.93415, 31.599236], [105.9337, 31.598155], [105.932659, 31.597331], [105.932064, 31.596442], [105.931464, 31.593647], [105.930645, 31.592376], [105.93035, 31.591295], [105.92886, 31.591169], [105.927668, 31.591554], [105.92655, 31.592761], [105.924836, 31.593527], [105.92364, 31.594036], [105.92178, 31.594166], [105.919097, 31.593404], [105.917305, 31.592898], [105.917305, 31.590609], [105.917528, 31.588131], [105.918351, 31.58635], [105.918574, 31.584821], [105.918124, 31.582533], [105.917455, 31.581835], [105.914321, 31.581519], [105.911787, 31.582665], [105.911041, 31.583112], [105.909626, 31.583112], [105.908729, 31.582604], [105.907687, 31.581014], [105.906718, 31.580568], [105.905001, 31.581204], [105.903955, 31.582283], [105.903208, 31.582795], [105.901423, 31.584315], [105.900522, 31.58648], [105.900221, 31.588008], [105.898736, 31.589404], [105.896642, 31.589024], [105.894702, 31.588511], [105.893509, 31.587371], [105.892908, 31.585462], [105.892908, 31.584066], [105.893355, 31.581646], [105.894102, 31.579481], [105.894102, 31.577068], [105.892618, 31.57554], [105.89157, 31.57554], [105.891269, 31.576175], [105.890823, 31.578084], [105.890376, 31.579232], [105.889776, 31.580883], [105.888882, 31.582024], [105.887388, 31.581899], [105.886486, 31.581518], [105.8847, 31.580624], [105.883051, 31.580499], [105.882313, 31.580748], [105.882012, 31.581895], [105.881711, 31.582911], [105.880119, 31.58264], [105.879372, 31.582127], [105.878178, 31.581365], [105.877576, 31.580984], [105.877276, 31.580216], [105.876236, 31.578819], [105.875781, 31.578819], [105.875188, 31.578818], [105.872946, 31.579708], [105.871605, 31.579954], [105.87115, 31.579954], [105.870703, 31.579449]]]}, "properties": {"display_name": "江南街道, 阆中市, 南充市, 四川省, 中国", "type": "administrative", "osm_type": "relation", "osm_id": 10685743, "class": null, "keyword": "subdistrict"}}, {"type": "Feature", "geometry": {"type": "Polygon", "coordinates": [[[106.167702, 30.85288], [106.168648, 30.851556], [106.170884, 30.850603], [106.171228, 30.848688], [106.171658, 30.845302], [106.173206, 30.842433], [106.173562, 30.842192], [106.175938, 30.842239], [106.181269, 30.842544], [106.184881, 30.843729], [106.187117, 30.844617], [106.1909, 30.847274], [106.192125, 30.849611], [106.192727, 30.85057], [106.191259, 30.851637], [106.189696, 30.857142], [106.190899, 30.859647], [106.19159, 30.860018], [106.192276, 30.860386], [106.193328, 30.859629], [106.193672, 30.859261], [106.194876, 30.859721], [106.194963, 30.858684], [106.19651, 30.857435], [106.19651, 30.856699], [106.194367, 30.856031], [106.194367, 30.854263], [106.195651, 30.855224], [106.198058, 30.855007], [106.200186, 30.856275], [106.201905, 30.858192], [106.20328, 30.858636], [106.204312, 30.858638], [106.205516, 30.860554], [106.208266, 30.85776], [106.209878, 30.859622], [106.211682, 30.862202], [106.214003, 30.864892], [106.218041, 30.867917], [106.221435, 30.868657], [106.222199, 30.87138], [106.220137, 30.873587], [106.219965, 30.875355], [106.221168, 30.877417], [106.223759, 30.876835], [106.229083, 30.877077], [106.228907, 30.881674], [106.229599, 30.881699], [106.228647, 30.883252], [106.227525, 30.885079], [106.225634, 30.885372], [106.224603, 30.88655], [106.227352, 30.888024], [106.226494, 30.890245], [106.225118, 30.894353], [106.224947, 30.896708], [106.226321, 30.901421], [106.228244, 30.902063], [106.229242, 30.904969], [106.231041, 30.906793], [106.228846, 30.90879], [106.226011, 30.90864], [106.224895, 30.909081], [106.223686, 30.910935], [106.221338, 30.910262], [106.221029, 30.909593], [106.218022, 30.909516], [106.215014, 30.910396], [106.215213, 30.911845], [106.21412, 30.91202], [106.213095, 30.911843], [106.212952, 30.911056], [106.211234, 30.908993], [106.210941, 30.909083], [106.209342, 30.909579], [106.208139, 30.910755], [106.205818, 30.912886], [106.204013, 30.914282], [106.204865, 30.917418], [106.204493, 30.917894], [106.199336, 30.919065], [106.195209, 30.921706], [106.195094, 30.921816], [106.192113, 30.924645], [106.1928, 30.931417], [106.193832, 30.935833], [106.197615, 30.940842], [106.200365, 30.945556], [106.195551, 30.951139], [106.191538, 30.953524], [106.186091, 30.949834], [106.182347, 30.941954], [106.179896, 30.925756], [106.180183, 30.910838], [106.180297, 30.907589], [106.179496, 30.904544], [106.175927, 30.895651], [106.172813, 30.886053], [106.172003, 30.879897], [106.173164, 30.876011], [106.174531, 30.873861], [106.173989, 30.872093], [106.171573, 30.868443], [106.171743, 30.865407], [106.173033, 30.862611], [106.176267, 30.858745], [106.176517, 30.858447], [106.176137, 30.858328], [106.174754, 30.856586], [106.17504, 30.854982], [106.172689, 30.853404], [106.16925, 30.853914], [106.167702, 30.85288]]]}, "properties": {"display_name": "龙门街道, 高坪区, 南充市, 四川省, 中国", "type": "administrative", "osm_type": "relation", "osm_id": 10663898, "class": null, "keyword": "subdistrict"}}, {"type": "Feature", "geometry": {"type": "Polygon", "coordinates": [[[106.123628, 30.842948], [106.123975, 30.837385], [106.12604, 30.820701], [106.12817, 30.818207], [106.130165, 30.813993], [106.129869, 30.813375], [106.131298, 30.813184], [106.132619, 30.81255], [106.134338, 30.811079], [106.13675, 30.809516], [106.137816, 30.808647], [106.138126, 30.812611], [106.138383, 30.813717], [106.140705, 30.812099], [106.140533, 30.807899], [106.140361, 30.80743], [106.141556, 30.807462], [106.14362, 30.805844], [106.143449, 30.802748], [106.14534, 30.802309], [106.147231, 30.803786], [106.148779, 30.804968], [106.149312, 30.809228], [106.150934, 30.810755], [106.153078, 30.809985], [106.15619, 30.815724], [106.159441, 30.813092], [106.161333, 30.811621], [106.162193, 30.810297], [106.164085, 30.81089], [106.165117, 30.808534], [106.166375, 30.810355], [106.167868, 30.812518], [106.169245, 30.814437], [106.168557, 30.816055], [106.171137, 30.815472], [106.172954, 30.815464], [106.171654, 30.816947], [106.169932, 30.817115], [106.170638, 30.818152], [106.173021, 30.821658], [106.169691, 30.824066], [106.168549, 30.824891], [106.167517, 30.830782], [106.169804, 30.833586], [106.172185, 30.836504], [106.172332, 30.836684], [106.172676, 30.841694], [106.173562, 30.842192], [106.173206, 30.842433], [106.171658, 30.845302], [106.171228, 30.848688], [106.170884, 30.850603], [106.168648, 30.851556], [106.167702, 30.85288], [106.16925, 30.853914], [106.172689, 30.853404], [106.17504, 30.854982], [106.174754, 30.856586], [106.176137, 30.858328], [106.176517, 30.858447], [106.176267, 30.858745], [106.173033, 30.862611], [106.171743, 30.865407], [106.171573, 30.868443], [106.173989, 30.872093], [106.170975, 30.871901], [106.162559, 30.872693], [106.153552, 30.871107], [106.147987, 30.869714], [106.146318, 30.868179], [106.146664, 30.861637], [106.145314, 30.859319], [106.142348, 30.858046], [106.13669, 30.854775], [106.130004, 30.849431], [106.125381, 30.845957], [106.123628, 30.842948]]]}, "properties": {"display_name": "小龙街道, 高坪区, 南充市, 四川省, 中国", "type": "administrative", "osm_type": "relation", "osm_id": 10663902, "class": null, "keyword": "subdistrict"}}, {"type": "Feature", "geometry": {"type": "Polygon", "coordinates": [[[106.007745, 31.381522], [106.008453, 31.369248], [106.009827, 31.367672], [106.010041, 31.364924], [106.013517, 31.365034], [106.014075, 31.369285], [106.016178, 31.369908], [106.016747, 31.370127], [106.017079, 31.369944], [106.016779, 31.36922], [106.016908, 31.368652], [106.018013, 31.367361], [106.019311, 31.367086], [106.02077, 31.367159], [106.022369, 31.364429], [106.024761, 31.365913], [106.025512, 31.364484], [106.026757, 31.362799], [106.028581, 31.361791], [106.034868, 31.36027], [106.03858, 31.361828], [106.04682, 31.364832], [106.049816, 31.361314], [106.053148, 31.363473], [106.055611, 31.364973], [106.056382, 31.365295], [106.057154, 31.36538], [106.058287, 31.365281], [106.059042, 31.365015], [106.061587, 31.363417], [106.062466, 31.362248], [106.061289, 31.361199], [106.060877, 31.360832], [106.060421, 31.360011], [106.060405, 31.356277], [106.057827, 31.355945], [106.055923, 31.355511], [106.055857, 31.353239], [106.055768, 31.350907], [106.057899, 31.34867], [106.05874, 31.34758], [106.060261, 31.345212], [106.061007, 31.344202], [106.061022, 31.343893], [106.06386, 31.343249], [106.065745, 31.340882], [106.063299, 31.340113], [106.065659, 31.337694], [106.066475, 31.335641], [106.06699, 31.334431], [106.068003, 31.33331], [106.072655, 31.332415], [106.074157, 31.330802], [106.07523, 31.330802], [106.076603, 31.331682], [106.077719, 31.332232], [106.078663, 31.331352], [106.079392, 31.330069], [106.078534, 31.329189], [106.078277, 31.328126], [106.07965, 31.327869], [106.084499, 31.328016], [106.088405, 31.326403], [106.091795, 31.327686], [106.096301, 31.32655], [106.099176, 31.328859], [106.102352, 31.325267], [106.106129, 31.32644], [106.107244, 31.329079], [106.111107, 31.327906], [106.112351, 31.329483], [106.113939, 31.329153], [106.115184, 31.326587], [106.114111, 31.321857], [106.117973, 31.321527], [106.128101, 31.32523], [106.131449, 31.32611], [106.136985, 31.326037], [106.13986, 31.326293], [106.142135, 31.328749], [106.142392, 31.330179], [106.141963, 31.332085], [106.139688, 31.333955], [106.136856, 31.334981], [106.133552, 31.335091], [106.12999, 31.334101], [106.125612, 31.331682], [106.12205, 31.330326], [106.120162, 31.330252], [106.117587, 31.330692], [106.114797, 31.332672], [106.110206, 31.338646], [106.107931, 31.342752], [106.106429, 31.344914], [106.104541, 31.34649], [106.09982, 31.349129], [106.096687, 31.349972], [106.084929, 31.349642], [106.077332, 31.349972], [106.074071, 31.351255], [106.061726, 31.369692], [106.049457, 31.37319], [106.033215, 31.376173], [106.026306, 31.378298], [106.023817, 31.38024], [106.020105, 31.37522], [106.019096, 31.375285], [106.019708, 31.37621], [106.019311, 31.380588], [106.01635, 31.380973], [106.013947, 31.378188], [106.013131, 31.378115], [106.010706, 31.381687], [106.007745, 31.381522]]]}, "properties": {"display_name": "滨江街道, 南部县, 南充市, 四川省, 中国", "type": "administrative", "osm_type": "relation", "osm_id": 8034224, "class": null, "keyword": "subdistrict"}}, {"type": "Feature", "geometry": {"type": "Polygon", "coordinates": [[[106.097117, 30.780007], [106.09939, 30.778767], [106.099413, 30.778755], [106.100999, 30.777914], [106.100983, 30.777891], [106.099969, 30.776439], [106.099837, 30.775151], [106.099754, 30.774338], [106.100484, 30.772606], [106.101929, 30.77003], [106.102645, 30.768753], [106.103675, 30.767868], [106.103739, 30.766508], [106.103847, 30.764256], [106.103933, 30.762561], [106.105564, 30.761898], [106.106668, 30.761364], [106.108312, 30.760572], [106.108569, 30.759319], [106.106509, 30.756443], [106.106595, 30.753494], [106.109257, 30.752611], [106.110716, 30.751137], [106.109858, 30.748851], [106.111232, 30.746935], [106.11309, 30.745133], [106.113207, 30.745019], [106.116213, 30.743694], [106.115611, 30.74244], [106.116299, 30.741113], [106.114331, 30.738092], [106.115354, 30.73639], [106.117243, 30.735211], [106.11836, 30.733074], [106.11979, 30.731725], [106.120937, 30.730642], [106.12635, 30.730279], [106.12721, 30.730943], [106.130388, 30.733676], [106.131602, 30.733104], [106.134369, 30.737148], [106.143292, 30.738725], [106.146387, 30.742049], [106.148047, 30.742489], [106.148449, 30.742642], [106.150943, 30.743089], [106.150771, 30.74412], [106.149223, 30.745961], [106.146041, 30.74743], [106.145268, 30.748756], [106.145096, 30.751706], [106.147761, 30.749645], [106.150598, 30.750682], [106.150341, 30.751418], [106.14862, 30.75304], [106.14733, 30.75606], [106.148619, 30.759233], [106.149221, 30.762256], [106.150899, 30.760637], [106.156273, 30.757882], [106.153039, 30.763092], [106.15373, 30.765821], [106.155826, 30.772456], [106.156239, 30.773734], [106.154132, 30.774689], [106.151037, 30.775568], [106.151745, 30.779326], [106.151294, 30.780691], [106.144846, 30.780275], [106.143553, 30.776516], [106.138244, 30.775716], [106.134756, 30.776518], [106.131189, 30.777251], [106.127708, 30.776657], [106.123065, 30.777134], [106.117783, 30.776983], [106.115983, 30.775945], [106.114566, 30.77576], [106.114672, 30.77668], [106.115218, 30.776966], [106.116512, 30.780057], [106.114815, 30.779908], [106.113892, 30.780294], [106.110714, 30.781361], [106.109834, 30.781179], [106.107262, 30.781694], [106.105116, 30.781252], [106.104301, 30.781067], [106.103141, 30.781103], [106.102369, 30.781103], [106.102008, 30.781243], [106.100485, 30.781187], [106.099756, 30.781248], [106.099666, 30.781255], [106.099644, 30.781257], [106.098705, 30.781334], [106.098746, 30.783803], [106.099412, 30.784153], [106.099283, 30.785277], [106.098482, 30.785033], [106.098415, 30.784472], [106.098264, 30.783716], [106.09805, 30.782795], [106.097621, 30.781542], [106.097117, 30.780007]]]}, "properties": {"display_name": "清溪街道, 高坪区, 南充市, 四川省, 中国", "type": "administrative", "osm_type": "relation", "osm_id": 10663901, "class": null, "keyword": "subdistrict"}}, {"type": "Feature", "geometry": {"type": "Polygon", "coordinates": [[[106.013174, 31.3536], [106.015277, 31.351145], [106.015963, 31.348983], [106.018152, 31.344218], [106.020169, 31.339746], [106.022358, 31.339196], [106.023388, 31.33707], [106.029096, 31.336301], [106.034245, 31.336337], [106.035833, 31.334981], [106.035747, 31.332305], [106.032786, 31.329922], [106.03004, 31.326037], [106.031756, 31.32347], [106.033988, 31.324644], [106.034632, 31.32336], [106.041284, 31.322517], [106.042147, 31.324805], [106.04249, 31.324805], [106.044202, 31.324534], [106.05021, 31.319511], [106.053128, 31.320428], [106.055059, 31.319584], [106.056518, 31.320684], [106.055789, 31.322004], [106.05742, 31.324204], [106.060381, 31.328493], [106.059313, 31.330817], [106.059828, 31.330817], [106.062574, 31.331844], [106.063776, 31.332723], [106.065664, 31.33287], [106.067038, 31.333163], [106.068003, 31.33331], [106.06699, 31.334431], [106.066475, 31.335641], [106.065659, 31.337694], [106.063299, 31.340113], [106.065745, 31.340882], [106.06386, 31.343249], [106.061022, 31.343893], [106.061007, 31.344202], [106.060261, 31.345212], [106.05874, 31.34758], [106.057899, 31.34867], [106.055768, 31.350907], [106.055857, 31.353239], [106.055923, 31.355511], [106.057827, 31.355945], [106.060405, 31.356277], [106.060421, 31.360011], [106.060877, 31.360832], [106.061289, 31.361199], [106.062466, 31.362248], [106.061587, 31.363417], [106.059042, 31.365015], [106.058287, 31.365281], [106.057154, 31.36538], [106.056382, 31.365295], [106.055611, 31.364973], [106.053148, 31.363473], [106.049816, 31.361314], [106.04682, 31.364832], [106.03858, 31.361828], [106.034868, 31.36027], [106.028581, 31.361791], [106.026757, 31.362799], [106.025512, 31.364484], [106.024761, 31.365913], [106.022369, 31.364429], [106.020893, 31.364122], [106.020234, 31.363532], [106.018775, 31.363477], [106.016929, 31.362469], [106.014719, 31.362029], [106.013989, 31.358145], [106.014461, 31.355433], [106.013174, 31.3536]]]}, "properties": {"display_name": "蜀北街道, 南部县, 南充市, 四川省, 637300, 中国", "type": "administrative", "osm_type": "relation", "osm_id": 8034227, "class": null, "keyword": "subdistrict"}}, {"type": "Feature", "geometry": {"type": "Polygon", "coordinates": [[[106.15373, 30.765821], [106.155996, 30.763931], [106.157281, 30.762911], [106.157362, 30.762846], [106.158674, 30.762047], [106.15949, 30.761303], [106.160269, 30.757874], [106.16206, 30.756616], [106.162727, 30.755493], [106.162836, 30.754688], [106.168298, 30.751901], [106.168434, 30.751782], [106.169604, 30.75223], [106.17012, 30.751641], [106.171066, 30.750611], [106.172098, 30.75017], [106.175023, 30.749144], [106.175882, 30.747449], [106.178947, 30.748014], [106.182258, 30.749679], [106.185698, 30.749869], [106.18804, 30.751189], [106.190897, 30.751552], [106.194404, 30.754323], [106.20293, 30.754264], [106.203087, 30.754263], [106.203434, 30.754082], [106.204676, 30.755255], [106.204546, 30.756148], [106.202956, 30.767039], [106.202269, 30.771513], [106.200421, 30.774459], [106.198741, 30.777083], [106.197971, 30.778287], [106.195736, 30.7795], [106.194016, 30.782518], [106.193438, 30.784139], [106.193138, 30.784979], [106.192544, 30.786648], [106.19211, 30.787865], [106.191606, 30.78928], [106.19023, 30.790457], [106.188166, 30.792075], [106.183699, 30.792071], [106.180948, 30.791772], [106.177501, 30.795369], [106.170965, 30.795136], [106.170965, 30.790789], [106.169761, 30.788796], [106.166435, 30.786759], [106.166839, 30.784676], [106.165932, 30.781111], [106.165807, 30.78062], [106.164846, 30.779974], [106.163325, 30.778949], [106.16096, 30.775776], [106.158466, 30.774039], [106.155826, 30.772456], [106.15373, 30.765821]]]}, "properties": {"display_name": "青莲街道, 高坪区, 南充市, 四川省, 中国", "type": "administrative", "osm_type": "relation", "osm_id": 10663899, "class": null, "keyword": "subdistrict"}}, {"type": "Feature", "geometry": {"type": "Polygon", "coordinates": [[[106.088982, 30.782072], [106.092868, 30.778807], [106.094587, 30.778038], [106.095543, 30.776896], [106.096194, 30.774878], [106.097139, 30.772896], [106.097825, 30.772119], [106.098268, 30.771108], [106.097787, 30.768821], [106.098954, 30.768679], [106.100928, 30.768826], [106.102645, 30.768753], [106.101929, 30.77003], [106.100484, 30.772606], [106.099754, 30.774338], [106.099837, 30.775151], [106.099969, 30.776439], [106.100983, 30.777891], [106.100999, 30.777914], [106.099413, 30.778755], [106.09939, 30.778767], [106.097117, 30.780007], [106.097621, 30.781542], [106.09805, 30.782795], [106.098264, 30.783716], [106.098415, 30.784472], [106.098482, 30.785033], [106.099283, 30.785277], [106.099412, 30.784153], [106.098746, 30.783803], [106.098705, 30.781334], [106.099644, 30.781257], [106.099666, 30.781255], [106.099756, 30.781248], [106.100485, 30.781187], [106.102008, 30.781243], [106.102369, 30.781103], [106.103141, 30.781103], [106.104301, 30.781067], [106.105116, 30.781252], [106.107262, 30.781694], [106.109834, 30.781179], [106.110714, 30.781361], [106.113892, 30.780294], [106.114815, 30.779908], [106.116512, 30.780057], [106.115218, 30.776966], [106.114672, 30.77668], [106.114566, 30.77576], [106.115983, 30.775945], [106.117783, 30.776983], [106.123065, 30.777134], [106.127708, 30.776657], [106.131189, 30.777251], [106.134756, 30.776518], [106.138244, 30.775716], [106.143553, 30.776516], [106.144846, 30.780275], [106.151294, 30.780691], [106.150348, 30.782348], [106.148843, 30.78474], [106.147511, 30.786949], [106.145447, 30.788826], [106.142418, 30.790367], [106.140848, 30.790771], [106.139644, 30.791542], [106.137754, 30.792719], [106.137108, 30.793453], [106.136034, 30.794262], [106.135733, 30.794888], [106.135024, 30.797507], [106.134212, 30.798776], [106.134689, 30.799167], [106.135524, 30.799854], [106.136834, 30.80093], [106.134948, 30.803104], [106.136752, 30.803622], [106.137344, 30.804805], [106.137095, 30.806642], [106.13872, 30.807386], [106.140361, 30.80743], [106.140533, 30.807899], [106.140705, 30.812099], [106.138383, 30.813717], [106.138126, 30.812611], [106.137816, 30.808647], [106.13675, 30.809516], [106.134338, 30.811079], [106.132619, 30.81255], [106.131298, 30.813184], [106.129869, 30.813375], [106.130165, 30.813993], [106.12817, 30.818207], [106.12604, 30.820701], [106.12363, 30.815738], [106.122252, 30.808541], [106.119506, 30.804215], [106.116556, 30.801584], [106.113747, 30.801488], [106.107763, 30.803267], [106.102757, 30.803467], [106.099143, 30.801664], [106.096819, 30.799668], [106.094092, 30.796076], [106.090724, 30.788654], [106.089604, 30.784521], [106.088982, 30.782072]]]}, "properties": {"display_name": "白塔街道, 高坪区, 南充市, 四川省, 中国", "type": "administrative", "osm_type": "relation", "osm_id": 10663896, "class": null, "keyword": "subdistrict"}}, {"type": "Feature", "geometry": {"type": "Polygon", "coordinates": [[[106.134212, 30.798776], [106.135024, 30.797507], [106.135733, 30.794888], [106.136034, 30.794262], [106.137108, 30.793453], [106.137754, 30.792719], [106.139644, 30.791542], [106.140848, 30.790771], [106.142418, 30.790367], [106.145447, 30.788826], [106.147511, 30.786949], [106.148843, 30.78474], [106.150348, 30.782348], [106.151294, 30.780691], [106.151745, 30.779326], [106.151037, 30.775568], [106.154132, 30.774689], [106.156239, 30.773734], [106.155826, 30.772456], [106.158466, 30.774039], [106.16096, 30.775776], [106.163325, 30.778949], [106.164846, 30.779974], [106.165807, 30.78062], [106.165932, 30.781111], [106.166839, 30.784676], [106.166435, 30.786759], [106.169761, 30.788796], [106.170965, 30.790789], [106.170965, 30.795136], [106.177501, 30.795369], [106.180948, 30.791772], [106.183699, 30.792071], [106.188166, 30.792075], [106.190402, 30.793258], [106.189886, 30.796205], [106.187867, 30.798023], [106.191903, 30.799463], [106.194719, 30.800469], [106.19556, 30.800572], [106.196763, 30.802342], [106.195301, 30.803961], [106.194614, 30.80564], [106.19732, 30.812204], [106.195127, 30.814226], [106.189798, 30.813155], [106.184639, 30.810493], [106.181199, 30.807835], [106.177415, 30.80547], [106.174318, 30.808117], [106.170191, 30.805161], [106.166375, 30.810355], [106.165117, 30.808534], [106.164085, 30.81089], [106.162193, 30.810297], [106.161333, 30.811621], [106.159441, 30.813092], [106.15619, 30.815724], [106.153078, 30.809985], [106.150934, 30.810755], [106.149312, 30.809228], [106.148779, 30.804968], [106.147231, 30.803786], [106.14534, 30.802309], [106.143449, 30.802748], [106.14362, 30.805844], [106.141556, 30.807462], [106.140361, 30.80743], [106.13872, 30.807386], [106.137095, 30.806642], [106.137344, 30.804805], [106.136752, 30.803622], [106.134948, 30.803104], [106.136834, 30.80093], [106.135524, 30.799854], [106.134689, 30.799167], [106.134212, 30.798776]]]}, "properties": {"display_name": "青松街道, 高坪区, 南充市, 四川省, 中国", "type": "administrative", "osm_type": "relation", "osm_id": 10663900, "class": null, "keyword": "subdistrict"}}, {"type": "Feature", "geometry": {"type": "Polygon", "coordinates": [[[106.070533, 30.74172], [106.07128, 30.737546], [106.074283, 30.735207], [106.081231, 30.733773], [106.092587, 30.732741], [106.098283, 30.733452], [106.102739, 30.731889], [106.104005, 30.730511], [106.111065, 30.732486], [106.113924, 30.730129], [106.11979, 30.731725], [106.11836, 30.733074], [106.117243, 30.735211], [106.115354, 30.73639], [106.114331, 30.738092], [106.116299, 30.741113], [106.115611, 30.74244], [106.116213, 30.743694], [106.113207, 30.745019], [106.11309, 30.745133], [106.111232, 30.746935], [106.109858, 30.748851], [106.110716, 30.751137], [106.109257, 30.752611], [106.106595, 30.753494], [106.106509, 30.756443], [106.108569, 30.759319], [106.108312, 30.760572], [106.106668, 30.761364], [106.105564, 30.761898], [106.103933, 30.762561], [106.103847, 30.764256], [106.103739, 30.766508], [106.103675, 30.767868], [106.102645, 30.768753], [106.100928, 30.768826], [106.098954, 30.768679], [106.097787, 30.768821], [106.097413, 30.767386], [106.095371, 30.765581], [106.093328, 30.764377], [106.091578, 30.763676], [106.08796, 30.764678], [106.083016, 30.766495], [106.081317, 30.759634], [106.077647, 30.751829], [106.071836, 30.746359], [106.070533, 30.74172]]]}, "properties": {"display_name": "都京街道, 高坪区, 南充市, 四川省, 中国", "type": "administrative", "osm_type": "relation", "osm_id": 10663897, "class": null, "keyword": "subdistrict"}}, {"type": "Feature", "geometry": {"type": "Polygon", "coordinates": [[[105.949959, 31.58393], [105.950631, 31.581641], [105.953533, 31.578267], [105.957179, 31.575777], [105.966258, 31.571813], [105.972953, 31.570907], [105.974606, 31.570848], [105.978905, 31.570696], [105.982549, 31.571578], [105.985225, 31.574115], [105.987902, 31.580716], [105.989313, 31.588024], [105.98909, 31.595843], [105.987084, 31.607546], [105.985515, 31.60844], [105.985737, 31.610789], [105.986631, 31.614791], [105.98927, 31.616607], [105.989561, 31.618638], [105.988402, 31.62205], [105.986768, 31.620403], [105.983937, 31.617363], [105.982005, 31.615338], [105.980226, 31.612675], [105.979183, 31.61115], [105.977994, 31.608486], [105.977841, 31.606322], [105.978293, 31.604033], [105.978294, 31.601109], [105.976507, 31.59895], [105.974719, 31.597814], [105.971297, 31.597443], [105.971037, 31.596478], [105.971631, 31.595205], [105.972208, 31.594727], [105.972617, 31.594281], [105.972375, 31.593391], [105.972524, 31.592453], [105.972859, 31.59188], [105.973202, 31.591234], [105.973266, 31.5909], [105.972277, 31.590603], [105.97043, 31.590161], [105.970704, 31.589269], [105.970518, 31.589238], [105.968862, 31.589083], [105.967597, 31.58899], [105.965906, 31.58882], [105.96425, 31.588682], [105.963208, 31.588621], [105.962665, 31.588531], [105.961404, 31.588354], [105.960917, 31.588353], [105.959985, 31.588264], [105.960022, 31.588835], [105.960059, 31.589979], [105.960099, 31.590259], [105.960137, 31.597243], [105.95891, 31.597263], [105.953448, 31.597479], [105.954338, 31.596213], [105.952492, 31.591431], [105.950704, 31.587807], [105.949959, 31.58393]]]}, "properties": {"display_name": "保宁街道, 阆中市, 南充市, 四川省, 中国", "type": "administrative", "osm_type": "relation", "osm_id": 10685742, "class": null, "keyword": "subdistrict"}}, {"type": "Feature", "geometry": {"type": "Polygon", "coordinates": [[[106.07042, 30.776727], [106.070522, 30.775487], [106.070872, 30.773801], [106.071836, 30.772577], [106.072825, 30.771286], [106.074344, 30.769151], [106.075238, 30.768009], [106.0763, 30.766979], [106.077556, 30.766507], [106.07857, 30.766418], [106.078842, 30.766394], [106.081316, 30.766526], [106.083016, 30.766495], [106.08796, 30.764678], [106.091578, 30.763676], [106.093328, 30.764377], [106.095371, 30.765581], [106.097413, 30.767386], [106.097787, 30.768821], [106.098268, 30.771108], [106.097825, 30.772119], [106.097139, 30.772896], [106.096194, 30.774878], [106.095543, 30.776896], [106.094587, 30.778038], [106.092868, 30.778807], [106.088982, 30.782072], [106.084951, 30.783283], [106.080419, 30.784881], [106.078859, 30.785371], [106.077613, 30.786093], [106.076503, 30.786622], [106.073668, 30.78428], [106.074432, 30.782931], [106.074666, 30.781874], [106.074454, 30.781053], [106.073859, 30.779814], [106.072607, 30.778428], [106.07042, 30.776727]]]}, "properties": {"display_name": "东南街道, 南充市, 顺庆区, 南充市, 四川省, 中国", "type": "administrative", "osm_type": "relation", "osm_id": 10694706, "class": null, "keyword": "subdistrict"}}, {"type": "Feature", "geometry": {"type": "Polygon", "coordinates": [[[106.066865, 30.805372], [106.067205, 30.805044], [106.067459, 30.804697], [106.067823, 30.803894], [106.07507, 30.804474], [106.07504, 30.800221], [106.076465, 30.800358], [106.081177, 30.800866], [106.081702, 30.800801], [106.082227, 30.800582], [106.085933, 30.799035], [106.086563, 30.798842], [106.087427, 30.801198], [106.088594, 30.80477], [106.089125, 30.806374], [106.091629, 30.812133], [106.092478, 30.814284], [106.092732, 30.815195], [106.092875, 30.815564], [106.090228, 30.815104], [106.0873, 30.815177], [106.086494, 30.815122], [106.084326, 30.81417], [106.082674, 30.813281], [106.081295, 30.812643], [106.078239, 30.811204], [106.076478, 30.810675], [106.072574, 30.80909], [106.070791, 30.808506], [106.069603, 30.807796], [106.066865, 30.805372]]]}, "properties": {"display_name": "和平路街道, 顺庆区, 南充市, 四川省, 637000, 中国", "type": "administrative", "osm_type": "relation", "osm_id": 10694707, "class": null, "keyword": "subdistrict"}}, {"type": "Feature", "geometry": {"type": "Polygon", "coordinates": [[[106.086563, 30.798842], [106.090795, 30.798288], [106.092265, 30.797218], [106.094092, 30.796076], [106.096819, 30.799668], [106.099143, 30.801664], [106.101257, 30.806798], [106.10444, 30.809987], [106.105968, 30.811901], [106.103994, 30.81263], [106.103209, 30.81325], [106.102997, 30.813687], [106.103124, 30.816494], [106.092732, 30.815195], [106.092478, 30.814284], [106.091629, 30.812133], [106.089125, 30.806374], [106.088594, 30.80477], [106.087427, 30.801198], [106.086563, 30.798842]]]}, "properties": {"display_name": "北城街道, 顺庆区, 南充市, 四川省, 中国", "type": "administrative", "osm_type": "relation", "osm_id": 10694705, "class": null, "keyword": "subdistrict"}}, {"type": "Feature", "geometry": {"type": "Polygon", "coordinates": [[[106.067823, 30.803894], [106.067973, 30.803495], [106.069938, 30.799577], [106.069983, 30.798778], [106.069878, 30.79794], [106.073179, 30.796496], [106.074333, 30.796001], [106.077169, 30.794648], [106.080305, 30.793256], [106.082526, 30.792379], [106.083067, 30.792073], [106.083981, 30.791554], [106.086037, 30.790433], [106.087537, 30.789621], [106.090724, 30.788654], [106.094092, 30.796076], [106.092265, 30.797218], [106.090795, 30.798288], [106.086563, 30.798842], [106.085933, 30.799035], [106.082227, 30.800582], [106.081702, 30.800801], [106.081177, 30.800866], [106.076465, 30.800358], [106.07504, 30.800221], [106.07507, 30.804474], [106.067823, 30.803894]]]}, "properties": {"display_name": "中城街道, 南充市, 顺庆区, 南充市, 四川省, 中国", "type": "administrative", "osm_type": "relation", "osm_id": 10694710, "class": null, "keyword": "subdistrict"}}, {"type": "Feature", "geometry": {"type": "Polygon", "coordinates": [[[106.071058, 30.787306], [106.071759, 30.786194], [106.073668, 30.78428], [106.076503, 30.786622], [106.077613, 30.786093], [106.078859, 30.785371], [106.080419, 30.784881], [106.084951, 30.783283], [106.088982, 30.782072], [106.089604, 30.784521], [106.090724, 30.788654], [106.087537, 30.789621], [106.086037, 30.790433], [106.083981, 30.791554], [106.083067, 30.792073], [106.082526, 30.792379], [106.080305, 30.793256], [106.077169, 30.794648], [106.074333, 30.796001], [106.072217, 30.793294], [106.074708, 30.791193], [106.071058, 30.787306]]]}, "properties": {"display_name": "西城街道, 南充市, 顺庆区, 南充市, 四川省, 中国", "type": "administrative", "osm_type": "relation", "osm_id": 10694708, "class": null, "keyword": "subdistrict"}}, {"type": "Feature", "geometry": {"type": "Polygon", "coordinates": [[[106.099967, 30.759948], [106.100786, 30.759784], [106.10348, 30.759228], [106.104619, 30.759218], [106.104529, 30.760659], [106.105546, 30.760871], [106.105367, 30.761531], [106.105681, 30.761654], [106.105368, 30.762066], [106.104331, 30.761811], [106.102998, 30.761811], [106.101797, 30.762087], [106.101154, 30.762207], [106.100344, 30.760534], [106.099967, 30.760044], [106.099967, 30.759948]]]}, "properties": {"display_name": "南充市中心医院(江东院区), 沪蓉高速, 都京街道, 高坪区, 南充市, 四川省, 中国", "type": "hospital", "osm_type": "way", "osm_id": 1184932377, "class": null, "keyword": "市中心"}}, {"type": "Feature", "geometry": {"type": "Polygon", "coordinates": [[[106.09108, 30.76963], [106.091682, 30.76891], [106.092218, 30.768812], [106.093746, 30.772492], [106.094225, 30.773739], [106.094245, 30.774228], [106.094193, 30.774674], [106.093698, 30.775708], [106.092966, 30.775519], [106.092832, 30.774839], [106.092698, 30.774059], [106.092738, 30.773514], [106.092576, 30.772326], [106.092267, 30.771586], [106.091429, 30.770636], [106.09108, 30.76963]]]}, "properties": {"display_name": "金融中心, 江东中路三段, 东南街道, 南充市, 顺庆区, 南充市, 四川省, 637000, 中国", "type": "commercial", "osm_type": "way", "osm_id": 1184919331, "class": null, "keyword": "financial district"}}, {"type": "Feature", "geometry": {"type": "Polygon", "coordinates": [[[106.083234, 30.826594], [106.083245, 30.826423], [106.083427, 30.826266], [106.08384, 30.826165], [106.084178, 30.826027], [106.084586, 30.825838], [106.085144, 30.825838], [106.085149, 30.827764], [106.084677, 30.827929], [106.084414, 30.827985], [106.084135, 30.827916], [106.084065, 30.827888], [106.08399, 30.82763], [106.083835, 30.827321], [106.083427, 30.826773], [106.083234, 30.826594]]]}, "properties": {"display_name": "南充市五星中学(新城校区), 佳华路, 潆华工业集中区, 顺庆区, 南充市, 四川省, 637000, 中国", "type": "school", "osm_type": "way", "osm_id": 772284249, "class": null, "keyword": "中心城区"}}, {"type": "Feature", "geometry": {"type": "Polygon", "coordinates": [[[106.578706, 31.08513], [106.579397, 31.085158], [106.579389, 31.085509], [106.578706, 31.085457], [106.578706, 31.08513]]]}, "properties": {"display_name": "膳食中心, 白塔大道, 绥安街道, 营山县, 南充市, 四川省, 中国", "type": "yes", "osm_type": "way", "osm_id": 923723003, "class": null, "keyword": "市中心"}}]}