{"type": "FeatureCollection", "features": [{"type": "Feature", "geometry": {"type": "Polygon", "coordinates": [[[108.692012, 23.109323], [108.692693, 23.109301], [108.692822, 23.109226], [108.69294, 23.108921], [108.6937, 23.108853], [108.69373, 23.10876], [108.693052, 23.107394], [108.693081, 23.107181], [108.693191, 23.106996], [108.693788, 23.106512], [108.694437, 23.106343], [108.694706, 23.106166], [108.6956, 23.105052], [108.695486, 23.104155], [108.695733, 23.103664], [108.696072, 23.103357], [108.696091, 23.103181], [108.696378, 23.102625], [108.696388, 23.102444], [108.696744, 23.101818], [108.697634, 23.100865], [108.698004, 23.100328], [108.69826, 23.09924], [108.698481, 23.098635], [108.698404, 23.098324], [108.69739, 23.097], [108.697424, 23.096327], [108.697553, 23.095963], [108.697585, 23.095014], [108.69779, 23.094858], [108.698813, 23.094387], [108.699463, 23.093798], [108.699846, 23.092778], [108.700742, 23.092998], [108.702179, 23.093061], [108.702774, 23.092575], [108.703277, 23.092452], [108.704359, 23.092585], [108.704976, 23.092982], [108.705239, 23.093151], [108.706002, 23.092647], [108.706241, 23.09218], [108.707208, 23.091433], [108.708636, 23.090616], [108.711001, 23.089742], [108.711335, 23.089395], [108.711441, 23.088187], [108.710991, 23.087913], [108.71086, 23.087758], [108.710889, 23.08636], [108.711692, 23.086253], [108.712489, 23.085542], [108.713606, 23.085054], [108.713942, 23.085052], [108.714428, 23.08524], [108.715585, 23.085355], [108.716331, 23.085214], [108.716777, 23.084901], [108.717113, 23.084951], [108.717376, 23.085209], [108.71786, 23.085224], [108.718455, 23.084617], [108.718787, 23.084098], [108.71985, 23.08392], [108.720149, 23.083281], [108.720158, 23.08171], [108.720026, 23.081365], [108.720212, 23.081158], [108.720659, 23.080983], [108.721066, 23.080377], [108.721529, 23.079857], [108.721306, 23.079392], [108.721265, 23.079306], [108.721003, 23.079135], [108.720927, 23.078842], [108.720064, 23.077828], [108.719109, 23.077245], [108.719052, 23.077107], [108.719348, 23.076605], [108.719775, 23.076241], [108.720014, 23.075446], [108.720661, 23.074476], [108.719909, 23.073375], [108.719815, 23.073117], [108.719646, 23.07298], [108.719475, 23.072376], [108.719287, 23.072153], [108.719248, 23.071877], [108.718368, 23.071104], [108.71814, 23.070467], [108.718118, 23.069742], [108.718043, 23.069604], [108.717743, 23.069416], [108.717742, 23.069312], [108.717965, 23.069087], [108.717965, 23.068966], [108.717825, 23.068725], [108.717283, 23.068382], [108.717038, 23.067987], [108.716961, 23.067624], [108.717147, 23.067382], [108.717311, 23.066743], [108.717552, 23.066414], [108.71809, 23.06598], [108.718593, 23.065805], [108.718908, 23.065355], [108.718886, 23.064785], [108.719068, 23.06399], [108.718955, 23.06368], [108.71856, 23.063164], [108.718541, 23.062975], [108.718671, 23.062836], [108.719043, 23.062765], [108.719433, 23.06247], [108.719318, 23.061798], [108.72073, 23.060721], [108.720838, 23.060099], [108.721226, 23.059234], [108.720593, 23.058219], [108.720196, 23.057134], [108.720417, 23.056684], [108.720714, 23.056337], [108.72131, 23.056231], [108.722259, 23.055813], [108.723649, 23.054219], [108.72387, 23.053544], [108.724559, 23.053472], [108.725209, 23.052986], [108.725947, 23.052137], [108.726095, 23.051774], [108.726428, 23.051444], [108.727136, 23.051372], [108.727638, 23.051008], [108.727973, 23.050885], [108.728514, 23.050883], [108.729054, 23.050776], [108.73049, 23.050822], [108.730846, 23.050992], [108.731536, 23.051145], [108.732094, 23.05078], [108.732648, 23.04969], [108.733186, 23.049204], [108.733759, 23.048304], [108.733905, 23.047734], [108.73409, 23.047543], [108.735877, 23.046724], [108.736824, 23.046132], [108.737065, 23.045683], [108.737059, 23.045251], [108.736718, 23.044459], [108.736755, 23.044234], [108.737182, 23.043939], [108.737833, 23.043677], [108.739488, 23.042824], [108.740044, 23.042148], [108.740154, 23.041836], [108.740133, 23.041457], [108.740517, 23.039971], [108.741036, 23.039347], [108.741798, 23.037721], [108.742016, 23.037254], [108.742352, 23.037374], [108.743045, 23.037854], [108.743924, 23.038177], [108.74465, 23.038174], [108.748168, 23.036845], [108.749064, 23.037083], [108.749157, 23.037014], [108.749173, 23.036582], [108.749377, 23.036426], [108.749862, 23.036355], [108.750197, 23.036198], [108.751812, 23.034861], [108.753167, 23.033853], [108.753818, 23.033488], [108.754358, 23.033347], [108.75538, 23.032738], [108.756646, 23.03237], [108.758658, 23.03205], [108.759348, 23.032115], [108.76028, 23.031265], [108.760634, 23.031177], [108.761153, 23.030795], [108.76115, 23.030226], [108.761779, 23.029256], [108.762373, 23.028804], [108.762839, 23.028699], [108.762796, 23.027784], [108.762886, 23.027214], [108.762491, 23.026526], [108.763135, 23.024883], [108.7632, 23.024037], [108.76351, 23.022758], [108.763899, 23.022291], [108.763468, 23.021827], [108.7633, 23.021776], [108.763373, 23.021516], [108.763783, 23.02148], [108.763894, 23.021359], [108.763688, 23.021152], [108.763501, 23.021154], [108.7635, 23.020964], [108.764749, 23.021009], [108.764728, 23.020405], [108.764818, 23.019991], [108.764686, 23.01975], [108.764662, 23.018594], [108.764565, 23.018094], [108.764377, 23.017818], [108.764358, 23.017646], [108.764727, 23.016988], [108.7651, 23.016987], [108.765548, 23.017105], [108.765997, 23.017396], [108.766762, 23.017479], [108.767116, 23.017408], [108.767672, 23.016853], [108.768082, 23.016834], [108.768326, 23.01704], [108.769521, 23.017362], [108.770024, 23.01736], [108.770366, 23.01848], [108.771006, 23.019477], [108.771487, 23.020821], [108.772086, 23.021112], [108.771957, 23.021406], [108.77207, 23.021647], [108.77159, 23.022564], [108.771592, 23.022857], [108.77113, 23.023602], [108.771543, 23.024169], [108.77197, 23.023805], [108.77256, 23.022749], [108.772578, 23.022542], [108.773884, 23.022553], [108.773807, 23.022277], [108.773917, 23.021931], [108.774084, 23.021844], [108.774719, 23.021997], [108.775334, 23.02189], [108.775556, 23.021544], [108.7757, 23.020801], [108.775921, 23.020178], [108.775863, 23.019868], [108.775934, 23.019212], [108.776379, 23.018847], [108.776358, 23.018364], [108.774935, 23.017198], [108.774914, 23.016939], [108.774576, 23.016423], [108.77448, 23.015974], [108.77431, 23.015751], [108.774232, 23.015026], [108.774469, 23.014663], [108.774855, 23.013729], [108.774572, 23.013195], [108.774476, 23.012712], [108.774269, 23.012334], [108.773894, 23.012042], [108.773966, 23.011559], [108.774338, 23.011367], [108.774484, 23.0109], [108.774966, 23.010294], [108.7748, 23.009915], [108.774836, 23.009725], [108.775318, 23.009274], [108.77526, 23.00886], [108.774942, 23.008827], [108.774757, 23.008914], [108.774421, 23.008916], [108.774197, 23.008831], [108.773843, 23.00897], [108.773506, 23.008748], [108.773078, 23.00875], [108.772835, 23.008647], [108.772458, 23.007976], [108.771112, 23.007362], [108.770888, 23.007155], [108.770009, 23.006884], [108.769487, 23.006955], [108.768592, 23.006822], [108.768015, 23.006928], [108.766968, 23.006536], [108.76665, 23.00621], [108.766628, 23.005623], [108.766755, 23.005053], [108.767013, 23.004465], [108.766933, 23.003551], [108.766457, 23.001758], [108.766452, 23.001016], [108.766377, 23.000774], [108.766486, 23.000429], [108.766521, 22.999876], [108.766613, 22.999703], [108.767304, 22.9998], [108.767669, 22.999568], [108.767996, 22.999523], [108.769036, 22.999711], [108.769391, 22.999385], [108.770635, 22.999592], [108.771676, 22.999523], [108.772201, 22.999681], [108.773509, 22.999706], [108.772977, 22.998322], [108.77345, 22.996583], [108.77156, 22.994301], [108.772033, 22.990496], [108.770616, 22.98604], [108.769553, 22.982888], [108.771583, 22.980049], [108.776401, 22.976365], [108.776483, 22.974131], [108.775747, 22.972918], [108.777818, 22.969952], [108.784492, 22.96815], [108.78962, 22.965828], [108.790994, 22.967501], [108.793466, 22.970268], [108.793286, 22.971691], [108.795647, 22.973865], [108.798566, 22.97332], [108.800606, 22.974083], [108.80344, 22.973757], [108.806256, 22.975352], [108.806943, 22.978213], [108.808871, 22.981475], [108.811115, 22.98267], [108.811734, 22.980279], [108.814535, 22.979383], [108.814645, 22.977992], [108.815825, 22.97732], [108.816576, 22.976115], [108.816147, 22.975285], [108.816898, 22.974041], [108.817899, 22.973875], [108.820374, 22.973823], [108.822977, 22.975034], [108.827734, 22.973184], [108.828558, 22.970706], [108.831751, 22.971114], [108.830131, 22.965796], [108.833365, 22.965152], [108.830595, 22.959883], [108.836867, 22.959252], [108.838358, 22.957471], [108.84524, 22.959364], [108.850314, 22.958492], [108.853383, 22.957989], [108.858467, 22.966586], [108.862907, 22.9664], [108.862596, 22.970385], [108.864835, 22.971833], [108.86444, 22.973643], [108.866371, 22.975834], [108.868533, 22.975901], [108.867814, 22.976374], [108.867041, 22.976358], [108.866583, 22.976536], [108.866148, 22.976869], [108.865618, 22.977628], [108.865554, 22.977837], [108.864357, 22.977641], [108.862849, 22.977164], [108.862696, 22.977205], [108.862486, 22.977395], [108.862247, 22.977403], [108.862118, 22.977714], [108.862269, 22.978598], [108.861358, 22.978677], [108.861081, 22.978631], [108.860832, 22.978497], [108.859834, 22.977545], [108.859569, 22.977087], [108.859514, 22.976223], [108.859307, 22.975644], [108.859204, 22.975584], [108.858913, 22.97568], [108.85884, 22.975606], [108.858883, 22.975484], [108.859282, 22.975178], [108.859449, 22.975151], [108.859427, 22.975063], [108.859076, 22.974855], [108.859052, 22.974592], [108.858906, 22.974485], [108.858468, 22.974467], [108.858157, 22.97482], [108.858122, 22.975023], [108.858268, 22.975096], [108.858478, 22.974973], [108.858581, 22.975027], [108.858684, 22.975316], [108.858665, 22.975593], [108.858309, 22.975731], [108.857737, 22.976368], [108.857021, 22.977364], [108.856648, 22.978338], [108.85656, 22.979425], [108.856616, 22.980147], [108.856321, 22.980763], [108.855906, 22.981278], [108.855582, 22.981962], [108.85546, 22.9834], [108.855338, 22.983617], [108.855282, 22.984063], [108.854791, 22.984923], [108.85481, 22.985523], [108.854513, 22.98593], [108.853478, 22.986381], [108.853246, 22.986598], [108.853017, 22.987207], [108.852905, 22.988024], [108.852783, 22.988349], [108.852807, 22.98868], [108.853375, 22.99085], [108.853318, 22.991053], [108.852947, 22.991196], [108.852839, 22.991501], [108.852858, 22.992628], [108.852727, 22.992723], [108.851773, 22.992782], [108.850929, 22.993023], [108.850386, 22.993641], [108.850068, 22.994209], [108.849853, 22.995027], [108.849759, 22.995115], [108.849562, 22.995103], [108.848919, 22.99483], [108.848538, 22.994494], [108.848392, 22.994549], [108.848132, 22.994969], [108.847943, 22.995071], [108.846981, 22.995049], [108.846361, 22.99512], [108.845649, 22.995468], [108.845599, 22.995664], [108.845085, 22.996382], [108.844445, 22.996703], [108.844199, 22.996974], [108.844053, 22.996975], [108.843716, 22.996815], [108.843546, 22.996296], [108.842186, 22.995743], [108.842119, 22.995574], [108.842154, 22.995325], [108.842088, 22.995264], [108.841979, 22.995285], [108.841523, 22.996037], [108.840991, 22.996033], [108.840355, 22.995854], [108.84037, 22.995935], [108.840817, 22.996236], [108.839956, 22.996146], [108.839879, 22.996673], [108.838966, 22.996448], [108.838828, 22.996476], [108.838851, 22.996652], [108.838649, 22.996896], [108.838883, 22.997151], [108.839333, 22.996791], [108.840064, 22.997097], [108.839354, 22.998363], [108.839342, 22.998667], [108.838264, 22.998929], [108.83755, 22.999021], [108.837128, 22.998976], [108.836278, 22.999365], [108.836044, 23.000446], [108.836046, 23.000771], [108.836628, 23.00176], [108.835808, 23.002345], [108.835144, 23.002335], [108.834639, 23.003228], [108.834633, 23.003384], [108.834743, 23.003511], [108.83537, 23.004071], [108.835335, 23.005257], [108.834862, 23.007436], [108.834787, 23.007475], [108.834626, 23.007113], [108.834232, 23.006772], [108.833734, 23.006618], [108.833701, 23.006451], [108.833902, 23.0065], [108.833933, 23.006303], [108.833645, 23.006021], [108.833559, 23.005815], [108.831929, 23.005833], [108.830941, 23.005486], [108.830645, 23.005507], [108.830467, 23.005851], [108.830491, 23.006243], [108.831021, 23.006446], [108.831424, 23.006454], [108.83153, 23.006571], [108.831809, 23.007099], [108.832469, 23.007674], [108.83308, 23.008817], [108.834344, 23.009517], [108.834674, 23.010152], [108.835241, 23.010924], [108.835691, 23.011843], [108.836888, 23.013581], [108.83808, 23.01635], [108.838261, 23.016427], [108.838685, 23.016454], [108.839513, 23.016754], [108.839619, 23.01688], [108.839569, 23.017214], [108.839654, 23.01736], [108.840592, 23.017964], [108.841125, 23.01849], [108.841456, 23.019018], [108.841578, 23.019343], [108.84165, 23.019536], [108.842796, 23.019834], [108.844268, 23.019895], [108.844671, 23.019971], [108.845544, 23.020692], [108.845737, 23.021034], [108.845132, 23.022527], [108.845133, 23.022753], [108.845379, 23.023045], [108.84538, 23.023232], [108.845212, 23.023488], [108.844927, 23.023656], [108.844358, 23.024208], [108.844476, 23.024276], [108.844655, 23.024196], [108.844836, 23.024235], [108.845017, 23.024498], [108.845171, 23.025399], [108.845605, 23.025652], [108.846335, 23.025628], [108.846758, 23.025352], [108.847182, 23.025398], [108.847342, 23.025593], [108.847397, 23.025956], [108.847557, 23.026171], [108.847812, 23.026297], [108.848648, 23.026136], [108.849112, 23.025878], [108.849409, 23.025896], [108.850164, 23.026353], [108.850804, 23.027202], [108.851203, 23.027602], [108.851429, 23.028258], [108.852558, 23.029085], [108.853972, 23.02942], [108.855109, 23.029953], [108.855122, 23.030316], [108.855611, 23.030529], [108.855818, 23.029891], [108.855893, 23.02989], [108.855957, 23.029959], [108.855707, 23.030705], [108.855719, 23.030842], [108.855295, 23.030855], [108.855076, 23.031316], [108.855979, 23.031811], [108.856292, 23.032074], [108.856525, 23.032102], [108.856725, 23.031935], [108.857044, 23.032139], [108.857278, 23.032197], [108.858401, 23.03222], [108.859246, 23.033509], [108.859215, 23.033696], [108.859016, 23.03405], [108.858509, 23.034288], [108.858117, 23.034202], [108.857713, 23.033939], [108.857426, 23.033921], [108.855661, 23.034166], [108.855535, 23.034235], [108.855296, 23.03506], [108.855286, 23.036766], [108.855072, 23.03812], [108.854769, 23.038808], [108.854653, 23.038906], [108.854156, 23.039036], [108.853692, 23.039372], [108.853704, 23.039539], [108.853864, 23.039822], [108.854303, 23.040428], [108.854346, 23.040594], [108.854191, 23.041232], [108.85404, 23.04141], [108.852477, 23.042222], [108.852488, 23.04233], [108.853168, 23.042689], [108.853382, 23.042903], [108.853564, 23.043284], [108.853705, 23.043823], [108.85369, 23.044705], [108.853107, 23.044738], [108.851893, 23.045391], [108.851481, 23.045531], [108.851186, 23.045817], [108.850915, 23.046622], [108.851086, 23.046788], [108.851977, 23.04691], [108.852115, 23.047027], [108.852053, 23.047273], [108.851759, 23.047588], [108.850785, 23.04775], [108.850161, 23.047911], [108.84995, 23.048039], [108.849878, 23.048314], [108.849921, 23.048451], [108.85058, 23.048849], [108.850699, 23.049231], [108.850079, 23.050038], [108.849891, 23.050519], [108.849864, 23.051245], [108.84954, 23.051855], [108.84952, 23.05209], [108.850255, 23.054478], [108.850695, 23.055279], [108.851322, 23.056047], [108.851458, 23.056569], [108.851226, 23.057564], [108.850887, 23.058253], [108.850834, 23.058509], [108.85097, 23.059103], [108.850864, 23.05933], [108.850654, 23.059387], [108.848555, 23.059414], [108.848296, 23.059635], [108.847896, 23.060355], [108.847821, 23.060637], [108.848178, 23.061763], [108.848008, 23.062205], [108.84776, 23.062262], [108.847331, 23.061978], [108.846732, 23.061832], [108.845272, 23.062183], [108.8448, 23.062007], [108.844315, 23.061717], [108.843724, 23.061034], [108.843701, 23.060885], [108.84408, 23.060335], [108.843955, 23.059925], [108.842867, 23.059485], [108.842678, 23.059466], [108.841491, 23.059821], [108.840589, 23.059958], [108.840014, 23.060146], [108.839419, 23.060544], [108.838971, 23.060664], [108.838629, 23.060922], [108.837855, 23.061829], [108.837252, 23.06197], [108.836911, 23.062295], [108.836457, 23.062446], [108.836015, 23.062453], [108.83527, 23.061914], [108.834915, 23.061783], [108.834798, 23.061778], [108.834429, 23.062083], [108.834224, 23.062119], [108.832515, 23.061718], [108.831914, 23.061419], [108.831508, 23.061093], [108.831346, 23.060817], [108.831262, 23.060787], [108.830871, 23.060958], [108.8299, 23.061691], [108.829573, 23.061708], [108.829384, 23.061514], [108.829064, 23.06066], [108.828853, 23.060492], [108.828508, 23.06032], [108.826966, 23.059841], [108.826591, 23.060412], [108.826359, 23.060541], [108.825469, 23.060751], [108.825081, 23.060773], [108.824656, 23.06097], [108.824074, 23.060871], [108.823826, 23.061], [108.823355, 23.061054], [108.822845, 23.0618], [108.822669, 23.061939], [108.821037, 23.062255], [108.820647, 23.062687], [108.81993, 23.062307], [108.819735, 23.062108], [108.819334, 23.061879], [108.818869, 23.061836], [108.818259, 23.061957], [108.817652, 23.061365], [108.817331, 23.061433], [108.817094, 23.061676], [108.816722, 23.062339], [108.815757, 23.062021], [108.814324, 23.061736], [108.814121, 23.061968], [108.813687, 23.063416], [108.813668, 23.064051], [108.813803, 23.064497], [108.813749, 23.064697], [108.811666, 23.065804], [108.809996, 23.066433], [108.809555, 23.066497], [108.809399, 23.066518], [108.809316, 23.066585], [108.809442, 23.067297], [108.809549, 23.067496], [108.809755, 23.067767], [108.809934, 23.068002], [108.810407, 23.068368], [108.811501, 23.069711], [108.812175, 23.070404], [108.812322, 23.070814], [108.81171, 23.071806], [108.811148, 23.072306], [108.810632, 23.073001], [108.810439, 23.073119], [108.809907, 23.073225], [108.809537, 23.07338], [108.809425, 23.07335], [108.809124, 23.072972], [108.80889, 23.072907], [108.808467, 23.073391], [108.807877, 23.07425], [108.807194, 23.074894], [108.806585, 23.075882], [108.80605, 23.076299], [108.805919, 23.076515], [108.806227, 23.078097], [108.806188, 23.07903], [108.806602, 23.079741], [108.806727, 23.081119], [108.806289, 23.082003], [108.806423, 23.082146], [108.806634, 23.082196], [108.807143, 23.082173], [108.807346, 23.082715], [108.807353, 23.082941], [108.806754, 23.083733], [108.806394, 23.084709], [108.806347, 23.085252], [108.805798, 23.085983], [108.805694, 23.086245], [108.806154, 23.087293], [108.80593, 23.08772], [108.805924, 23.088576], [108.805832, 23.088986], [108.805581, 23.089531], [108.805722, 23.08994], [108.805641, 23.090381], [108.805122, 23.090738], [108.805294, 23.091598], [108.805878, 23.09201], [108.806721, 23.09277], [108.807157, 23.093321], [108.807431, 23.093853], [108.807863, 23.095614], [108.808803, 23.096331], [108.809027, 23.096607], [108.809207, 23.09719], [108.809144, 23.097667], [108.809346, 23.098061], [108.809181, 23.098221], [108.808981, 23.098222], [108.808556, 23.098424], [108.807497, 23.099098], [108.807125, 23.099748], [108.806805, 23.100082], [108.806133, 23.100179], [108.80582, 23.100295], [108.805437, 23.101033], [108.805621, 23.101811], [108.806575, 23.10386], [108.807046, 23.10461], [108.807053, 23.104844], [108.806942, 23.10514], [108.80658, 23.105573], [108.806579, 23.106351], [108.806396, 23.106658], [108.80571, 23.107284], [108.805723, 23.107746], [108.80548, 23.108608], [108.805201, 23.110262], [108.804162, 23.110353], [108.80354, 23.110523], [108.802401, 23.111224], [108.802256, 23.111473], [108.801764, 23.111554], [108.801529, 23.111674], [108.801334, 23.111904], [108.799822, 23.112529], [108.799221, 23.112423], [108.79874, 23.11269], [108.797846, 23.11231], [108.797475, 23.112276], [108.797071, 23.112117], [108.796498, 23.112099], [108.796167, 23.111909], [108.795917, 23.111656], [108.795468, 23.111638], [108.795178, 23.112044], [108.79492, 23.112268], [108.794601, 23.112405], [108.791178, 23.113304], [108.789876, 23.113326], [108.789681, 23.113508], [108.789712, 23.113861], [108.789645, 23.114152], [108.789256, 23.11473], [108.789289, 23.115399], [108.789503, 23.115663], [108.789617, 23.115984], [108.789331, 23.116914], [108.788839, 23.117243], [108.788115, 23.118093], [108.787989, 23.118633], [108.787487, 23.119528], [108.787491, 23.120011], [108.786433, 23.121718], [108.785803, 23.122458], [108.785571, 23.123004], [108.785223, 23.123389], [108.784552, 23.123823], [108.784309, 23.123856], [108.783921, 23.123733], [108.783512, 23.123761], [108.782632, 23.123905], [108.782167, 23.124094], [108.781926, 23.124116], [108.781528, 23.124067], [108.780758, 23.123723], [108.780528, 23.123687], [108.779721, 23.123842], [108.779292, 23.124057], [108.779106, 23.124021], [108.778486, 23.123604], [108.777798, 23.123265], [108.776344, 23.12308], [108.776248, 23.122998], [108.775844, 23.122086], [108.775155, 23.122105], [108.774963, 23.121961], [108.774899, 23.121557], [108.774976, 23.121385], [108.776083, 23.120269], [108.776367, 23.119837], [108.776826, 23.118408], [108.77749, 23.117793], [108.778061, 23.117141], [108.778025, 23.116778], [108.777322, 23.115469], [108.777275, 23.115064], [108.777371, 23.114135], [108.77735, 23.113518], [108.777472, 23.11317], [108.777884, 23.112747], [108.778074, 23.11244], [108.77816, 23.111978], [108.778467, 23.111566], [108.778482, 23.111307], [108.778292, 23.110504], [108.778331, 23.109497], [108.778218, 23.109228], [108.77806, 23.109073], [108.778081, 23.108886], [108.778176, 23.108725], [108.778623, 23.108541], [108.778807, 23.108338], [108.778907, 23.108093], [108.779054, 23.107392], [108.779231, 23.107059], [108.779215, 23.106037], [108.77935, 23.105279], [108.779567, 23.104847], [108.779624, 23.104219], [108.779974, 23.103589], [108.780237, 23.102462], [108.780663, 23.101376], [108.780377, 23.100531], [108.779928, 23.099802], [108.779954, 23.099506], [108.780418, 23.098315], [108.78028, 23.097579], [108.779781, 23.096658], [108.779789, 23.096087], [108.779061, 23.094462], [108.778778, 23.094069], [108.778459, 23.093837], [108.778379, 23.093599], [108.778266, 23.093475], [108.77794, 23.093342], [108.777668, 23.092808], [108.777332, 23.09295], [108.77677, 23.092813], [108.775935, 23.092775], [108.775666, 23.092834], [108.775409, 23.091937], [108.774777, 23.090264], [108.774692, 23.090192], [108.773348, 23.090329], [108.773018, 23.090522], [108.772615, 23.090602], [108.771889, 23.091151], [108.771706, 23.091489], [108.771319, 23.091895], [108.770266, 23.092595], [108.769511, 23.092937], [108.768536, 23.09311], [108.768276, 23.094509], [108.768029, 23.094443], [108.766728, 23.094481], [108.766028, 23.094744], [108.765454, 23.095063], [108.765236, 23.095303], [108.764646, 23.095015], [108.764219, 23.095027], [108.76413, 23.095178], [108.764058, 23.095178], [108.764154, 23.094467], [108.764026, 23.094468], [108.763875, 23.094593], [108.763385, 23.0954], [108.763625, 23.096068], [108.763595, 23.096716], [108.763515, 23.096816], [108.762888, 23.097042], [108.762336, 23.097652], [108.76207, 23.098109], [108.761838, 23.098318], [108.760843, 23.098816], [108.76043, 23.099171], [108.759651, 23.099678], [108.759456, 23.100026], [108.759244, 23.100214], [108.758711, 23.100512], [108.757897, 23.100433], [108.75813, 23.100998], [108.759004, 23.101881], [108.759426, 23.102968], [108.759178, 23.103831], [108.759158, 23.104168], [108.759333, 23.10451], [108.759335, 23.104764], [108.759203, 23.105195], [108.759102, 23.105315], [108.759373, 23.10657], [108.7599, 23.106463], [108.760152, 23.106571], [108.760643, 23.108099], [108.761268, 23.109129], [108.762422, 23.110011], [108.762581, 23.110217], [108.762339, 23.111127], [108.761955, 23.111715], [108.761934, 23.111943], [108.762383, 23.112859], [108.762342, 23.113622], [108.762433, 23.113788], [108.76316, 23.11435], [108.763634, 23.114939], [108.763793, 23.115281], [108.763865, 23.11609], [108.764052, 23.116468], [108.763875, 23.116905], [108.764482, 23.120061], [108.764548, 23.120813], [108.764374, 23.120976], [108.763443, 23.120922], [108.76316, 23.120718], [108.762953, 23.120667], [108.762557, 23.12072], [108.761784, 23.120511], [108.760946, 23.119912], [108.760803, 23.119912], [108.760549, 23.120076], [108.758822, 23.119974], [108.758407, 23.119806], [108.757216, 23.119923], [108.756158, 23.119891], [108.755999, 23.119847], [108.755822, 23.119488], [108.754832, 23.118846], [108.752877, 23.11837], [108.752012, 23.118513], [108.751258, 23.118833], [108.750518, 23.118793], [108.749213, 23.118497], [108.748489, 23.118155], [108.748356, 23.118009], [108.747625, 23.117211], [108.746677, 23.116774], [108.74586, 23.115704], [108.745207, 23.115215], [108.743836, 23.114574], [108.74359, 23.114582], [108.741949, 23.115326], [108.741743, 23.115356], [108.740571, 23.1147], [108.739302, 23.113809], [108.739127, 23.113809], [108.738365, 23.114055], [108.738024, 23.114241], [108.737796, 23.114617], [108.737677, 23.115044], [108.737393, 23.115406], [108.736522, 23.116131], [108.736189, 23.116213], [108.73587, 23.11606], [108.734655, 23.11497], [108.734448, 23.114883], [108.733745, 23.114217], [108.733705, 23.114092], [108.733538, 23.114078], [108.733618, 23.114262], [108.733595, 23.114423], [108.733804, 23.114827], [108.734032, 23.115002], [108.734128, 23.115178], [108.733812, 23.115327], [108.73375, 23.115665], [108.73379, 23.11582], [108.733966, 23.11598], [108.733745, 23.116312], [108.733585, 23.116063], [108.73363, 23.115614], [108.733574, 23.115541], [108.733162, 23.115624], [108.733088, 23.116801], [108.731904, 23.11674], [108.731896, 23.116888], [108.732473, 23.117694], [108.732475, 23.117981], [108.732427, 23.118106], [108.732245, 23.118224], [108.732007, 23.11821], [108.731793, 23.118535], [108.731492, 23.11858], [108.731469, 23.118779], [108.73166, 23.118793], [108.731922, 23.118674], [108.732105, 23.11871], [108.732516, 23.118326], [108.732963, 23.118721], [108.733019, 23.120088], [108.732797, 23.120354], [108.732147, 23.120688], [108.731845, 23.120733], [108.731407, 23.120559], [108.731295, 23.120376], [108.731115, 23.119332], [108.730517, 23.119063], [108.730252, 23.118535], [108.730057, 23.117499], [108.729696, 23.116971], [108.729241, 23.11673], [108.729019, 23.116724], [108.728575, 23.116932], [108.727789, 23.117164], [108.727104, 23.11724], [108.726352, 23.116332], [108.726157, 23.116201], [108.725427, 23.116425], [108.725032, 23.11686], [108.724873, 23.116883], [108.72457, 23.116789], [108.724443, 23.116914], [108.724788, 23.117369], [108.724734, 23.117626], [108.724301, 23.118364], [108.72337, 23.118243], [108.723651, 23.118764], [108.723652, 23.118933], [108.723549, 23.119029], [108.723167, 23.119038], [108.723369, 23.119485], [108.723369, 23.119633], [108.722965, 23.119907], [108.722837, 23.119907], [108.72271, 23.119798], [108.722818, 23.119224], [108.722392, 23.118461], [108.722307, 23.117917], [108.722354, 23.117784], [108.722505, 23.117747], [108.723135, 23.118031], [108.723286, 23.11803], [108.723388, 23.117927], [108.723795, 23.116631], [108.723849, 23.116248], [108.723793, 23.116182], [108.723523, 23.116294], [108.723125, 23.116862], [108.722983, 23.116914], [108.722799, 23.116826], [108.721936, 23.116073], [108.721372, 23.11598], [108.721173, 23.116032], [108.721101, 23.116113], [108.720232, 23.117081], [108.720193, 23.117206], [108.7199, 23.11731], [108.718495, 23.11753], [108.718252, 23.118031], [108.717336, 23.119182], [108.717313, 23.119454], [108.717569, 23.119733], [108.717851, 23.120504], [108.717934, 23.12115], [108.716699, 23.120582], [108.716542, 23.120899], [108.716622, 23.121061], [108.717052, 23.121323], [108.717211, 23.122757], [108.717013, 23.122736], [108.716302, 23.122254], [108.715992, 23.122159], [108.714481, 23.122159], [108.714253, 23.122237], [108.712809, 23.122248], [108.712493, 23.122481], [108.71231, 23.122451], [108.710782, 23.123583], [108.710687, 23.12437], [108.710256, 23.124958], [108.70999, 23.125051], [108.709725, 23.125376], [108.70798, 23.126417], [108.707715, 23.126649], [108.707, 23.126976], [108.706071, 23.127782], [108.705922, 23.128168], [108.705658, 23.127969], [108.704522, 23.127465], [108.704121, 23.127359], [108.703055, 23.127487], [108.703369, 23.127008], [108.703366, 23.126345], [108.703114, 23.125868], [108.703044, 23.125421], [108.703653, 23.123985], [108.703518, 23.123616], [108.702782, 23.123187], [108.702414, 23.12285], [108.702429, 23.122572], [108.702711, 23.122124], [108.703092, 23.121813], [108.703039, 23.121197], [108.703222, 23.120996], [108.702033, 23.12003], [108.701982, 23.119907], [108.701882, 23.119907], [108.701749, 23.120047], [108.7013, 23.120157], [108.701246, 23.119448], [108.701112, 23.119248], [108.700731, 23.119049], [108.700447, 23.11905], [108.700566, 23.119405], [108.700537, 23.120191], [108.699985, 23.119838], [108.699582, 23.119239], [108.699578, 23.11853], [108.699377, 23.118223], [108.699358, 23.117807], [108.69887, 23.116915], [108.698234, 23.116501], [108.698034, 23.11644], [108.697734, 23.11658], [108.697536, 23.116766], [108.697301, 23.116675], [108.697284, 23.116459], [108.697599, 23.116119], [108.697933, 23.116225], [108.698513, 23.115636], [108.698361, 23.115329], [108.697793, 23.115069], [108.697691, 23.114576], [108.697856, 23.114236], [108.697755, 23.114113], [108.697638, 23.114114], [108.697373, 23.114393], [108.697157, 23.114455], [108.696873, 23.114333], [108.696789, 23.114118], [108.696524, 23.114196], [108.696296, 23.114142], [108.696114, 23.114003], [108.696103, 23.113652], [108.695902, 23.113487], [108.6959, 23.113154], [108.69637, 23.113152], [108.696621, 23.113372], [108.69764, 23.1131], [108.697338, 23.112805], [108.697078, 23.112806], [108.696654, 23.111837], [108.696581, 23.11143], [108.695578, 23.110805], [108.695388, 23.110797], [108.695353, 23.111713], [108.695213, 23.111649], [108.694843, 23.111863], [108.694384, 23.111967], [108.693422, 23.111139], [108.692473, 23.111291], [108.692121, 23.110996], [108.692351, 23.110866], [108.692409, 23.110579], [108.692538, 23.110421], [108.692616, 23.110004], [108.692605, 23.109884], [108.692012, 23.109323]]]}, "properties": {"display_name": "陈平镇, 宾阳县, 南宁市, 广西壮族自治区, 中国", "type": "administrative", "osm_type": "relation", "osm_id": 11745193, "class": null, "keyword": "subdistrict"}}, {"type": "Feature", "geometry": {"type": "Polygon", "coordinates": [[[108.069652, 22.852332], [108.070894, 22.847775], [108.071225, 22.843488], [108.0727, 22.837732], [108.073548, 22.8358], [108.074503, 22.834195], [108.075538, 22.833459], [108.076859, 22.83325], [108.079714, 22.833793], [108.083927, 22.835274], [108.086667, 22.835693], [108.088755, 22.835524], [108.089947, 22.834828], [108.090756, 22.833839], [108.092585, 22.831104], [108.093536, 22.830068], [108.095168, 22.829198], [108.096932, 22.828741], [108.098608, 22.828799], [108.100554, 22.829519], [108.10233, 22.8305], [108.106106, 22.833229], [108.108652, 22.834902], [108.111178, 22.83692], [108.113381, 22.838727], [108.116778, 22.841134], [108.118795, 22.842109], [108.120529, 22.842493], [108.122213, 22.842588], [108.123897, 22.841933], [108.125016, 22.840893], [108.125474, 22.839544], [108.125287, 22.838258], [108.122898, 22.832281], [108.117621, 22.824665], [108.114507, 22.821314], [108.110124, 22.817713], [108.108895, 22.816358], [108.107602, 22.814379], [108.10684, 22.812689], [108.106209, 22.810636], [108.105786, 22.807765], [108.105731, 22.805711], [108.10624, 22.803692], [108.107322, 22.802017], [108.108672, 22.800649], [108.117895, 22.793068], [108.126011, 22.783555], [108.13701, 22.774998], [108.14628, 22.768985], [108.155101, 22.76302], [108.159049, 22.761268], [108.163679, 22.759935], [108.166424, 22.759612], [108.169431, 22.759779], [108.171334, 22.760437], [108.173387, 22.761535], [108.176926, 22.764063], [108.178335, 22.765126], [108.180417, 22.76612], [108.183679, 22.767096], [108.186941, 22.767879], [108.189031, 22.768815], [108.191503, 22.770286], [108.194465, 22.772792], [108.197073, 22.775503], [108.199126, 22.778341], [108.201109, 22.782838], [108.201569, 22.784672], [108.201978, 22.789285], [108.201578, 22.793273], [108.200393, 22.79733], [108.195755, 22.80602], [108.190297, 22.813639], [108.189154, 22.815599], [108.188182, 22.818237], [108.188338, 22.819811], [108.188879, 22.820955], [108.19047, 22.82182], [108.191998, 22.822168], [108.195178, 22.822159], [108.198657, 22.821857], [108.200753, 22.822034], [108.227955, 22.828283], [108.233412, 22.829395], [108.232622, 22.832089], [108.231636, 22.832128], [108.231522, 22.83305], [108.230494, 22.833102], [108.230365, 22.833379], [108.228037, 22.833274], [108.227894, 22.834011], [108.227737, 22.833984], [108.227651, 22.834406], [108.228523, 22.834735], [108.228251, 22.835511], [108.227352, 22.83538], [108.226952, 22.835669], [108.227466, 22.836038], [108.226937, 22.837631], [108.227323, 22.837828], [108.227009, 22.839342], [108.226327, 22.83909], [108.22197, 22.836672], [108.220672, 22.836204], [108.220112, 22.836002], [108.217607, 22.835853], [108.217275, 22.835853], [108.217089, 22.835853], [108.210284, 22.835737], [108.210289, 22.839076], [108.210294, 22.843257], [108.210278, 22.844038], [108.210318, 22.844552], [108.21034, 22.846137], [108.210659, 22.848512], [108.211628, 22.851118], [108.213325, 22.8535], [108.214369, 22.854618], [108.215587, 22.855808], [108.211709, 22.860276], [108.210397, 22.861221], [108.209427, 22.860052], [108.205003, 22.853128], [108.204033, 22.84948], [108.202417, 22.845757], [108.201205, 22.844417], [108.199266, 22.843821], [108.195711, 22.843225], [108.187874, 22.843523], [108.183672, 22.843523], [108.174461, 22.842853], [108.170906, 22.843002], [108.166139, 22.844789], [108.164766, 22.844938], [108.170583, 22.853351], [108.166139, 22.862434], [108.148445, 22.861318], [108.142223, 22.862286], [108.147637, 22.852905], [108.143839, 22.853277], [108.119439, 22.855957], [108.118388, 22.867423], [108.113621, 22.869879], [108.108985, 22.876666], [108.107064, 22.876449], [108.101893, 22.867963], [108.09753, 22.86558], [108.093329, 22.866102], [108.091713, 22.865283], [108.088239, 22.866176], [108.084603, 22.863645], [108.085088, 22.860592], [108.083472, 22.856721], [108.07927, 22.8562], [108.078785, 22.85754], [108.076927, 22.85754], [108.073049, 22.855455], [108.073453, 22.854264], [108.069652, 22.852332]]]}, "properties": {"display_name": "石埠街道, 西乡塘区, 南宁市, 广西壮族自治区, 中国", "type": "administrative", "osm_type": "relation", "osm_id": 7544568, "class": null, "keyword": "subdistrict"}}, {"type": "Feature", "geometry": {"type": "Polygon", "coordinates": [[[108.315314, 22.707279], [108.31562, 22.707007], [108.316389, 22.705124], [108.317147, 22.70491], [108.317553, 22.704972], [108.317861, 22.704936], [108.318462, 22.704006], [108.319116, 22.70358], [108.319727, 22.703016], [108.320684, 22.702474], [108.320838, 22.702256], [108.321064, 22.702153], [108.320939, 22.701442], [108.320985, 22.700958], [108.321104, 22.700676], [108.321663, 22.700457], [108.322905, 22.700264], [108.323842, 22.699695], [108.323999, 22.699433], [108.323755, 22.699112], [108.323518, 22.698588], [108.323651, 22.698295], [108.323874, 22.698195], [108.325174, 22.698062], [108.326228, 22.698305], [108.326639, 22.698828], [108.327037, 22.698942], [108.327528, 22.698862], [108.328515, 22.6984], [108.328708, 22.697864], [108.328823, 22.697665], [108.329142, 22.697375], [108.329333, 22.696942], [108.329303, 22.696605], [108.328792, 22.696011], [108.328646, 22.695729], [108.32865, 22.695428], [108.328812, 22.695225], [108.329936, 22.695028], [108.330545, 22.694452], [108.330527, 22.694143], [108.330171, 22.693489], [108.330003, 22.69285], [108.33025, 22.692619], [108.33078, 22.69263], [108.33135, 22.692788], [108.3317, 22.692716], [108.331793, 22.692594], [108.332109, 22.69206], [108.332201, 22.691342], [108.332692, 22.690912], [108.333272, 22.690796], [108.333755, 22.690827], [108.334654, 22.690619], [108.334906, 22.690444], [108.335108, 22.690034], [108.335317, 22.6898], [108.335564, 22.689637], [108.334725, 22.688944], [108.334519, 22.688627], [108.334018, 22.688307], [108.333877, 22.688311], [108.333573, 22.688074], [108.333345, 22.68765], [108.333315, 22.687531], [108.333647, 22.686955], [108.334322, 22.686787], [108.334989, 22.686793], [108.335288, 22.686713], [108.335499, 22.686443], [108.33571, 22.685264], [108.336323, 22.684215], [108.336403, 22.683763], [108.336201, 22.683442], [108.335837, 22.683193], [108.335653, 22.682939], [108.335596, 22.682638], [108.335416, 22.682424], [108.335433, 22.68219], [108.335778, 22.681888], [108.336645, 22.68139], [108.336798, 22.681037], [108.336916, 22.680358], [108.336919, 22.679925], [108.336786, 22.679549], [108.336819, 22.678942], [108.337117, 22.67862], [108.337591, 22.677781], [108.337736, 22.677658], [108.338476, 22.677796], [108.339291, 22.677556], [108.33962, 22.677246], [108.340129, 22.676586], [108.341195, 22.677314], [108.341943, 22.677621], [108.343036, 22.67729], [108.343586, 22.676824], [108.343637, 22.676606], [108.343418, 22.676134], [108.34292, 22.675378], [108.342944, 22.674505], [108.34281, 22.674025], [108.342458, 22.673542], [108.342743, 22.672859], [108.342947, 22.672553], [108.343266, 22.671723], [108.343239, 22.671203], [108.342891, 22.670222], [108.343101, 22.669203], [108.343011, 22.668639], [108.343087, 22.668145], [108.343381, 22.667322], [108.343856, 22.666979], [108.344133, 22.666627], [108.344751, 22.666089], [108.345939, 22.66527], [108.34699, 22.665221], [108.347559, 22.664901], [108.348313, 22.664992], [108.348863, 22.665202], [108.349101, 22.665294], [108.350035, 22.665447], [108.350364, 22.666224], [108.350783, 22.666325], [108.351871, 22.665716], [108.352272, 22.665209], [108.352539, 22.665038], [108.352716, 22.665185], [108.353062, 22.66513], [108.353296, 22.664958], [108.353714, 22.664281], [108.353957, 22.664226], [108.354468, 22.664465], [108.354844, 22.664682], [108.355021, 22.664985], [108.35513, 22.664985], [108.355396, 22.664424], [108.355243, 22.663461], [108.355176, 22.663399], [108.355604, 22.663405], [108.356225, 22.663645], [108.357207, 22.664351], [108.357549, 22.663782], [108.357412, 22.66288], [108.358421, 22.662707], [108.359408, 22.662246], [108.359659, 22.662245], [108.361191, 22.661099], [108.361676, 22.660623], [108.362128, 22.660599], [108.362153, 22.660451], [108.362898, 22.660053], [108.364082, 22.659809], [108.364428, 22.659303], [108.36461, 22.658797], [108.364803, 22.658634], [108.365104, 22.658601], [108.365247, 22.658454], [108.365279, 22.658189], [108.365371, 22.65822], [108.36528, 22.658601], [108.365465, 22.658826], [108.365707, 22.658406], [108.365849, 22.658421], [108.36596, 22.658739], [108.366169, 22.658825], [108.36617, 22.658996], [108.366011, 22.659082], [108.365675, 22.658974], [108.365418, 22.659079], [108.365533, 22.659203], [108.365834, 22.659082], [108.365804, 22.659296], [108.36589, 22.659535], [108.365759, 22.659681], [108.36544, 22.659643], [108.364745, 22.660562], [108.364743, 22.66072], [108.364819, 22.660787], [108.365089, 22.660833], [108.364927, 22.661339], [108.364651, 22.661659], [108.36384, 22.662096], [108.363924, 22.662166], [108.36328, 22.662887], [108.363715, 22.663835], [108.364189, 22.664269], [108.364476, 22.664812], [108.365316, 22.664352], [108.367006, 22.662948], [108.366769, 22.662109], [108.367151, 22.661159], [108.367536, 22.66091], [108.36782, 22.660551], [108.367769, 22.660178], [108.368337, 22.659508], [108.368609, 22.658528], [108.368996, 22.658791], [108.369583, 22.659412], [108.369786, 22.659769], [108.370876, 22.66042], [108.371782, 22.660651], [108.372116, 22.660355], [108.372502, 22.6604], [108.372553, 22.660695], [108.371784, 22.66146], [108.371852, 22.66188], [108.372021, 22.662283], [108.372439, 22.66194], [108.373394, 22.661891], [108.373746, 22.661999], [108.374149, 22.662294], [108.374451, 22.662418], [108.374584, 22.662215], [108.374952, 22.661966], [108.375103, 22.661763], [108.374984, 22.661312], [108.375303, 22.66142], [108.375453, 22.661265], [108.375486, 22.660922], [108.375218, 22.660876], [108.375283, 22.660254], [108.375517, 22.660036], [108.375785, 22.660051], [108.375804, 22.660719], [108.375688, 22.661388], [108.376581, 22.663159], [108.37628, 22.663284], [108.375913, 22.663798], [108.375494, 22.663706], [108.374993, 22.664547], [108.375631, 22.664872], [108.375935, 22.665727], [108.376415, 22.666072], [108.376978, 22.666137], [108.377281, 22.665309], [108.377609, 22.664938], [108.379039, 22.664717], [108.379602, 22.664519], [108.379882, 22.664192], [108.380867, 22.664124], [108.381477, 22.663883], [108.38211, 22.663882], [108.382463, 22.664033], [108.382413, 22.664114], [108.383076, 22.664103], [108.383734, 22.664224], [108.383733, 22.663845], [108.383876, 22.663531], [108.384211, 22.66317], [108.385011, 22.663283], [108.385452, 22.663228], [108.385315, 22.662926], [108.385486, 22.66216], [108.3858, 22.662148], [108.385924, 22.663028], [108.386514, 22.66282], [108.387117, 22.663163], [108.387314, 22.663431], [108.387191, 22.663664], [108.387114, 22.664327], [108.38761, 22.664643], [108.388175, 22.664868], [108.388447, 22.664683], [108.388784, 22.663791], [108.388981, 22.663583], [108.3892, 22.66348], [108.389424, 22.663517], [108.390203, 22.664097], [108.390615, 22.663522], [108.391615, 22.663562], [108.392023, 22.663645], [108.392317, 22.66387], [108.39228, 22.66415], [108.392547, 22.665021], [108.393588, 22.664456], [108.393811, 22.664433], [108.3949, 22.664813], [108.395489, 22.664057], [108.395724, 22.663957], [108.395822, 22.664323], [108.395812, 22.664571], [108.395855, 22.664907], [108.395801, 22.665214], [108.395941, 22.666016], [108.395844, 22.666402], [108.395576, 22.66668], [108.395275, 22.66666], [108.395168, 22.666858], [108.3952, 22.667085], [108.39549, 22.667036], [108.395747, 22.666897], [108.396327, 22.666738], [108.396713, 22.666906], [108.39696, 22.667164], [108.396981, 22.667322], [108.396842, 22.667548], [108.395909, 22.667618], [108.395598, 22.667964], [108.395018, 22.668182], [108.394697, 22.668588], [108.394278, 22.668796], [108.393528, 22.668767], [108.39341, 22.668658], [108.393238, 22.668658], [108.393163, 22.668985], [108.393485, 22.669213], [108.393904, 22.669351], [108.394075, 22.669509], [108.394022, 22.669716], [108.39416, 22.669815], [108.39445, 22.669588], [108.394814, 22.66939], [108.394911, 22.669192], [108.395222, 22.669033], [108.395501, 22.668825], [108.395801, 22.668766], [108.395962, 22.668954], [108.396048, 22.669192], [108.395887, 22.670053], [108.395823, 22.671451], [108.396177, 22.671787], [108.397068, 22.672272], [108.396683, 22.672832], [108.396517, 22.673408], [108.396392, 22.673688], [108.395426, 22.673985], [108.39562, 22.674361], [108.395834, 22.674629], [108.395888, 22.674955], [108.39622, 22.675073], [108.39636, 22.675262], [108.396725, 22.675914], [108.396305, 22.676835], [108.396274, 22.677073], [108.396895, 22.677251], [108.398065, 22.677409], [108.398344, 22.678141], [108.399052, 22.678349], [108.399556, 22.678369], [108.399759, 22.678505], [108.39977, 22.678604], [108.400253, 22.678812], [108.4008, 22.678278], [108.40094, 22.678377], [108.40124, 22.678228], [108.401422, 22.67807], [108.401304, 22.677971], [108.401025, 22.67804], [108.401015, 22.677931], [108.401218, 22.677872], [108.401519, 22.677862], [108.401755, 22.67804], [108.401991, 22.677872], [108.40212, 22.67808], [108.402152, 22.678347], [108.402066, 22.678535], [108.402238, 22.678832], [108.402291, 22.67901], [108.402527, 22.679119], [108.403248, 22.678921], [108.403441, 22.679396], [108.403548, 22.679466], [108.403859, 22.679327], [108.403977, 22.679396], [108.403988, 22.679485], [108.403966, 22.679614], [108.404084, 22.679812], [108.404964, 22.680812], [108.404792, 22.680911], [108.404792, 22.680989], [108.404685, 22.681099], [108.40475, 22.681307], [108.404664, 22.68186], [108.404814, 22.682058], [108.405179, 22.682266], [108.405404, 22.682236], [108.405898, 22.682345], [108.406145, 22.682641], [108.406081, 22.68269], [108.405684, 22.682809], [108.405866, 22.682977], [108.40563, 22.682958], [108.405641, 22.683096], [108.405029, 22.683067], [108.405104, 22.682888], [108.405051, 22.682799], [108.404686, 22.682958], [108.404611, 22.683284], [108.40445, 22.683542], [108.404471, 22.683878], [108.404076, 22.684461], [108.404333, 22.684788], [108.404612, 22.684956], [108.404913, 22.685213], [108.405159, 22.685223], [108.404923, 22.685569], [108.405009, 22.685886], [108.404795, 22.686064], [108.404859, 22.686311], [108.404246, 22.686351], [108.404151, 22.686153], [108.40429, 22.685846], [108.404096, 22.685965], [108.403753, 22.686113], [108.403774, 22.686281], [108.404087, 22.686569], [108.40401, 22.686727], [108.402927, 22.687242], [108.402745, 22.687598], [108.402391, 22.687726], [108.402316, 22.688013], [108.401661, 22.687885], [108.401082, 22.687984], [108.401254, 22.688528], [108.401726, 22.688518], [108.401651, 22.688756], [108.401372, 22.688756], [108.401146, 22.688914], [108.401104, 22.68918], [108.401264, 22.689418], [108.40105, 22.690101], [108.401061, 22.690348], [108.401704, 22.691219], [108.40179, 22.691644], [108.401908, 22.691832], [108.401994, 22.692485], [108.402283, 22.692574], [108.402777, 22.693247], [108.402573, 22.693405], [108.402391, 22.693365], [108.40224, 22.693682], [108.40165, 22.693603], [108.401114, 22.693692], [108.400749, 22.69388], [108.40017, 22.69391], [108.399923, 22.693673], [108.399859, 22.69385], [108.399655, 22.6939], [108.39959, 22.694514], [108.399188, 22.695131], [108.399225, 22.695547], [108.398812, 22.695576], [108.398308, 22.695557], [108.398378, 22.695804], [108.398233, 22.696007], [108.39849, 22.696205], [108.398329, 22.696245], [108.398329, 22.696433], [108.398222, 22.696621], [108.39782, 22.696502], [108.397686, 22.696641], [108.397729, 22.69721], [108.397986, 22.697849], [108.397745, 22.698022], [108.397627, 22.69819], [108.396994, 22.69816], [108.396602, 22.698383], [108.39627, 22.698286], [108.39612, 22.698405], [108.396099, 22.698801], [108.39612, 22.698998], [108.396302, 22.699187], [108.396753, 22.699394], [108.396732, 22.699474], [108.396667, 22.699503], [108.396571, 22.699632], [108.396538, 22.699869], [108.39642, 22.699859], [108.396313, 22.699434], [108.396238, 22.699384], [108.396174, 22.699474], [108.396109, 22.699563], [108.396152, 22.699602], [108.396195, 22.699691], [108.396238, 22.69983], [108.396388, 22.699908], [108.396345, 22.699977], [108.396345, 22.700077], [108.39627, 22.700205], [108.39597, 22.700097], [108.395531, 22.699721], [108.395477, 22.699444], [108.395349, 22.699236], [108.395252, 22.699216], [108.395231, 22.699345], [108.395273, 22.699414], [108.395306, 22.699543], [108.395198, 22.699563], [108.395037, 22.699394], [108.394973, 22.699404], [108.394737, 22.6998], [108.394737, 22.700275], [108.39464, 22.700315], [108.394651, 22.700592], [108.394984, 22.700681], [108.395166, 22.700879], [108.395594, 22.700988], [108.395659, 22.701047], [108.395584, 22.701195], [108.395669, 22.701343], [108.395799, 22.701491], [108.395617, 22.701778], [108.395724, 22.701946], [108.396068, 22.701936], [108.396057, 22.702282], [108.396143, 22.702372], [108.39611, 22.702441], [108.39611, 22.70251], [108.395928, 22.702738], [108.395885, 22.702946], [108.395778, 22.703134], [108.395456, 22.70349], [108.395306, 22.703549], [108.394985, 22.703777], [108.394887, 22.703787], [108.394706, 22.704341], [108.394609, 22.70444], [108.394266, 22.704678], [108.393837, 22.704905], [108.393797, 22.70493], [108.393537, 22.705093], [108.393234, 22.70557], [108.393217, 22.705597], [108.392895, 22.705488], [108.392541, 22.705894], [108.392552, 22.706122], [108.392423, 22.706221], [108.392412, 22.706449], [108.392133, 22.706706], [108.392187, 22.706854], [108.392316, 22.706894], [108.392251, 22.707013], [108.391951, 22.707013], [108.391726, 22.707181], [108.39149, 22.707418], [108.39075, 22.707142], [108.390868, 22.706935], [108.390546, 22.706549], [108.390246, 22.70638], [108.390353, 22.706618], [108.390224, 22.706756], [108.389827, 22.706578], [108.389689, 22.706746], [108.389335, 22.706965], [108.389077, 22.707252], [108.388809, 22.7075], [108.38853, 22.707806], [108.388541, 22.707955], [108.388509, 22.708133], [108.387642, 22.708351], [108.387449, 22.708361], [108.387524, 22.70848], [108.387631, 22.708579], [108.387749, 22.708747], [108.387749, 22.708915], [108.387481, 22.709054], [108.387449, 22.709252], [108.387342, 22.7094], [108.387191, 22.70938], [108.387031, 22.70943], [108.385723, 22.710549], [108.38568, 22.710688], [108.38554, 22.710688], [108.385229, 22.710331], [108.385133, 22.710341], [108.385133, 22.71051], [108.3848, 22.711014], [108.384554, 22.711184], [108.383782, 22.711441], [108.383225, 22.711372], [108.382576, 22.711834], [108.382238, 22.711427], [108.382324, 22.711293], [108.38212, 22.711056], [108.382057, 22.711156], [108.38084, 22.710746], [108.380606, 22.710309], [108.380471, 22.710151], [108.380235, 22.710042], [108.38001, 22.710151], [108.379866, 22.710186], [108.379609, 22.710166], [108.379201, 22.709488], [108.378837, 22.709207], [108.378494, 22.709242], [108.378105, 22.709442], [108.377854, 22.709882], [108.377355, 22.710526], [108.376038, 22.710359], [108.375819, 22.710379], [108.37486, 22.710741], [108.37457, 22.710851], [108.374409, 22.710692], [108.374259, 22.710806], [108.374145, 22.710745], [108.374104, 22.710722], [108.373766, 22.710906], [108.373198, 22.711129], [108.372747, 22.710878], [108.372533, 22.711318], [108.372565, 22.711689], [108.372688, 22.712129], [108.372051, 22.711976], [108.371558, 22.71173], [108.37166, 22.711324], [108.371537, 22.711275], [108.371521, 22.711171], [108.37129, 22.711235], [108.370931, 22.711439], [108.370508, 22.711726], [108.369641, 22.711116], [108.369598, 22.710919], [108.369775, 22.710576], [108.369373, 22.709662], [108.369009, 22.709455], [108.368758, 22.709093], [108.368682, 22.708826], [108.368495, 22.709014], [108.367938, 22.709154], [108.367231, 22.709229], [108.367081, 22.70909], [108.366373, 22.709289], [108.366063, 22.710002], [108.365131, 22.709809], [108.364873, 22.709977], [108.364558, 22.710037], [108.364108, 22.710012], [108.363711, 22.709934], [108.363321, 22.709558], [108.362448, 22.709778], [108.362131, 22.709531], [108.3612, 22.709502], [108.360369, 22.709583], [108.359968, 22.709306], [108.359392, 22.709262], [108.358776, 22.70963], [108.358513, 22.710911], [108.357501, 22.710834], [108.357404, 22.710656], [108.356232, 22.710519], [108.356478, 22.709757], [108.356157, 22.70899], [108.356243, 22.708026], [108.355162, 22.707888], [108.354272, 22.707999], [108.353485, 22.708159], [108.353335, 22.708584], [108.353436, 22.70949], [108.354138, 22.709908], [108.35439, 22.710462], [108.353261, 22.710873], [108.352762, 22.710345], [108.352355, 22.709525], [108.351782, 22.70992], [108.351521, 22.709857], [108.351376, 22.710154], [108.351022, 22.710586], [108.350685, 22.710952], [108.350358, 22.711089], [108.350465, 22.711188], [108.350176, 22.711368], [108.350604, 22.711951], [108.351857, 22.713467], [108.352246, 22.713828], [108.35119, 22.715267], [108.351324, 22.715502], [108.35171, 22.71561], [108.35166, 22.715722], [108.351591, 22.715877], [108.351629, 22.716071], [108.351641, 22.71613], [108.351688, 22.716372], [108.351613, 22.716924], [108.351248, 22.716949], [108.350735, 22.716985], [108.350467, 22.717194], [108.350368, 22.717794], [108.350344, 22.71794], [108.349894, 22.718579], [108.349626, 22.719321], [108.350391, 22.720219], [108.350638, 22.720508], [108.351243, 22.721205], [108.350788, 22.721268], [108.350022, 22.721375], [108.349679, 22.722416], [108.349573, 22.723112], [108.349567, 22.723153], [108.349368, 22.723647], [108.34923, 22.723988], [108.349369, 22.724325], [108.349905, 22.72469], [108.349819, 22.725254], [108.349814, 22.725328], [108.349764, 22.726115], [108.3491, 22.726107], [108.349143, 22.726353], [108.349442, 22.726433], [108.349422, 22.726789], [108.34985, 22.727283], [108.349946, 22.727065], [108.350321, 22.727311], [108.351102, 22.728071], [108.350964, 22.728241], [108.35016, 22.728736], [108.350471, 22.728933], [108.35071, 22.729191], [108.35092, 22.72918], [108.351123, 22.729571], [108.351101, 22.73017], [108.351439, 22.730742], [108.351599, 22.730718], [108.351695, 22.731178], [108.351267, 22.731336], [108.351396, 22.731697], [108.351246, 22.731965], [108.351154, 22.732346], [108.352257, 22.732433], [108.352187, 22.73277], [108.351379, 22.732821], [108.351496, 22.733092], [108.352117, 22.733116], [108.352107, 22.733344], [108.351587, 22.733434], [108.351599, 22.733818], [108.352316, 22.733852], [108.352375, 22.734528], [108.351385, 22.734525], [108.351444, 22.734773], [108.351251, 22.734887], [108.351294, 22.735035], [108.351637, 22.735223], [108.351535, 22.735559], [108.3513, 22.735851], [108.350994, 22.735965], [108.35123, 22.736242], [108.351021, 22.736613], [108.350946, 22.736955], [108.351417, 22.736677], [108.351492, 22.736331], [108.351594, 22.736122], [108.351803, 22.736315], [108.351739, 22.736721], [108.351778, 22.73702], [108.351735, 22.737391], [108.352313, 22.737459], [108.352216, 22.737929], [108.351493, 22.737926], [108.351016, 22.738367], [108.350454, 22.738561], [108.349962, 22.739075], [108.349497, 22.739221], [108.349159, 22.739485], [108.348881, 22.739856], [108.347649, 22.739912], [108.34773, 22.740303], [108.34763, 22.740699], [108.346757, 22.740394], [108.345408, 22.739793], [108.340731, 22.737201], [108.336718, 22.734944], [108.331954, 22.732609], [108.329283, 22.730957], [108.325174, 22.729452], [108.321569, 22.727711], [108.318482, 22.726003], [108.319025, 22.725077], [108.319319, 22.72435], [108.319067, 22.72411], [108.318324, 22.723027], [108.317677, 22.722592], [108.317604, 22.722405], [108.317643, 22.720838], [108.318194, 22.718588], [108.318581, 22.71742], [108.317997, 22.715467], [108.317154, 22.712643], [108.317836, 22.711827], [108.317596, 22.711268], [108.316033, 22.708983], [108.31558, 22.708673], [108.315314, 22.707279]]]}, "properties": {"display_name": "玉洞街道, 良庆区, 南宁市, 广西壮族自治区, 中国", "type": "administrative", "osm_type": "relation", "osm_id": 11731255, "class": null, "keyword": "subdistrict"}}, {"type": "Feature", "geometry": {"type": "Polygon", "coordinates": [[[108.309021, 22.746894], [108.309218, 22.746588], [108.30991, 22.74623], [108.310574, 22.745058], [108.310984, 22.744752], [108.311134, 22.744529], [108.310492, 22.744463], [108.309969, 22.744246], [108.309686, 22.743873], [108.309495, 22.742473], [108.309558, 22.742164], [108.310417, 22.741583], [108.310737, 22.741288], [108.310758, 22.741162], [108.310323, 22.74015], [108.310205, 22.738675], [108.310329, 22.738647], [108.310426, 22.738214], [108.31061, 22.73817], [108.310814, 22.737773], [108.310776, 22.737587], [108.310416, 22.737127], [108.31052, 22.736413], [108.310383, 22.735953], [108.310552, 22.735032], [108.31032, 22.734771], [108.309849, 22.734573], [108.309733, 22.734379], [108.309962, 22.733669], [108.310543, 22.732953], [108.311082, 22.732904], [108.311496, 22.732535], [108.311695, 22.7318], [108.312574, 22.731259], [108.313197, 22.730591], [108.313496, 22.730567], [108.313916, 22.730792], [108.314861, 22.730195], [108.315192, 22.730159], [108.31573, 22.72984], [108.3165, 22.729684], [108.316523, 22.728776], [108.317211, 22.728064], [108.317608, 22.727797], [108.317881, 22.727325], [108.317974, 22.726773], [108.31826, 22.726522], [108.318482, 22.726003], [108.321569, 22.727711], [108.325174, 22.729452], [108.329283, 22.730957], [108.331954, 22.732609], [108.336718, 22.734944], [108.340731, 22.737201], [108.345408, 22.739793], [108.346757, 22.740394], [108.34763, 22.740699], [108.34754, 22.741054], [108.346983, 22.741015], [108.346962, 22.741272], [108.346426, 22.741075], [108.346384, 22.741214], [108.346233, 22.741333], [108.346362, 22.741709], [108.345676, 22.744084], [108.345356, 22.744223], [108.345098, 22.744658], [108.345034, 22.744955], [108.345077, 22.74543], [108.345248, 22.74543], [108.345484, 22.746043], [108.345441, 22.746438], [108.345057, 22.747002], [108.34497, 22.747132], [108.347692, 22.747842], [108.348463, 22.747939], [108.348956, 22.747247], [108.34947, 22.747285], [108.349749, 22.747918], [108.349984, 22.748214], [108.35082, 22.747817], [108.351355, 22.747657], [108.351848, 22.747578], [108.352233, 22.747736], [108.352576, 22.748269], [108.352962, 22.748485], [108.353626, 22.748663], [108.354054, 22.748682], [108.354976, 22.748581], [108.355382, 22.748996], [108.355575, 22.749095], [108.355961, 22.749074], [108.356432, 22.748837], [108.356689, 22.748658], [108.356987, 22.748815], [108.357502, 22.748794], [108.357887, 22.748991], [108.358337, 22.749367], [108.358701, 22.749465], [108.360479, 22.749027], [108.360843, 22.749007], [108.360886, 22.749343], [108.361079, 22.749699], [108.361186, 22.750015], [108.361572, 22.750014], [108.361894, 22.750272], [108.362408, 22.75035], [108.362879, 22.750824], [108.363369, 22.751159], [108.363411, 22.751475], [108.36294, 22.751358], [108.362362, 22.751616], [108.362726, 22.752149], [108.362812, 22.752624], [108.363112, 22.753019], [108.363454, 22.754264], [108.36399, 22.754621], [108.364525, 22.754738], [108.365212, 22.755054], [108.366004, 22.755665], [108.366754, 22.755684], [108.368148, 22.7559], [108.368318, 22.75584], [108.368361, 22.755979], [108.368576, 22.756019], [108.368576, 22.756197], [108.368297, 22.756395], [108.367868, 22.756929], [108.367782, 22.757193], [108.36761, 22.757332], [108.367353, 22.75745], [108.367032, 22.757451], [108.366667, 22.757709], [108.366667, 22.758164], [108.366603, 22.758401], [108.366411, 22.758619], [108.366089, 22.758955], [108.365896, 22.759292], [108.36581, 22.760043], [108.365639, 22.760123], [108.365103, 22.759985], [108.364911, 22.760105], [108.364675, 22.760105], [108.364503, 22.759966], [108.364332, 22.759986], [108.364118, 22.760106], [108.36369, 22.760284], [108.36354, 22.760383], [108.363604, 22.760442], [108.363582, 22.760818], [108.363775, 22.760878], [108.363925, 22.760838], [108.364225, 22.760402], [108.365017, 22.76044], [108.365296, 22.760579], [108.365831, 22.760875], [108.366325, 22.760972], [108.366689, 22.760755], [108.366903, 22.760755], [108.367224, 22.760892], [108.367675, 22.761406], [108.367996, 22.761584], [108.368146, 22.761742], [108.36821, 22.761959], [108.368146, 22.762217], [108.368468, 22.762434], [108.368832, 22.762967], [108.36896, 22.763481], [108.369153, 22.76358], [108.369218, 22.763778], [108.369089, 22.764115], [108.368257, 22.765286], [108.367804, 22.766049], [108.367174, 22.76786], [108.366562, 22.77009], [108.366351, 22.771458], [108.366351, 22.772829], [108.366508, 22.773915], [108.367091, 22.777277], [108.367563, 22.77991], [108.367936, 22.781977], [108.368078, 22.783545], [108.368062, 22.784664], [108.367981, 22.785639], [108.366398, 22.785138], [108.364912, 22.784417], [108.344992, 22.771066], [108.342697, 22.769859], [108.339157, 22.768708], [108.336615, 22.768376], [108.334062, 22.76842], [108.331334, 22.769301], [108.329537, 22.770416], [108.326424, 22.77393], [108.323221, 22.773412], [108.320346, 22.77353], [108.318393, 22.774658], [108.315947, 22.774836], [108.315024, 22.774599], [108.314037, 22.773728], [108.312793, 22.771057], [108.311613, 22.76892], [108.309895, 22.767233], [108.309842, 22.767182], [108.309482, 22.766746], [108.30937, 22.766445], [108.309464, 22.766167], [108.309838, 22.765595], [108.309957, 22.764786], [108.30975, 22.764254], [108.309654, 22.763667], [108.30967, 22.762802], [108.309724, 22.762811], [108.310092, 22.761869], [108.310291, 22.761357], [108.310513, 22.760904], [108.310778, 22.760682], [108.311239, 22.760379], [108.31229, 22.76002], [108.312623, 22.759757], [108.312708, 22.759503], [108.312908, 22.759249], [108.313001, 22.758916], [108.313093, 22.758003], [108.312888, 22.757773], [108.312272, 22.757312], [108.311928, 22.757053], [108.310872, 22.755524], [108.310571, 22.755191], [108.309647, 22.754796], [108.309424, 22.75459], [108.309158, 22.754091], [108.309503, 22.753757], [108.309571, 22.753523], [108.309515, 22.753392], [108.309781, 22.753439], [108.309836, 22.753276], [108.310484, 22.7526], [108.310565, 22.752306], [108.31079, 22.751955], [108.311302, 22.751507], [108.310775, 22.751075], [108.310729, 22.750195], [108.309968, 22.749317], [108.309762, 22.748572], [108.309528, 22.748275], [108.309309, 22.748242], [108.309283, 22.748156], [108.309113, 22.747584], [108.309021, 22.746894]]]}, "properties": {"display_name": "大沙田街道, 良庆区, 南宁市, 广西壮族自治区, 中国", "type": "administrative", "osm_type": "relation", "osm_id": 11731256, "class": null, "keyword": "subdistrict"}}, {"type": "Feature", "geometry": {"type": "MultiPolygon", "coordinates": [[[[108.279944, 22.768506], [108.284011, 22.766721], [108.284317, 22.766591], [108.284606, 22.76711], [108.284917, 22.766962], [108.284949, 22.766997], [108.285067, 22.767292], [108.284901, 22.767373], [108.284408, 22.767586], [108.28444, 22.76767], [108.284563, 22.768011], [108.284563, 22.768268], [108.28459, 22.768555], [108.284456, 22.768793], [108.283931, 22.768906], [108.283974, 22.769099], [108.283813, 22.769337], [108.283138, 22.76962], [108.282918, 22.769496], [108.282494, 22.769685], [108.282018, 22.769818], [108.281777, 22.769818], [108.281032, 22.769834], [108.281005, 22.769948], [108.280518, 22.769954], [108.280513, 22.76983], [108.280421, 22.769761], [108.280325, 22.769207], [108.279944, 22.768506]]], [[[108.289157, 22.787725], [108.289221, 22.779851], [108.291014, 22.779894], [108.293417, 22.77995], [108.293384, 22.781276], [108.295101, 22.781395], [108.295391, 22.781246], [108.295552, 22.780979], [108.295573, 22.77996], [108.29744, 22.77994], [108.299907, 22.779753], [108.305293, 22.779861], [108.306087, 22.77995], [108.30716, 22.780129], [108.308887, 22.780554], [108.31437, 22.782859], [108.314638, 22.782305], [108.314917, 22.781721], [108.31511, 22.781187], [108.315207, 22.780494], [108.315219, 22.775485], [108.314951, 22.775426], [108.314619, 22.775319], [108.314362, 22.775223], [108.31406, 22.775062], [108.313733, 22.77483], [108.31337, 22.774484], [108.31236, 22.775177], [108.312088, 22.775265], [108.31208, 22.774991], [108.31202, 22.774035], [108.311516, 22.773332], [108.311076, 22.773352], [108.311044, 22.772957], [108.310347, 22.772195], [108.30819, 22.772175], [108.307579, 22.771641], [108.307579, 22.771265], [108.307643, 22.770612], [108.307879, 22.769811], [108.30819, 22.769098], [108.308619, 22.768347], [108.309123, 22.767812], [108.309895, 22.767233], [108.311613, 22.76892], [108.312793, 22.771057], [108.314037, 22.773728], [108.315024, 22.774599], [108.315947, 22.774836], [108.318393, 22.774658], [108.320346, 22.77353], [108.323221, 22.773412], [108.326424, 22.77393], [108.326065, 22.775442], [108.325987, 22.777109], [108.326361, 22.778744], [108.326959, 22.780033], [108.328716, 22.781711], [108.330979, 22.783039], [108.337913, 22.785561], [108.339727, 22.786419], [108.341391, 22.787673], [108.342228, 22.788947], [108.342673, 22.79065], [108.342521, 22.791752], [108.342113, 22.792748], [108.341417, 22.793619], [108.340432, 22.794394], [108.339418, 22.794799], [108.338319, 22.795093], [108.335083, 22.795584], [108.332864, 22.795479], [108.33124, 22.795136], [108.325336, 22.793047], [108.323963, 22.792851], [108.322952, 22.793058], [108.321977, 22.793503], [108.320773, 22.794626], [108.320099, 22.795897], [108.31933, 22.798986], [108.318781, 22.804974], [108.318108, 22.807579], [108.317092, 22.8105], [108.315692, 22.812514], [108.314779, 22.813137], [108.313693, 22.813641], [108.312483, 22.813809], [108.311154, 22.813852], [108.30943, 22.813492], [108.306976, 22.812456], [108.304156, 22.810534], [108.297664, 22.804752], [108.29622, 22.803985], [108.294621, 22.80348], [108.291853, 22.803453], [108.291378, 22.799525], [108.29096, 22.795173], [108.290874, 22.794184], [108.290659, 22.793541], [108.289468, 22.791464], [108.2892, 22.79093], [108.289189, 22.790594], [108.289157, 22.787725]]]]}, "properties": {"display_name": "福建园街道, 江南区, 南宁市, 广西壮族自治区, 中国", "type": "administrative", "osm_type": "relation", "osm_id": 11732089, "class": null, "keyword": "subdistrict"}}, {"type": "Feature", "geometry": {"type": "Polygon", "coordinates": [[[108.313693, 22.813641], [108.314779, 22.813137], [108.315692, 22.812514], [108.317092, 22.8105], [108.318108, 22.807579], [108.318781, 22.804974], [108.31933, 22.798986], [108.320099, 22.795897], [108.320773, 22.794626], [108.321977, 22.793503], [108.322952, 22.793058], [108.323963, 22.792851], [108.325336, 22.793047], [108.33124, 22.795136], [108.332864, 22.795479], [108.335083, 22.795584], [108.338319, 22.795093], [108.339418, 22.794799], [108.340432, 22.794394], [108.341417, 22.793619], [108.342113, 22.792748], [108.342521, 22.791752], [108.342673, 22.79065], [108.342228, 22.788947], [108.341391, 22.787673], [108.339727, 22.786419], [108.337913, 22.785561], [108.330979, 22.783039], [108.328716, 22.781711], [108.326959, 22.780033], [108.326361, 22.778744], [108.325987, 22.777109], [108.326065, 22.775442], [108.326424, 22.77393], [108.329537, 22.770416], [108.331334, 22.769301], [108.334062, 22.76842], [108.336615, 22.768376], [108.339157, 22.768708], [108.342697, 22.769859], [108.344992, 22.771066], [108.364912, 22.784417], [108.366398, 22.785138], [108.367981, 22.785639], [108.367871, 22.786249], [108.367509, 22.787596], [108.36716, 22.788594], [108.365818, 22.791667], [108.365651, 22.791898], [108.3652, 22.792375], [108.364139, 22.793295], [108.362321, 22.795357], [108.360996, 22.796832], [108.360637, 22.797127], [108.357557, 22.798669], [108.356113, 22.799501], [108.353731, 22.801065], [108.350061, 22.805313], [108.348978, 22.804814], [108.349363, 22.804004], [108.349977, 22.80427], [108.350218, 22.803849], [108.350795, 22.804059], [108.350891, 22.803782], [108.349592, 22.803172], [108.349724, 22.802751], [108.349339, 22.802595], [108.349039, 22.803227], [108.3481, 22.802906], [108.347607, 22.804148], [108.344214, 22.803549], [108.344166, 22.804104], [108.342638, 22.803671], [108.340965, 22.803028], [108.341001, 22.802817], [108.339642, 22.802229], [108.336899, 22.800876], [108.335852, 22.800721], [108.335142, 22.800832], [108.331353, 22.802331], [108.332218, 22.802983], [108.33353, 22.803671], [108.334444, 22.804115], [108.33225, 22.809031], [108.324953, 22.811215], [108.32462, 22.815739], [108.318762, 22.815789], [108.315355, 22.815759], [108.31435, 22.814669], [108.313693, 22.813641]]]}, "properties": {"display_name": "中山街道, 青秀区, 南宁市, 广西壮族自治区, 530021, 中国", "type": "administrative", "osm_type": "relation", "osm_id": 6809464, "class": null, "keyword": "subdistrict"}}, {"type": "Feature", "geometry": {"type": "MultiPolygon", "coordinates": [[[[108.226937, 22.837631], [108.227466, 22.836038], [108.226952, 22.835669], [108.227352, 22.83538], [108.228251, 22.835511], [108.228523, 22.834735], [108.227651, 22.834406], [108.227737, 22.833984], [108.227894, 22.834011], [108.228037, 22.833274], [108.230365, 22.833379], [108.230494, 22.833102], [108.231522, 22.83305], [108.231636, 22.832128], [108.232622, 22.832089], [108.233412, 22.829395], [108.239413, 22.830243], [108.245156, 22.830012], [108.250208, 22.829613], [108.253405, 22.829162], [108.256473, 22.828493], [108.259091, 22.827441], [108.261591, 22.826121], [108.265411, 22.823424], [108.270376, 22.818708], [108.272185, 22.819769], [108.272669, 22.819788], [108.273195, 22.820142], [108.273326, 22.820467], [108.27381, 22.820774], [108.274921, 22.819741], [108.275961, 22.818745], [108.278062, 22.819518], [108.277587, 22.819658], [108.277294, 22.819851], [108.277193, 22.82014], [108.277001, 22.820466], [108.277032, 22.821322], [108.277183, 22.821778], [108.277284, 22.822923], [108.277395, 22.823388], [108.277567, 22.823332], [108.277678, 22.823025], [108.278112, 22.822942], [108.278334, 22.823016], [108.278324, 22.823221], [108.278193, 22.82336], [108.277446, 22.823602], [108.277971, 22.825287], [108.277173, 22.825529], [108.277688, 22.827483], [108.278425, 22.827269], [108.278708, 22.828368], [108.279092, 22.828275], [108.279173, 22.828517], [108.279173, 22.828814], [108.279152, 22.829261], [108.279324, 22.82928], [108.279415, 22.829512], [108.280314, 22.829699], [108.280536, 22.830248], [108.280798, 22.83076], [108.280576, 22.830974], [108.27993, 22.831011], [108.279657, 22.831123], [108.279778, 22.831318], [108.280172, 22.831579], [108.280657, 22.831793], [108.281455, 22.831914], [108.279809, 22.832183], [108.277799, 22.832667], [108.277203, 22.832695], [108.275739, 22.832593], [108.275083, 22.832584], [108.274568, 22.83264], [108.273406, 22.83304], [108.27277, 22.833282], [108.271902, 22.833486], [108.264692, 22.833356], [108.263551, 22.831876], [108.262763, 22.832407], [108.262137, 22.832733], [108.26042, 22.832993], [108.260178, 22.833179], [108.259936, 22.834091], [108.259542, 22.835646], [108.260239, 22.836195], [108.260744, 22.836716], [108.260905, 22.837349], [108.260885, 22.83962], [108.260966, 22.84122], [108.260723, 22.841332], [108.260885, 22.842076], [108.261228, 22.842765], [108.260764, 22.842988], [108.26042, 22.843267], [108.259875, 22.843398], [108.259875, 22.844179], [108.259613, 22.844179], [108.259633, 22.843212], [108.259916, 22.842802], [108.260279, 22.841481], [108.25418, 22.842597], [108.249292, 22.843007], [108.241497, 22.843491], [108.239316, 22.843565], [108.236973, 22.843007], [108.233418, 22.84163], [108.229115, 22.840208], [108.227009, 22.839342], [108.227323, 22.837828], [108.226937, 22.837631]], [[108.276214, 22.82538], [108.276476, 22.825994], [108.277123, 22.825883], [108.276941, 22.825119], [108.276214, 22.82538]], [[108.276456, 22.822923], [108.276729, 22.823621], [108.277183, 22.823491], [108.277102, 22.822709], [108.276456, 22.822923]]], [[[108.254907, 22.845091], [108.255068, 22.844068], [108.255977, 22.844179], [108.255796, 22.845184], [108.254907, 22.845091]]], [[[108.278536, 22.822738], [108.278688, 22.822692], [108.278829, 22.822496], [108.279374, 22.822459], [108.279586, 22.822217], [108.279597, 22.822078], [108.279374, 22.821929], [108.279637, 22.821705], [108.280203, 22.822329], [108.27993, 22.822599], [108.279385, 22.822952], [108.278991, 22.823111], [108.27894, 22.822915], [108.278647, 22.822869], [108.278536, 22.822738]]], [[[108.279233, 22.823211], [108.27993, 22.822727], [108.280213, 22.823016], [108.279455, 22.823547], [108.279233, 22.823211]]]]}, "properties": {"display_name": "上尧街道, 西乡塘区, 南宁市, 广西壮族自治区, 中国", "type": "administrative", "osm_type": "relation", "osm_id": 7544576, "class": null, "keyword": "subdistrict"}}, {"type": "Feature", "geometry": {"type": "Polygon", "coordinates": [[[108.318762, 22.815789], [108.32462, 22.815739], [108.324953, 22.811215], [108.33225, 22.809031], [108.340916, 22.810189], [108.343393, 22.810492], [108.343425, 22.815835], [108.344939, 22.81582], [108.344964, 22.81628], [108.345345, 22.816589], [108.346228, 22.816572], [108.346221, 22.81585], [108.354243, 22.815743], [108.35448, 22.816538], [108.358364, 22.821238], [108.355618, 22.822656], [108.352789, 22.818492], [108.348091, 22.818553], [108.348193, 22.823054], [108.347867, 22.823802], [108.34911, 22.824494], [108.348699, 22.825153], [108.350143, 22.825932], [108.349882, 22.826277], [108.348438, 22.825644], [108.347328, 22.827255], [108.345835, 22.826603], [108.343007, 22.830478], [108.341671, 22.830224], [108.336328, 22.830188], [108.335098, 22.830553], [108.332368, 22.828288], [108.327796, 22.824493], [108.327316, 22.824191], [108.3265, 22.823915], [108.324039, 22.823752], [108.320991, 22.822875], [108.321065, 22.822338], [108.321281, 22.821823], [108.32181, 22.821158], [108.322319, 22.820281], [108.320009, 22.819227], [108.319906, 22.819035], [108.320102, 22.81784], [108.320099, 22.817479], [108.319984, 22.817115], [108.318762, 22.815789]]]}, "properties": {"display_name": "新竹街道, 青秀区, 南宁市, 广西壮族自治区, 中国", "type": "administrative", "osm_type": "relation", "osm_id": 6809463, "class": null, "keyword": "subdistrict"}}, {"type": "Feature", "geometry": {"type": "Polygon", "coordinates": [[[108.160111, 22.599372], [108.160116, 22.599353], [108.16014, 22.599328], [108.161139, 22.598359], [108.161747, 22.597769], [108.16176, 22.597738], [108.161764, 22.597709], [108.161759, 22.597686], [108.161724, 22.597649], [108.161021, 22.597044], [108.161013, 22.596927], [108.16153, 22.596417], [108.162073, 22.59588], [108.162208, 22.595877], [108.162896, 22.596476], [108.163046, 22.596477], [108.163944, 22.595582], [108.164083, 22.595581], [108.164696, 22.596127], [108.165325, 22.596678], [108.165458, 22.596684], [108.166005, 22.596149], [108.167337, 22.597338], [108.169429, 22.599221], [108.170772, 22.600397], [108.171832, 22.601333], [108.172604, 22.602004], [108.172725, 22.602009], [108.174241, 22.600536], [108.175639, 22.599147], [108.176043, 22.599493], [108.177119, 22.600417], [108.177802, 22.600989], [108.177961, 22.600925], [108.179118, 22.601949], [108.180041, 22.60278], [108.180218, 22.602924], [108.180379, 22.603029], [108.18061, 22.603161], [108.180843, 22.603257], [108.180923, 22.60327], [108.181009, 22.603281], [108.181121, 22.603294], [108.181287, 22.603302], [108.181492, 22.603296], [108.18169, 22.603304], [108.181856, 22.603338], [108.181972, 22.603388], [108.182114, 22.603475], [108.182307, 22.603643], [108.182491, 22.603821], [108.182576, 22.603936], [108.182647, 22.604111], [108.18266, 22.604276], [108.182647, 22.604399], [108.18264, 22.604504], [108.182643, 22.604607], [108.182664, 22.604708], [108.182688, 22.604804], [108.182723, 22.60491], [108.182773, 22.605019], [108.182857, 22.605152], [108.183015, 22.605359], [108.183158, 22.605524], [108.183383, 22.605722], [108.183965, 22.606185], [108.184442, 22.606601], [108.18504, 22.607115], [108.185483, 22.607504], [108.185448, 22.607619], [108.185392, 22.60776], [108.186054, 22.608276], [108.188002, 22.609921], [108.188912, 22.610713], [108.189682, 22.61142], [108.189703, 22.611731], [108.190475, 22.612385], [108.190306, 22.61256], [108.189819, 22.613082], [108.189926, 22.613189], [108.189352, 22.613793], [108.189559, 22.613999], [108.190117, 22.614497], [108.189564, 22.615052], [108.189407, 22.614917], [108.188932, 22.615378], [108.18862, 22.615688], [108.188588, 22.615725], [108.188945, 22.616026], [108.18998, 22.616928], [108.19053, 22.617448], [108.190149, 22.617856], [108.18999, 22.618005], [108.189847, 22.618149], [108.189722, 22.618047], [108.188849, 22.618918], [108.188851, 22.619047], [108.189818, 22.619892], [108.189819, 22.620026], [108.189347, 22.620499], [108.189383, 22.62054], [108.188652, 22.621268], [108.188594, 22.621307], [108.188568, 22.621309], [108.188527, 22.621299], [108.188501, 22.62128], [108.187943, 22.620784], [108.18785, 22.620747], [108.187815, 22.620742], [108.187762, 22.620742], [108.187711, 22.620762], [108.187661, 22.620794], [108.187564, 22.620874], [108.187506, 22.620932], [108.187457, 22.620953], [108.18742, 22.620953], [108.187387, 22.620943], [108.187342, 22.620911], [108.187245, 22.620836], [108.187019, 22.620619], [108.186867, 22.620485], [108.186765, 22.62042], [108.186265, 22.620384], [108.186117, 22.620391], [108.186065, 22.620414], [108.186017, 22.620452], [108.185103, 22.621311], [108.184527, 22.621887], [108.183138, 22.620879], [108.181826, 22.620085], [108.181432, 22.619751], [108.180238, 22.619], [108.179195, 22.618435], [108.179203, 22.618225], [108.179173, 22.618131], [108.179141, 22.618074], [108.179144, 22.618017], [108.17924, 22.617683], [108.17917, 22.617672], [108.179057, 22.618078], [108.178975, 22.618392], [108.178828, 22.618963], [108.178314, 22.619467], [108.177833, 22.619952], [108.176986, 22.620814], [108.175941, 22.619913], [108.175651, 22.620196], [108.173837, 22.618612], [108.173589, 22.618865], [108.168899, 22.614887], [108.169525, 22.614265], [108.169054, 22.613863], [108.169192, 22.613725], [108.168711, 22.613304], [108.168184, 22.612868], [108.168088, 22.612973], [108.167443, 22.612435], [108.167087, 22.612119], [108.167217, 22.611973], [108.167534, 22.611685], [108.16746, 22.611608], [108.167695, 22.611373], [108.167606, 22.611297], [108.168141, 22.610728], [108.169085, 22.609802], [108.169592, 22.609316], [108.161603, 22.602538], [108.161787, 22.602262], [108.162171, 22.601765], [108.161543, 22.601209], [108.16095, 22.600681], [108.161164, 22.600416], [108.161179, 22.6004], [108.161194, 22.600386], [108.161198, 22.60038], [108.161203, 22.600369], [108.161199, 22.600356], [108.161192, 22.600345], [108.160838, 22.600011], [108.160814, 22.600037], [108.160123, 22.599416], [108.160111, 22.599396], [108.160111, 22.599372]]]}, "properties": {"display_name": "南宁吴圩国际机场, 空港一桥, 江南区, 南宁市, 广西壮族自治区, 530048, 中国", "type": "aerodrome", "osm_type": "way", "osm_id": 467430783, "class": null, "keyword": "district"}}, {"type": "Feature", "geometry": {"type": "Polygon", "coordinates": [[[108.775863, 22.853444], [108.780072, 22.839954], [108.790186, 22.842738], [108.78604, 22.856164], [108.775863, 22.853444]]]}, "properties": {"display_name": "广西弗迪电池有限公司, 青秀区, 南宁市, 广西壮族自治区, 中国", "type": "industrial", "osm_type": "way", "osm_id": 460878276, "class": null, "keyword": "district"}}, {"type": "Feature", "geometry": {"type": "Polygon", "coordinates": [[[108.315341, 22.750632], [108.315904, 22.749697], [108.317036, 22.750893], [108.317868, 22.751666], [108.318726, 22.751785], [108.319198, 22.751231], [108.319412, 22.75134], [108.31952, 22.75226], [108.320013, 22.752775], [108.320764, 22.752656], [108.321537, 22.753576], [108.321601, 22.754377], [108.323114, 22.754555], [108.322459, 22.752003], [108.321955, 22.750845], [108.320797, 22.749668], [108.3207, 22.749094], [108.321816, 22.749816], [108.322931, 22.75134], [108.323329, 22.753022], [108.324069, 22.75409], [108.324401, 22.75504], [108.325683, 22.755436], [108.325721, 22.75644], [108.325592, 22.759725], [108.318745, 22.7599], [108.318581, 22.755757], [108.318324, 22.755139], [108.318393, 22.754664], [108.318334, 22.754254], [108.317514, 22.753462], [108.316998, 22.752384], [108.315341, 22.750632]], [[108.320775, 22.757788], [108.320788, 22.75826], [108.321859, 22.758463], [108.321885, 22.757974], [108.320775, 22.757788]]]}, "properties": {"display_name": "秀林社区, 大沙田街道, 良庆区, 南宁市, 广西壮族自治区, 中国", "type": "administrative", "osm_type": "relation", "osm_id": 13571292, "class": null, "keyword": "neighborhood"}}, {"type": "Feature", "geometry": {"type": "Polygon", "coordinates": [[[108.347959, 22.768768], [108.348109, 22.768475], [108.348173, 22.768438], [108.348323, 22.768412], [108.348561, 22.768371], [108.348842, 22.768315], [108.349292, 22.768364], [108.34955, 22.768208], [108.349856, 22.768034], [108.349996, 22.767944], [108.350232, 22.767859], [108.350392, 22.767775], [108.350527, 22.767675], [108.350655, 22.7676], [108.350837, 22.767362], [108.350941, 22.767177], [108.35105, 22.767025], [108.351186, 22.766887], [108.351241, 22.7667], [108.351315, 22.766501], [108.351384, 22.766353], [108.351733, 22.766244], [108.351985, 22.766042], [108.3522, 22.765863], [108.352194, 22.765527], [108.352511, 22.765364], [108.352666, 22.765216], [108.352817, 22.764948], [108.353037, 22.764642], [108.353257, 22.764597], [108.353511, 22.764615], [108.353957, 22.764842], [108.354268, 22.765003], [108.354506, 22.765202], [108.354705, 22.765429], [108.35488, 22.765686], [108.354946, 22.765977], [108.355036, 22.766374], [108.355167, 22.766776], [108.355348, 22.766974], [108.355727, 22.767072], [108.355992, 22.766979], [108.356241, 22.766825], [108.35641, 22.766757], [108.356493, 22.766887], [108.356549, 22.767164], [108.356535, 22.767211], [108.356493, 22.767246], [108.355769, 22.767665], [108.355706, 22.767711], [108.355659, 22.767797], [108.355466, 22.768404], [108.355447, 22.768732], [108.355477, 22.768856], [108.355622, 22.769519], [108.355611, 22.769583], [108.355426, 22.769667], [108.355404, 22.769761], [108.355327, 22.770456], [108.355273, 22.770491], [108.35387, 22.770496], [108.353023, 22.770627], [108.352749, 22.77075], [108.352663, 22.770753], [108.351467, 22.77047], [108.351042, 22.770332], [108.350112, 22.769875], [108.347959, 22.768768]]]}, "properties": {"display_name": "南宁市青龙岗长安墓园, 385, 大沙田街道, 良庆区, 南宁市, 广西壮族自治区, 中国", "type": "cemetery", "osm_type": "way", "osm_id": 1006681821, "class": null, "keyword": "district"}}, {"type": "Feature", "geometry": {"type": "Polygon", "coordinates": [[[108.295564, 22.89778], [108.295782, 22.897738], [108.295984, 22.897999], [108.296419, 22.898204], [108.298975, 22.897761], [108.299172, 22.897561], [108.299152, 22.897131], [108.301771, 22.896521], [108.301653, 22.895676], [108.307318, 22.895103], [108.307656, 22.897993], [108.304524, 22.898326], [108.301998, 22.898627], [108.300089, 22.898849], [108.295956, 22.899277], [108.295861, 22.898727], [108.295626, 22.89852], [108.295588, 22.898066], [108.295564, 22.89778]]]}, "properties": {"display_name": "安吉车辆段与综合基地, 安吉街道, 西乡塘区, 南宁市, 广西壮族自治区, 中国", "type": "railway", "osm_type": "way", "osm_id": 555523672, "class": null, "keyword": "district"}}, {"type": "Feature", "geometry": {"type": "Polygon", "coordinates": [[[108.245259, 22.874025], [108.245524, 22.873891], [108.245556, 22.873938], [108.246844, 22.873174], [108.247743, 22.874101], [108.248587, 22.875104], [108.249001, 22.875729], [108.24985, 22.87701], [108.250297, 22.877737], [108.2514, 22.879492], [108.251462, 22.879655], [108.251647, 22.879915], [108.252578, 22.881417], [108.252798, 22.88176], [108.253038, 22.882183], [108.25123, 22.883135], [108.251809, 22.884032], [108.251567, 22.884158], [108.24594, 22.875071], [108.245783, 22.874885], [108.245259, 22.874025]]]}, "properties": {"display_name": "南宁轨道交通3号线心圩车辆段, 心圩街道, 西乡塘区, 南宁市, 广西壮族自治区, 中国", "type": "railway", "osm_type": "way", "osm_id": 808584370, "class": null, "keyword": "district"}}, {"type": "Feature", "geometry": {"type": "Polygon", "coordinates": [[[108.426663, 22.829344], [108.426996, 22.828972], [108.428076, 22.828856], [108.428055, 22.828625], [108.428174, 22.828613], [108.428118, 22.82812], [108.428917, 22.828016], [108.436525, 22.827356], [108.437514, 22.829962], [108.437143, 22.830166], [108.426663, 22.829344]]]}, "properties": {"display_name": "屯里车辆段, 青秀区, 南宁市, 广西壮族自治区, 中国", "type": "railway", "osm_type": "way", "osm_id": 427982522, "class": null, "keyword": "district"}}, {"type": "Feature", "geometry": {"type": "Polygon", "coordinates": [[[108.270585, 23.175211], [108.274598, 23.17525], [108.275285, 23.175556], [108.275274, 23.179146], [108.270639, 23.179116], [108.270585, 23.175211]]]}, "properties": {"display_name": "广西工商职业技术学院(武鸣校区), 新宁路, 武鸣区, 南宁市, 广西壮族自治区, 中国", "type": "university", "osm_type": "way", "osm_id": 952209403, "class": null, "keyword": "business district"}}, {"type": "Feature", "geometry": {"type": "Polygon", "coordinates": [[[108.351036, 22.804364], [108.351531, 22.803818], [108.351782, 22.803542], [108.352238, 22.803029], [108.352347, 22.802856], [108.352464, 22.802894], [108.352877, 22.802382], [108.352774, 22.802323], [108.352805, 22.802289], [108.353146, 22.8019], [108.353517, 22.801529], [108.353592, 22.801453], [108.353833, 22.801244], [108.354141, 22.800977], [108.355104, 22.801435], [108.355442, 22.801635], [108.355386, 22.801943], [108.355292, 22.80225], [108.355278, 22.802834], [108.35544, 22.802988], [108.355343, 22.80314], [108.35542, 22.80318], [108.35552, 22.803224], [108.355579, 22.803263], [108.355621, 22.803322], [108.355828, 22.80333], [108.355757, 22.80436], [108.355755, 22.804387], [108.355766, 22.804525], [108.355712, 22.804756], [108.355616, 22.805128], [108.355497, 22.805603], [108.355397, 22.805778], [108.355025, 22.806424], [108.354623, 22.806212], [108.354161, 22.806075], [108.353623, 22.805731], [108.353512, 22.805883], [108.353073, 22.805631], [108.353195, 22.805458], [108.352139, 22.804849], [108.35154, 22.804478], [108.351443, 22.804602], [108.351036, 22.804364]]]}, "properties": {"display_name": "南宁市第三中学, 青山路, 中山街道, 青秀区, 南宁市, 广西壮族自治区, 530000, 中国", "type": "school", "osm_type": "way", "osm_id": 652568412, "class": null, "keyword": "district"}}, {"type": "Feature", "geometry": {"type": "Polygon", "coordinates": [[[108.164516, 22.817735], [108.165576, 22.817042], [108.167819, 22.819721], [108.167954, 22.819882], [108.168421, 22.821797], [108.169022, 22.82262], [108.168732, 22.823025], [108.167867, 22.822364], [108.167265, 22.821785], [108.166914, 22.821243], [108.166639, 22.82079], [108.166625, 22.820279], [108.164516, 22.817735]]]}, "properties": {"display_name": "Nanning Rail Transit Deposit West, 石埠街道, 西乡塘区, 南宁市, 广西壮族自治区, 中国", "type": "railway", "osm_type": "way", "osm_id": 399088313, "class": null, "keyword": "district"}}, {"type": "Feature", "geometry": {"type": "Polygon", "coordinates": [[[108.40185, 22.835646], [108.40189, 22.835567], [108.402043, 22.835505], [108.402558, 22.835433], [108.403025, 22.835446], [108.403176, 22.83545], [108.403535, 22.835461], [108.403701, 22.835465], [108.404149, 22.835438], [108.404653, 22.835359], [108.40476, 22.835359], [108.40483, 22.835399], [108.404865, 22.83548], [108.405055, 22.83659], [108.405136, 22.837341], [108.404736, 22.83733], [108.40221, 22.837258], [108.402092, 22.837255], [108.401982, 22.83655], [108.401853, 22.835747], [108.40185, 22.835646]]]}, "properties": {"display_name": "中国铁路南宁局集团有限公司, 青秀区, 南宁市, 广西壮族自治区, 中国", "type": "commercial", "osm_type": "way", "osm_id": 870851643, "class": null, "keyword": "district"}}, {"type": "Feature", "geometry": {"type": "Polygon", "coordinates": [[[108.49649, 22.739185], [108.496973, 22.738414], [108.498024, 22.738523], [108.498141, 22.738457], [108.497933, 22.73788], [108.498107, 22.73745], [108.498774, 22.737272], [108.49938, 22.737551], [108.499916, 22.738122], [108.499861, 22.739515], [108.498899, 22.739799], [108.497926, 22.739663], [108.497846, 22.739503], [108.496737, 22.739384], [108.49649, 22.739185]]]}, "properties": {"display_name": "邕宁区 朝阳中学, 腾鲤路, 邕宁新兴产业园区, 邕宁区, 南宁市, 广西壮族自治区, 中国", "type": "school", "osm_type": "way", "osm_id": 988667299, "class": null, "keyword": "中央区"}}, {"type": "Feature", "geometry": {"type": "Polygon", "coordinates": [[[108.394857, 22.804542], [108.394913, 22.804361], [108.395034, 22.80418], [108.396071, 22.803212], [108.396531, 22.803451], [108.397122, 22.803862], [108.397435, 22.804101], [108.397701, 22.804421], [108.397822, 22.804545], [108.397832, 22.804633], [108.397729, 22.804776], [108.39758, 22.804873], [108.397267, 22.804959], [108.396552, 22.805321], [108.396104, 22.805709], [108.395375, 22.805209], [108.395037, 22.80494], [108.394908, 22.804718], [108.394857, 22.804542]]]}, "properties": {"display_name": "天昌·东盟中央城C区, 东盟商务区, 青秀区, 南宁市, 广西壮族自治区, 中国", "type": "residential", "osm_type": "way", "osm_id": 839738458, "class": null, "keyword": "中央区"}}, {"type": "Feature", "geometry": {"type": "Polygon", "coordinates": [[[108.233099, 22.806159], [108.236664, 22.80614], [108.23667, 22.807141], [108.233105, 22.80716], [108.233099, 22.806159]]]}, "properties": {"display_name": "华南城 会展中心, 华南大道, 南宁华南城, 江南工业园区, 江南区, 南宁市, 广西壮族自治区, 530031, 中国", "type": "exhibition_centre", "osm_type": "way", "osm_id": 1011959787, "class": null, "keyword": "中心城区"}}, {"type": "Feature", "geometry": {"type": "Polygon", "coordinates": [[[108.370771, 22.874714], [108.371205, 22.871967], [108.37192, 22.872881], [108.372284, 22.873777], [108.372256, 22.874456], [108.372013, 22.875033], [108.371434, 22.87567], [108.370808, 22.874783], [108.370771, 22.874714]]]}, "properties": {"display_name": "中海国际社区中央墅, 兴宁区, 南宁市, 广西壮族自治区, 中国", "type": "residential", "osm_type": "way", "osm_id": 660696826, "class": null, "keyword": "中央区"}}, {"type": "Feature", "geometry": {"type": "Polygon", "coordinates": [[[108.476561, 22.747529], [108.476563, 22.747477], [108.476581, 22.747445], [108.476621, 22.747425], [108.476665, 22.747419], [108.477804, 22.747337], [108.477846, 22.74734], [108.477885, 22.747355], [108.477913, 22.747388], [108.477934, 22.747427], [108.478093, 22.749584], [108.478087, 22.749641], [108.478063, 22.749683], [108.478032, 22.74971], [108.477978, 22.749739], [108.476892, 22.749848], [108.476839, 22.749845], [108.476793, 22.749833], [108.476763, 22.749803], [108.476751, 22.749763], [108.476561, 22.747529]]]}, "properties": {"display_name": "邕宁区中医医院新院区, 茶柳, 邕宁区, 南宁市, 广西壮族自治区, 中国", "type": "construction", "osm_type": "way", "osm_id": 991275448, "class": null, "keyword": "中心商務區"}}, {"type": "Feature", "geometry": {"type": "Polygon", "coordinates": [[[108.393045, 22.803483], [108.393232, 22.802652], [108.394717, 22.802544], [108.395744, 22.803061], [108.394894, 22.803918], [108.393045, 22.803483]]]}, "properties": {"display_name": "天昌·东盟中央城D区, 东盟商务区, 青秀区, 南宁市, 广西壮族自治区, 中国", "type": "residential", "osm_type": "way", "osm_id": 839738459, "class": null, "keyword": "中央区"}}, {"type": "Feature", "geometry": {"type": "Polygon", "coordinates": [[[108.394639, 22.807448], [108.394656, 22.807231], [108.39566, 22.806662], [108.396871, 22.807658], [108.395871, 22.808445], [108.395566, 22.808427], [108.394639, 22.807448]]]}, "properties": {"display_name": "天昌·东盟中央城A区, 东盟商务区, 青秀区, 南宁市, 广西壮族自治区, 中国", "type": "residential", "osm_type": "way", "osm_id": 1212185631, "class": null, "keyword": "中央区"}}, {"type": "Feature", "geometry": {"type": "Polygon", "coordinates": [[[108.383929, 22.754067], [108.384365, 22.754065], [108.385003, 22.754062], [108.385536, 22.75406], [108.385542, 22.755154], [108.385469, 22.755275], [108.385342, 22.755324], [108.383935, 22.75533], [108.383931, 22.754434], [108.383929, 22.754067]]]}, "properties": {"display_name": "阳光城·时代中心, 良庆镇, 良庆区, 南宁市, 广西壮族自治区, 中国", "type": "commercial", "osm_type": "way", "osm_id": 1310873293, "class": null, "keyword": "中心城区"}}, {"type": "Feature", "geometry": {"type": "Polygon", "coordinates": [[[108.380184, 22.726743], [108.381011, 22.726722], [108.381024, 22.727056], [108.381571, 22.728133], [108.38158, 22.728923], [108.381142, 22.728896], [108.381017, 22.728866], [108.380908, 22.728801], [108.380831, 22.728712], [108.380751, 22.728578], [108.380277, 22.727587], [108.380211, 22.727369], [108.380184, 22.726743]]]}, "properties": {"display_name": "南宁五象万象汇, 良庆镇, 良庆区, 南宁市, 广西壮族自治区, 中国", "type": "retail", "osm_type": "way", "osm_id": 999812362, "class": null, "keyword": "district"}}, {"type": "Feature", "geometry": {"type": "Polygon", "coordinates": [[[108.238023, 22.798873], [108.239653, 22.798866], [108.239658, 22.799985], [108.238446, 22.79999], [108.238444, 22.799657], [108.238026, 22.799658], [108.238023, 22.798873]]]}, "properties": {"display_name": "Huadian Nanning Jiangnan Distributed Gas power station, 江南工业园区, 江南区, 南宁市, 广西壮族自治区, 中国", "type": "industrial", "osm_type": "way", "osm_id": 1203924949, "class": null, "keyword": "district"}}, {"type": "Feature", "geometry": {"type": "Polygon", "coordinates": [[[108.393847, 22.806455], [108.395306, 22.805436], [108.396018, 22.805983], [108.395591, 22.806392], [108.394298, 22.807051], [108.393847, 22.806455]]]}, "properties": {"display_name": "天昌·东盟中央城B区, 东盟商务区, 青秀区, 南宁市, 广西壮族自治区, 中国", "type": "residential", "osm_type": "way", "osm_id": 1212185630, "class": null, "keyword": "中央区"}}, {"type": "Feature", "geometry": {"type": "Polygon", "coordinates": [[[108.394159, 22.811516], [108.395382, 22.810784], [108.396128, 22.811783], [108.394685, 22.812248], [108.394159, 22.811516]]]}, "properties": {"display_name": "龙光世纪中心, 8号, 东盟商务区, 青秀区, 南宁市, 广西壮族自治区, 中国", "type": "commercial", "osm_type": "way", "osm_id": 1004734658, "class": null, "keyword": "中心商務區"}}, {"type": "Feature", "geometry": {"type": "Polygon", "coordinates": [[[108.373522, 22.770029], [108.373546, 22.769268], [108.373659, 22.769255], [108.373687, 22.768436], [108.374502, 22.768456], [108.374559, 22.76847], [108.374602, 22.768503], [108.374627, 22.768538], [108.374634, 22.768588], [108.374569, 22.769743], [108.374554, 22.769808], [108.374513, 22.769867], [108.374449, 22.769911], [108.37436, 22.769936], [108.373849, 22.769972], [108.373522, 22.770029]]]}, "properties": {"display_name": "南宁万科大厦北区, 2, 良庆镇, 良庆区, 南宁市, 广西壮族自治区, 中国", "type": "commercial", "osm_type": "way", "osm_id": 972720502, "class": null, "keyword": "district"}}, {"type": "Feature", "geometry": {"type": "Polygon", "coordinates": [[[108.387789, 22.71666], [108.387814, 22.715946], [108.387842, 22.71585], [108.387924, 22.715762], [108.388047, 22.715706], [108.388188, 22.715673], [108.389049, 22.715547], [108.389138, 22.716592], [108.387789, 22.71666]]]}, "properties": {"display_name": "茂仪汽车工程科研中心, 华威路, 良庆镇, 良庆区, 南宁市, 广西壮族自治区, 中国", "type": "research", "osm_type": "way", "osm_id": 1020266697, "class": null, "keyword": "中心城区"}}, {"type": "Feature", "geometry": {"type": "Polygon", "coordinates": [[[108.407265, 22.813811], [108.407267, 22.813728], [108.407317, 22.813601], [108.407457, 22.813454], [108.407614, 22.813363], [108.407857, 22.813279], [108.408788, 22.813023], [108.408839, 22.813025], [108.408872, 22.813039], [108.408892, 22.813059], [108.408904, 22.813092], [108.408874, 22.813781], [108.408844, 22.813937], [108.40882, 22.813985], [108.408786, 22.814002], [108.408732, 22.814], [108.407605, 22.813945], [108.407362, 22.813937], [108.407322, 22.813914], [108.407275, 22.813865], [108.407265, 22.813811]]]}, "properties": {"display_name": "南宁市翡翠园学校, 翠园路, 中房·翡翠园1期, 东盟商务区, 青秀区, 南宁市, 广西壮族自治区, 530028, 中国", "type": "school", "osm_type": "way", "osm_id": 1016202224, "class": null, "keyword": "CBD"}}, {"type": "Feature", "geometry": {"type": "Polygon", "coordinates": [[[108.373803, 22.768307], [108.373826, 22.767155], [108.374541, 22.767167], [108.374585, 22.76718], [108.374624, 22.767211], [108.374641, 22.767249], [108.374623, 22.768254], [108.374617, 22.768307], [108.374597, 22.768339], [108.374559, 22.768365], [108.374505, 22.768375], [108.373842, 22.768358], [108.373815, 22.768339], [108.373803, 22.768307]]]}, "properties": {"display_name": "南宁万科大厦南区, 2, 良庆镇, 良庆区, 南宁市, 广西壮族自治区, 中国", "type": "commercial", "osm_type": "way", "osm_id": 972722826, "class": null, "keyword": "district"}}, {"type": "Feature", "geometry": {"type": "Polygon", "coordinates": [[[108.482919, 22.743703], [108.483953, 22.743624], [108.48398, 22.744371], [108.482973, 22.744429], [108.482919, 22.743703]]]}, "properties": {"display_name": "蒲庙镇中心幼儿园, 上济路, 邓屋, 邕宁区, 南宁市, 广西壮族自治区, 中国", "type": "kindergarten", "osm_type": "way", "osm_id": 999354892, "class": null, "keyword": "中心商務區"}}, {"type": "Feature", "geometry": {"type": "Polygon", "coordinates": [[[108.458983, 22.76588], [108.461393, 22.765971], [108.461577, 22.766259], [108.459064, 22.766161], [108.458983, 22.76588]]]}, "properties": {"display_name": "Nanning Rail Transit Deposit East, 天坛, 邕宁区, 南宁市, 广西壮族自治区, 中国", "type": "construction", "osm_type": "way", "osm_id": 838823086, "class": null, "keyword": "district"}}, {"type": "Feature", "geometry": {"type": "Polygon", "coordinates": [[[108.391798, 22.812379], [108.392442, 22.811888], [108.392815, 22.812254], [108.393052, 22.812683], [108.392032, 22.812834], [108.391955, 22.812555], [108.391798, 22.812379]]]}, "properties": {"display_name": "中新国际, 东盟商务区, 青秀区, 南宁市, 广西壮族自治区, 中国", "type": "residential", "osm_type": "way", "osm_id": 1212185641, "class": null, "keyword": "中心商務區"}}, {"type": "Feature", "geometry": {"type": "Polygon", "coordinates": [[[108.3026, 22.789484], [108.302604, 22.78929], [108.303489, 22.789307], [108.303485, 22.789501], [108.3026, 22.789484]]]}, "properties": {"display_name": "百益上河城·艺术中心, 上河东街, 百益上河城, 福建园街道, 江南区, 南宁市, 广西壮族自治区, 530021, 中国", "type": "arts_centre", "osm_type": "way", "osm_id": 1061757427, "class": null, "keyword": "中心城区"}}, {"type": "Feature", "geometry": {"type": "Polygon", "coordinates": [[[108.28558, 22.837566], [108.286232, 22.837565], [108.286232, 22.83766], [108.286354, 22.837659], [108.286402, 22.837659], [108.286403, 22.837733], [108.286403, 22.83783], [108.286101, 22.83783], [108.286101, 22.837776], [108.285692, 22.837776], [108.285639, 22.837739], [108.28561, 22.837709], [108.28558, 22.837649], [108.28558, 22.837566]]]}, "properties": {"display_name": "工程实践与训练中心, 崇文路, 西乡塘街道, 西乡塘区, 南宁市, 广西壮族自治区, 530003, 中国", "type": "university", "osm_type": "way", "osm_id": 759079685, "class": null, "keyword": "中心城区"}}, {"type": "Feature", "geometry": {"type": "Polygon", "coordinates": [[[108.591395, 23.435224], [108.591397, 23.435208], [108.591612, 23.435102], [108.591591, 23.435059], [108.591649, 23.435027], [108.591771, 23.435238], [108.591835, 23.435405], [108.59175, 23.435553], [108.591618, 23.435555], [108.591565, 23.435512], [108.591395, 23.435224]]]}, "properties": {"display_name": "上林家家旺购物中心, 大丰街, 福全, 上林县, 南宁市, 广西壮族自治区, 中国", "type": "mall", "osm_type": "way", "osm_id": 1349739921, "class": null, "keyword": "中心商圈"}}, {"type": "Feature", "geometry": {"type": "Polygon", "coordinates": [[[108.313862, 22.817899], [108.314268, 22.817497], [108.314431, 22.817631], [108.314029, 22.818029], [108.313862, 22.817899]]]}, "properties": {"display_name": "南宁清真寺, 25, 新华街, 朝阳街道, 兴宁区, 南宁市, 广西壮族自治区, 530021, 中国", "type": "place_of_worship", "osm_type": "way", "osm_id": 463139461, "class": null, "keyword": "district"}}, {"type": "Feature", "geometry": {"type": "Polygon", "coordinates": [[[108.597835, 23.433217], [108.597854, 23.433117], [108.597903, 23.433061], [108.597965, 23.433047], [108.598148, 23.433044], [108.598151, 23.433182], [108.598089, 23.433178], [108.598024, 23.433187], [108.598003, 23.433223], [108.598014, 23.433294], [108.597848, 23.433312], [108.597835, 23.433217]]]}, "properties": {"display_name": "中国电信, 智城路, 上林县, 南宁市, 广西壮族自治区, 中国", "type": "telecommunication", "osm_type": "way", "osm_id": 1349812027, "class": null, "keyword": "中心商圈"}}, {"type": "Feature", "geometry": {"type": "Polygon", "coordinates": [[[108.484384, 22.744669], [108.48457, 22.744667], [108.484573, 22.744923], [108.484387, 22.744925], [108.484384, 22.744669]]]}, "properties": {"display_name": "艺术中心, 上济路, 邓屋, 邕宁区, 南宁市, 广西壮族自治区, 中国", "type": "school", "osm_type": "way", "osm_id": 1003346441, "class": null, "keyword": "中心商務區"}}]}