{"type": "FeatureCollection", "features": [{"type": "Feature", "geometry": {"type": "Polygon", "coordinates": [[[120.973774, 32.067949], [120.973806, 32.066838], [120.975578, 32.066849], [120.975587, 32.06679], [120.975667, 32.066781], [120.975689, 32.066759], [120.975715, 32.066723], [120.975748, 32.065956], [120.975754, 32.065692], [120.975808, 32.063095], [120.97468, 32.063057], [120.974692, 32.062302], [120.974694, 32.062269], [120.974734, 32.061557], [120.974732, 32.061421], [120.974732, 32.060507], [120.975904, 32.060528], [120.975904, 32.061392], [120.976872, 32.061403], [120.9768, 32.062862], [120.977583, 32.062871], [120.97767, 32.062869], [120.977709, 32.062853], [120.977914, 32.062696], [120.977934, 32.062662], [120.978087, 32.057936], [120.978144, 32.056693], [120.979148, 32.056729], [120.979461, 32.056729], [120.979568, 32.056632], [120.979664, 32.056556], [120.979678, 32.056363], [120.979694, 32.055643], [120.980378, 32.055672], [120.980584, 32.055486], [120.980709, 32.051615], [120.980734, 32.051572], [120.980768, 32.051277], [120.980764, 32.051249], [120.980729, 32.051207], [120.980879, 32.05121], [120.980869, 32.051264], [120.980871, 32.051282], [120.980732, 32.05549], [120.980926, 32.055672], [120.981679, 32.055675], [120.981648, 32.056608], [120.981774, 32.056717], [120.982851, 32.056733], [120.982863, 32.056767], [120.982833, 32.057466], [120.982823, 32.057963], [120.982813, 32.058016], [120.982702, 32.058926], [120.982664, 32.059267], [120.982447, 32.061019], [120.982394, 32.061528], [120.982389, 32.061573], [120.982377, 32.061623], [120.982353, 32.061663], [120.98231, 32.061693], [120.982212, 32.061738], [120.982155, 32.061771], [120.982128, 32.061798], [120.982102, 32.061841], [120.982097, 32.0619], [120.982058, 32.063129], [120.982006, 32.064331], [120.981999, 32.064777], [120.98201, 32.064816], [120.982035, 32.064853], [120.982081, 32.064892], [120.982124, 32.06491], [120.982172, 32.064915], [120.982605, 32.064929], [120.982643, 32.064936], [120.982676, 32.064957], [120.982714, 32.064991], [120.982741, 32.065032], [120.982738, 32.065269], [120.982718, 32.065323], [120.982686, 32.065363], [120.982644, 32.065384], [120.982599, 32.065387], [120.982137, 32.065355], [120.982129, 32.065377], [120.982081, 32.067188], [120.98203, 32.068395], [120.981984, 32.069813], [120.981968, 32.07012], [120.981974, 32.070363], [120.98195, 32.071176], [120.981899, 32.072301], [120.981852, 32.073429], [120.98182, 32.074477], [120.981814, 32.074954], [120.981787, 32.075593], [120.981766, 32.076151], [120.981764, 32.076654], [120.981731, 32.077328], [120.981713, 32.077835], [120.981695, 32.077838], [120.981685, 32.078226], [120.981679, 32.078863], [120.981629, 32.080544], [120.981606, 32.081062], [120.981577, 32.081543], [120.981545, 32.082652], [120.98151, 32.083534], [120.98147, 32.084831], [120.981463, 32.085305], [120.981429, 32.086067], [120.981422, 32.086574], [120.98147, 32.087659], [120.981503, 32.088127], [120.981559, 32.089086], [120.98159, 32.08948], [120.981616, 32.089811], [120.981648, 32.090435], [120.981685, 32.091016], [120.981696, 32.091334], [120.980692, 32.091308], [120.980457, 32.091476], [120.980449, 32.091937], [120.980427, 32.092627], [120.979678, 32.09262], [120.979428, 32.092832], [120.979326, 32.092832], [120.979324, 32.092788], [120.979121, 32.092609], [120.978453, 32.092586], [120.978489, 32.091437], [120.978268, 32.091254], [120.976585, 32.091217], [120.976548, 32.091196], [120.976531, 32.091174], [120.976545, 32.090765], [120.976573, 32.090671], [120.976986, 32.090683], [120.977017, 32.089827], [120.977041, 32.088487], [120.97708, 32.087905], [120.977105, 32.087292], [120.977119, 32.086771], [120.977151, 32.086122], [120.977159, 32.08547], [120.977178, 32.085179], [120.977186, 32.084781], [120.977199, 32.084179], [120.977221, 32.083904], [120.977223, 32.083659], [120.977256, 32.082659], [120.977315, 32.080977], [120.97735, 32.07955], [120.977384, 32.078863], [120.977406, 32.078216], [120.977435, 32.077213], [120.977489, 32.075734], [120.977304, 32.075606], [120.975544, 32.075966], [120.975504, 32.075988], [120.975371, 32.07611], [120.975371, 32.076133], [120.975358, 32.076366], [120.975335, 32.076404], [120.975298, 32.076422], [120.975266, 32.076422], [120.974789, 32.076416], [120.974761, 32.076409], [120.97474, 32.076397], [120.97471, 32.076371], [120.974651, 32.076161], [120.974624, 32.076057], [120.974485, 32.07549], [120.974403, 32.075499], [120.974371, 32.07532], [120.974293, 32.074837], [120.974301, 32.074547], [120.974281, 32.072568], [120.97445, 32.072377], [120.974456, 32.072281], [120.974452, 32.072246], [120.974584, 32.072056], [120.974594, 32.071614], [120.974488, 32.071597], [120.974437, 32.07158], [120.97438, 32.071538], [120.974343, 32.071494], [120.974312, 32.071444], [120.974257, 32.071322], [120.974203, 32.071188], [120.974158, 32.07105], [120.974128, 32.070888], [120.974096, 32.070652], [120.97408, 32.070518], [120.974056, 32.070036], [120.974067, 32.06972], [120.974101, 32.069308], [120.974131, 32.069079], [120.974176, 32.068863], [120.974246, 32.068599], [120.974329, 32.068407], [120.974411, 32.068238], [120.97404, 32.068218], [120.973962, 32.068122], [120.973774, 32.067949]]]}, "properties": {"display_name": "南通兴东国际机场, 兴金路, 黄金村, 兴东街道, 通州区, 南通市, 江苏省, 226300, 中国", "type": "aerodrome", "osm_type": "way", "osm_id": 225885023, "class": null, "keyword": "district"}}, {"type": "Feature", "geometry": {"type": "Polygon", "coordinates": [[[120.885814, 31.975522], [120.885861, 31.975307], [120.887773, 31.966606], [120.887915, 31.966093], [120.888059, 31.96564], [120.889663, 31.965924], [120.89097, 31.966247], [120.893853, 31.967174], [120.894598, 31.967401], [120.899086, 31.968801], [120.897204, 31.977329], [120.885814, 31.975522]]]}, "properties": {"display_name": "中央商务区, 文峰街道, 崇川区, 南通市, 江苏省, 226000, 中国", "type": "administrative", "osm_type": "relation", "osm_id": 19533403, "class": null, "keyword": "中央区"}}, {"type": "Feature", "geometry": {"type": "Polygon", "coordinates": [[[120.556863, 32.07581], [120.565725, 32.070636], [120.56603, 32.070904], [120.567865, 32.070082], [120.569364, 32.071008], [120.568806, 32.071401], [120.569194, 32.073211], [120.570235, 32.076683], [120.570588, 32.077862], [120.570952, 32.079128], [120.568038, 32.082543], [120.567241, 32.083386], [120.559986, 32.079897], [120.55773, 32.076848], [120.556863, 32.07581]]]}, "properties": {"display_name": "如皋市中心沙水产养殖场, 长江镇, 如皋市, 南通市, 江苏省, 226500, 中国", "type": "administrative", "osm_type": "relation", "osm_id": 14103733, "class": null, "keyword": "市中心"}}, {"type": "Feature", "geometry": {"type": "Polygon", "coordinates": [[[121.075538, 32.065447], [121.075539, 32.064566], [121.075592, 32.061243], [121.08055, 32.061307], [121.080493, 32.06547], [121.075538, 32.065447]]]}, "properties": {"display_name": "通州区市民健身中心, 金新街道, 通州区, 南通市, 江苏省, 226300, 中国", "type": "park", "osm_type": "way", "osm_id": 475036746, "class": null, "keyword": "市中心"}}, {"type": "Feature", "geometry": {"type": "Polygon", "coordinates": [[[120.907181, 31.985181], [120.907291, 31.984343], [120.911102, 31.984796], [120.911078, 31.985265], [120.911014, 31.985875], [120.912433, 31.986061], [120.912551, 31.988084], [120.908646, 31.988225], [120.907645, 31.985897], [120.907181, 31.985181]]]}, "properties": {"display_name": "中南世纪新城, 观音山街道, 崇川区, 南通市, 江苏省, 226000, 中国", "type": "residential", "osm_type": "way", "osm_id": 355374438, "class": null, "keyword": "市中心"}}, {"type": "Feature", "geometry": {"type": "Polygon", "coordinates": [[[120.566701, 32.374788], [120.566707, 32.374625], [120.567349, 32.373654], [120.567408, 32.373681], [120.567541, 32.373739], [120.567633, 32.37356], [120.567723, 32.37341], [120.567754, 32.373301], [120.567803, 32.373218], [120.567893, 32.373074], [120.568095, 32.372703], [120.568523, 32.372094], [120.572039, 32.373766], [120.571808, 32.374095], [120.571047, 32.37522], [120.570993, 32.375295], [120.571127, 32.375365], [120.571201, 32.375415], [120.570575, 32.376465], [120.570403, 32.376483], [120.566701, 32.374788]]]}, "properties": {"display_name": "如皋市行政中心, 府西路, 城南社区, 如城街道, 如皋市, 南通市, 江苏省, 226500, 中国", "type": "government", "osm_type": "way", "osm_id": 818814687, "class": null, "keyword": "市中心"}}, {"type": "Feature", "geometry": {"type": "Polygon", "coordinates": [[[120.863812, 32.00995], [120.864318, 32.008544], [120.86439, 32.008517], [120.864434, 32.008513], [120.865439, 32.008803], [120.865054, 32.009892], [120.865161, 32.009987], [120.865863, 32.010301], [120.866141, 32.010419], [120.86628, 32.010487], [120.866379, 32.010532], [120.866518, 32.010573], [120.866781, 32.010667], [120.866955, 32.010763], [120.867017, 32.010897], [120.867075, 32.01106], [120.867108, 32.011228], [120.867114, 32.011284], [120.86712, 32.011327], [120.867115, 32.011357], [120.867084, 32.011442], [120.867092, 32.011624], [120.867105, 32.011901], [120.867152, 32.011942], [120.867128, 32.01201], [120.866921, 32.011994], [120.866162, 32.011937], [120.865185, 32.011833], [120.865308, 32.011272], [120.865081, 32.011067], [120.863908, 32.010836], [120.864161, 32.010025], [120.863812, 32.00995]]]}, "properties": {"display_name": "南通大学启秀校区, 养老院路, 启秀社区, 新城桥街道, 崇川区, 南通市, 江苏省, 226000, 中国", "type": "school", "osm_type": "way", "osm_id": 315249771, "class": null, "keyword": "老城区"}}, {"type": "Feature", "geometry": {"type": "Polygon", "coordinates": [[[120.596671, 32.358065], [120.596932, 32.357535], [120.597047, 32.357335], [120.597211, 32.357161], [120.597452, 32.357031], [120.59769, 32.356974], [120.597914, 32.35694], [120.598119, 32.356983], [120.598342, 32.357031], [120.598537, 32.357107], [120.598695, 32.357207], [120.598886, 32.357332], [120.60034, 32.357822], [120.60034, 32.357926], [120.599372, 32.359327], [120.596671, 32.358065]]]}, "properties": {"display_name": "如皋高新区实验初中, 丞相大道, 建设社区, 城南街道, 如皋市, 南通市, 江苏省, 226500, 中国", "type": "school", "osm_type": "way", "osm_id": 814442054, "class": null, "keyword": "市中心"}}, {"type": "Feature", "geometry": {"type": "Polygon", "coordinates": [[[120.938039, 31.92102], [120.940524, 31.920437], [120.940953, 31.921952], [120.938507, 31.922522], [120.938039, 31.92102]]]}, "properties": {"display_name": "星湖邻里, 南通经济技术开发区, 崇川区, 南通市, 江苏省, 226000, 中国", "type": "residential", "osm_type": "way", "osm_id": 414583788, "class": null, "keyword": "neighbourhood"}}, {"type": "Feature", "geometry": {"type": "Polygon", "coordinates": [[[120.46196, 32.533947], [120.461966, 32.533917], [120.46256, 32.533085], [120.46262, 32.533051], [120.465156, 32.534348], [120.46453, 32.535253], [120.4645, 32.535263], [120.464464, 32.535258], [120.463449, 32.534747], [120.463448, 32.534653], [120.463417, 32.534567], [120.463342, 32.534488], [120.463248, 32.53444], [120.463135, 32.534428], [120.463033, 32.534437], [120.462941, 32.53448], [120.462001, 32.534007], [120.461974, 32.533983], [120.46196, 32.533947]]]}, "properties": {"display_name": "行政中心市民广场, 海安街道, 海安市, 南通市, 江苏省, 226600, 中国", "type": "park", "osm_type": "way", "osm_id": 444985263, "class": null, "keyword": "市中心"}}, {"type": "Feature", "geometry": {"type": "Polygon", "coordinates": [[[120.881157, 31.9883], [120.881564, 31.986529], [120.881604, 31.986357], [120.88278, 31.986603], [120.882345, 31.988534], [120.881157, 31.9883]]]}, "properties": {"display_name": "南通市政务中心, 文峰街道, 崇川区, 南通市, 江苏省, 226000, 中国", "type": "commercial", "osm_type": "way", "osm_id": 570803882, "class": null, "keyword": "市中心"}}, {"type": "Feature", "geometry": {"type": "Polygon", "coordinates": [[[120.563207, 32.365201], [120.563969, 32.363819], [120.564045, 32.363853], [120.565321, 32.364425], [120.564526, 32.365743], [120.563207, 32.365201]]]}, "properties": {"display_name": "如皋市公共卫生中心, 大司马南路, 纪庄社区, 如城街道, 如皋市, 南通市, 江苏省, 226500, 中国", "type": "government", "osm_type": "way", "osm_id": 973213604, "class": null, "keyword": "市中心"}}, {"type": "Feature", "geometry": {"type": "Polygon", "coordinates": [[[120.581254, 32.379632], [120.581265, 32.379367], [120.581295, 32.379369], [120.581316, 32.379137], [120.58138, 32.379143], [120.582155, 32.37916], [120.582117, 32.3791], [120.58211, 32.379028], [120.582134, 32.378958], [120.582194, 32.378905], [120.582281, 32.37889], [120.582365, 32.378904], [120.582432, 32.378961], [120.582478, 32.379021], [120.582487, 32.378581], [120.583464, 32.378576], [120.583479, 32.379793], [120.581288, 32.379781], [120.581299, 32.379633], [120.581254, 32.379632]]]}, "properties": {"display_name": "如皋市奥利匹克中心  游泳馆, 万寿南路, 城东社区, 如城街道, 如皋市, 南通市, 江苏省, 226500, 中国", "type": "sports_centre", "osm_type": "way", "osm_id": 520992606, "class": null, "keyword": "市中心"}}, {"type": "Feature", "geometry": {"type": "Polygon", "coordinates": [[[120.631541, 32.222283], [120.632224, 32.221224], [120.633179, 32.221986], [120.632695, 32.222598], [120.633112, 32.222903], [120.632779, 32.223226], [120.631541, 32.222283]]]}, "properties": {"display_name": "如皋市下原镇中心幼儿园, 惠民路, 下原社区, 下原镇, 如皋市, 南通市, 江苏省, 226500, 中国", "type": "kindergarten", "osm_type": "way", "osm_id": 1032828407, "class": null, "keyword": "市中心"}}, {"type": "Feature", "geometry": {"type": "Polygon", "coordinates": [[[120.869849, 32.045808], [120.871994, 32.045775], [120.872022, 32.045775], [120.872037, 32.045783], [120.872043, 32.045794], [120.872047, 32.045819], [120.872053, 32.046468], [120.869852, 32.046474], [120.869849, 32.045808]]]}, "properties": {"display_name": "南通市港闸区政务中心, 秦灶街道, 崇川区, 南通市, 江苏省, 226000, 中国", "type": "commercial", "osm_type": "way", "osm_id": 659900120, "class": null, "keyword": "市中心"}}, {"type": "Feature", "geometry": {"type": "Polygon", "coordinates": [[[120.594431, 32.378384], [120.595459, 32.377256], [120.596297, 32.377813], [120.595335, 32.378812], [120.594772, 32.378579], [120.594431, 32.378384]]]}, "properties": {"display_name": "如城街道敬老院, 椿萱路, 城东社区, 如城街道, 如皋市, 南通市, 江苏省, 226500, 中国", "type": "social_facility", "osm_type": "way", "osm_id": 973209042, "class": null, "keyword": "老城"}}, {"type": "Feature", "geometry": {"type": "Polygon", "coordinates": [[[120.556997, 32.370404], [120.557476, 32.369385], [120.558616, 32.369904], [120.558622, 32.369953], [120.55814, 32.370837], [120.55805, 32.370869], [120.556997, 32.370404]]]}, "properties": {"display_name": "如皋市农业服务中心, 长宁路, 许庄社区, 如城街道, 如皋市, 南通市, 江苏省, 226500, 中国", "type": "government", "osm_type": "way", "osm_id": 973209003, "class": null, "keyword": "市中心"}}, {"type": "Feature", "geometry": {"type": "Polygon", "coordinates": [[[120.635239, 32.365865], [120.635744, 32.364984], [120.636965, 32.365467], [120.636467, 32.366353], [120.635239, 32.365865]]]}, "properties": {"display_name": "如皋市如城老南小学, 如丁线, 新官村, 如城街道, 如皋市, 南通市, 江苏省, 226500, 中国", "type": "school", "osm_type": "way", "osm_id": 1032537308, "class": null, "keyword": "老城"}}, {"type": "Feature", "geometry": {"type": "Polygon", "coordinates": [[[120.564719, 32.293997], [120.565044, 32.293366], [120.566008, 32.293734], [120.565557, 32.295027], [120.564753, 32.294851], [120.56514, 32.29415], [120.564719, 32.293997]]]}, "properties": {"display_name": "如皋市磨头镇中心幼儿园, 振兴路, 磨头社区, 磨头镇, 如皋市, 南通市, 江苏省, 226500, 中国", "type": "kindergarten", "osm_type": "way", "osm_id": 1032828419, "class": null, "keyword": "市中心"}}, {"type": "Feature", "geometry": {"type": "Polygon", "coordinates": [[[120.894039, 31.978288], [120.89426, 31.977287], [120.895278, 31.977443], [120.895055, 31.978461], [120.895019, 31.978497], [120.894982, 31.978518], [120.894079, 31.978372], [120.894054, 31.978351], [120.89404, 31.978324], [120.894039, 31.978288]]]}, "properties": {"display_name": "中国人民银行南通市中心支行, 文峰街道, 崇川区, 南通市, 江苏省, 226000, 中国", "type": "commercial", "osm_type": "way", "osm_id": 570803858, "class": null, "keyword": "市中心"}}, {"type": "Feature", "geometry": {"type": "Polygon", "coordinates": [[[120.411676, 32.168797], [120.41185, 32.167687], [120.412827, 32.167759], [120.41267, 32.168877], [120.411676, 32.168797]]]}, "properties": {"display_name": "如皋市江安镇中心幼儿园, 府前路, 镇中社区, 江安镇, 如皋市, 南通市, 江苏省, 226500, 中国", "type": "school", "osm_type": "way", "osm_id": 1032856533, "class": null, "keyword": "市中心"}}, {"type": "Feature", "geometry": {"type": "Polygon", "coordinates": [[[120.561, 32.365884], [120.561016, 32.365771], [120.561057, 32.365651], [120.56137, 32.365119], [120.561509, 32.365063], [120.562255, 32.36539], [120.562265, 32.365474], [120.561714, 32.366363], [120.561118, 32.366082], [120.561045, 32.366005], [120.561, 32.365884]]]}, "properties": {"display_name": "如皋市公共治理服务中心, 长宁路, 纪庄社区, 如城街道, 如皋市, 南通市, 江苏省, 226500, 中国", "type": "government", "osm_type": "way", "osm_id": 973213605, "class": null, "keyword": "市中心"}}, {"type": "Feature", "geometry": {"type": "Polygon", "coordinates": [[[120.566921, 32.374656], [120.56735, 32.374015], [120.568404, 32.374519], [120.567974, 32.375159], [120.566921, 32.374656]]]}, "properties": {"display_name": "如皋市公共资源交易中心, 解放路, 城南社区, 如城街道, 如皋市, 南通市, 江苏省, 226500, 中国", "type": "yes", "osm_type": "way", "osm_id": 973200407, "class": null, "keyword": "市中心"}}, {"type": "Feature", "geometry": {"type": "Polygon", "coordinates": [[[120.882288, 31.994007], [120.882438, 31.993327], [120.883004, 31.993401], [120.883244, 31.993419], [120.883519, 31.993425], [120.883601, 31.994228], [120.882288, 31.994007]]]}, "properties": {"display_name": "南通市疾病预防控制中心, 红星路, 五一社区, 文峰街道, 崇川区, 南通市, 江苏省, 226000, 中国", "type": "hospital", "osm_type": "way", "osm_id": 570823301, "class": null, "keyword": "市中心"}}, {"type": "Feature", "geometry": {"type": "Polygon", "coordinates": [[[120.552104, 32.369387], [120.552566, 32.368744], [120.553202, 32.369025], [120.552755, 32.369701], [120.552104, 32.369387]]]}, "properties": {"display_name": "如皋市综合检验检测中心, 解放西路, 许庄社区, 如城街道, 如皋市, 南通市, 江苏省, 226500, 中国", "type": "government", "osm_type": "way", "osm_id": 973209006, "class": null, "keyword": "市中心"}}, {"type": "Feature", "geometry": {"type": "Polygon", "coordinates": [[[120.637236, 32.406726], [120.637243, 32.406215], [120.638036, 32.406244], [120.638033, 32.406458], [120.638435, 32.406467], [120.638427, 32.406781], [120.637236, 32.406726]]]}, "properties": {"display_name": "如皋市东陈镇中心幼儿园, 东建路, 洪桥社区, 东陈镇, 如皋市, 南通市, 江苏省, 226500, 中国", "type": "kindergarten", "osm_type": "way", "osm_id": 1032606686, "class": null, "keyword": "市中心"}}, {"type": "Feature", "geometry": {"type": "Polygon", "coordinates": [[[121.656435, 31.792067], [121.657336, 31.791705], [121.657431, 31.791834], [121.657624, 31.792114], [121.656689, 31.792506], [121.656435, 31.792067]]]}, "properties": {"display_name": "启东市水上搜救中心, 汇龙镇, 启东市, 南通市, 江苏省, 226200, 中国", "type": "governmental", "osm_type": "way", "osm_id": 1305201775, "class": null, "keyword": "市中心"}}, {"type": "Feature", "geometry": {"type": "Polygon", "coordinates": [[[120.555174, 32.376611], [120.555434, 32.376142], [120.556274, 32.376474], [120.556014, 32.376943], [120.555174, 32.376611]]]}, "properties": {"display_name": "如皋市社会治理综合服务中心, 福寿路, 许庄社区, 如城街道, 如皋市, 南通市, 江苏省, 226500, 中国", "type": "government", "osm_type": "way", "osm_id": 834253790, "class": null, "keyword": "市中心"}}, {"type": "Feature", "geometry": {"type": "Polygon", "coordinates": [[[120.54493, 32.2017], [120.54583, 32.201093], [120.546115, 32.201418], [120.545232, 32.202008], [120.54493, 32.2017]]]}, "properties": {"display_name": "如皋市吴窑镇中心幼儿园, 鲁班西路, 吴窑社区, 吴窑镇, 如皋市, 南通市, 江苏省, 226500, 中国", "type": "kindergarten", "osm_type": "way", "osm_id": 1032828415, "class": null, "keyword": "市中心"}}, {"type": "Feature", "geometry": {"type": "Polygon", "coordinates": [[[120.758362, 32.242515], [120.758449, 32.242191], [120.758859, 32.24224], [120.758856, 32.242344], [120.759176, 32.242378], [120.759185, 32.242574], [120.758362, 32.242515]]]}, "properties": {"display_name": "如皋市白蒲镇中心幼儿园, 中心街, 跃进社区, 白蒲镇, 如皋市, 南通市, 江苏省, 226500, 中国", "type": "kindergarten", "osm_type": "way", "osm_id": 1032785620, "class": null, "keyword": "市中心"}}, {"type": "Feature", "geometry": {"type": "Polygon", "coordinates": [[[120.60479, 32.342548], [120.605019, 32.342285], [120.605342, 32.342486], [120.6053, 32.342535], [120.605208, 32.34264], [120.605113, 32.342749], [120.60479, 32.342548]]]}, "properties": {"display_name": "如皋市全域旅游服务中心, 万寿南路, 建设社区, 城南街道, 如皋市, 南通市, 江苏省, 226500, 中国", "type": "yes", "osm_type": "way", "osm_id": 973200395, "class": null, "keyword": "市中心"}}, {"type": "Feature", "geometry": {"type": "Polygon", "coordinates": [[[121.058373, 32.074001], [121.058379, 32.073878], [121.059088, 32.073902], [121.059082, 32.074025], [121.058373, 32.074001]]]}, "properties": {"display_name": "南通市通州区残疾人综合服务中心, 银河路, 金南, 金新街道, 通州区, 南通市, 江苏省, 226300, 中国", "type": "administrative", "osm_type": "way", "osm_id": 374890517, "class": null, "keyword": "市中心"}}, {"type": "Feature", "geometry": {"type": "Polygon", "coordinates": [[[121.657005, 31.792154], [121.657439, 31.791976], [121.657503, 31.792089], [121.657068, 31.792267], [121.657005, 31.792154]]]}, "properties": {"display_name": "启东市水上搜救中心, 牡丹江中路, 汇龙镇, 启东市, 南通市, 江苏省, 226200, 中国", "type": "community_centre", "osm_type": "way", "osm_id": 1305201776, "class": null, "keyword": "市中心"}}, {"type": "Feature", "geometry": {"type": "Polygon", "coordinates": [[[121.079559, 32.081986], [121.0798, 32.081872], [121.079924, 32.0819], [121.080094, 32.082146], [121.079989, 32.082194], [121.079881, 32.082004], [121.079768, 32.081981], [121.079613, 32.082068], [121.079559, 32.081986]]]}, "properties": {"display_name": "东市社区活动中心, 东市巷, 金沙街道, 通州区, 南通市, 江苏省, 226300, 中国", "type": "community_centre", "osm_type": "way", "osm_id": 369316166, "class": null, "keyword": "市中心"}}, {"type": "Feature", "geometry": {"type": "Polygon", "coordinates": [[[121.082056, 32.086814], [121.082451, 32.086672], [121.082522, 32.086815], [121.082389, 32.086862], [121.082372, 32.086828], [121.082232, 32.086878], [121.082245, 32.086904], [121.082123, 32.086948], [121.082056, 32.086814]]]}, "properties": {"display_name": "新市社区公共服务中心, 为民路, 天虹, 金沙街道, 通州区, 南通市, 江苏省, 226300, 中国", "type": "community_centre", "osm_type": "way", "osm_id": 369773388, "class": null, "keyword": "市中心"}}, {"type": "Feature", "geometry": {"type": "Polygon", "coordinates": [[[121.657773, 31.792207], [121.657996, 31.792112], [121.65807, 31.792237], [121.657951, 31.792288], [121.657996, 31.792363], [121.657892, 31.792408], [121.657773, 31.792207]]]}, "properties": {"display_name": "启东市综合检验检测中心, 牡丹江中路, 汇龙镇, 启东市, 南通市, 江苏省, 226200, 中国", "type": "community_centre", "osm_type": "way", "osm_id": 1305201779, "class": null, "keyword": "市中心"}}]}