{"type": "FeatureCollection", "features": [{"type": "Feature", "geometry": {"type": "MultiPolygon", "coordinates": [[[[112.009226, 32.684305], [112.011427, 32.683914], [112.011497, 32.683902], [112.013758, 32.682729], [112.019183, 32.679607], [112.022304, 32.678754], [112.02644, 32.677624], [112.026921, 32.679929], [112.027688, 32.679829], [112.030101, 32.679518], [112.03329, 32.679876], [112.034686, 32.682558], [112.037879, 32.683301], [112.043338, 32.683256], [112.046991, 32.68438], [112.046581, 32.688231], [112.042054, 32.690193], [112.043472, 32.694798], [112.043027, 32.695571], [112.039842, 32.695598], [112.040796, 32.699438], [112.042661, 32.70327], [112.044048, 32.705182], [112.046324, 32.705163], [112.048108, 32.70207], [112.050222, 32.703822], [112.047702, 32.706306], [112.048649, 32.709376], [112.053227, 32.711647], [112.053049, 32.711799], [112.051875, 32.712812], [112.045066, 32.714408], [112.041863, 32.712896], [112.041754, 32.713315], [112.040556, 32.717909], [112.039231, 32.721383], [112.039124, 32.721444], [112.035161, 32.723725], [112.023092, 32.727354], [112.022006, 32.727681], [112.017737, 32.729225], [112.016504, 32.724263], [112.017393, 32.722331], [112.016421, 32.716952], [112.021401, 32.714604], [112.021925, 32.713464], [112.02229, 32.712672], [112.020893, 32.70999], [112.018158, 32.709628], [112.016771, 32.707715], [112.017592, 32.707554], [112.020858, 32.706912], [112.017617, 32.701937], [112.019791, 32.700062], [112.02032, 32.699606], [112.020289, 32.696913], [112.018894, 32.694231], [112.018876, 32.692692], [112.016614, 32.693864], [112.01434, 32.693883], [112.013858, 32.691578], [112.012501, 32.69231], [112.012476, 32.69005], [112.013819, 32.688116], [112.012243, 32.687465], [112.010162, 32.686606], [112.009226, 32.684305]]], [[[112.030326, 32.659508], [112.031664, 32.657188], [112.033019, 32.656407], [112.034182, 32.656398], [112.039841, 32.656351], [112.041665, 32.656721], [112.04303, 32.656709], [112.045838, 32.656005], [112.046205, 32.655913], [112.044359, 32.65362], [112.049348, 32.652424], [112.046574, 32.648599], [112.052454, 32.645857], [112.054615, 32.645184], [112.058798, 32.64388], [112.062886, 32.64346], [112.063809, 32.644607], [112.065647, 32.64613], [112.067475, 32.646884], [112.070681, 32.648781], [112.068885, 32.65072], [112.073877, 32.649047], [112.074774, 32.648746], [112.074392, 32.647807], [112.071494, 32.640694], [112.077832, 32.638331], [112.075035, 32.632583], [112.073235, 32.634138], [112.069974, 32.627624], [112.070237, 32.625688], [112.070392, 32.624543], [112.085539, 32.625429], [112.085741, 32.625441], [112.099058, 32.626219], [112.102231, 32.625422], [112.096278, 32.622011], [112.09794, 32.619125], [112.098059, 32.618917], [112.100342, 32.619666], [112.10126, 32.620428], [112.101288, 32.622736], [112.106758, 32.623842], [112.106796, 32.626896], [112.106801, 32.627305], [112.110888, 32.626884], [112.111011, 32.627007], [112.11319, 32.629173], [112.117291, 32.629905], [112.120948, 32.631412], [112.121938, 32.633577], [112.12235, 32.634478], [112.123298, 32.637547], [112.124667, 32.63792], [112.126041, 32.638678], [112.12696, 32.639438], [112.129243, 32.640187], [112.129332, 32.640121], [112.132397, 32.637851], [112.13422, 32.638219], [112.137843, 32.637032], [112.138989, 32.636534], [112.139217, 32.637789], [112.141535, 32.641231], [112.142914, 32.642373], [112.146561, 32.643109], [112.148419, 32.64617], [112.150688, 32.645764], [112.150764, 32.646068], [112.151652, 32.649988], [112.150346, 32.654617], [112.148203, 32.655549], [112.145823, 32.656583], [112.146312, 32.659271], [112.147598, 32.65926], [112.150861, 32.65923], [112.153584, 32.65882], [112.160406, 32.658757], [112.160827, 32.661964], [112.16192, 32.670286], [112.16527, 32.674436], [112.168796, 32.678805], [112.170243, 32.680597], [112.171115, 32.681499], [112.170713, 32.681748], [112.168943, 32.685612], [112.167614, 32.688317], [112.163974, 32.688351], [112.161214, 32.686068], [112.155335, 32.688816], [112.153545, 32.691141], [112.151774, 32.695005], [112.151156, 32.695141], [112.146329, 32.696209], [112.144025, 32.693921], [112.14194, 32.69394], [112.135835, 32.693996], [112.131726, 32.692879], [112.127128, 32.689072], [112.125778, 32.690239], [112.12328, 32.692037], [112.122157, 32.69181], [112.122119, 32.688733], [112.124795, 32.684476], [112.124291, 32.680566], [112.124229, 32.675632], [112.114681, 32.676102], [112.114703, 32.678794], [112.108341, 32.678466], [112.10928, 32.680766], [112.103821, 32.680815], [112.102896, 32.679668], [112.101992, 32.680061], [112.102428, 32.678518], [112.100158, 32.678923], [112.100134, 32.676999], [112.097864, 32.677404], [112.095135, 32.677428], [112.095074, 32.672427], [112.09099, 32.673231], [112.090469, 32.667849], [112.085006, 32.667512], [112.084978, 32.665204], [112.083159, 32.665219], [112.083122, 32.662141], [112.080379, 32.66101], [112.07811, 32.661415], [112.078086, 32.659491], [112.077613, 32.657956], [112.073543, 32.659915], [112.067676, 32.663813], [112.062678, 32.66424], [112.059984, 32.667341], [112.054094, 32.669314], [112.055486, 32.671611], [112.053234, 32.673554], [112.052342, 32.675101], [112.052374, 32.677794], [112.05009, 32.677044], [112.046452, 32.677074], [112.044174, 32.676708], [112.041853, 32.67288], [112.040497, 32.673661], [112.03775, 32.672144], [112.035939, 32.672929], [112.035003, 32.670628], [112.034062, 32.667942], [112.033113, 32.664487], [112.030348, 32.661431], [112.030326, 32.659508]]]]}, "properties": {"display_name": "湍河街道, 邓州市, 南阳市, 河南省, 中国", "type": "administrative", "osm_type": "relation", "osm_id": 9992496, "class": null, "keyword": "subdistrict"}}, {"type": "Feature", "geometry": {"type": "Polygon", "coordinates": [[[112.15361, 33.04102], [112.153941, 33.038572], [112.153911, 33.036264], [112.15399, 33.03625], [112.158468, 33.035452], [112.16028, 33.034281], [112.163487, 33.035021], [112.166207, 33.033456], [112.172144, 33.033401], [112.175788, 33.032597], [112.178579, 33.036418], [112.178617, 33.036062], [112.178984, 33.032567], [112.181725, 33.032541], [112.182166, 33.031383], [112.184125, 33.029694], [112.184423, 33.029438], [112.186702, 33.029031], [112.190791, 33.027453], [112.192187, 33.029364], [112.192691, 33.032821], [112.195929, 33.035868], [112.198229, 33.037001], [112.200559, 33.040441], [112.200596, 33.043134], [112.200936, 33.043413], [112.202905, 33.045035], [112.204276, 33.045022], [112.205221, 33.047321], [112.205709, 33.049625], [112.208782, 33.048555], [112.210256, 33.048042], [112.208859, 33.046132], [112.212025, 33.043793], [112.214212, 33.043155], [112.214755, 33.042997], [112.220719, 33.044862], [112.220869, 33.045704], [112.2219, 33.045775], [112.222057, 33.044849], [112.222094, 33.044849], [112.227571, 33.044795], [112.227633, 33.044846], [112.229419, 33.046315], [112.229473, 33.050162], [112.234057, 33.051271], [112.235377, 33.050979], [112.2377, 33.050466], [112.237767, 33.049756], [112.238136, 33.046216], [112.242226, 33.044791], [112.242644, 33.044646], [112.247212, 33.0446], [112.254063, 33.044531], [112.257697, 33.044276], [112.259891, 33.044122], [112.260452, 33.044082], [112.260458, 33.044544], [112.260479, 33.046006], [112.260947, 33.046771], [112.261877, 33.047915], [112.264177, 33.049046], [112.262547, 33.05116], [112.262383, 33.051373], [112.268316, 33.050928], [112.269686, 33.050914], [112.269713, 33.052837], [112.268493, 33.053541], [112.265635, 33.055187], [112.263847, 33.057899], [112.262482, 33.058297], [112.263886, 33.060591], [112.264173, 33.062946], [112.264403, 33.064818], [112.268124, 33.069397], [112.26964, 33.070644], [112.27136, 33.072057], [112.27141, 33.075519], [112.266885, 33.078643], [112.267221, 33.081602], [112.267408, 33.083255], [112.26797, 33.090559], [112.276229, 33.092784], [112.280404, 33.096972], [112.284567, 33.100392], [112.28542, 33.101614], [112.281391, 33.101964], [112.280538, 33.106205], [112.275151, 33.114023], [112.273976, 33.120053], [112.273887, 33.120508], [112.271205, 33.124768], [112.269349, 33.122863], [112.268518, 33.122256], [112.265191, 33.119827], [112.263445, 33.118681], [112.25412, 33.113014], [112.252444, 33.112098], [112.250358, 33.110957], [112.249974, 33.110747], [112.248184, 33.113459], [112.242693, 33.113129], [112.240821, 33.110069], [112.238514, 33.108553], [112.235325, 33.109355], [112.234922, 33.113206], [112.233092, 33.115099], [112.232669, 33.115537], [112.225807, 33.11522], [112.223032, 33.112938], [112.222978, 33.109091], [112.219322, 33.109127], [112.217934, 33.107987], [112.215474, 33.107693], [112.2135, 33.107457], [112.211982, 33.107276], [112.211535, 33.108049], [112.21091, 33.109133], [112.209255, 33.108456], [112.207385, 33.105396], [112.204632, 33.104653], [112.203894, 33.102861], [112.202741, 33.100055], [112.201758, 33.095063], [112.202158, 33.090827], [112.20169, 33.090062], [112.198948, 33.090088], [112.197566, 33.089332], [112.197536, 33.087024], [112.196611, 33.086263], [112.194316, 33.085516], [112.193386, 33.08437], [112.193807, 33.081673], [112.191543, 33.083234], [112.192041, 33.081473], [112.193292, 33.077446], [112.193225, 33.072485], [112.193215, 33.071675], [112.195042, 33.071658], [112.190915, 33.070543], [112.189066, 33.069022], [112.188147, 33.068646], [112.185858, 33.068283], [112.184905, 33.066724], [112.184456, 33.065988], [112.184389, 33.060987], [112.183439, 33.058303], [112.18085, 33.059424], [112.180714, 33.059483], [112.178404, 33.057581], [112.174288, 33.057235], [112.170643, 33.058039], [112.164704, 33.058094], [112.162415, 33.057731], [112.159277, 33.058755], [112.15877, 33.058926], [112.16641, 33.048844], [112.163207, 33.048489], [112.159187, 33.055453], [112.157384, 33.057393], [112.156004, 33.056636], [112.154603, 33.054341], [112.156391, 33.051246], [112.158212, 33.050844], [112.160928, 33.048896], [112.160555, 33.048283], [112.164552, 33.046553], [112.163086, 33.045588], [112.162248, 33.045036], [112.162674, 33.042723], [112.165405, 33.041928], [112.164928, 33.040394], [112.160807, 33.039663], [112.15762, 33.040462], [112.15361, 33.04102]]]}, "properties": {"display_name": "玉都街道, 镇平县, 南阳市, 河南省, 中国", "type": "administrative", "osm_type": "relation", "osm_id": 10000106, "class": null, "keyword": "subdistrict"}}, {"type": "Feature", "geometry": {"type": "Polygon", "coordinates": [[[112.562303, 32.986023], [112.567347, 32.981669], [112.568158, 32.975888], [112.574301, 32.974849], [112.573773, 32.970816], [112.578517, 32.968063], [112.581666, 32.965523], [112.587954, 32.962579], [112.588069, 32.962463], [112.591563, 32.95751], [112.599395, 32.948946], [112.601866, 32.946798], [112.602031, 32.943334], [112.60567, 32.94271], [112.616596, 32.953919], [112.630771, 32.955466], [112.631871, 32.965646], [112.642076, 32.974553], [112.642687, 32.974673], [112.644464, 32.980292], [112.64773, 32.984096], [112.656303, 32.990908], [112.667636, 32.986718], [112.674265, 32.987206], [112.679976, 33.011558], [112.680958, 33.0152], [112.676215, 33.017957], [112.671715, 33.021479], [112.667969, 33.028647], [112.665098, 33.033879], [112.663391, 33.035862], [112.658445, 33.032236], [112.659351, 33.031839], [112.659326, 33.030493], [112.658634, 33.030118], [112.657261, 33.029944], [112.657036, 33.030139], [112.655448, 33.030737], [112.651981, 33.028475], [112.650714, 33.021759], [112.647753, 33.022183], [112.646994, 33.018153], [112.645399, 33.018367], [112.644237, 33.017228], [112.641737, 33.017838], [112.642168, 33.016486], [112.638515, 33.016534], [112.637981, 33.012309], [112.642082, 33.011871], [112.641091, 33.007652], [112.624946, 33.011133], [112.62543, 33.012665], [112.626835, 33.014571], [112.62686, 33.015917], [112.627109, 33.017068], [112.62759, 33.018408], [112.628286, 33.018976], [112.62836, 33.023015], [112.619727, 33.025435], [112.619068, 33.02679], [112.611866, 33.027526], [112.607466, 33.018049], [112.603801, 33.013959], [112.582789, 33.002213], [112.574765, 32.984906], [112.562303, 32.986023]]]}, "properties": {"display_name": "白河街道, 宛城区, 南阳市, 河南省, 473000, 中国", "type": "administrative", "osm_type": "relation", "osm_id": 9996149, "class": null, "keyword": "subdistrict"}}, {"type": "Feature", "geometry": {"type": "Polygon", "coordinates": [[[112.8675, 33.049887], [112.87155, 33.046295], [112.880984, 33.037927], [112.881265, 33.037193], [112.886608, 33.023224], [112.886724, 33.019418], [112.886877, 33.014372], [112.880826, 33.005902], [112.880759, 33.005809], [112.88906, 33.003509], [112.89324, 33.00235], [112.890852, 32.997385], [112.894049, 32.996355], [112.901506, 32.993953], [112.901418, 32.993302], [112.900964, 32.989922], [112.894121, 32.979447], [112.899555, 32.977441], [112.9034, 32.975844], [112.906687, 32.973638], [112.908124, 32.972694], [112.909456, 32.970943], [112.911426, 32.967066], [112.925058, 32.964356], [112.926747, 32.963649], [112.932042, 32.961462], [112.933115, 32.962623], [112.93433, 32.966102], [112.935918, 32.967157], [112.940638, 32.974067], [112.94141, 32.978287], [112.943097, 32.980702], [112.943726, 32.981923], [112.943962, 32.984023], [112.944462, 32.985251], [112.947973, 32.989582], [112.94825, 32.990235], [112.949376, 32.991099], [112.950305, 32.992827], [112.951362, 32.99615], [112.951818, 32.99837], [112.95349, 33.00218], [112.935067, 33.004786], [112.932515, 33.002902], [112.929789, 33.003521], [112.927888, 33.003704], [112.925006, 33.00398], [112.925185, 33.012236], [112.925207, 33.013253], [112.925252, 33.015324], [112.928298, 33.018932], [112.919675, 33.019758], [112.918729, 33.019849], [112.914198, 33.021457], [112.909919, 33.024215], [112.905163, 33.026019], [112.900826, 33.026086], [112.899469, 33.026683], [112.899655, 33.035336], [112.891457, 33.036422], [112.891465, 33.036792], [112.891673, 33.046551], [112.891675, 33.046614], [112.909176, 33.042692], [112.913675, 33.039546], [112.919536, 33.035993], [112.922241, 33.035533], [112.935598, 33.033259], [112.935689, 33.033243], [112.94164, 33.044307], [112.94236, 33.045834], [112.941725, 33.048152], [112.940733, 33.050268], [112.939822, 33.050282], [112.937291, 33.048871], [112.936292, 33.048632], [112.935157, 33.048563], [112.934905, 33.049605], [112.937235, 33.051684], [112.936398, 33.052949], [112.934627, 33.053737], [112.933238, 33.05386], [112.93155, 33.052445], [112.931286, 33.05031], [112.930705, 33.049329], [112.929035, 33.049412], [112.927754, 33.049892], [112.92222, 33.053554], [112.921673, 33.054942], [112.920875, 33.055592], [112.918025, 33.055636], [112.915627, 33.052415], [112.914213, 33.051946], [112.913353, 33.05214], [112.912523, 33.052858], [112.912545, 33.055973], [112.912258, 33.057218], [112.912173, 33.059505], [112.910957, 33.061707], [112.909877, 33.064609], [112.90919, 33.065653], [112.908622, 33.068168], [112.907596, 33.069776], [112.90756, 33.071559], [112.907199, 33.072327], [112.905889, 33.072307], [112.904387, 33.071218], [112.90339, 33.071038], [112.902468, 33.071578], [112.901546, 33.07293], [112.90131, 33.073852], [112.901664, 33.075698], [112.902416, 33.078764], [112.902804, 33.080749], [112.902071, 33.08264], [112.901327, 33.083291], [112.89992, 33.083222], [112.899052, 33.08205], [112.895884, 33.083111], [112.893535, 33.084913], [112.889407, 33.086], [112.889272, 33.083772], [112.888276, 33.079941], [112.886387, 33.077084], [112.883379, 33.074816], [112.883136, 33.074633], [112.882806, 33.069829], [112.88061, 33.061898], [112.879836, 33.059103], [112.875823, 33.053008], [112.875053, 33.04898], [112.8675, 33.049887]]]}, "properties": {"display_name": "赵河街道, 社旗县, 南阳市, 河南省, 中国", "type": "administrative", "osm_type": "relation", "osm_id": 9995738, "class": null, "keyword": "subdistrict"}}, {"type": "Feature", "geometry": {"type": "Polygon", "coordinates": [[[112.552521, 32.635089], [112.552725, 32.63374], [112.553809, 32.630649], [112.554003, 32.628723], [112.554841, 32.628216], [112.556928, 32.626955], [112.558515, 32.626743], [112.558986, 32.627699], [112.563847, 32.627089], [112.565792, 32.626845], [112.570992, 32.625241], [112.571718, 32.627733], [112.572647, 32.628875], [112.573563, 32.629248], [112.57764, 32.628428], [112.579221, 32.627831], [112.58128, 32.628574], [112.582765, 32.629449], [112.582811, 32.62929], [112.582418, 32.628305], [112.58241, 32.62799], [112.58253, 32.62747], [112.58272, 32.62713], [112.5845, 32.62482], [112.58485, 32.6241], [112.58554, 32.62362], [112.585601, 32.62326], [112.58554, 32.62273], [112.58529, 32.62183], [112.585251, 32.62135], [112.58499, 32.62068], [112.58493, 32.62032], [112.585241, 32.61901], [112.585691, 32.61791], [112.58568, 32.61731], [112.58529, 32.61648], [112.58574, 32.61561], [112.586045, 32.615409], [112.592759, 32.61566], [112.597077, 32.615606], [112.60116, 32.615169], [112.607296, 32.615091], [112.612192, 32.618335], [112.613277, 32.619054], [112.616519, 32.616084], [112.617749, 32.614956], [112.620752, 32.617611], [112.631369, 32.615566], [112.632531, 32.615342], [112.636904, 32.620619], [112.628576, 32.622896], [112.639905, 32.633386], [112.644762, 32.637882], [112.653385, 32.636999], [112.657043, 32.638105], [112.663047, 32.639449], [112.664349, 32.63974], [112.663021, 32.640242], [112.659608, 32.641534], [112.654376, 32.641411], [112.649393, 32.642438], [112.647386, 32.644581], [112.647425, 32.646696], [112.648859, 32.650525], [112.649356, 32.652827], [112.649228, 32.658215], [112.64882, 32.659409], [112.646854, 32.665171], [112.648691, 32.666109], [112.652318, 32.665484], [112.658684, 32.6654], [112.663661, 32.663987], [112.668631, 32.66219], [112.66881, 32.662989], [112.669623, 32.666601], [112.670994, 32.668711], [112.67173, 32.669843], [112.672165, 32.670959], [112.672924, 32.672905], [112.672321, 32.677146], [112.673963, 32.679817], [112.67401, 32.682317], [112.673707, 32.682804], [112.672685, 32.68445], [112.669309, 32.686419], [112.667732, 32.68721], [112.667384, 32.688358], [112.667089, 32.689334], [112.664143, 32.68995], [112.661666, 32.69133], [112.660341, 32.693463], [112.65764, 32.695038], [112.655383, 32.69603], [112.650387, 32.69648], [112.648159, 32.697459], [112.647691, 32.69687], [112.64635, 32.6956], [112.64559, 32.69467], [112.64416, 32.69229], [112.6442, 32.69221], [112.64626, 32.69124], [112.64558, 32.69016], [112.64621, 32.68982], [112.64731, 32.68942], [112.64595, 32.68676], [112.64417, 32.68367], [112.643, 32.68128], [112.6426, 32.68016], [112.64129, 32.67833], [112.64089, 32.6776], [112.640648, 32.676533], [112.640601, 32.67639], [112.64005, 32.67639], [112.63934, 32.67665], [112.63802, 32.67762], [112.63751, 32.6779], [112.63706, 32.67828], [112.636211, 32.6793], [112.634201, 32.68103], [112.633751, 32.68152], [112.63287, 32.68048], [112.632091, 32.67985], [112.631765, 32.679499], [112.62768, 32.675169], [112.627281, 32.67456], [112.624931, 32.67225], [112.62515, 32.67206], [112.6257, 32.67185], [112.62715, 32.67155], [112.636501, 32.669], [112.636581, 32.66739], [112.637045, 32.667354], [112.63749, 32.66732], [112.63742, 32.66674], [112.637091, 32.66552], [112.63843, 32.66517], [112.63819, 32.66427], [112.63648, 32.66442], [112.63636, 32.66356], [112.63697, 32.66343], [112.63593, 32.65981], [112.63408, 32.66011], [112.634551, 32.66178], [112.632951, 32.66213], [112.631681, 32.66263], [112.63153, 32.66261], [112.63112, 32.66154], [112.62956, 32.6619], [112.62945, 32.66132], [112.629261, 32.66117], [112.62812, 32.66146], [112.62474, 32.6626], [112.621741, 32.66351], [112.62221, 32.66517], [112.62086, 32.66567], [112.620521, 32.66518], [112.618761, 32.66604], [112.616421, 32.66572], [112.614311, 32.66663], [112.610791, 32.66831], [112.60997, 32.66744], [112.61148, 32.66669], [112.610857, 32.665228], [112.6099, 32.66554], [112.60874, 32.66349], [112.60776, 32.66384], [112.60754, 32.66357], [112.60624, 32.66432], [112.6058, 32.6638], [112.60381, 32.66478], [112.60426, 32.66539], [112.60354, 32.6658], [112.604501, 32.66664], [112.604742, 32.666945], [112.603014, 32.667592], [112.603691, 32.6689], [112.605169, 32.671111], [112.60087, 32.67292], [112.60009, 32.67312], [112.598381, 32.67317], [112.5971, 32.67109], [112.595266, 32.668586], [112.59268, 32.66505], [112.59386, 32.662204], [112.594715, 32.663571], [112.596384, 32.663022], [112.59702, 32.663674], [112.600161, 32.662412], [112.601973, 32.661101], [112.598928, 32.65678], [112.596665, 32.657898], [112.59528, 32.65603], [112.594491, 32.654821], [112.592971, 32.65261], [112.58796, 32.6544], [112.587681, 32.65402], [112.5858, 32.65048], [112.58583, 32.648155], [112.591141, 32.64589], [112.590461, 32.64451], [112.593531, 32.64337], [112.59315, 32.64208], [112.59484, 32.6412], [112.59433, 32.640161], [112.59206, 32.64015], [112.591631, 32.63868], [112.590361, 32.63876], [112.590206, 32.638089], [112.58997, 32.63707], [112.58848, 32.63743], [112.58791, 32.63602], [112.58782, 32.636], [112.585681, 32.636498], [112.58556, 32.63646], [112.58505, 32.63479], [112.582601, 32.635545], [112.57999, 32.63635], [112.57826, 32.63707], [112.57884, 32.6384], [112.578851, 32.63899], [112.57874, 32.6394], [112.57848, 32.63971], [112.57821, 32.63989], [112.576676, 32.640224], [112.572741, 32.64044], [112.572721, 32.63967], [112.571124, 32.639661], [112.564915, 32.640314], [112.562698, 32.63322], [112.553498, 32.637335], [112.552521, 32.635089]], [[112.638814, 32.668552], [112.639879, 32.671247], [112.641829, 32.67109], [112.643709, 32.676108], [112.64428, 32.676029], [112.643198, 32.673384], [112.644522, 32.673168], [112.643704, 32.671131], [112.643036, 32.668827], [112.64163, 32.66878], [112.640915, 32.668129], [112.638814, 32.668552]]]}, "properties": {"display_name": "东兴街道, 官庄工区, 唐河县, 南阳市, 河南省, 中国", "type": "administrative", "osm_type": "relation", "osm_id": 9994924, "class": null, "keyword": "subdistrict"}}, {"type": "Feature", "geometry": {"type": "Polygon", "coordinates": [[[112.569091, 32.653086], [112.569262, 32.650971], [112.569252, 32.649237], [112.569917, 32.648267], [112.57126, 32.647095], [112.570548, 32.645373], [112.574172, 32.644558], [112.576425, 32.643376], [112.575963, 32.642997], [112.576381, 32.640876], [112.576676, 32.640224], [112.57821, 32.63989], [112.57848, 32.63971], [112.57874, 32.6394], [112.578851, 32.63899], [112.57884, 32.6384], [112.57826, 32.63707], [112.57999, 32.63635], [112.582601, 32.635545], [112.582823, 32.637389], [112.584391, 32.636956], [112.585374, 32.639143], [112.58397, 32.639597], [112.585819, 32.642356], [112.589493, 32.641114], [112.58837, 32.638454], [112.590206, 32.638089], [112.590361, 32.63876], [112.591631, 32.63868], [112.59206, 32.64015], [112.59433, 32.640161], [112.59484, 32.6412], [112.59315, 32.64208], [112.593531, 32.64337], [112.590461, 32.64451], [112.591141, 32.64589], [112.58583, 32.648155], [112.5858, 32.65048], [112.587681, 32.65402], [112.58796, 32.6544], [112.592971, 32.65261], [112.594491, 32.654821], [112.592559, 32.655774], [112.595226, 32.66005], [112.594525, 32.6607], [112.59386, 32.662204], [112.59268, 32.66505], [112.595266, 32.668586], [112.586929, 32.670935], [112.587059, 32.671521], [112.58663, 32.671648], [112.586905, 32.672294], [112.585638, 32.672492], [112.58579, 32.672977], [112.586893, 32.672963], [112.587314, 32.673769], [112.585832, 32.67397], [112.586488, 32.675847], [112.58563, 32.676142], [112.585902, 32.676605], [112.585473, 32.676732], [112.585617, 32.676956], [112.58651, 32.678442], [112.587297, 32.67821], [112.586974, 32.677565], [112.588716, 32.677096], [112.589241, 32.678297], [112.591317, 32.677589], [112.595084, 32.677564], [112.595776, 32.677498], [112.595943, 32.677663], [112.595533, 32.677976], [112.597242, 32.677646], [112.606701, 32.675264], [112.606408, 32.674414], [112.608086, 32.673844], [112.606319, 32.670944], [112.608898, 32.669856], [112.60685, 32.668865], [112.606031, 32.66808], [112.6053, 32.66765], [112.604742, 32.666945], [112.604501, 32.66664], [112.60354, 32.6658], [112.60426, 32.66539], [112.60381, 32.66478], [112.6058, 32.6638], [112.60624, 32.66432], [112.60754, 32.66357], [112.60776, 32.66384], [112.60874, 32.66349], [112.6099, 32.66554], [112.610857, 32.665228], [112.61148, 32.66669], [112.60997, 32.66744], [112.610791, 32.66831], [112.614311, 32.66663], [112.616421, 32.66572], [112.618761, 32.66604], [112.620521, 32.66518], [112.62086, 32.66567], [112.62221, 32.66517], [112.621741, 32.66351], [112.62474, 32.6626], [112.62812, 32.66146], [112.629261, 32.66117], [112.62945, 32.66132], [112.62956, 32.6619], [112.63112, 32.66154], [112.63153, 32.66261], [112.631681, 32.66263], [112.632951, 32.66213], [112.634551, 32.66178], [112.63408, 32.66011], [112.63593, 32.65981], [112.63697, 32.66343], [112.63636, 32.66356], [112.63648, 32.66442], [112.63819, 32.66427], [112.63843, 32.66517], [112.637091, 32.66552], [112.63742, 32.66674], [112.63749, 32.66732], [112.637045, 32.667354], [112.636581, 32.66739], [112.636501, 32.669], [112.62715, 32.67155], [112.6257, 32.67185], [112.62515, 32.67206], [112.624931, 32.67225], [112.627281, 32.67456], [112.62768, 32.675169], [112.631765, 32.679499], [112.632091, 32.67985], [112.63287, 32.68048], [112.633751, 32.68152], [112.634201, 32.68103], [112.636211, 32.6793], [112.63706, 32.67828], [112.63751, 32.6779], [112.63802, 32.67762], [112.63934, 32.67665], [112.64005, 32.67639], [112.640601, 32.67639], [112.640648, 32.676533], [112.64089, 32.6776], [112.64129, 32.67833], [112.6426, 32.68016], [112.643, 32.68128], [112.64417, 32.68367], [112.64595, 32.68676], [112.64731, 32.68942], [112.64621, 32.68982], [112.64558, 32.69016], [112.64626, 32.69124], [112.6442, 32.69221], [112.64416, 32.69229], [112.64559, 32.69467], [112.64635, 32.6956], [112.647691, 32.69687], [112.648159, 32.697459], [112.649241, 32.69837], [112.650151, 32.69937], [112.650581, 32.69995], [112.65062, 32.70008], [112.64957, 32.70072], [112.65047, 32.70171], [112.64925, 32.7025], [112.6479, 32.70148], [112.64703, 32.70185], [112.64328, 32.70391], [112.641876, 32.702512], [112.640041, 32.70324], [112.640071, 32.703291], [112.640651, 32.70425], [112.63999, 32.7047], [112.640011, 32.70541], [112.63938, 32.70563], [112.639651, 32.70716], [112.63904, 32.70745], [112.63945, 32.70972], [112.64102, 32.70922], [112.64125, 32.70999], [112.640798, 32.710118], [112.63891, 32.71065], [112.63892, 32.71124], [112.63843, 32.71151], [112.6397, 32.71357], [112.63918, 32.71388], [112.640421, 32.71629], [112.640062, 32.71643], [112.639061, 32.71682], [112.63859, 32.72003], [112.63661, 32.72103], [112.63513, 32.72084], [112.633251, 32.72179], [112.631451, 32.71978], [112.631141, 32.71957], [112.628792, 32.720893], [112.62819, 32.72119], [112.62778, 32.72149], [112.627381, 32.72115], [112.62627, 32.72208], [112.626601, 32.72244], [112.62437, 32.72368], [112.62535, 32.72506], [112.626231, 32.72559], [112.62698, 32.7262], [112.62787, 32.72711], [112.62877, 32.7284], [112.63066, 32.73167], [112.62779, 32.73221], [112.62802, 32.73292], [112.626311, 32.73353], [112.626421, 32.73386], [112.624833, 32.734467], [112.623993, 32.733952], [112.621279, 32.734949], [112.616504, 32.735203], [112.614642, 32.732918], [112.61325, 32.731397], [112.612648, 32.730959], [112.611957, 32.730456], [112.611174, 32.729885], [112.607957, 32.728195], [112.606123, 32.727449], [112.602283, 32.729037], [112.600897, 32.7279], [112.600428, 32.727137], [112.604286, 32.726511], [112.604699, 32.724197], [112.603079, 32.722679], [112.602036, 32.721459], [112.601452, 32.720776], [112.599381, 32.719456], [112.598137, 32.718097], [112.59591, 32.71623], [112.595407, 32.713543], [112.594876, 32.709317], [112.595066, 32.707199], [112.595718, 32.70546], [112.595891, 32.702379], [112.595442, 32.700841], [112.595314, 32.700402], [112.595164, 32.699888], [112.59514, 32.698541], [112.593979, 32.69721], [112.591683, 32.696085], [112.589864, 32.696108], [112.588948, 32.695735], [112.588007, 32.694015], [112.587076, 32.692873], [112.586126, 32.690576], [112.58447, 32.686942], [112.584449, 32.685788], [112.582851, 32.685424], [112.58193, 32.684858], [112.58126, 32.682392], [112.581201, 32.682174], [112.579833, 32.681999], [112.579599, 32.681808], [112.579371, 32.68162], [112.578692, 32.681821], [112.578869, 32.678934], [112.577023, 32.677418], [112.576551, 32.676462], [112.575835, 32.674547], [112.575373, 32.674168], [112.575984, 32.670121], [112.575038, 32.668017], [112.573664, 32.667457], [112.57249, 32.665355], [112.571812, 32.663892], [112.571781, 32.663825], [112.572884, 32.661888], [112.570586, 32.66057], [112.570236, 32.660282], [112.569433, 32.659623], [112.569409, 32.658276], [112.569616, 32.657119], [112.569586, 32.655388], [112.570238, 32.653649], [112.569091, 32.653086]], [[112.598033, 32.691622], [112.599007, 32.69382], [112.600295, 32.693418], [112.601893, 32.691573], [112.60137, 32.690505], [112.598033, 32.691622]], [[112.602006, 32.683749], [112.602483, 32.684506], [112.603954, 32.68396], [112.604778, 32.686433], [112.604132, 32.686617], [112.604136, 32.686859], [112.60367, 32.686952], [112.603708, 32.687611], [112.604213, 32.688242], [112.604779, 32.687971], [112.605565, 32.686862], [112.605992, 32.685872], [112.606483, 32.687356], [112.60837, 32.686782], [112.61365, 32.685434], [112.613242, 32.684239], [112.612055, 32.684716], [112.612382, 32.685569], [112.611658, 32.685754], [112.610596, 32.683021], [112.612304, 32.682648], [112.611975, 32.681707], [112.610037, 32.682281], [112.609556, 32.680855], [112.609368, 32.680918], [112.60941, 32.681007], [112.604928, 32.682532], [112.603783, 32.6831], [112.602006, 32.683749]], [[112.606668, 32.687485], [112.608029, 32.690984], [112.611469, 32.690104], [112.611477, 32.690126], [112.612406, 32.693037], [112.613797, 32.692632], [112.615267, 32.696556], [112.616586, 32.696249], [112.615173, 32.692298], [112.618554, 32.691319], [112.618743, 32.691395], [112.628991, 32.689065], [112.627895, 32.685981], [112.627788, 32.686035], [112.626536, 32.682362], [112.626064, 32.680973], [112.624316, 32.676592], [112.624294, 32.676491], [112.619743, 32.677723], [112.619692, 32.677737], [112.619565, 32.676509], [112.618305, 32.674327], [112.616065, 32.675477], [112.618074, 32.677341], [112.618873, 32.677001], [112.619537, 32.677783], [112.619249, 32.677856], [112.614684, 32.679072], [112.614339, 32.679169], [112.613366, 32.67705], [112.612544, 32.674687], [112.609457, 32.676375], [112.610111, 32.678102], [112.61316, 32.677162], [112.614212, 32.679302], [112.614151, 32.679323], [112.616136, 32.684818], [112.616238, 32.684706], [112.616276, 32.684808], [112.616357, 32.685082], [112.616146, 32.685129], [112.616213, 32.685121], [112.606668, 32.687485]]]}, "properties": {"display_name": "赤虎街道, 官庄工区, 宛城区, 南阳市, 河南省, 中国", "type": "administrative", "osm_type": "relation", "osm_id": 9996150, "class": null, "keyword": "subdistrict"}}, {"type": "Feature", "geometry": {"type": "MultiPolygon", "coordinates": [[[[112.479041, 32.920207], [112.479831, 32.91186], [112.47992, 32.91126], [112.479621, 32.90891], [112.479611, 32.9084], [112.4797, 32.90805], [112.47998, 32.90753], [112.480891, 32.90627], [112.4837, 32.9035], [112.484091, 32.90235], [112.48437, 32.90191], [112.485746, 32.900588], [112.498354, 32.910187], [112.500406, 32.910163], [112.501534, 32.909379], [112.504507, 32.909921], [112.505205, 32.910682], [112.504553, 32.912613], [112.507404, 32.912418], [112.511387, 32.912146], [112.511794, 32.909256], [112.513377, 32.908467], [112.514758, 32.90922], [112.519761, 32.908389], [112.521347, 32.907793], [112.522558, 32.905855], [112.523799, 32.904493], [112.523766, 32.90257], [112.524202, 32.90141], [112.524305, 32.901376], [112.526153, 32.900766], [112.52783, 32.900212], [112.531699, 32.89978], [112.5319, 32.898238], [112.532988, 32.895147], [112.533621, 32.892254], [112.532677, 32.890342], [112.532674, 32.89015], [112.534038, 32.889941], [112.535851, 32.889341], [112.537447, 32.889322], [112.539723, 32.889101], [112.542452, 32.888683], [112.543602, 32.889246], [112.545651, 32.887465], [112.54742, 32.885928], [112.551641, 32.88541], [112.5521, 32.885354], [112.551778, 32.887413], [112.555693, 32.889673], [112.576101, 32.889605], [112.576668, 32.889603], [112.580444, 32.896865], [112.580294, 32.897033], [112.579602, 32.897811], [112.573575, 32.904573], [112.571948, 32.906397], [112.580068, 32.915828], [112.581146, 32.917054], [112.578078, 32.91767], [112.577465, 32.921717], [112.574494, 32.92137], [112.567858, 32.920107], [112.558788, 32.922838], [112.557385, 32.9212], [112.553703, 32.919322], [112.547986, 32.918431], [112.547048, 32.919356], [112.543053, 32.923301], [112.540296, 32.922181], [112.535886, 32.924921], [112.533977, 32.926106], [112.52847, 32.926537], [112.519399, 32.927246], [112.511303, 32.920611], [112.512162, 32.917523], [112.51011, 32.917548], [112.510586, 32.918696], [112.509327, 32.918615], [112.508074, 32.918534], [112.506504, 32.920092], [112.479041, 32.920207]]], [[[112.522966, 32.979137], [112.523918, 32.977975], [112.525645, 32.976226], [112.52661, 32.975249], [112.528678, 32.975209], [112.530985, 32.972819], [112.531297, 32.972548], [112.53293, 32.971132], [112.533713, 32.970575], [112.535069, 32.969612], [112.534136, 32.968049], [112.536067, 32.966695], [112.537251, 32.968062], [112.537889, 32.967608], [112.537939, 32.966888], [112.538429, 32.959276], [112.538427, 32.959138], [112.542748, 32.958315], [112.54399, 32.958358], [112.546858, 32.958456], [112.550769, 32.960332], [112.551273, 32.963018], [112.551218, 32.964897], [112.553724, 32.964903], [112.553957, 32.966895], [112.555689, 32.96758], [112.558415, 32.968137], [112.565536, 32.969573], [112.574301, 32.974849], [112.568158, 32.975888], [112.567347, 32.981669], [112.562303, 32.986023], [112.551301, 32.986243], [112.545185, 32.986365], [112.540963, 32.985951], [112.533519, 32.985234], [112.522966, 32.979137]]]]}, "properties": {"display_name": "枣林街道, 宛城区, 南阳市, 河南省, 中国", "type": "administrative", "osm_type": "relation", "osm_id": 9996153, "class": null, "keyword": "subdistrict"}}, {"type": "Feature", "geometry": {"type": "Polygon", "coordinates": [[[112.774183, 32.675361], [112.776464, 32.675714], [112.779629, 32.674707], [112.781936, 32.672012], [112.783629, 32.670034], [112.783822, 32.6683], [112.78378, 32.666184], [112.783969, 32.664258], [112.783931, 32.662335], [112.78229, 32.659858], [112.782425, 32.659786], [112.785665, 32.658078], [112.785473, 32.659812], [112.788016, 32.661892], [112.789395, 32.662642], [112.791213, 32.662616], [112.792775, 32.662339], [112.797105, 32.66157], [112.799121, 32.660002], [112.800227, 32.658447], [112.800184, 32.656332], [112.80038, 32.65479], [112.799884, 32.652681], [112.798924, 32.650194], [112.798732, 32.649519], [112.798533, 32.648815], [112.798662, 32.648467], [112.800226, 32.647098], [112.800456, 32.646588], [112.801533, 32.644194], [112.803096, 32.642825], [112.803959, 32.640504], [112.806613, 32.636811], [112.807472, 32.634298], [112.809259, 32.632733], [112.80996, 32.633685], [112.810912, 32.635787], [112.814407, 32.639969], [112.817231, 32.644737], [112.818783, 32.647033], [112.820048, 32.64912], [112.822058, 32.653708], [112.824096, 32.658102], [112.824119, 32.659257], [112.823238, 32.660616], [112.822344, 32.661398], [112.822379, 32.663129], [112.822908, 32.666776], [112.826071, 32.665768], [112.828086, 32.675357], [112.830719, 32.682073], [112.832098, 32.685699], [112.837463, 32.700764], [112.837871, 32.701033], [112.839089, 32.701741], [112.839799, 32.703077], [112.841702, 32.707089], [112.84224, 32.711121], [112.841856, 32.714589], [112.840841, 32.717592], [112.839213, 32.718859], [112.838095, 32.719837], [112.835836, 32.72064], [112.834244, 32.720664], [112.833822, 32.720405], [112.831479, 32.718973], [112.827415, 32.709414], [112.827006, 32.709473], [112.824466, 32.709842], [112.821721, 32.709112], [112.82107, 32.71066], [112.823627, 32.713316], [112.819352, 32.715687], [112.818265, 32.718203], [112.816002, 32.718813], [112.816716, 32.720342], [112.816672, 32.720371], [112.813574, 32.722503], [112.813393, 32.722513], [112.808573, 32.722768], [112.808935, 32.718146], [112.800063, 32.718274], [112.797398, 32.714256], [112.795135, 32.710842], [112.790066, 32.707645], [112.792194, 32.700304], [112.791453, 32.699444], [112.784509, 32.691373], [112.787696, 32.69152], [112.787095, 32.689329], [112.78696, 32.688838], [112.783746, 32.687345], [112.781851, 32.683524], [112.778856, 32.681643], [112.774656, 32.676316], [112.774183, 32.675361]]]}, "properties": {"display_name": "滨河街道, 唐河县, 南阳市, 河南省, 中国", "type": "administrative", "osm_type": "relation", "osm_id": 9994922, "class": null, "keyword": "subdistrict"}}, {"type": "Feature", "geometry": {"type": "Polygon", "coordinates": [[[112.190791, 33.027453], [112.192977, 33.020122], [112.208528, 33.021896], [112.205747, 33.018845], [112.20759, 33.019192], [112.21353, 33.020309], [112.210748, 33.017258], [112.21862, 33.010471], [112.218872, 33.010253], [112.218851, 33.008755], [112.218771, 33.002875], [112.218751, 33.001405], [112.220518, 32.997156], [112.217774, 32.996798], [112.220434, 32.991001], [112.220975, 32.990881], [112.229537, 32.988988], [112.229425, 32.980909], [112.232165, 32.98101], [112.237646, 32.981213], [112.237406, 32.984046], [112.236416, 32.995712], [112.235685, 33.004317], [112.241642, 33.005797], [112.241665, 33.007453], [112.241689, 33.009113], [112.241749, 33.01349], [112.244951, 33.013843], [112.248137, 33.013042], [112.248131, 33.012622], [112.248086, 33.009433], [112.248056, 33.007272], [112.249366, 33.003026], [112.249757, 32.998405], [112.250905, 32.996557], [112.252652, 32.993743], [112.252882, 32.993373], [112.258376, 32.994472], [112.258338, 32.991779], [112.260109, 32.987913], [112.260191, 32.987913], [112.262392, 32.98789], [112.266006, 32.988088], [112.268331, 32.988215], [112.274738, 32.989304], [112.282955, 32.98922], [112.280271, 32.993095], [112.284391, 32.993822], [112.284457, 32.998403], [112.284575, 33.006516], [112.284709, 33.00734], [112.284799, 33.007891], [112.281958, 33.015008], [112.278283, 33.013506], [112.277251, 33.014846], [112.27649, 33.015833], [112.281534, 33.01732], [112.278444, 33.024662], [112.283467, 33.024642], [112.28359, 33.033074], [112.278116, 33.03313], [112.278445, 33.035642], [112.278622, 33.036972], [112.274511, 33.037014], [112.275485, 33.041236], [112.27137, 33.040894], [112.270489, 33.043211], [112.265019, 33.044036], [112.264529, 33.041733], [112.260452, 33.044082], [112.259891, 33.044122], [112.257697, 33.044276], [112.254063, 33.044531], [112.247212, 33.0446], [112.246961, 33.042378], [112.246695, 33.040373], [112.24663, 33.035757], [112.244787, 33.034621], [112.243868, 33.034245], [112.242927, 33.032331], [112.242433, 33.029643], [112.246043, 33.026529], [112.242836, 33.025791], [112.237823, 33.026611], [112.237394, 33.028539], [112.234197, 33.02857], [112.233708, 33.026267], [112.231414, 33.02552], [112.221373, 33.026003], [112.214066, 33.026075], [112.209048, 33.026508], [112.209017, 33.028741], [112.20878, 33.029994], [112.209836, 33.030206], [112.209583, 33.032274], [112.209615, 33.034582], [112.205975, 33.035676], [112.205524, 33.035572], [112.205426, 33.036752], [112.204807, 33.036879], [112.204189, 33.036827], [112.203978, 33.037323], [112.203999, 33.037786], [112.20337, 33.037975], [112.202371, 33.039269], [112.200559, 33.040441], [112.198229, 33.037001], [112.195929, 33.035868], [112.192691, 33.032821], [112.192187, 33.029364], [112.190791, 33.027453]]]}, "properties": {"display_name": "雪枫街道, 镇平县, 南阳市, 河南省, 中国", "type": "administrative", "osm_type": "relation", "osm_id": 10000105, "class": null, "keyword": "subdistrict"}}, {"type": "Feature", "geometry": {"type": "Polygon", "coordinates": [[[112.822058, 32.653708], [112.823779, 32.653683], [112.830355, 32.652818], [112.835525, 32.649857], [112.839381, 32.649416], [112.867587, 32.649961], [112.87033, 32.650689], [112.872623, 32.651617], [112.876001, 32.650028], [112.876374, 32.650067], [112.879304, 32.655749], [112.876396, 32.658101], [112.877946, 32.661811], [112.876485, 32.662331], [112.874663, 32.662166], [112.872389, 32.6622], [112.871085, 32.665105], [112.863033, 32.671573], [112.865123, 32.673657], [112.861627, 32.674899], [112.861621, 32.680902], [112.86162, 32.681272], [112.861616, 32.685479], [112.863698, 32.685536], [112.865649, 32.685552], [112.865749, 32.685341], [112.865769, 32.684261], [112.865843, 32.681286], [112.865853, 32.680903], [112.867094, 32.680938], [112.869571, 32.679747], [112.870939, 32.679919], [112.874163, 32.681794], [112.878928, 32.69211], [112.872414, 32.696055], [112.870327, 32.694162], [112.866732, 32.696331], [112.870032, 32.701861], [112.878403, 32.69962], [112.878455, 32.70212], [112.87281, 32.704127], [112.873991, 32.706226], [112.869454, 32.706871], [112.869989, 32.71071], [112.8657, 32.712313], [112.867887, 32.719012], [112.865621, 32.719431], [112.86155, 32.720646], [112.859275, 32.72068], [112.855623, 32.720156], [112.854023, 32.719795], [112.849262, 32.720635], [112.845559, 32.717612], [112.841229, 32.717291], [112.840841, 32.717592], [112.841856, 32.714589], [112.84224, 32.711121], [112.841702, 32.707089], [112.839799, 32.703077], [112.839089, 32.701741], [112.837871, 32.701033], [112.837463, 32.700764], [112.832098, 32.685699], [112.830719, 32.682073], [112.828086, 32.675357], [112.826071, 32.665768], [112.822908, 32.666776], [112.822379, 32.663129], [112.822344, 32.661398], [112.823238, 32.660616], [112.824119, 32.659257], [112.824096, 32.658102], [112.822058, 32.653708]]]}, "properties": {"display_name": "文峰街道, 唐河县, 南阳市, 河南省, 中国", "type": "administrative", "osm_type": "relation", "osm_id": 9994926, "class": null, "keyword": "subdistrict"}}, {"type": "Feature", "geometry": {"type": "Polygon", "coordinates": [[[112.43644, 33.023136], [112.436998, 33.023129], [112.43918, 33.023104], [112.439105, 33.018488], [112.445738, 33.019181], [112.445713, 33.017642], [112.443639, 33.016873], [112.44292, 33.014404], [112.445897, 33.014947], [112.446075, 33.011867], [112.444861, 33.011171], [112.445725, 33.008841], [112.447626, 33.008964], [112.449424, 33.00811], [112.450118, 33.007781], [112.453145, 33.0114], [112.454502, 33.010615], [112.454484, 33.009461], [112.456313, 33.009632], [112.459283, 33.00979], [112.45817, 33.011534], [112.45999, 33.011128], [112.462089, 33.013797], [112.464622, 33.015113], [112.465041, 33.0128], [112.466417, 33.013169], [112.468665, 33.011026], [112.470694, 33.009464], [112.472409, 33.009274], [112.473635, 33.009138], [112.474767, 33.009153], [112.474773, 33.010367], [112.475035, 33.011986], [112.474754, 33.013172], [112.473838, 33.014813], [112.474754, 33.015849], [112.474225, 33.016395], [112.477603, 33.018879], [112.48305, 33.024957], [112.47726, 33.028536], [112.476499, 33.029016], [112.477229, 33.031701], [112.479512, 33.031673], [112.479566, 33.032111], [112.479776, 33.033786], [112.483084, 33.035474], [112.483461, 33.035666], [112.483165, 33.03163], [112.491828, 33.030757], [112.492096, 33.033062], [112.495315, 33.033362], [112.495755, 33.033403], [112.496173, 33.03109], [112.498215, 33.030296], [112.499134, 33.03067], [112.499816, 33.030445], [112.499842, 33.032007], [112.501281, 33.03603], [112.504513, 33.038107], [112.508428, 33.039983], [112.510636, 33.041661], [112.509836, 33.046329], [112.509277, 33.049591], [112.506993, 33.049619], [112.50703, 33.050281], [112.507323, 33.055578], [112.504348, 33.055229], [112.503591, 33.064472], [112.505647, 33.064447], [112.505924, 33.067329], [112.504378, 33.070426], [112.501396, 33.069692], [112.497972, 33.069926], [112.496601, 33.069942], [112.488848, 33.070804], [112.488793, 33.067535], [112.485824, 33.06757], [112.485984, 33.064056], [112.485991, 33.063913], [112.483919, 33.062976], [112.478904, 33.063613], [112.476619, 33.06063], [112.476589, 33.060589], [112.473599, 33.060598], [112.473555, 33.057905], [112.459867, 33.059028], [112.457776, 33.056936], [112.457545, 33.056747], [112.453164, 33.054297], [112.453108, 33.050835], [112.450807, 33.0499], [112.448165, 33.055894], [112.446085, 33.05438], [112.446665, 33.048025], [112.451205, 33.046241], [112.451411, 33.044892], [112.447498, 33.043014], [112.449416, 33.039287], [112.450137, 33.036828], [112.445379, 33.039191], [112.449361, 33.031258], [112.442273, 33.030763], [112.442284, 33.03049], [112.442418, 33.027148], [112.442436, 33.026721], [112.438795, 33.027533], [112.438992, 33.025607], [112.436715, 33.026018], [112.43644, 33.023136]]]}, "properties": {"display_name": "靳岗街道, 卧龙区, 南阳市, 河南省, 中国", "type": "administrative", "osm_type": "relation", "osm_id": 9996855, "class": null, "keyword": "subdistrict"}}, {"type": "Feature", "geometry": {"type": "Polygon", "coordinates": [[[112.3434, 32.5315], [112.371739, 32.528308], [112.370354, 32.526035], [112.377368, 32.525168], [112.375467, 32.51961], [112.380447, 32.518593], [112.380188, 32.516481], [112.382457, 32.516455], [112.381741, 32.514155], [112.385822, 32.513725], [112.384416, 32.510671], [112.388478, 32.509271], [112.389174, 32.510225], [112.391671, 32.510197], [112.391683, 32.510967], [112.394401, 32.510552], [112.394442, 32.513245], [112.400868, 32.512822], [112.401473, 32.512782], [112.400876, 32.518175], [112.397701, 32.518403], [112.399114, 32.521658], [112.395726, 32.522849], [112.395992, 32.525348], [112.399397, 32.52531], [112.400574, 32.52799], [112.39649, 32.528228], [112.396505, 32.52919], [112.396197, 32.531309], [112.392681, 32.53154], [112.393168, 32.533652], [112.389776, 32.534651], [112.391461, 32.540788], [112.393959, 32.54076], [112.394466, 32.544218], [112.402017, 32.547789], [112.402226, 32.546633], [112.403365, 32.546812], [112.40338, 32.547774], [112.403689, 32.548896], [112.403858, 32.549308], [112.405002, 32.549872], [112.405026, 32.551411], [112.40321, 32.551431], [112.403894, 32.551616], [112.404127, 32.551998], [112.404372, 32.553149], [112.404381, 32.553727], [112.399193, 32.556093], [112.398267, 32.554949], [112.39443, 32.556531], [112.391701, 32.556368], [112.386932, 32.556421], [112.383986, 32.556686], [112.385068, 32.568177], [112.383735, 32.570115], [112.384661, 32.571259], [112.372907, 32.575236], [112.373117, 32.57408], [112.371987, 32.573901], [112.368483, 32.568166], [112.365088, 32.568973], [112.36507, 32.567819], [112.362353, 32.568425], [112.361427, 32.567281], [112.358488, 32.568275], [112.357784, 32.566743], [112.351887, 32.567384], [112.35164, 32.567492], [112.351196, 32.566814], [112.34958, 32.5651], [112.349351, 32.565123], [112.348708, 32.537086], [112.347343, 32.534785], [112.346154, 32.533394], [112.3434, 32.5315]]]}, "properties": {"display_name": "汉华街道, 新野县, 南阳市, 河南省, 中国", "type": "administrative", "osm_type": "relation", "osm_id": 4308522, "class": null, "keyword": "subdistrict"}}, {"type": "Feature", "geometry": {"type": "Polygon", "coordinates": [[[112.891457, 33.036422], [112.899655, 33.035336], [112.899469, 33.026683], [112.900826, 33.026086], [112.905163, 33.026019], [112.909919, 33.024215], [112.914198, 33.021457], [112.918729, 33.019849], [112.919675, 33.019758], [112.928298, 33.018932], [112.925252, 33.015324], [112.925207, 33.013253], [112.925185, 33.012236], [112.925006, 33.00398], [112.927888, 33.003704], [112.929789, 33.003521], [112.932515, 33.002902], [112.935067, 33.004786], [112.95349, 33.00218], [112.956595, 33.008735], [112.95684, 33.011397], [112.957708, 33.013075], [112.958873, 33.013856], [112.961509, 33.016488], [112.962104, 33.018078], [112.961962, 33.019838], [112.96134, 33.022221], [112.961386, 33.025381], [112.96078, 33.026574], [112.959669, 33.028105], [112.959311, 33.030064], [112.959182, 33.030943], [112.957956, 33.032258], [112.956466, 33.033112], [112.955075, 33.035308], [112.954471, 33.035835], [112.95289, 33.03663], [112.952015, 33.038375], [112.952179, 33.04007], [112.952186, 33.041593], [112.951191, 33.042426], [112.949681, 33.042822], [112.949479, 33.043848], [112.950337, 33.045133], [112.949919, 33.04687], [112.949853, 33.046909], [112.949242, 33.047266], [112.947872, 33.047287], [112.946782, 33.048432], [112.945636, 33.049438], [112.942331, 33.049997], [112.940733, 33.050268], [112.941725, 33.048152], [112.94236, 33.045834], [112.94164, 33.044307], [112.935689, 33.033243], [112.935598, 33.033259], [112.922241, 33.035533], [112.919536, 33.035993], [112.913675, 33.039546], [112.909176, 33.042692], [112.891675, 33.046614], [112.891673, 33.046551], [112.891465, 33.036792], [112.891457, 33.036422]]]}, "properties": {"display_name": "潘河街道, 社旗县, 南阳市, 河南省, 中国", "type": "administrative", "osm_type": "relation", "osm_id": 9995736, "class": null, "keyword": "subdistrict"}}, {"type": "Feature", "geometry": {"type": "Polygon", "coordinates": [[[112.333408, 32.513625], [112.333577, 32.512173], [112.334272, 32.511222], [112.335135, 32.510041], [112.336434, 32.505994], [112.336365, 32.501178], [112.33701, 32.49867], [112.338127, 32.497504], [112.338387, 32.495807], [112.338536, 32.494836], [112.338825, 32.494804], [112.34013, 32.494789], [112.341949, 32.494962], [112.344437, 32.494359], [112.345345, 32.494349], [112.346241, 32.49357], [112.346692, 32.493373], [112.347891, 32.492591], [112.348491, 32.492199], [112.352579, 32.491738], [112.359822, 32.490923], [112.361471, 32.494945], [112.363532, 32.494485], [112.368451, 32.493385], [112.368654, 32.49334], [112.37414, 32.492114], [112.382904, 32.497102], [112.383758, 32.497588], [112.384169, 32.498855], [112.384776, 32.500726], [112.385188, 32.501996], [112.387947, 32.504275], [112.387522, 32.506203], [112.38846, 32.508117], [112.388478, 32.509271], [112.384416, 32.510671], [112.385822, 32.513725], [112.381741, 32.514155], [112.382457, 32.516455], [112.380188, 32.516481], [112.380447, 32.518593], [112.375467, 32.51961], [112.377368, 32.525168], [112.370354, 32.526035], [112.371739, 32.528308], [112.3434, 32.5315], [112.341119, 32.530754], [112.340005, 32.529443], [112.3395, 32.528848], [112.337428, 32.526946], [112.336552, 32.525774], [112.335575, 32.524465], [112.333888, 32.520821], [112.333463, 32.51987], [112.33346, 32.519627], [112.333429, 32.517548], [112.333415, 32.51493], [112.333408, 32.513625]]]}, "properties": {"display_name": "汉城街道, 新野县, 南阳市, 河南省, 中国", "type": "administrative", "osm_type": "relation", "osm_id": 4308523, "class": null, "keyword": "subdistrict"}}, {"type": "Feature", "geometry": {"type": "Polygon", "coordinates": [[[112.471959, 33.001588], [112.472083, 33.001346], [112.472108, 33.000936], [112.472182, 33.000458], [112.472595, 32.999847], [112.473002, 32.999095], [112.473573, 32.998], [112.474142, 32.996956], [112.47496, 32.996405], [112.474994, 32.995158], [112.474787, 32.994284], [112.474365, 32.993583], [112.474167, 32.9923], [112.474504, 32.991487], [112.474676, 32.990931], [112.474647, 32.990271], [112.474054, 32.988168], [112.473852, 32.986964], [112.473724, 32.985565], [112.474132, 32.982877], [112.474113, 32.981723], [112.473859, 32.980187], [112.477507, 32.979951], [112.480234, 32.979208], [112.480297, 32.979605], [112.482621, 32.980868], [112.483787, 32.981243], [112.482638, 32.982249], [112.482265, 32.984865], [112.482613, 32.98501], [112.482563, 32.98689], [112.486972, 32.987085], [112.48679, 32.989256], [112.492298, 32.989409], [112.492224, 32.994188], [112.49578, 32.994355], [112.495805, 32.995201], [112.49511, 32.99525], [112.49521, 32.995847], [112.495822, 32.99577], [112.495913, 32.996714], [112.496078, 32.996693], [112.496095, 32.998303], [112.50138, 32.998337], [112.50306, 33.000842], [112.505144, 33.000009], [112.508924, 33.0056], [112.511514, 33.009322], [112.510669, 33.010717], [112.510131, 33.011125], [112.508749, 33.012117], [112.506593, 33.01269], [112.504979, 33.011748], [112.502137, 33.012383], [112.50043, 33.012764], [112.496165, 33.014913], [112.495932, 33.016427], [112.495927, 33.016592], [112.495942, 33.017435], [112.497325, 33.018188], [112.502107, 33.01813], [112.505543, 33.018089], [112.505278, 33.019213], [112.504904, 33.02079], [112.503127, 33.023697], [112.500178, 33.024886], [112.500191, 33.025003], [112.500449, 33.027384], [112.501899, 33.028571], [112.502292, 33.028324], [112.505116, 33.028403], [112.50709, 33.028458], [112.50933, 33.02593], [112.512291, 33.02551], [112.511094, 33.022254], [112.511159, 33.02196], [112.511276, 33.021425], [112.511299, 33.021322], [112.51173, 33.019361], [112.514261, 33.020484], [112.51565, 33.021622], [112.51597, 33.021662], [112.518397, 33.021973], [112.520077, 33.026762], [112.521762, 33.024316], [112.52365, 33.024817], [112.524399, 33.026073], [112.524773, 33.027179], [112.525457, 33.02838], [112.52549, 33.028872], [112.524985, 33.029622], [112.524903, 33.030018], [112.525017, 33.030441], [112.526271, 33.032817], [112.526434, 33.034031], [112.526353, 33.034523], [112.526011, 33.035014], [112.525457, 33.03642], [112.524936, 33.039464], [112.52501, 33.040393], [112.521704, 33.041746], [112.518054, 33.041983], [112.517021, 33.04186], [112.510636, 33.041661], [112.508428, 33.039983], [112.504513, 33.038107], [112.501281, 33.03603], [112.499842, 33.032007], [112.499816, 33.030445], [112.499134, 33.03067], [112.498215, 33.030296], [112.496173, 33.03109], [112.495755, 33.033403], [112.495315, 33.033362], [112.492096, 33.033062], [112.491828, 33.030757], [112.483165, 33.03163], [112.483461, 33.035666], [112.483084, 33.035474], [112.479776, 33.033786], [112.479566, 33.032111], [112.479512, 33.031673], [112.477229, 33.031701], [112.476499, 33.029016], [112.47726, 33.028536], [112.48305, 33.024957], [112.477603, 33.018879], [112.474225, 33.016395], [112.474754, 33.015849], [112.473838, 33.014813], [112.474754, 33.013172], [112.475035, 33.011986], [112.474773, 33.010367], [112.474767, 33.009153], [112.474468, 33.007822], [112.474316, 33.006777], [112.474076, 33.00643], [112.474084, 33.006201], [112.473671, 33.005681], [112.473406, 33.005473], [112.473108, 33.004883], [112.473059, 33.004523], [112.473274, 33.004113], [112.473869, 33.003822], [112.473993, 33.003579], [112.473968, 33.002677], [112.473712, 33.002164], [112.473356, 33.001901], [112.472786, 33.001935], [112.472447, 33.001928], [112.472066, 33.001776], [112.471959, 33.001588]]]}, "properties": {"display_name": "百里奚街道, 卧龙区, 南阳市, 河南省, 中国", "type": "administrative", "osm_type": "relation", "osm_id": 9996852, "class": null, "keyword": "subdistrict"}}, {"type": "Feature", "geometry": {"type": "Polygon", "coordinates": [[[112.455038, 32.973675], [112.455965, 32.969163], [112.456305, 32.967504], [112.45943, 32.963236], [112.45889, 32.962793], [112.458964, 32.962664], [112.457554, 32.96018], [112.457551, 32.960003], [112.45751, 32.957487], [112.46045, 32.955914], [112.462989, 32.957616], [112.46795, 32.954095], [112.479234, 32.960108], [112.481625, 32.953164], [112.482319, 32.953733], [112.483919, 32.953906], [112.48575, 32.954269], [112.484854, 32.955241], [112.485801, 32.957346], [112.486033, 32.957536], [112.486502, 32.9583], [112.486958, 32.958294], [112.487313, 32.958089], [112.487636, 32.957902], [112.488533, 32.956929], [112.488289, 32.95597], [112.488263, 32.954431], [112.489561, 32.950184], [112.489515, 32.947491], [112.489032, 32.946627], [112.488339, 32.945389], [112.488516, 32.942309], [112.491728, 32.942413], [112.492853, 32.94245], [112.496289, 32.939469], [112.501761, 32.94469], [112.520909, 32.977896], [112.520615, 32.97828], [112.520413, 32.979821], [112.520658, 32.98078], [112.515296, 32.980845], [112.51404, 32.98086], [112.511832, 32.980614], [112.511791, 32.980609], [112.50627, 32.980348], [112.503972, 32.980173], [112.502593, 32.98007], [112.500235, 32.97889], [112.499256, 32.978391], [112.500456, 32.977609], [112.50057, 32.977353], [112.499962, 32.976532], [112.499647, 32.976399], [112.499237, 32.976449], [112.499135, 32.977452], [112.498865, 32.978209], [112.498154, 32.977938], [112.497324, 32.977599], [112.495402, 32.977255], [112.492124, 32.976654], [112.492114, 32.976651], [112.490593, 32.976244], [112.488647, 32.975723], [112.487366, 32.97538], [112.48541, 32.974856], [112.484735, 32.975441], [112.483138, 32.97546], [112.482242, 32.976433], [112.480201, 32.977226], [112.480234, 32.979208], [112.477507, 32.979951], [112.473859, 32.980187], [112.474113, 32.981723], [112.474132, 32.982877], [112.473724, 32.985565], [112.461905, 32.985334], [112.465867, 32.979896], [112.466307, 32.978929], [112.465819, 32.977011], [112.465118, 32.976058], [112.463306, 32.976848], [112.462374, 32.975705], [112.463714, 32.973958], [112.465533, 32.973552], [112.458891, 32.972091], [112.456175, 32.973469], [112.455038, 32.973675]]]}, "properties": {"display_name": "卧龙岗街道, 卧龙区, 南阳市, 河南省, 中国", "type": "administrative", "osm_type": "relation", "osm_id": 9996859, "class": null, "keyword": "subdistrict"}}, {"type": "Feature", "geometry": {"type": "Polygon", "coordinates": [[[112.027363, 32.67877], [112.028241, 32.67607], [112.028688, 32.675297], [112.031859, 32.674116], [112.032751, 32.67257], [112.035021, 32.672167], [112.035003, 32.670628], [112.035939, 32.672929], [112.03775, 32.672144], [112.040497, 32.673661], [112.041853, 32.67288], [112.044174, 32.676708], [112.046452, 32.677074], [112.05009, 32.677044], [112.052374, 32.677794], [112.052342, 32.675101], [112.053234, 32.673554], [112.055486, 32.671611], [112.054094, 32.669314], [112.059984, 32.667341], [112.062678, 32.66424], [112.067676, 32.663813], [112.073543, 32.659915], [112.077613, 32.657956], [112.078086, 32.659491], [112.07811, 32.661415], [112.078142, 32.664108], [112.080922, 32.668316], [112.076383, 32.669125], [112.076485, 32.676066], [112.079682, 32.678716], [112.078359, 32.68219], [112.084264, 32.68137], [112.083387, 32.684071], [112.085237, 32.68861], [112.084523, 32.688703], [112.085015, 32.691785], [112.081683, 32.693705], [112.082179, 32.697164], [112.079459, 32.697956], [112.07786, 32.700169], [112.075378, 32.699146], [112.07196, 32.699175], [112.068097, 32.699208], [112.066481, 32.701202], [112.066469, 32.701218], [112.064958, 32.703083], [112.060834, 32.705222], [112.058173, 32.706603], [112.056813, 32.706999], [112.054979, 32.705861], [112.053596, 32.704333], [112.050852, 32.703201], [112.050222, 32.703822], [112.048108, 32.70207], [112.046324, 32.705163], [112.044048, 32.705182], [112.042661, 32.70327], [112.040796, 32.699438], [112.039842, 32.695598], [112.043027, 32.695571], [112.043472, 32.694798], [112.042054, 32.690193], [112.046581, 32.688231], [112.046991, 32.68438], [112.043338, 32.683256], [112.037879, 32.683301], [112.034686, 32.682558], [112.03329, 32.679876], [112.030101, 32.679518], [112.027688, 32.679829], [112.027363, 32.67877]]]}, "properties": {"display_name": "古城街道, 邓州市, 南阳市, 河南省, 中国", "type": "administrative", "osm_type": "relation", "osm_id": 9992494, "class": null, "keyword": "subdistrict"}}, {"type": "Feature", "geometry": {"type": "Polygon", "coordinates": [[[112.076383, 32.669125], [112.080922, 32.668316], [112.078142, 32.664108], [112.07811, 32.661415], [112.080379, 32.66101], [112.083122, 32.662141], [112.083159, 32.665219], [112.084978, 32.665204], [112.085006, 32.667512], [112.090469, 32.667849], [112.09099, 32.673231], [112.095074, 32.672427], [112.095135, 32.677428], [112.097864, 32.677404], [112.100134, 32.676999], [112.100158, 32.678923], [112.102428, 32.678518], [112.101992, 32.680061], [112.102896, 32.679668], [112.103821, 32.680815], [112.10928, 32.680766], [112.108341, 32.678466], [112.114703, 32.678794], [112.114681, 32.676102], [112.124229, 32.675632], [112.124291, 32.680566], [112.124795, 32.684476], [112.122119, 32.688733], [112.122157, 32.69181], [112.12328, 32.692037], [112.124078, 32.699873], [112.120476, 32.702984], [112.110523, 32.70769], [112.111869, 32.706139], [112.108172, 32.701554], [112.107521, 32.701438], [112.104235, 32.700851], [112.104916, 32.699265], [112.101421, 32.698559], [112.100653, 32.698681], [112.097678, 32.699338], [112.095426, 32.701281], [112.092715, 32.702844], [112.089084, 32.703645], [112.087301, 32.706739], [112.087169, 32.706762], [112.085031, 32.707143], [112.082245, 32.70255], [112.079036, 32.700653], [112.07786, 32.700169], [112.079459, 32.697956], [112.082179, 32.697164], [112.081683, 32.693705], [112.085015, 32.691785], [112.084523, 32.688703], [112.085237, 32.68861], [112.083387, 32.684071], [112.084264, 32.68137], [112.078359, 32.68219], [112.079682, 32.678716], [112.076485, 32.676066], [112.076383, 32.669125]]]}, "properties": {"display_name": "花洲街道, 邓州市, 南阳市, 河南省, 中国", "type": "administrative", "osm_type": "relation", "osm_id": 9992495, "class": null, "keyword": "subdistrict"}}, {"type": "Feature", "geometry": {"type": "Polygon", "coordinates": [[[112.52365, 33.024817], [112.526939, 33.024407], [112.527688, 33.024407], [112.533094, 33.024844], [112.535038, 33.024939], [112.537055, 33.025038], [112.537056, 33.025104], [112.537059, 33.025225], [112.537109, 33.027707], [112.538441, 33.027797], [112.539468, 33.0277], [112.540163, 33.027742], [112.540014, 33.026659], [112.54152, 33.026188], [112.542314, 33.026077], [112.542976, 33.027922], [112.546899, 33.027187], [112.547313, 33.023468], [112.54723, 33.020026], [112.551881, 33.020193], [112.562325, 33.020595], [112.572273, 33.028394], [112.578827, 33.026757], [112.580482, 33.026979], [112.581409, 33.0277], [112.580808, 33.028155], [112.580086, 33.028301], [112.571782, 33.02997], [112.573117, 33.031862], [112.575259, 33.033735], [112.578023, 33.033212], [112.579416, 33.038187], [112.567507, 33.040317], [112.56694, 33.042532], [112.56816, 33.046941], [112.563835, 33.047765], [112.561991, 33.046826], [112.559261, 33.047438], [112.55877, 33.04552], [112.555574, 33.045196], [112.557243, 33.049579], [112.556747, 33.05027], [112.556128, 33.051131], [112.552935, 33.051364], [112.550154, 33.04909], [112.551124, 33.052348], [112.549712, 33.051201], [112.544666, 33.048773], [112.543786, 33.048489], [112.535802, 33.045913], [112.532012, 33.044452], [112.52881, 33.043198], [112.526027, 33.040759], [112.52501, 33.040393], [112.524936, 33.039464], [112.525457, 33.03642], [112.526011, 33.035014], [112.526353, 33.034523], [112.526434, 33.034031], [112.526271, 33.032817], [112.525017, 33.030441], [112.524903, 33.030018], [112.524985, 33.029622], [112.52549, 33.028872], [112.525457, 33.02838], [112.524773, 33.027179], [112.524399, 33.026073], [112.52365, 33.024817]]]}, "properties": {"display_name": "张衡街道, 卧龙区, 南阳市, 河南省, 中国", "type": "administrative", "osm_type": "relation", "osm_id": 9996861, "class": null, "keyword": "subdistrict"}}, {"type": "Feature", "geometry": {"type": "MultiPolygon", "coordinates": [[[[112.445725, 33.008841], [112.446494, 33.006756], [112.447047, 33.005332], [112.447782, 33.002765], [112.447964, 33.00201], [112.448852, 32.998673], [112.449234, 32.99771], [112.449901, 32.99667], [112.455737, 32.986369], [112.45796, 32.985034], [112.459363, 32.985211], [112.461905, 32.985334], [112.473724, 32.985565], [112.473852, 32.986964], [112.474054, 32.988168], [112.474647, 32.990271], [112.474676, 32.990931], [112.474504, 32.991487], [112.474167, 32.9923], [112.474365, 32.993583], [112.474787, 32.994284], [112.474994, 32.995158], [112.47496, 32.996405], [112.474142, 32.996956], [112.473573, 32.998], [112.473002, 32.999095], [112.472595, 32.999847], [112.472182, 33.000458], [112.472108, 33.000936], [112.472083, 33.001346], [112.471959, 33.001588], [112.472066, 33.001776], [112.472447, 33.001928], [112.472786, 33.001935], [112.473356, 33.001901], [112.473712, 33.002164], [112.473968, 33.002677], [112.473993, 33.003579], [112.473869, 33.003822], [112.473274, 33.004113], [112.473059, 33.004523], [112.473108, 33.004883], [112.473406, 33.005473], [112.473671, 33.005681], [112.474084, 33.006201], [112.474076, 33.00643], [112.474316, 33.006777], [112.474468, 33.007822], [112.474767, 33.009153], [112.473635, 33.009138], [112.472409, 33.009274], [112.470694, 33.009464], [112.468665, 33.011026], [112.466417, 33.013169], [112.465041, 33.0128], [112.464622, 33.015113], [112.462089, 33.013797], [112.45999, 33.011128], [112.45817, 33.011534], [112.459283, 33.00979], [112.456313, 33.009632], [112.454484, 33.009461], [112.454502, 33.010615], [112.453145, 33.0114], [112.450118, 33.007781], [112.449424, 33.00811], [112.447626, 33.008964], [112.445725, 33.008841]]], [[[112.480201, 32.977226], [112.482242, 32.976433], [112.483138, 32.97546], [112.484735, 32.975441], [112.48541, 32.974856], [112.487366, 32.97538], [112.488647, 32.975723], [112.490593, 32.976244], [112.492114, 32.976651], [112.492124, 32.976654], [112.495402, 32.977255], [112.497324, 32.977599], [112.498154, 32.977938], [112.498865, 32.978209], [112.499135, 32.977452], [112.499237, 32.976449], [112.499647, 32.976399], [112.499962, 32.976532], [112.50057, 32.977353], [112.500456, 32.977609], [112.499256, 32.978391], [112.500235, 32.97889], [112.502593, 32.98007], [112.503972, 32.980173], [112.50627, 32.980348], [112.505921, 32.985147], [112.506028, 32.98734], [112.506541, 32.993259], [112.501215, 32.993398], [112.500801, 32.993502], [112.500263, 32.993668], [112.498841, 32.99432], [112.49578, 32.994355], [112.492224, 32.994188], [112.492298, 32.989409], [112.48679, 32.989256], [112.486972, 32.987085], [112.482563, 32.98689], [112.482613, 32.98501], [112.482265, 32.984865], [112.482638, 32.982249], [112.483787, 32.981243], [112.482621, 32.980868], [112.480297, 32.979605], [112.480234, 32.979208], [112.480201, 32.977226]]]]}, "properties": {"display_name": "武侯街道, 卧龙区, 南阳市, 河南省, 中国", "type": "administrative", "osm_type": "relation", "osm_id": 9996860, "class": null, "keyword": "subdistrict"}}, {"type": "Feature", "geometry": {"type": "Polygon", "coordinates": [[[112.200559, 33.040441], [112.202371, 33.039269], [112.20337, 33.037975], [112.203999, 33.037786], [112.203978, 33.037323], [112.204189, 33.036827], [112.204807, 33.036879], [112.205426, 33.036752], [112.205524, 33.035572], [112.205975, 33.035676], [112.209615, 33.034582], [112.209583, 33.032274], [112.209836, 33.030206], [112.20878, 33.029994], [112.209017, 33.028741], [112.209048, 33.026508], [112.214066, 33.026075], [112.221373, 33.026003], [112.231414, 33.02552], [112.233708, 33.026267], [112.234197, 33.02857], [112.237394, 33.028539], [112.237823, 33.026611], [112.242836, 33.025791], [112.246043, 33.026529], [112.242433, 33.029643], [112.242927, 33.032331], [112.243868, 33.034245], [112.244787, 33.034621], [112.24663, 33.035757], [112.246695, 33.040373], [112.246961, 33.042378], [112.247212, 33.0446], [112.242644, 33.044646], [112.242226, 33.044791], [112.238136, 33.046216], [112.237767, 33.049756], [112.2377, 33.050466], [112.235377, 33.050979], [112.234057, 33.051271], [112.229473, 33.050162], [112.229419, 33.046315], [112.227633, 33.044846], [112.227571, 33.044795], [112.222094, 33.044849], [112.222057, 33.044849], [112.2219, 33.045775], [112.220869, 33.045704], [112.220719, 33.044862], [112.214755, 33.042997], [112.214212, 33.043155], [112.212025, 33.043793], [112.208859, 33.046132], [112.210256, 33.048042], [112.208782, 33.048555], [112.205709, 33.049625], [112.205221, 33.047321], [112.204276, 33.045022], [112.202905, 33.045035], [112.200936, 33.043413], [112.200596, 33.043134], [112.200559, 33.040441]]]}, "properties": {"display_name": "涅阳街道, 镇平县, 南阳市, 河南省, 中国", "type": "administrative", "osm_type": "relation", "osm_id": 10000104, "class": null, "keyword": "subdistrict"}}, {"type": "Feature", "geometry": {"type": "Polygon", "coordinates": [[[112.495927, 33.016592], [112.495932, 33.016427], [112.496165, 33.014913], [112.50043, 33.012764], [112.502137, 33.012383], [112.504979, 33.011748], [112.506593, 33.01269], [112.508749, 33.012117], [112.510131, 33.011125], [112.510669, 33.010717], [112.511514, 33.009322], [112.511652, 33.009113], [112.512224, 33.008198], [112.511665, 33.006305], [112.511493, 33.005513], [112.511581, 33.005491], [112.514904, 33.004703], [112.51493, 33.006241], [112.516293, 33.00584], [112.516601, 33.005836], [112.517663, 33.005823], [112.517847, 33.006805], [112.517914, 33.007167], [112.515192, 33.008162], [112.515668, 33.00931], [112.516493, 33.008989], [112.517709, 33.008516], [112.521051, 33.006892], [112.521455, 33.00672], [112.523216, 33.006431], [112.528495, 33.005618], [112.531199, 33.005455], [112.532032, 33.011143], [112.533059, 33.018083], [112.533396, 33.020599], [112.536461, 33.020585], [112.537052, 33.02307], [112.538086, 33.023067], [112.538134, 33.025011], [112.537055, 33.025038], [112.535038, 33.024939], [112.533094, 33.024844], [112.527688, 33.024407], [112.526939, 33.024407], [112.52365, 33.024817], [112.521762, 33.024316], [112.520077, 33.026762], [112.518397, 33.021973], [112.51597, 33.021662], [112.51565, 33.021622], [112.514261, 33.020484], [112.51173, 33.019361], [112.511299, 33.021322], [112.511276, 33.021425], [112.511159, 33.02196], [112.511094, 33.022254], [112.512291, 33.02551], [112.50933, 33.02593], [112.50709, 33.028458], [112.505116, 33.028403], [112.502292, 33.028324], [112.501899, 33.028571], [112.500449, 33.027384], [112.500191, 33.025003], [112.500178, 33.024886], [112.503127, 33.023697], [112.504904, 33.02079], [112.505278, 33.019213], [112.505543, 33.018089], [112.502107, 33.01813], [112.497325, 33.018188], [112.495942, 33.017435], [112.495927, 33.016592]]]}, "properties": {"display_name": "光武街道, 卧龙区, 南阳市, 河南省, 中国", "type": "administrative", "osm_type": "relation", "osm_id": 9996854, "class": null, "keyword": "subdistrict"}}, {"type": "Feature", "geometry": {"type": "Polygon", "coordinates": [[[111.465049, 33.297969], [111.466278, 33.295403], [111.468312, 33.293177], [111.473233, 33.289337], [111.475011, 33.286947], [111.476321, 33.284489], [111.480866, 33.27615], [111.483044, 33.272901], [111.486238, 33.270829], [111.486856, 33.270579], [111.486907, 33.271125], [111.486782, 33.273409], [111.48694, 33.27454], [111.487366, 33.275851], [111.488176, 33.277461], [111.488649, 33.277891], [111.489238, 33.278259], [111.490055, 33.278603], [111.493535, 33.279296], [111.494636, 33.279511], [111.494694, 33.283208], [111.491889, 33.283788], [111.492508, 33.286502], [111.492493, 33.288123], [111.491971, 33.288352], [111.49199, 33.291799], [111.491482, 33.292434], [111.491901, 33.293117], [111.491122, 33.294995], [111.490107, 33.294625], [111.489678, 33.295507], [111.488977, 33.295622], [111.488973, 33.29627], [111.48868, 33.29756], [111.490587, 33.297952], [111.490525, 33.299018], [111.488948, 33.299149], [111.48021, 33.298039], [111.479979, 33.29953], [111.479975, 33.299581], [111.465049, 33.297969]]]}, "properties": {"display_name": "白羽街道, 西峡县, 南阳市, 河南省, 中国", "type": "administrative", "osm_type": "relation", "osm_id": 9987159, "class": null, "keyword": "subdistrict"}}, {"type": "Feature", "geometry": {"type": "Polygon", "coordinates": [[[111.460285, 33.147992], [111.463345, 33.145782], [111.465993, 33.142407], [111.466979, 33.141151], [111.467267, 33.140662], [111.468244, 33.138999], [111.469246, 33.137295], [111.47096, 33.13467], [111.472434, 33.134974], [111.475635, 33.134962], [111.478041, 33.135963], [111.479303, 33.136487], [111.479174, 33.136927], [111.478505, 33.139223], [111.478404, 33.139569], [111.479447, 33.139565], [111.481547, 33.139557], [111.481578, 33.139557], [111.484141, 33.139547], [111.485487, 33.139542], [111.485528, 33.139541], [111.488253, 33.139531], [111.490367, 33.139522], [111.492727, 33.139721], [111.494414, 33.139891], [111.496707, 33.141036], [111.496814, 33.141258], [111.49718, 33.142018], [111.497498, 33.142679], [111.497632, 33.142956], [111.495237, 33.145668], [111.495052, 33.14588], [111.494905, 33.146045], [111.492853, 33.149791], [111.491736, 33.151829], [111.490527, 33.152856], [111.489342, 33.153862], [111.488094, 33.154922], [111.485806, 33.154931], [111.485699, 33.154863], [111.483081, 33.153228], [111.482135, 33.152636], [111.482005, 33.151901], [111.481414, 33.148526], [111.48119, 33.147254], [111.480599, 33.147157], [111.476613, 33.146502], [111.474822, 33.153819], [111.473791, 33.153457], [111.473109, 33.153217], [111.462907, 33.149631], [111.462195, 33.149186], [111.460285, 33.147992]]]}, "properties": {"display_name": "龙城街道, 淅川县, 南阳市, 河南省, 中国", "type": "administrative", "osm_type": "relation", "osm_id": 9991773, "class": null, "keyword": "subdistrict"}}, {"type": "Feature", "geometry": {"type": "Polygon", "coordinates": [[[111.47096, 33.13467], [111.473108, 33.127183], [111.472803, 33.118428], [111.47713, 33.118412], [111.484691, 33.118383], [111.485981, 33.118513], [111.488351, 33.118753], [111.488361, 33.120677], [111.490203, 33.122978], [111.489985, 33.124907], [111.489767, 33.126827], [111.4884, 33.127602], [111.486583, 33.129918], [111.486648, 33.129923], [111.486727, 33.129929], [111.495733, 33.130651], [111.495744, 33.132527], [111.495751, 33.133729], [111.495311, 33.136809], [111.494144, 33.136814], [111.493055, 33.136818], [111.493025, 33.136816], [111.492871, 33.13832], [111.492727, 33.139721], [111.490367, 33.139522], [111.488253, 33.139531], [111.485528, 33.139541], [111.485487, 33.139542], [111.484141, 33.139547], [111.481578, 33.139557], [111.481547, 33.139557], [111.479447, 33.139565], [111.478404, 33.139569], [111.478505, 33.139223], [111.479174, 33.136927], [111.479303, 33.136487], [111.478041, 33.135963], [111.475635, 33.134962], [111.472434, 33.134974], [111.47096, 33.13467]]]}, "properties": {"display_name": "商圣街道, 淅川县, 南阳市, 河南省, 中国", "type": "administrative", "osm_type": "relation", "osm_id": 9991774, "class": null, "keyword": "subdistrict"}}, {"type": "Feature", "geometry": {"type": "Polygon", "coordinates": [[[112.505921, 32.985147], [112.50627, 32.980348], [112.511791, 32.980609], [112.511832, 32.980614], [112.51404, 32.98086], [112.515296, 32.980845], [112.520658, 32.98078], [112.520413, 32.979821], [112.520615, 32.97828], [112.520909, 32.977896], [112.522966, 32.979137], [112.533519, 32.985234], [112.532674, 32.987514], [112.532508, 32.987795], [112.531465, 32.98838], [112.530911, 32.988576], [112.530274, 32.988686], [112.529513, 32.988691], [112.529725, 32.992834], [112.515922, 32.993099], [112.506541, 32.993259], [112.506028, 32.98734], [112.505921, 32.985147]]]}, "properties": {"display_name": "七一街道, 卧龙区, 南阳市, 河南省, 中国", "type": "administrative", "osm_type": "relation", "osm_id": 9996858, "class": null, "keyword": "subdistrict"}}, {"type": "Feature", "geometry": {"type": "Polygon", "coordinates": [[[111.47854, 33.307632], [111.479975, 33.299581], [111.479979, 33.29953], [111.48021, 33.298039], [111.488948, 33.299149], [111.490525, 33.299018], [111.491344, 33.29896], [111.491692, 33.298904], [111.492091, 33.298752], [111.493203, 33.298079], [111.493643, 33.297884], [111.494116, 33.297767], [111.495021, 33.297655], [111.495461, 33.311738], [111.494622, 33.312168], [111.494099, 33.312355], [111.493435, 33.312522], [111.486747, 33.313196], [111.487422, 33.3174], [111.484993, 33.317556], [111.481491, 33.31778], [111.480341, 33.313944], [111.47854, 33.307632]]]}, "properties": {"display_name": "莲花街道, 西峡县, 南阳市, 河南省, 中国", "type": "administrative", "osm_type": "relation", "osm_id": 9987160, "class": null, "keyword": "subdistrict"}}, {"type": "Feature", "geometry": {"type": "Polygon", "coordinates": [[[111.461626, 33.311912], [111.462364, 33.30628], [111.465049, 33.297969], [111.479975, 33.299581], [111.47854, 33.307632], [111.480341, 33.313944], [111.476681, 33.314312], [111.475835, 33.309456], [111.473702, 33.30956], [111.473801, 33.311683], [111.461626, 33.311912]]]}, "properties": {"display_name": "紫金街道, 西峡县, 南阳市, 河南省, 中国", "type": "administrative", "osm_type": "relation", "osm_id": 9987161, "class": null, "keyword": "subdistrict"}}, {"type": "Feature", "geometry": {"type": "Polygon", "coordinates": [[[112.49511, 32.99525], [112.495805, 32.995201], [112.49578, 32.994355], [112.498841, 32.99432], [112.500263, 32.993668], [112.500801, 32.993502], [112.501215, 32.993398], [112.506541, 32.993259], [112.515922, 32.993099], [112.516145, 32.999594], [112.51627, 32.999836], [112.51866, 33.003493], [112.521051, 33.006892], [112.517709, 33.008516], [112.516493, 33.008989], [112.515668, 33.00931], [112.515192, 33.008162], [112.517914, 33.007167], [112.517847, 33.006805], [112.517663, 33.005823], [112.516601, 33.005836], [112.516293, 33.00584], [112.51493, 33.006241], [112.514904, 33.004703], [112.511581, 33.005491], [112.511493, 33.005513], [112.511665, 33.006305], [112.512224, 33.008198], [112.511652, 33.009113], [112.511514, 33.009322], [112.508924, 33.0056], [112.505144, 33.000009], [112.50306, 33.000842], [112.50138, 32.998337], [112.496095, 32.998303], [112.496078, 32.996693], [112.495913, 32.996714], [112.495822, 32.99577], [112.49521, 32.995847], [112.49511, 32.99525]]]}, "properties": {"display_name": "车站街道, 卧龙区, 南阳市, 河南省, 中国", "type": "administrative", "osm_type": "relation", "osm_id": 9996853, "class": null, "keyword": "subdistrict"}}, {"type": "Feature", "geometry": {"type": "Polygon", "coordinates": [[[112.529513, 32.988691], [112.530274, 32.988686], [112.530911, 32.988576], [112.531465, 32.98838], [112.532508, 32.987795], [112.532674, 32.987514], [112.533519, 32.985234], [112.540963, 32.985951], [112.540432, 32.989418], [112.541077, 32.991083], [112.541433, 32.991707], [112.541714, 32.992201], [112.540903, 32.992416], [112.540506, 32.99243], [112.540142, 32.992242], [112.539753, 32.992277], [112.538603, 32.99243], [112.538338, 32.99261], [112.537999, 32.992638], [112.539257, 32.996073], [112.540241, 32.997822], [112.540639, 32.999362], [112.541135, 33.002436], [112.541085, 33.002637], [112.540978, 33.002755], [112.540721, 33.002831], [112.539977, 33.00288], [112.53833, 33.002949], [112.537486, 33.003047], [112.536841, 33.003012], [112.536245, 33.003116], [112.535095, 33.003283], [112.533763, 33.003366], [112.533871, 33.005454], [112.531199, 33.005455], [112.529725, 32.992834], [112.529513, 32.988691]]]}, "properties": {"display_name": "新华街道, 宛城区, 南阳市, 河南省, 中国", "type": "administrative", "osm_type": "relation", "osm_id": 9996152, "class": null, "keyword": "subdistrict"}}, {"type": "Feature", "geometry": {"type": "Polygon", "coordinates": [[[112.515922, 32.993099], [112.529725, 32.992834], [112.531199, 33.005455], [112.528495, 33.005618], [112.523216, 33.006431], [112.521455, 33.00672], [112.521051, 33.006892], [112.51866, 33.003493], [112.51627, 32.999836], [112.516145, 32.999594], [112.515922, 32.993099]]]}, "properties": {"display_name": "梅溪街道, 卧龙区, 南阳市, 河南省, 中国", "type": "administrative", "osm_type": "relation", "osm_id": 9996856, "class": null, "keyword": "subdistrict"}}, {"type": "Feature", "geometry": {"type": "Polygon", "coordinates": [[[112.512376, 32.927598], [112.513749, 32.925528], [112.513618, 32.92447], [112.523295, 32.922071], [112.525801, 32.929429], [112.514151, 32.931941], [112.512376, 32.927598]]]}, "properties": {"display_name": "河南中鑫新能源产业发展有限公司, 枣林街道, 宛城区, 南阳市, 河南省, 中国", "type": "industrial", "osm_type": "way", "osm_id": 1368109855, "class": null, "keyword": "中心城区"}}, {"type": "Feature", "geometry": {"type": "Polygon", "coordinates": [[[112.584462, 33.007307], [112.584486, 33.00727], [112.585239, 33.006396], [112.585282, 33.006369], [112.585331, 33.006364], [112.585382, 33.006369], [112.604512, 33.018027], [112.604534, 33.018057], [112.604537, 33.018087], [112.604525, 33.018119], [112.60372, 33.019031], [112.603691, 33.019055], [112.603641, 33.01906], [112.603604, 33.019042], [112.584507, 33.00739], [112.584466, 33.007347], [112.584462, 33.007307]]]}, "properties": {"display_name": "南阳水上运动中心, 农运路, 七里园乡, 宛城区, 南阳市, 河南省, 473000, 中国", "type": "sports_centre", "osm_type": "way", "osm_id": 1036011237, "class": null, "keyword": "中心城区"}}, {"type": "Feature", "geometry": {"type": "Polygon", "coordinates": [[[112.598252, 33.029165], [112.602838, 33.028178], [112.60418, 33.033684], [112.5994, 33.034496], [112.598252, 33.029165]]]}, "properties": {"display_name": "南洋体育中心, 农运路, 七里园乡, 宛城区, 南阳市, 河南省, 中国", "type": "sports_centre", "osm_type": "way", "osm_id": 229752872, "class": null, "keyword": "中心城区"}}, {"type": "Feature", "geometry": {"type": "Polygon", "coordinates": [[[112.623835, 33.012413], [112.624403, 33.012155], [112.629457, 33.011328], [112.630122, 33.014024], [112.626008, 33.014766], [112.623835, 33.012413]]]}, "properties": {"display_name": "南阳市中心医院, 信臣南二路, 新区, 白河街道, 宛城区, 南阳市, 河南省, 中国", "type": "hospital", "osm_type": "way", "osm_id": 1311975952, "class": null, "keyword": "市中心"}}, {"type": "Feature", "geometry": {"type": "Polygon", "coordinates": [[[112.567708, 32.993353], [112.568173, 32.992545], [112.568203, 32.992492], [112.568681, 32.991663], [112.570212, 32.991965], [112.57042, 32.991998], [112.570503, 32.992008], [112.570675, 32.992034], [112.570717, 32.99204], [112.570932, 32.992087], [112.571068, 32.992081], [112.571871, 32.99219], [112.571864, 32.993326], [112.570519, 32.99491], [112.569746, 32.994412], [112.56937, 32.994199], [112.569069, 32.99403], [112.568993, 32.993987], [112.568949, 32.993962], [112.568291, 32.993662], [112.567871, 32.993573], [112.567708, 32.993353]]]}, "properties": {"display_name": "南阳体育中心, 鼎盛路, 仲景街道, 宛城区, 南阳市, 河南省, 473000, 中国", "type": "sports_centre", "osm_type": "relation", "osm_id": 13251665, "class": null, "keyword": "中心城区"}}, {"type": "Feature", "geometry": {"type": "Polygon", "coordinates": [[[112.598904, 33.031311], [112.59897, 33.03096], [112.599144, 33.030637], [112.599413, 33.030363], [112.599759, 33.030158], [112.600123, 33.030044], [112.600509, 33.030006], [112.600594, 33.030015], [112.600889, 33.030047], [112.601247, 33.030163], [112.601561, 33.030347], [112.601813, 33.030589], [112.60199, 33.030874], [112.602082, 33.031197], [112.602071, 33.031555], [112.601948, 33.031897], [112.60172, 33.0322], [112.601406, 33.032441], [112.600983, 33.032616], [112.600518, 33.032679], [112.600094, 33.032636], [112.5997, 33.0325], [112.599363, 33.032282], [112.599107, 33.031996], [112.59895, 33.031664], [112.598904, 33.031311]]]}, "properties": {"display_name": "南洋体育中心体育场, 农运路, 七里园乡, 宛城区, 南阳市, 河南省, 中国", "type": "stadium", "osm_type": "way", "osm_id": 1160077275, "class": null, "keyword": "中心城区"}}, {"type": "Feature", "geometry": {"type": "Polygon", "coordinates": [[[112.958993, 33.05657], [112.959001, 33.054556], [112.961925, 33.054564], [112.961919, 33.056245], [112.959573, 33.056239], [112.959572, 33.056572], [112.958993, 33.05657]]]}, "properties": {"display_name": "新时代高级中学, X004, 赊店镇, 社旗县, 南阳市, 河南省, 中国", "type": "school", "osm_type": "way", "osm_id": 1347993797, "class": null, "keyword": "市中心"}}, {"type": "Feature", "geometry": {"type": "Polygon", "coordinates": [[[112.600554, 32.992133], [112.603089, 32.990236], [112.604102, 32.991224], [112.601844, 32.992896], [112.601533, 32.992881], [112.601165, 32.99254], [112.60077, 32.992313], [112.600554, 32.992133]]]}, "properties": {"display_name": "SCF南阳金融中心, 白河街道, 宛城区, 南阳市, 河南省, 中国", "type": "commercial", "osm_type": "way", "osm_id": 1000666792, "class": null, "keyword": "中心城区"}}, {"type": "Feature", "geometry": {"type": "Polygon", "coordinates": [[[113.028306, 33.256302], [113.02846, 33.256134], [113.029875, 33.256138], [113.030071, 33.256243], [113.030067, 33.25761], [113.029903, 33.257793], [113.028474, 33.257786], [113.028316, 33.257618], [113.028306, 33.256302]]]}, "properties": {"display_name": "中达教师新村A区, 方城县, 南阳市, 河南省, 中国", "type": "residential", "osm_type": "way", "osm_id": 928016509, "class": null, "keyword": "市中心"}}, {"type": "Feature", "geometry": {"type": "Polygon", "coordinates": [[[113.028287, 33.254802], [113.028479, 33.254677], [113.029894, 33.254701], [113.030109, 33.254837], [113.030095, 33.255712], [113.029941, 33.255868], [113.028488, 33.255853], [113.028325, 33.255724], [113.028287, 33.254802]]]}, "properties": {"display_name": "中达教师新村B区, 方城县, 南阳市, 河南省, 中国", "type": "residential", "osm_type": "way", "osm_id": 928016594, "class": null, "keyword": "市中心"}}, {"type": "Feature", "geometry": {"type": "Polygon", "coordinates": [[[112.528536, 32.994], [112.528547, 32.993955], [112.52864, 32.993686], [112.528673, 32.993585], [112.528728, 32.993464], [112.528731, 32.993063], [112.529435, 32.993051], [112.529577, 32.993101], [112.529633, 32.993162], [112.529694, 32.994777], [112.528777, 32.994811], [112.528661, 32.994754], [112.528609, 32.994701], [112.52857, 32.994611], [112.528536, 32.994]]]}, "properties": {"display_name": "南阳市中心广场, 梅溪街道, 卧龙区, 南阳市, 河南省, 中国", "type": "square", "osm_type": "way", "osm_id": 979330285, "class": null, "keyword": "市中心"}}, {"type": "Feature", "geometry": {"type": "Polygon", "coordinates": [[[112.546996, 32.978823], [112.547361, 32.977444], [112.548267, 32.977601], [112.547902, 32.978964], [112.546996, 32.978823]]]}, "properties": {"display_name": "南阳家具博览中心, 长江路, 枣林街道, 宛城区, 南阳市, 河南省, 473000, 中国", "type": "furniture", "osm_type": "way", "osm_id": 444398798, "class": null, "keyword": "中心城区"}}, {"type": "Feature", "geometry": {"type": "Polygon", "coordinates": [[[112.567774, 32.99339], [112.568236, 32.992566], [112.569088, 32.992993], [112.568613, 32.993716], [112.567896, 32.993549], [112.567774, 32.99339]]]}, "properties": {"display_name": "南阳体育中心健身馆, 仲景街道, 宛城区, 南阳市, 河南省, 中国", "type": "construction", "osm_type": "way", "osm_id": 422169814, "class": null, "keyword": "中心城区"}}, {"type": "Feature", "geometry": {"type": "Polygon", "coordinates": [[[112.577848, 33.019494], [112.579533, 33.019485], [112.579537, 33.020044], [112.577852, 33.020052], [112.577848, 33.019494]], [[112.57816, 33.01989], [112.578521, 33.019891], [112.578522, 33.019653], [112.57816, 33.019652], [112.57816, 33.01989]], [[112.578861, 33.019886], [112.579223, 33.019887], [112.579224, 33.019649], [112.578862, 33.019648], [112.578861, 33.019886]]]}, "properties": {"display_name": "南阳会议中心, 张衡路, 七里园街道, 张衡街道, 宛城区, 南阳市, 河南省, 中国", "type": "conference_centre", "osm_type": "relation", "osm_id": 13826541, "class": null, "keyword": "中心城区"}}]}