{"type": "FeatureCollection", "features": [{"type": "Feature", "geometry": {"type": "Polygon", "coordinates": [[[-86.798474, 36.171521], [-86.796475, 36.168686], [-86.795043, 36.166683], [-86.793795, 36.164818], [-86.793305, 36.163993], [-86.793121, 36.163142], [-86.792845, 36.162336], [-86.792636, 36.161372], [-86.792244, 36.160562], [-86.791333, 36.159247], [-86.790034, 36.157669], [-86.789828, 36.157181], [-86.788994, 36.155891], [-86.78847, 36.15505], [-86.788024, 36.154369], [-86.787479, 36.153538], [-86.787001, 36.15281], [-86.786384, 36.152016], [-86.785657, 36.151246], [-86.785296, 36.150908], [-86.784903, 36.150609], [-86.78434, 36.150312], [-86.783814, 36.150025], [-86.783404, 36.149835], [-86.782667, 36.149626], [-86.78211, 36.149458], [-86.78147, 36.149336], [-86.780368, 36.149152], [-86.779814, 36.149065], [-86.778831, 36.148987], [-86.778355, 36.148956], [-86.777408, 36.148983], [-86.776045, 36.149119], [-86.775542, 36.149185], [-86.775091, 36.149273], [-86.774831, 36.149372], [-86.774519, 36.149375], [-86.774196, 36.149452], [-86.773804, 36.14958], [-86.773578, 36.149663], [-86.773218, 36.149781], [-86.772779, 36.149965], [-86.772417, 36.150106], [-86.772237, 36.150211], [-86.771829, 36.150414], [-86.771499, 36.150594], [-86.770685, 36.150986], [-86.76888, 36.15173], [-86.765887, 36.152971], [-86.764189, 36.153776], [-86.762901, 36.154393], [-86.762105, 36.1551], [-86.761289, 36.155754], [-86.760757, 36.156246], [-86.760507, 36.156835], [-86.760597, 36.157334], [-86.760415, 36.157645], [-86.760602, 36.1582], [-86.76202, 36.158112], [-86.763148, 36.158056], [-86.765114, 36.158109], [-86.765907, 36.158277], [-86.766691, 36.158552], [-86.767664, 36.158971], [-86.769173, 36.159717], [-86.770174, 36.160301], [-86.770736, 36.160503], [-86.772132, 36.161141], [-86.772305, 36.161204], [-86.772324, 36.161278], [-86.772551, 36.161417], [-86.772639, 36.161465], [-86.773135, 36.161892], [-86.773469, 36.162199], [-86.773554, 36.162276], [-86.773671, 36.162389], [-86.77379, 36.162482], [-86.774781, 36.164031], [-86.775189, 36.164318], [-86.775378, 36.164729], [-86.775934, 36.165852], [-86.776298, 36.166926], [-86.776908, 36.16795], [-86.777346, 36.168703], [-86.77801, 36.169679], [-86.778506, 36.170389], [-86.778965, 36.17101], [-86.779921, 36.172634], [-86.780455, 36.17343], [-86.780894, 36.174181], [-86.781223, 36.174802], [-86.78156, 36.175582], [-86.781854, 36.175529], [-86.783346, 36.175216], [-86.784791, 36.174873], [-86.786258, 36.174566], [-86.790267, 36.173419], [-86.795004, 36.172377], [-86.798474, 36.171521]]]}, "properties": {"display_name": "Downtown Nashville, Nashville, Davidson County, Middle Tennessee, Tennessee, 37219, United States", "type": "neighbourhood", "osm_type": "way", "osm_id": 1153882693, "class": null, "keyword": "downtown"}}, {"type": "Feature", "geometry": {"type": "Polygon", "coordinates": [[[-86.67536, 36.163951], [-86.674939, 36.16282], [-86.673818, 36.163145], [-86.673408, 36.162368], [-86.671838, 36.162986], [-86.670774, 36.161131], [-86.664742, 36.161885], [-86.664554, 36.163141], [-86.664464, 36.163745], [-86.664315, 36.16474], [-86.664256, 36.165135], [-86.664206, 36.165464], [-86.665688, 36.165715], [-86.665603, 36.166298], [-86.666274, 36.166638], [-86.667264, 36.167324], [-86.669083, 36.169156], [-86.669452, 36.169214], [-86.671545, 36.169534], [-86.672134, 36.16963], [-86.672413, 36.169004], [-86.673574, 36.16918], [-86.673649, 36.168625], [-86.674032, 36.167844], [-86.67536, 36.163951]]]}, "properties": {"display_name": "Bluefields Historic Neighborhood, Donelson, Nashville, Davidson County, Middle Tennessee, Tennessee, United States", "type": "residential", "osm_type": "way", "osm_id": 748798222, "class": null, "keyword": "neighborhood"}}, {"type": "Feature", "geometry": {"type": "Polygon", "coordinates": [[[-86.8047, 36.155293], [-86.804046, 36.15437], [-86.803279, 36.153318], [-86.804413, 36.152772], [-86.803722, 36.151834], [-86.803304, 36.152176], [-86.8027, 36.152578], [-86.801927, 36.151567], [-86.801885, 36.151586], [-86.801246, 36.151901], [-86.800211, 36.152414], [-86.801637, 36.15436], [-86.799787, 36.155305], [-86.800394, 36.156153], [-86.802279, 36.155204], [-86.802983, 36.156146], [-86.8047, 36.155293]]]}, "properties": {"display_name": "Ascension Saint Thomas Midtown Hospital, 2000, Church Street, Nashville, Davidson County, Middle Tennessee, Tennessee, 37236, United States", "type": "hospital", "osm_type": "way", "osm_id": 499190655, "class": null, "keyword": "midtown"}}, {"type": "Feature", "geometry": {"type": "Polygon", "coordinates": [[[-86.771838, 36.147757], [-86.771809, 36.147687], [-86.771698, 36.147423], [-86.771484, 36.146902], [-86.771468, 36.146864], [-86.769521, 36.145534], [-86.767429, 36.145919], [-86.767884, 36.146602], [-86.769349, 36.148797], [-86.771838, 36.147757]]]}, "properties": {"display_name": "Nashville City Cemetery, Oak Street, Wedgewood-Houston, Nashville, Davidson County, Middle Tennessee, Tennessee, 37203, United States", "type": "grave_yard", "osm_type": "way", "osm_id": 130914056, "class": null, "keyword": "district"}}, {"type": "Feature", "geometry": {"type": "Polygon", "coordinates": [[[-86.780555, 36.15682], [-86.779676, 36.155461], [-86.77961, 36.155489], [-86.776471, 36.156814], [-86.776347, 36.156866], [-86.777227, 36.158225], [-86.779582, 36.157231], [-86.780555, 36.15682]]]}, "properties": {"display_name": "Music City Center, 8th Avenue South, Downtown Nashville, Nashville, Davidson County, Middle Tennessee, Tennessee, 37204, United States", "type": "commercial", "osm_type": "way", "osm_id": 107627729, "class": null, "keyword": "city center"}}, {"type": "Feature", "geometry": {"type": "Polygon", "coordinates": [[[-86.845259, 36.126336], [-86.845257, 36.126332], [-86.845254, 36.126328], [-86.845258, 36.126326], [-86.84521, 36.126267], [-86.845203, 36.126271], [-86.844956, 36.125964], [-86.844962, 36.125961], [-86.844732, 36.125677], [-86.844561, 36.125768], [-86.844541, 36.125743], [-86.844365, 36.125836], [-86.844352, 36.125845], [-86.844337, 36.125858], [-86.844327, 36.125871], [-86.844319, 36.125882], [-86.844315, 36.125894], [-86.844312, 36.125906], [-86.844312, 36.125919], [-86.844313, 36.12593], [-86.844316, 36.125942], [-86.844323, 36.125956], [-86.844576, 36.126273], [-86.844449, 36.126339], [-86.844505, 36.12641], [-86.84449, 36.126417], [-86.844667, 36.126639], [-86.844661, 36.126644], [-86.844654, 36.126651], [-86.844648, 36.126659], [-86.844643, 36.126668], [-86.844641, 36.126676], [-86.844641, 36.126686], [-86.844643, 36.126696], [-86.844646, 36.126706], [-86.844651, 36.126714], [-86.844656, 36.12672], [-86.844663, 36.126726], [-86.844672, 36.12673], [-86.844681, 36.126734], [-86.84469, 36.126736], [-86.8447, 36.126738], [-86.84471, 36.126739], [-86.84472, 36.126738], [-86.844729, 36.126736], [-86.844741, 36.126732], [-86.84487, 36.126665], [-86.844875, 36.126661], [-86.844879, 36.126656], [-86.84488, 36.126651], [-86.84488, 36.126645], [-86.844878, 36.126639], [-86.844857, 36.126613], [-86.84493, 36.126575], [-86.844934, 36.126572], [-86.844938, 36.12657], [-86.844941, 36.126566], [-86.844943, 36.126561], [-86.844941, 36.126556], [-86.844938, 36.126552], [-86.845037, 36.1265], [-86.845043, 36.126497], [-86.845046, 36.126492], [-86.845047, 36.126487], [-86.845046, 36.126482], [-86.845044, 36.126477], [-86.845144, 36.126425], [-86.845149, 36.126421], [-86.845152, 36.126417], [-86.845153, 36.126412], [-86.845152, 36.126407], [-86.845149, 36.126402], [-86.845249, 36.12635], [-86.845255, 36.126346], [-86.845258, 36.126343], [-86.845259, 36.12634], [-86.845259, 36.126336]]]}, "properties": {"display_name": "Belle Meade Town Center, Harding Pike, Nashville, Davidson County, Middle Tennessee, Tennessee, 37205, United States", "type": "yes", "osm_type": "way", "osm_id": 703121341, "class": null, "keyword": "town center"}}, {"type": "Feature", "geometry": {"type": "Polygon", "coordinates": [[[-86.817, 36.102297], [-86.816759, 36.102125], [-86.816714, 36.102167], [-86.816289, 36.101865], [-86.816216, 36.101931], [-86.816077, 36.102059], [-86.815879, 36.102241], [-86.816544, 36.102715], [-86.816736, 36.102539], [-86.817, 36.102297]]]}, "properties": {"display_name": "Hillsboro Town Centre, 4100, Hillsboro Pike, Hill Center, Green Hills, Nashville, Davidson County, Middle Tennessee, Tennessee, 37215, United States", "type": "construction", "osm_type": "way", "osm_id": 1292455768, "class": null, "keyword": "town centre"}}, {"type": "Feature", "geometry": {"type": "Polygon", "coordinates": [[[-86.799196, 36.147649], [-86.799187, 36.147648], [-86.799188, 36.147638], [-86.798733, 36.147595], [-86.798636, 36.148268], [-86.798563, 36.14831], [-86.798715, 36.148485], [-86.798605, 36.148547], [-86.798737, 36.1487], [-86.798843, 36.14864], [-86.798839, 36.148636], [-86.798948, 36.148575], [-86.798954, 36.148581], [-86.799044, 36.14853], [-86.799019, 36.148501], [-86.799053, 36.148481], [-86.798881, 36.148285], [-86.798898, 36.148157], [-86.799121, 36.148176], [-86.799135, 36.148072], [-86.79913, 36.148072], [-86.799144, 36.14797], [-86.799138, 36.14797], [-86.799155, 36.14785], [-86.79916, 36.147851], [-86.799176, 36.147743], [-86.799182, 36.147743], [-86.799196, 36.147649]]]}, "properties": {"display_name": "Aertson Midtown, Broadway, Nashville, Davidson County, Middle Tennessee, Tennessee, 37203, United States", "type": "apartments", "osm_type": "way", "osm_id": 558056308, "class": null, "keyword": "midtown"}}, {"type": "Feature", "geometry": {"type": "Polygon", "coordinates": [[[-86.714421, 36.263754], [-86.71408, 36.263684], [-86.714088, 36.263657], [-86.7141, 36.263621], [-86.713989, 36.263598], [-86.713977, 36.263634], [-86.713969, 36.263662], [-86.713859, 36.263639], [-86.713749, 36.263992], [-86.7137, 36.263982], [-86.71367, 36.264079], [-86.71364, 36.264173], [-86.713688, 36.264183], [-86.71367, 36.264241], [-86.71415, 36.264339], [-86.714232, 36.264356], [-86.714296, 36.264152], [-86.714378, 36.264169], [-86.714417, 36.264046], [-86.714366, 36.263985], [-86.714349, 36.263982], [-86.714421, 36.263754]]]}, "properties": {"display_name": "Walmart Neighborhood Market, 109, West Old Hickory Boulevard, Nashville, Davidson County, Middle Tennessee, Tennessee, 37115, United States", "type": "supermarket", "osm_type": "way", "osm_id": 1242508635, "class": null, "keyword": "neighborhood"}}, {"type": "Feature", "geometry": {"type": "Polygon", "coordinates": [[[-86.810821, 36.156355], [-86.810606, 36.155735], [-86.809916, 36.155891], [-86.809914, 36.156076], [-86.809906, 36.156076], [-86.809905, 36.156177], [-86.809913, 36.156177], [-86.809913, 36.15625], [-86.809941, 36.15625], [-86.80994, 36.156321], [-86.80997, 36.156321], [-86.809969, 36.156368], [-86.809964, 36.156368], [-86.809964, 36.156396], [-86.809989, 36.156396], [-86.809989, 36.156405], [-86.809848, 36.156437], [-86.809855, 36.156458], [-86.809883, 36.156451], [-86.810631, 36.156282], [-86.810652, 36.15634], [-86.810692, 36.156331], [-86.810708, 36.156328], [-86.810725, 36.156377], [-86.810821, 36.156355]], [[-86.810541, 36.156187], [-86.810524, 36.156211], [-86.810506, 36.156215], [-86.810502, 36.156203], [-86.810188, 36.156274], [-86.810184, 36.156264], [-86.81017, 36.156268], [-86.810138, 36.156175], [-86.810155, 36.156171], [-86.810154, 36.156031], [-86.810422, 36.155972], [-86.810418, 36.155961], [-86.810435, 36.155958], [-86.810468, 36.155973], [-86.810471, 36.155983], [-86.810457, 36.155986], [-86.810468, 36.156016], [-86.810464, 36.156017], [-86.810522, 36.156178], [-86.810536, 36.156174], [-86.810541, 36.156187]]]}, "properties": {"display_name": "Charlotte at Midtown, 2400, Charlotte Avenue, Nashville, Davidson County, Middle Tennessee, Tennessee, 37203, United States", "type": "apartments", "osm_type": "relation", "osm_id": 10691770, "class": null, "keyword": "midtown"}}, {"type": "Feature", "geometry": {"type": "Polygon", "coordinates": [[[-86.803793, 36.155075], [-86.803727, 36.154987], [-86.803757, 36.154973], [-86.803695, 36.15489], [-86.803664, 36.154905], [-86.803574, 36.154786], [-86.803433, 36.154856], [-86.803427, 36.154848], [-86.803001, 36.155058], [-86.803006, 36.155064], [-86.802948, 36.155093], [-86.802981, 36.155137], [-86.802972, 36.155141], [-86.803028, 36.155215], [-86.803006, 36.155226], [-86.803022, 36.155246], [-86.803072, 36.15531], [-86.803103, 36.155294], [-86.803179, 36.155397], [-86.803234, 36.155371], [-86.803227, 36.155362], [-86.803268, 36.155342], [-86.803308, 36.155322], [-86.803316, 36.155332], [-86.803749, 36.15512], [-86.803737, 36.155103], [-86.803793, 36.155075]]]}, "properties": {"display_name": "Saint Thomas Midtown North Tower, Patterson Street, Nashville, Davidson County, Middle Tennessee, Tennessee, 37236, United States", "type": "hospital", "osm_type": "way", "osm_id": 499190654, "class": null, "keyword": "midtown"}}, {"type": "Feature", "geometry": {"type": "Polygon", "coordinates": [[[-86.789031, 36.137363], [-86.788754, 36.137333], [-86.788753, 36.137342], [-86.78863, 36.137329], [-86.788632, 36.137321], [-86.788598, 36.137318], [-86.788603, 36.137282], [-86.788606, 36.137265], [-86.788542, 36.137258], [-86.788473, 36.137251], [-86.788471, 36.137267], [-86.788455, 36.137365], [-86.788489, 36.137368], [-86.788476, 36.137449], [-86.788443, 36.137445], [-86.78843, 36.137524], [-86.788422, 36.137577], [-86.788431, 36.137578], [-86.788426, 36.137611], [-86.788587, 36.137628], [-86.788585, 36.137642], [-86.788696, 36.137654], [-86.788675, 36.137779], [-86.788959, 36.137809], [-86.789031, 36.137363]]]}, "properties": {"display_name": "Midtown Hills Police Precint, 1441, 12th Avenue South, Nashville, Davidson County, Middle Tennessee, Tennessee, 37203, United States", "type": "police", "osm_type": "way", "osm_id": 533228044, "class": null, "keyword": "midtown"}}, {"type": "Feature", "geometry": {"type": "Polygon", "coordinates": [[[-86.782089, 36.163978], [-86.781989, 36.163917], [-86.781998, 36.163907], [-86.781888, 36.163843], [-86.781897, 36.163832], [-86.781765, 36.163756], [-86.781731, 36.163736], [-86.781701, 36.163723], [-86.781666, 36.163711], [-86.781629, 36.163704], [-86.781615, 36.163703], [-86.781583, 36.163702], [-86.78155, 36.163704], [-86.781517, 36.16371], [-86.781478, 36.163722], [-86.781386, 36.163759], [-86.781636, 36.164145], [-86.781652, 36.164138], [-86.781661, 36.164152], [-86.781765, 36.164108], [-86.781773, 36.164119], [-86.781891, 36.164068], [-86.781899, 36.164081], [-86.782087, 36.164002], [-86.782078, 36.163988], [-86.782089, 36.163978]]]}, "properties": {"display_name": "Nashville City Center, Union Street, Downtown Nashville, Nashville, Davidson County, Middle Tennessee, Tennessee, 37203, United States", "type": "yes", "osm_type": "way", "osm_id": 130913036, "class": null, "keyword": "city center"}}, {"type": "Feature", "geometry": {"type": "Polygon", "coordinates": [[[-86.794862, 36.156963], [-86.794596, 36.156599], [-86.794335, 36.156723], [-86.794401, 36.156813], [-86.794458, 36.156786], [-86.794659, 36.15706], [-86.794862, 36.156963]]]}, "properties": {"display_name": "Cambria Hotel Nashville Midtown, 1612, Church Street, Nashville, Davidson County, Middle Tennessee, Tennessee, 37203, United States", "type": "hotel", "osm_type": "way", "osm_id": 1360933388, "class": null, "keyword": "midtown"}}, {"type": "Feature", "geometry": {"type": "Polygon", "coordinates": [[[-86.794629, 36.157087], [-86.794502, 36.156922], [-86.79434, 36.156995], [-86.794316, 36.156963], [-86.794238, 36.157001], [-86.794261, 36.157032], [-86.794121, 36.1571], [-86.794245, 36.157267], [-86.794629, 36.157087]]]}, "properties": {"display_name": "Midtown Corkdorks Wine, Spirits & Beer, Church Street, Nashville, Davidson County, Middle Tennessee, Tennessee, 37203, United States", "type": "alcohol", "osm_type": "way", "osm_id": 820361475, "class": null, "keyword": "midtown"}}, {"type": "Feature", "geometry": {"type": "Polygon", "coordinates": [[[-86.797928, 36.14955], [-86.797775, 36.149432], [-86.79763, 36.149556], [-86.797783, 36.149673], [-86.797928, 36.14955]]]}, "properties": {"display_name": "The Stillery Midtown, 1921, Broadway, Nashville, Davidson County, Middle Tennessee, Tennessee, 37203, United States", "type": "restaurant", "osm_type": "way", "osm_id": 665475241, "class": null, "keyword": "midtown"}}]}