{"type": "FeatureCollection", "features": [{"type": "Feature", "geometry": {"type": "Polygon", "coordinates": [[[121.426895, 29.616035], [121.426942, 29.615923], [121.427775, 29.615694], [121.427777, 29.615567], [121.427513, 29.615247], [121.427255, 29.614623], [121.427189, 29.614237], [121.427462, 29.613497], [121.427765, 29.613458], [121.427675, 29.613085], [121.427847, 29.612401], [121.428087, 29.611831], [121.428182, 29.611801], [121.42848, 29.61263], [121.428668, 29.612813], [121.428844, 29.612762], [121.428866, 29.612556], [121.42844, 29.611728], [121.428956, 29.61145], [121.429157, 29.611664], [121.429748, 29.611194], [121.430397, 29.610462], [121.430242, 29.610012], [121.430282, 29.609879], [121.431287, 29.609497], [121.431368, 29.609343], [121.431344, 29.609231], [121.431462, 29.60925], [121.431638, 29.609363], [121.432124, 29.610201], [121.432265, 29.610334], [121.43236, 29.610282], [121.432383, 29.610057], [121.43304, 29.609676], [121.432791, 29.609307], [121.432718, 29.608919], [121.433458, 29.60866], [121.434172, 29.607951], [121.434206, 29.607828], [121.434135, 29.607767], [121.433819, 29.607901], [121.433597, 29.608281], [121.433374, 29.608425], [121.433082, 29.608443], [121.432855, 29.608441], [121.432312, 29.607902], [121.432887, 29.607248], [121.433074, 29.607115], [121.43338, 29.607042], [121.433661, 29.606764], [121.434246, 29.606384], [121.434834, 29.606094], [121.435471, 29.605894], [121.435679, 29.605979], [121.436316, 29.606582], [121.436799, 29.606611], [121.437643, 29.606271], [121.438324, 29.605865], [121.438649, 29.605387], [121.438779, 29.605025], [121.439362, 29.604405], [121.440306, 29.603525], [121.440805, 29.603233], [121.441937, 29.603295], [121.44224, 29.60326], [121.442838, 29.60303], [121.443688, 29.603129], [121.444491, 29.603123], [121.44513, 29.603226], [121.445725, 29.603116], [121.446538, 29.6032], [121.447056, 29.602058], [121.447588, 29.601619], [121.448853, 29.601206], [121.449661, 29.601037], [121.451222, 29.60102], [121.451643, 29.601126], [121.452027, 29.601316], [121.454305, 29.603305], [121.454563, 29.603408], [121.455078, 29.602604], [121.455252, 29.602175], [121.455984, 29.601608], [121.456848, 29.601161], [121.457882, 29.600956], [121.458612, 29.601196], [121.459105, 29.600911], [121.459596, 29.601078], [121.459888, 29.600994], [121.460723, 29.601218], [121.461535, 29.601283], [121.461625, 29.60117], [121.461633, 29.600881], [121.462285, 29.60027], [121.462973, 29.600604], [121.463381, 29.600724], [121.465623, 29.601006], [121.466613, 29.599893], [121.46755, 29.599555], [121.468049, 29.599198], [121.468927, 29.599023], [121.469736, 29.598665], [121.470518, 29.598956], [121.471299, 29.599076], [121.472078, 29.59888], [121.473331, 29.598943], [121.474738, 29.598501], [121.475097, 29.598193], [121.475233, 29.59795], [121.475228, 29.597741], [121.474927, 29.596934], [121.474925, 29.596675], [121.475129, 29.59663], [121.475611, 29.596764], [121.476566, 29.598743], [121.476735, 29.598912], [121.47699, 29.598981], [121.477308, 29.598942], [121.477852, 29.598548], [121.478462, 29.597165], [121.478616, 29.59658], [121.478419, 29.595488], [121.478468, 29.595402], [121.478833, 29.595549], [121.479266, 29.59558], [121.479951, 29.595771], [121.480563, 29.595742], [121.48128, 29.595557], [121.481524, 29.595614], [121.48157, 29.596013], [121.481696, 29.596251], [121.482815, 29.597624], [121.482976, 29.597663], [121.483619, 29.597361], [121.484001, 29.597048], [121.484369, 29.596573], [121.484817, 29.596213], [121.485209, 29.596121], [121.485832, 29.59573], [121.486165, 29.595345], [121.48632, 29.595037], [121.486405, 29.594637], [121.48691, 29.594514], [121.487336, 29.594714], [121.487777, 29.595449], [121.488849, 29.596242], [121.489236, 29.59662], [121.489525, 29.596976], [121.489649, 29.597268], [121.489692, 29.598131], [121.488587, 29.598696], [121.488278, 29.599022], [121.488031, 29.599435], [121.48807, 29.600016], [121.487776, 29.600394], [121.487334, 29.600577], [121.487082, 29.600968], [121.486779, 29.601084], [121.485554, 29.600886], [121.484932, 29.601067], [121.484488, 29.601067], [121.483036, 29.602141], [121.482542, 29.603659], [121.482359, 29.603907], [121.48224, 29.604243], [121.482233, 29.604473], [121.4833, 29.606746], [121.483474, 29.60732], [121.48427, 29.608114], [121.484524, 29.608256], [121.485241, 29.608462], [121.486183, 29.609119], [121.486899, 29.609937], [121.487889, 29.610657], [121.488299, 29.611289], [121.488838, 29.611914], [121.48925, 29.612091], [121.489524, 29.612389], [121.490448, 29.612323], [121.491067, 29.612453], [121.491317, 29.612593], [121.491581, 29.612831], [121.492014, 29.613642], [121.492342, 29.613828], [121.49273, 29.614173], [121.492988, 29.614915], [121.493239, 29.614984], [121.494056, 29.614774], [121.494937, 29.614816], [121.495888, 29.615231], [121.496215, 29.615213], [121.49713, 29.615873], [121.497324, 29.616232], [121.497924, 29.616721], [121.499175, 29.616951], [121.499608, 29.616892], [121.499729, 29.616986], [121.500076, 29.617511], [121.500193, 29.618121], [121.500132, 29.618618], [121.499806, 29.619007], [121.499348, 29.620126], [121.499284, 29.620914], [121.499889, 29.621904], [121.50034, 29.622097], [121.500825, 29.622196], [121.501183, 29.622414], [121.501397, 29.622737], [121.502282, 29.623327], [121.502371, 29.623456], [121.502447, 29.624128], [121.502732, 29.624484], [121.502961, 29.624942], [121.503068, 29.62592], [121.503198, 29.625953], [121.504303, 29.626222], [121.504951, 29.625939], [121.506, 29.625968], [121.506328, 29.625776], [121.507389, 29.626142], [121.508352, 29.625714], [121.509057, 29.625613], [121.50944, 29.625751], [121.510381, 29.626407], [121.510937, 29.626485], [121.512985, 29.626413], [121.513465, 29.626563], [121.51388, 29.626868], [121.514507, 29.627067], [121.515203, 29.626928], [121.516241, 29.626419], [121.516521, 29.626383], [121.516797, 29.626189], [121.516979, 29.625634], [121.517129, 29.625515], [121.518602, 29.625454], [121.518697, 29.625381], [121.518572, 29.624331], [121.518597, 29.623906], [121.518917, 29.62365], [121.518629, 29.623357], [121.518671, 29.623151], [121.522919, 29.621021], [121.524385, 29.620417], [121.52452, 29.620522], [121.524659, 29.620845], [121.524957, 29.621092], [121.525377, 29.621138], [121.52614, 29.621081], [121.526138, 29.62098], [121.526208, 29.620969], [121.525828, 29.619602], [121.527049, 29.619673], [121.527054, 29.619449], [121.527241, 29.619292], [121.527267, 29.618894], [121.527565, 29.61874], [121.527679, 29.61855], [121.527609, 29.618405], [121.526973, 29.618154], [121.526912, 29.618001], [121.527082, 29.617796], [121.527997, 29.617875], [121.528295, 29.617641], [121.528618, 29.617513], [121.528954, 29.617199], [121.528872, 29.616782], [121.529057, 29.616674], [121.529134, 29.616531], [121.5292, 29.615989], [121.529001, 29.615859], [121.528163, 29.615669], [121.527955, 29.615106], [121.527946, 29.614691], [121.528002, 29.614421], [121.528121, 29.61427], [121.528994, 29.61455], [121.529385, 29.615099], [121.530143, 29.615655], [121.530472, 29.615692], [121.53139, 29.615596], [121.531985, 29.615214], [121.53226, 29.615203], [121.533633, 29.615641], [121.53484, 29.615839], [121.536297, 29.615809], [121.536977, 29.615725], [121.537547, 29.615607], [121.537794, 29.615213], [121.537895, 29.613969], [121.537976, 29.613587], [121.538146, 29.613367], [121.538369, 29.613243], [121.538662, 29.6132], [121.539355, 29.613436], [121.539813, 29.613396], [121.541519, 29.612468], [121.541942, 29.612395], [121.542051, 29.61246], [121.542176, 29.61259], [121.542655, 29.613332], [121.543174, 29.613932], [121.543337, 29.61403], [121.543502, 29.614001], [121.54384, 29.613656], [121.544772, 29.612954], [121.544901, 29.612925], [121.545597, 29.613782], [121.545718, 29.614104], [121.545452, 29.61453], [121.544456, 29.615679], [121.544058, 29.616262], [121.543497, 29.617673], [121.543895, 29.617904], [121.544624, 29.61806], [121.54475, 29.61819], [121.544717, 29.618876], [121.54464, 29.619019], [121.544252, 29.619171], [121.543982, 29.619805], [121.543977, 29.620028], [121.544047, 29.62019], [121.544229, 29.620241], [121.544619, 29.619991], [121.544987, 29.619966], [121.545083, 29.620574], [121.545022, 29.620861], [121.544691, 29.620935], [121.544666, 29.621206], [121.544492, 29.621634], [121.544265, 29.621949], [121.543948, 29.6222], [121.543936, 29.622774], [121.543862, 29.622837], [121.543833, 29.623299], [121.543738, 29.623489], [121.543367, 29.623626], [121.543239, 29.62447], [121.54299, 29.624945], [121.542894, 29.625144], [121.543202, 29.625478], [121.543434, 29.625561], [121.543771, 29.625479], [121.544419, 29.624943], [121.544732, 29.624081], [121.545023, 29.624134], [121.54562, 29.624527], [121.546457, 29.624943], [121.547127, 29.625525], [121.547819, 29.625919], [121.548241, 29.626134], [121.54857, 29.626087], [121.549056, 29.626393], [121.549206, 29.626602], [121.548588, 29.627374], [121.548931, 29.627556], [121.549154, 29.627845], [121.549306, 29.627303], [121.549492, 29.627182], [121.549753, 29.627332], [121.550281, 29.627846], [121.55042, 29.628378], [121.550804, 29.628963], [121.551031, 29.630182], [121.55121, 29.630394], [121.552015, 29.630666], [121.552521, 29.631004], [121.552667, 29.631389], [121.552776, 29.631428], [121.552871, 29.631423], [121.553027, 29.631267], [121.553252, 29.630945], [121.553426, 29.630979], [121.553421, 29.631291], [121.553543, 29.631381], [121.553924, 29.630909], [121.554092, 29.630874], [121.554208, 29.630939], [121.554686, 29.631594], [121.554959, 29.632241], [121.554858, 29.632597], [121.554613, 29.632951], [121.554054, 29.633489], [121.553995, 29.633902], [121.55366, 29.634677], [121.553094, 29.635431], [121.553807, 29.636211], [121.555914, 29.635987], [121.557024, 29.635765], [121.558808, 29.635903], [121.559887, 29.635556], [121.560435, 29.635493], [121.561041, 29.635088], [121.561313, 29.635019], [121.56176, 29.636054], [121.562108, 29.636578], [121.562249, 29.63665], [121.562749, 29.636558], [121.563498, 29.636924], [121.563846, 29.637182], [121.564626, 29.637291], [121.564818, 29.637471], [121.564905, 29.637794], [121.564992, 29.637904], [121.564971, 29.637914], [121.564659, 29.638028], [121.564369, 29.638076], [121.564193, 29.638074], [121.564046, 29.638027], [121.563882, 29.637938], [121.563629, 29.637785], [121.563367, 29.637675], [121.562985, 29.637599], [121.562669, 29.637541], [121.562405, 29.637547], [121.562254, 29.637582], [121.562222, 29.637622], [121.562116, 29.637798], [121.562025, 29.638023], [121.561976, 29.638213], [121.561967, 29.638439], [121.562005, 29.638689], [121.561997, 29.638929], [121.561931, 29.639182], [121.561882, 29.639299], [121.561795, 29.639597], [121.561723, 29.639954], [121.561712, 29.640339], [121.56173, 29.640543], [121.561764, 29.640702], [121.561791, 29.640997], [121.561789, 29.641169], [121.561749, 29.641423], [121.561705, 29.641576], [121.56161, 29.641697], [121.561459, 29.641764], [121.56122, 29.641797], [121.560976, 29.641795], [121.560137, 29.641795], [121.559789, 29.641832], [121.559358, 29.641877], [121.559, 29.641927], [121.558725, 29.641979], [121.558459, 29.642098], [121.558171, 29.642272], [121.557814, 29.642567], [121.557657, 29.642724], [121.55749, 29.642813], [121.55723, 29.642851], [121.55685, 29.642941], [121.556517, 29.643056], [121.556141, 29.643274], [121.555936, 29.643462], [121.555804, 29.643614], [121.555666, 29.643821], [121.555628, 29.643961], [121.555681, 29.644265], [121.555761, 29.644465], [121.555754, 29.644569], [121.555695, 29.644714], [121.555605, 29.644885], [121.555556, 29.645029], [121.555543, 29.645183], [121.555556, 29.645401], [121.555612, 29.645827], [121.555667, 29.646295], [121.555717, 29.646445], [121.555804, 29.646509], [121.555995, 29.646566], [121.556377, 29.646697], [121.556871, 29.646919], [121.557248, 29.647009], [121.557543, 29.647067], [121.557697, 29.647141], [121.557898, 29.647266], [121.558097, 29.647449], [121.558302, 29.647646], [121.558477, 29.647739], [121.558678, 29.647813], [121.558992, 29.647962], [121.559213, 29.648114], [121.559376, 29.648297], [121.559477, 29.648483], [121.55953, 29.648715], [121.559528, 29.648901], [121.559432, 29.64948], [121.559395, 29.649878], [121.55934, 29.650108], [121.559291, 29.650266], [121.559233, 29.650347], [121.558925, 29.650493], [121.55846, 29.650756], [121.558344, 29.650881], [121.558143, 29.651128], [121.558136, 29.651259], [121.558155, 29.651405], [121.558167, 29.651654], [121.558123, 29.651821], [121.558064, 29.651956], [121.557995, 29.652055], [121.557859, 29.65219], [121.557706, 29.652324], [121.557523, 29.652453], [121.55695, 29.652705], [121.556781, 29.652853], [121.556743, 29.652975], [121.556746, 29.653197], [121.556805, 29.653379], [121.556985, 29.653829], [121.557044, 29.654074], [121.557067, 29.654247], [121.557034, 29.654428], [121.557025, 29.654659], [121.557077, 29.655004], [121.557162, 29.65558], [121.557176, 29.655739], [121.557178, 29.655915], [121.557121, 29.656332], [121.557123, 29.656517], [121.557158, 29.656627], [121.557264, 29.656836], [121.557329, 29.657009], [121.557337, 29.657127], [121.557328, 29.657385], [121.557327, 29.657494], [121.557275, 29.657883], [121.557226, 29.658018], [121.557167, 29.658158], [121.55693, 29.658404], [121.556782, 29.658589], [121.556703, 29.658751], [121.556647, 29.658981], [121.556606, 29.659325], [121.5566, 29.659416], [121.556623, 29.659629], [121.55667, 29.65996], [121.556703, 29.660196], [121.556756, 29.660441], [121.556896, 29.660778], [121.556915, 29.660914], [121.556883, 29.661013], [121.556771, 29.661175], [121.556655, 29.661346], [121.556507, 29.661521], [121.556465, 29.66163], [121.556399, 29.661865], [121.556395, 29.662114], [121.556433, 29.662354], [121.556503, 29.662572], [121.556608, 29.662841], [121.556687, 29.663114], [121.556763, 29.663237], [121.556874, 29.663428], [121.557022, 29.66362], [121.557082, 29.663766], [121.557151, 29.663984], [121.557202, 29.664061], [121.557315, 29.664158], [121.557664, 29.664424], [121.557925, 29.664639], [121.558289, 29.664937], [121.558525, 29.665112], [121.558647, 29.665249], [121.558743, 29.665445], [121.558883, 29.665768], [121.558973, 29.666018], [121.559069, 29.666204], [121.55919, 29.666432], [121.559281, 29.666612], [121.559318, 29.666696], [121.559664, 29.667597], [121.55971, 29.667835], [121.559688, 29.668073], [121.559679, 29.6683], [121.559713, 29.6685], [121.560169, 29.669094], [121.560228, 29.669263], [121.560238, 29.669447], [121.560205, 29.669554], [121.560065, 29.66985], [121.5598, 29.670226], [121.559799, 29.670269], [121.559811, 29.670307], [121.559854, 29.670334], [121.55999, 29.670368], [121.560555, 29.670634], [121.560855, 29.670848], [121.561075, 29.671062], [121.561184, 29.671225], [121.561225, 29.671393], [121.561304, 29.671469], [121.56139, 29.671514], [121.561477, 29.671515], [121.561551, 29.67151], [121.561657, 29.671457], [121.561782, 29.671372], [121.5621, 29.671186], [121.562205, 29.671176], [121.562323, 29.671188], [121.562594, 29.671229], [121.562706, 29.671252], [121.562767, 29.671247], [121.562805, 29.671215], [121.562818, 29.671194], [121.562981, 29.670996], [121.563161, 29.670533], [121.56327, 29.670253], [121.563346, 29.670101], [121.563763, 29.669544], [121.564327, 29.668577], [121.564536, 29.668239], [121.564838, 29.667869], [121.565116, 29.667494], [121.565147, 29.667467], [121.565259, 29.667464], [121.565381, 29.667535], [121.565794, 29.668101], [121.565983, 29.668271], [121.566118, 29.668353], [121.566222, 29.668463], [121.56627, 29.668566], [121.566413, 29.66893], [121.566602, 29.669137], [121.56698, 29.669509], [121.567501, 29.669855], [121.567691, 29.670014], [121.568044, 29.670403], [121.568204, 29.670484], [121.568382, 29.670535], [121.568586, 29.670559], [121.568809, 29.67055], [121.569328, 29.670583], [121.569629, 29.670559], [121.570256, 29.670389], [121.570569, 29.670342], [121.570711, 29.670349], [121.570785, 29.670372], [121.570846, 29.670432], [121.5709, 29.670573], [121.570904, 29.670692], [121.570877, 29.670838], [121.57072, 29.671047], [121.569606, 29.672408], [121.569271, 29.672929], [121.569212, 29.67309], [121.569192, 29.67322], [121.569197, 29.673333], [121.569268, 29.67355], [121.569592, 29.674224], [121.569927, 29.675071], [121.570166, 29.675625], [121.570166, 29.675669], [121.570129, 29.675674], [121.570073, 29.675684], [121.569949, 29.675693], [121.569315, 29.675881], [121.568651, 29.676074], [121.567499, 29.676407], [121.567333, 29.676476], [121.567302, 29.676519], [121.567295, 29.676568], [121.567266, 29.676832], [121.567258, 29.677416], [121.567225, 29.677583], [121.567162, 29.677705], [121.567004, 29.6779], [121.566777, 29.678216], [121.566466, 29.678764], [121.566325, 29.679186], [121.566241, 29.679485], [121.566191, 29.679832], [121.566181, 29.680075], [121.566199, 29.680135], [121.566254, 29.680157], [121.566346, 29.680196], [121.566518, 29.68029], [121.566896, 29.68071], [121.567171, 29.680951], [121.567518, 29.681328], [121.56789, 29.681732], [121.568305, 29.682147], [121.568446, 29.682203], [121.568551, 29.682231], [121.568866, 29.682305], [121.569303, 29.682439], [121.569487, 29.68256], [121.569682, 29.682762], [121.569803, 29.682963], [121.569885, 29.683283], [121.569988, 29.683425], [121.570104, 29.683572], [121.570248, 29.683844], [121.570303, 29.684033], [121.570302, 29.684196], [121.57023, 29.684439], [121.569961, 29.684933], [121.569827, 29.685207], [121.569826, 29.685294], [121.569874, 29.685397], [121.570014, 29.685539], [121.570804, 29.686115], [121.571483, 29.686696], [121.571611, 29.6868], [121.571753, 29.686828], [121.571988, 29.686798], [121.572106, 29.686778], [121.572162, 29.686789], [121.572413, 29.686949], [121.572751, 29.687142], [121.572936, 29.687203], [121.573035, 29.687215], [121.573251, 29.687223], [121.573764, 29.687245], [121.573869, 29.687273], [121.573918, 29.687317], [121.573935, 29.687403], [121.573933, 29.687555], [121.573847, 29.687948], [121.57377, 29.688164], [121.573527, 29.688669], [121.573488, 29.688847], [121.57348, 29.688955], [121.573527, 29.689102], [121.573563, 29.689205], [121.573581, 29.689286], [121.573546, 29.689567], [121.573538, 29.689653], [121.573543, 29.689767], [121.57356, 29.689859], [121.573596, 29.689946], [121.573638, 29.690076], [121.573696, 29.690369], [121.573773, 29.690542], [121.573938, 29.690728], [121.57429, 29.691213], [121.574464, 29.691561], [121.574546, 29.691913], [121.574537, 29.692135], [121.574426, 29.692528], [121.574408, 29.692923], [121.574292, 29.693219], [121.574291, 29.693333], [121.574368, 29.693582], [121.57442, 29.693842], [121.574394, 29.694561], [121.574353, 29.69489], [121.57423, 29.695456], [121.574066, 29.696141], [121.573931, 29.696475], [121.573579, 29.696893], [121.573101, 29.697391], [121.573044, 29.697493], [121.573019, 29.697552], [121.573044, 29.698358], [121.573039, 29.698792], [121.572999, 29.698925], [121.572784, 29.699247], [121.572702, 29.69936], [121.57267, 29.699446], [121.572667, 29.699624], [121.572625, 29.699707], [121.572623, 29.69971], [121.572567, 29.699721], [121.572468, 29.699719], [121.572029, 29.699701], [121.571769, 29.699734], [121.57134, 29.699853], [121.570881, 29.699962], [121.570645, 29.699976], [121.570336, 29.699978], [121.5701, 29.699991], [121.57, 29.700055], [121.5699, 29.700157], [121.569667, 29.700342], [121.569474, 29.700459], [121.568928, 29.70066], [121.568754, 29.700685], [121.568673, 29.700684], [121.568581, 29.700656], [121.568464, 29.700601], [121.56817, 29.700387], [121.567844, 29.700237], [121.56729, 29.700042], [121.56682, 29.699919], [121.566624, 29.6999], [121.566377, 29.699854], [121.565817, 29.699648], [121.565115, 29.699386], [121.564561, 29.699196], [121.564055, 29.699066], [121.563795, 29.699053], [121.563627, 29.69911], [121.563372, 29.699237], [121.56285, 29.699405], [121.562596, 29.699424], [121.562447, 29.699422], [121.562416, 29.699481], [121.562426, 29.699627], [121.562433, 29.699979], [121.56248, 29.700147], [121.562577, 29.700321], [121.562624, 29.700522], [121.562548, 29.700607], [121.562468, 29.700617], [121.562325, 29.700616], [121.562034, 29.700623], [121.561639, 29.700592], [121.560979, 29.700455], [121.56044, 29.700465], [121.559944, 29.700509], [121.559776, 29.700588], [121.559538, 29.700818], [121.559474, 29.700909], [121.559455, 29.700952], [121.559455, 29.700995], [121.559472, 29.701082], [121.559693, 29.701625], [121.559681, 29.701641], [121.559413, 29.701746], [121.559413, 29.701714], [121.559319, 29.701426], [121.559175, 29.701052], [121.559157, 29.701051], [121.559076, 29.701089], [121.559039, 29.701066], [121.558583, 29.700537], [121.55854, 29.700483], [121.558503, 29.700488], [121.558196, 29.700744], [121.558171, 29.700754], [121.558159, 29.700733], [121.558044, 29.70051], [121.557876, 29.700167], [121.557076, 29.700304], [121.557045, 29.70032], [121.557067, 29.700477], [121.55728, 29.701188], [121.557255, 29.701204], [121.556646, 29.701354], [121.556031, 29.701536], [121.555975, 29.701536], [121.555932, 29.701535], [121.555902, 29.701454], [121.555832, 29.701156], [121.555695, 29.70076], [121.555551, 29.700482], [121.555309, 29.700085], [121.555182, 29.699867], [121.555139, 29.699835], [121.55509, 29.699839], [121.554766, 29.700014], [121.554722, 29.700014], [121.554685, 29.699992], [121.554643, 29.699927], [121.554185, 29.699073], [121.554016, 29.69879], [121.553997, 29.698773], [121.55396, 29.698784], [121.553612, 29.698915], [121.553587, 29.69892], [121.553556, 29.698904], [121.553292, 29.698344], [121.553198, 29.6982], [121.553115, 29.69818], [121.552829, 29.698231], [121.552166, 29.698348], [121.552085, 29.698336], [121.55208, 29.698277], [121.552126, 29.697655], [121.552175, 29.696845], [121.552171, 29.69665], [121.552154, 29.696596], [121.552005, 29.696584], [121.551157, 29.696639], [121.551027, 29.696627], [121.551003, 29.696578], [121.550923, 29.696118], [121.55083, 29.695668], [121.550521, 29.695697], [121.549988, 29.69574], [121.549889, 29.695728], [121.54984, 29.695711], [121.549767, 29.695635], [121.549423, 29.695004], [121.549386, 29.694965], [121.54938, 29.694965], [121.549374, 29.694976], [121.549323, 29.695084], [121.549292, 29.695094], [121.549267, 29.695078], [121.549224, 29.69505], [121.549188, 29.69498], [121.548976, 29.694647], [121.548927, 29.69462], [121.548821, 29.694684], [121.548582, 29.694919], [121.548552, 29.694918], [121.548527, 29.694907], [121.548472, 29.694864], [121.548447, 29.694842], [121.548379, 29.694868], [121.547855, 29.695181], [121.547555, 29.695367], [121.547512, 29.69535], [121.547444, 29.695312], [121.547389, 29.695279], [121.547321, 29.695283], [121.547158, 29.695455], [121.546799, 29.695851], [121.546648, 29.696049], [121.546599, 29.696054], [121.545924, 29.696009], [121.545925, 29.695993], [121.545942, 29.695631], [121.545887, 29.695625], [121.544724, 29.695569], [121.544705, 29.695606], [121.544662, 29.696], [121.544674, 29.696033], [121.544692, 29.696049], [121.545032, 29.696134], [121.546005, 29.696464], [121.54611, 29.696454], [121.546185, 29.696423], [121.546435, 29.696214], [121.546485, 29.696188], [121.546743, 29.696326], [121.546736, 29.696375], [121.546604, 29.696546], [121.546231, 29.697066], [121.546081, 29.697189], [121.545944, 29.697209], [121.545728, 29.697185], [121.54566, 29.697179], [121.545604, 29.697195], [121.545591, 29.697243], [121.545383, 29.697976], [121.545332, 29.69803], [121.545283, 29.698029], [121.545246, 29.698018], [121.54463, 29.6978], [121.544204, 29.697731], [121.544064, 29.697724], [121.543937, 29.697743], [121.543844, 29.697808], [121.543787, 29.697905], [121.543722, 29.69811], [121.54353, 29.698567], [121.543342, 29.69876], [121.542996, 29.699129], [121.542701, 29.699428], [121.542539, 29.69948], [121.542254, 29.699472], [121.541035, 29.699387], [121.539851, 29.699251], [121.539563, 29.699237], [121.539497, 29.699271], [121.539461, 29.699302], [121.539396, 29.699413], [121.5392, 29.700157], [121.539075, 29.70067], [121.53902, 29.701042], [121.538926, 29.70156], [121.538721, 29.70245], [121.538675, 29.702536], [121.538617, 29.70258], [121.538539, 29.70259], [121.538138, 29.702579], [121.537598, 29.702496], [121.536719, 29.702233], [121.535501, 29.702028], [121.535312, 29.702012], [121.535243, 29.702049], [121.535171, 29.702367], [121.534805, 29.704099], [121.534773, 29.704153], [121.53468, 29.704168], [121.534235, 29.704125], [121.534192, 29.704125], [121.534173, 29.704135], [121.534145, 29.7044], [121.534005, 29.704941], [121.533945, 29.705068], [121.533811, 29.705207], [121.533144, 29.705573], [121.5331, 29.70561], [121.533112, 29.705626], [121.533343, 29.705942], [121.533361, 29.70597], [121.53336, 29.706002], [121.533341, 29.706024], [121.532755, 29.706363], [121.531668, 29.707048], [121.530426, 29.707792], [121.529445, 29.708375], [121.528534, 29.70889], [121.527272, 29.709698], [121.526529, 29.710203], [121.526286, 29.710308], [121.526093, 29.710338], [121.525864, 29.710325], [121.525513, 29.710245], [121.525218, 29.710096], [121.524002, 29.709494], [121.523909, 29.709476], [121.523793, 29.709761], [121.523628, 29.710062], [121.523881, 29.710152], [121.523976, 29.709985], [121.524148, 29.710047], [121.524154, 29.710058], [121.524008, 29.710726], [121.523932, 29.710882], [121.523812, 29.711016], [121.523556, 29.711164], [121.523519, 29.711196], [121.523506, 29.71124], [121.523505, 29.711299], [121.523505, 29.711315], [121.523399, 29.711368], [121.523386, 29.711395], [121.523493, 29.711704], [121.523499, 29.711705], [121.523784, 29.711659], [121.523914, 29.71252], [121.523889, 29.712525], [121.523547, 29.712635], [121.52277, 29.712853], [121.522628, 29.712868], [121.522572, 29.71284], [121.522517, 29.712791], [121.522457, 29.712671], [121.522446, 29.712623], [121.522396, 29.712622], [121.522158, 29.712825], [121.522102, 29.712851], [121.522071, 29.712846], [121.522009, 29.712823], [121.521923, 29.712774], [121.521866, 29.71276], [121.521669, 29.712809], [121.520231, 29.71342], [121.518923, 29.713946], [121.517603, 29.714477], [121.516595, 29.714898], [121.516433, 29.714951], [121.51639, 29.714945], [121.516328, 29.714901], [121.514709, 29.713504], [121.513823, 29.712699], [121.512784, 29.711801], [121.511826, 29.710893], [121.511043, 29.710284], [121.510212, 29.709556], [121.510206, 29.709518], [121.510402, 29.708871], [121.510557, 29.708375], [121.510982, 29.706883], [121.511327, 29.705713], [121.511309, 29.705681], [121.510178, 29.705533], [121.509215, 29.705425], [121.509153, 29.705424], [121.509109, 29.70544], [121.509084, 29.705499], [121.509013, 29.705682], [121.50888, 29.70587], [121.508678, 29.706121], [121.508528, 29.706222], [121.508417, 29.706227], [121.5083, 29.706193], [121.508084, 29.706167], [121.507172, 29.706143], [121.505568, 29.70604], [121.504159, 29.705944], [121.50338, 29.705863], [121.502197, 29.705758], [121.501216, 29.705616], [121.499847, 29.705643], [121.499078, 29.705662], [121.498871, 29.705674], [121.498629, 29.705642], [121.498601, 29.705647], [121.498572, 29.705667], [121.498569, 29.706199], [121.498506, 29.706982], [121.498532, 29.707233], [121.49851, 29.707253], [121.498366, 29.70727], [121.496662, 29.707359], [121.495858, 29.707379], [121.495853, 29.707409], [121.495965, 29.707954], [121.496106, 29.708595], [121.496238, 29.709351], [121.496216, 29.709411], [121.496147, 29.709407], [121.495974, 29.709364], [121.495138, 29.709153], [121.494643, 29.709057], [121.494067, 29.708969], [121.493567, 29.708944], [121.493441, 29.70891], [121.49318, 29.708758], [121.492983, 29.70869], [121.492822, 29.708657], [121.492593, 29.708684], [121.492256, 29.708773], [121.491693, 29.708916], [121.491382, 29.708965], [121.49064, 29.709038], [121.490211, 29.709134], [121.489751, 29.709211], [121.489684, 29.709179], [121.489452, 29.708533], [121.48914, 29.708543], [121.488174, 29.70856], [121.488149, 29.708385], [121.487815, 29.708389], [121.487801, 29.708434], [121.487815, 29.708875], [121.487823, 29.708914], [121.487779, 29.708934], [121.487321, 29.709101], [121.486876, 29.709184], [121.486394, 29.709209], [121.486311, 29.709178], [121.486291, 29.708808], [121.486685, 29.708817], [121.486674, 29.70857], [121.486715, 29.70831], [121.486714, 29.708252], [121.486683, 29.708194], [121.486609, 29.708175], [121.486252, 29.708166], [121.486214, 29.708128], [121.486046, 29.707312], [121.486023, 29.707273], [121.485956, 29.707255], [121.484745, 29.70721], [121.484784, 29.707086], [121.484798, 29.706876], [121.486061, 29.706934], [121.485897, 29.704236], [121.485376, 29.703101], [121.485235, 29.702991], [121.484581, 29.702843], [121.483973, 29.702927], [121.482369, 29.702755], [121.481816, 29.702848], [121.481465, 29.70281], [121.48145, 29.70083], [121.481295, 29.700743], [121.479852, 29.700466], [121.478887, 29.700377], [121.478302, 29.700147], [121.478073, 29.700196], [121.477948, 29.700351], [121.477435, 29.7003], [121.476977, 29.700148], [121.477113, 29.699581], [121.477201, 29.698627], [121.476272, 29.698451], [121.476278, 29.69824], [121.475915, 29.698125], [121.476032, 29.697763], [121.475071, 29.69762], [121.475277, 29.696859], [121.475268, 29.696335], [121.4752, 29.696282], [121.474385, 29.696261], [121.474442, 29.695708], [121.474897, 29.69382], [121.474334, 29.693693], [121.474284, 29.694009], [121.469727, 29.693637], [121.469659, 29.693187], [121.46925, 29.693188], [121.466531, 29.693175], [121.466537, 29.693477], [121.466395, 29.693619], [121.466058, 29.693651], [121.465591, 29.693537], [121.465287, 29.693548], [121.464082, 29.693838], [121.462141, 29.693945], [121.462041, 29.693502], [121.461743, 29.692974], [121.461403, 29.693128], [121.461052, 29.693125], [121.460735, 29.692956], [121.460586, 29.692734], [121.460555, 29.692442], [121.460635, 29.69218], [121.460943, 29.691756], [121.460866, 29.691364], [121.460729, 29.691204], [121.461228, 29.690922], [121.461248, 29.690822], [121.461147, 29.690659], [121.458305, 29.691115], [121.457815, 29.690373], [121.45722, 29.689818], [121.456923, 29.689801], [121.456235, 29.689992], [121.45544, 29.690034], [121.454829, 29.689984], [121.454236, 29.689878], [121.453067, 29.689395], [121.451638, 29.689428], [121.451354, 29.689249], [121.451107, 29.688915], [121.45056, 29.687702], [121.449649, 29.68744], [121.448501, 29.686819], [121.447687, 29.686591], [121.447227, 29.686322], [121.447808, 29.68605], [121.448135, 29.685751], [121.448757, 29.68496], [121.448887, 29.684899], [121.44941, 29.684959], [121.44995, 29.685285], [121.450446, 29.685293], [121.450808, 29.685076], [121.450898, 29.684999], [121.45101, 29.68438], [121.450958, 29.684161], [121.45057, 29.683975], [121.450628, 29.683718], [121.450743, 29.683656], [121.45116, 29.683729], [121.451181, 29.683666], [121.450865, 29.683519], [121.450847, 29.683454], [121.450978, 29.683352], [121.451441, 29.683441], [121.452067, 29.683369], [121.45226, 29.683227], [121.452667, 29.682616], [121.452903, 29.682618], [121.453314, 29.682844], [121.454516, 29.683675], [121.454878, 29.683723], [121.455622, 29.683555], [121.456069, 29.682859], [121.456136, 29.682196], [121.456819, 29.681569], [121.45693, 29.681299], [121.456862, 29.68117], [121.456536, 29.680937], [121.456639, 29.680763], [121.457488, 29.680823], [121.457896, 29.681024], [121.458057, 29.681663], [121.458021, 29.681886], [121.457673, 29.68246], [121.457757, 29.682657], [121.45808, 29.682749], [121.458593, 29.682484], [121.458673, 29.682434], [121.458506, 29.682157], [121.458598, 29.681981], [121.459121, 29.681757], [121.45953, 29.681823], [121.45974, 29.681491], [121.460627, 29.681722], [121.461672, 29.682393], [121.462144, 29.68158], [121.464762, 29.68034], [121.464827, 29.680172], [121.465385, 29.679964], [121.465456, 29.679727], [121.465323, 29.679635], [121.464231, 29.679998], [121.463851, 29.679939], [121.463422, 29.680111], [121.462821, 29.680095], [121.46259, 29.680148], [121.462004, 29.680546], [121.461597, 29.680714], [121.461364, 29.680691], [121.461286, 29.680609], [121.461336, 29.680134], [121.460873, 29.680089], [121.460017, 29.679738], [121.459908, 29.67961], [121.46001, 29.679321], [121.460408, 29.678899], [121.46151, 29.678449], [121.46331, 29.678213], [121.464443, 29.678336], [121.464733, 29.678303], [121.465027, 29.678178], [121.465339, 29.677526], [121.4659, 29.677109], [121.465807, 29.676881], [121.465538, 29.676708], [121.46529, 29.676654], [121.464669, 29.67676], [121.463662, 29.676551], [121.463581, 29.676427], [121.463728, 29.67567], [121.463674, 29.673611], [121.464224, 29.672012], [121.464616, 29.670423], [121.463918, 29.669965], [121.463651, 29.669933], [121.463002, 29.670238], [121.46247, 29.670024], [121.461853, 29.669958], [121.461684, 29.670028], [121.461036, 29.671076], [121.460796, 29.671021], [121.460487, 29.670689], [121.460224, 29.670575], [121.460149, 29.670179], [121.46015, 29.669268], [121.459742, 29.669253], [121.459587, 29.668448], [121.459638, 29.668311], [121.459489, 29.667839], [121.458897, 29.667883], [121.458658, 29.666285], [121.459525, 29.666232], [121.459265, 29.663949], [121.459877, 29.663915], [121.459865, 29.664195], [121.460044, 29.664263], [121.460257, 29.66423], [121.460292, 29.663981], [121.460084, 29.663557], [121.460153, 29.662806], [121.460664, 29.662659], [121.461756, 29.662573], [121.461803, 29.662413], [121.461659, 29.661429], [121.462249, 29.661373], [121.462386, 29.660977], [121.462327, 29.660232], [121.462224, 29.659677], [121.461815, 29.658569], [121.461462, 29.658281], [121.459725, 29.657608], [121.459811, 29.657059], [121.459699, 29.655286], [121.459161, 29.655196], [121.459154, 29.654707], [121.459091, 29.654571], [121.458154, 29.654562], [121.458081, 29.654254], [121.456352, 29.654472], [121.456222, 29.654275], [121.455661, 29.654146], [121.455282, 29.653704], [121.455086, 29.65323], [121.454642, 29.652667], [121.454495, 29.652292], [121.454246, 29.651925], [121.453182, 29.652392], [121.453146, 29.652466], [121.453224, 29.652859], [121.453121, 29.653221], [121.453457, 29.653648], [121.45279, 29.653998], [121.452214, 29.65338], [121.451744, 29.653595], [121.451645, 29.652969], [121.451208, 29.652978], [121.451109, 29.652601], [121.450615, 29.652464], [121.4505, 29.652251], [121.449945, 29.650382], [121.450109, 29.650282], [121.449742, 29.648846], [121.449152, 29.648997], [121.448461, 29.648872], [121.44747, 29.64914], [121.446544, 29.64681], [121.446304, 29.646484], [121.445934, 29.646298], [121.445031, 29.64627], [121.444762, 29.646112], [121.444522, 29.646142], [121.444367, 29.646009], [121.444082, 29.64605], [121.443991, 29.645966], [121.443962, 29.645605], [121.443704, 29.645448], [121.443317, 29.645652], [121.440741, 29.646396], [121.440469, 29.644325], [121.441707, 29.644234], [121.441729, 29.644672], [121.443196, 29.644687], [121.443249, 29.64519], [121.444903, 29.645076], [121.444851, 29.644543], [121.444507, 29.644558], [121.44446, 29.644021], [121.444845, 29.643992], [121.444655, 29.642357], [121.444442, 29.640052], [121.444631, 29.640003], [121.445093, 29.640052], [121.445883, 29.640281], [121.446272, 29.640278], [121.446531, 29.640403], [121.447095, 29.640429], [121.447701, 29.640742], [121.448394, 29.640764], [121.448491, 29.640351], [121.448672, 29.6402], [121.448736, 29.639969], [121.448693, 29.639615], [121.449523, 29.63956], [121.449451, 29.638705], [121.449151, 29.638719], [121.44908, 29.63822], [121.448437, 29.638248], [121.448409, 29.637806], [121.448795, 29.637749], [121.448737, 29.637235], [121.449094, 29.637149], [121.450365, 29.637063], [121.450222, 29.636649], [121.449936, 29.636606], [121.44995, 29.636307], [121.450422, 29.636249], [121.450379, 29.636049], [121.450122, 29.635707], [121.450364, 29.635593], [121.45065, 29.635564], [121.450935, 29.636007], [121.451221, 29.63615], [121.452494, 29.63607], [121.452563, 29.63573], [121.452564, 29.635007], [121.452692, 29.634549], [121.452702, 29.634389], [121.452627, 29.634273], [121.452504, 29.634157], [121.452361, 29.634155], [121.452108, 29.634286], [121.451256, 29.633959], [121.451063, 29.634014], [121.450824, 29.634441], [121.450629, 29.634432], [121.449904, 29.634026], [121.449519, 29.633562], [121.449241, 29.63279], [121.448958, 29.632687], [121.448228, 29.631919], [121.447935, 29.631922], [121.44768, 29.631804], [121.447634, 29.631679], [121.447728, 29.631435], [121.448065, 29.631223], [121.44805, 29.631026], [121.448118, 29.631006], [121.448085, 29.630507], [121.447558, 29.629418], [121.447568, 29.629217], [121.447796, 29.628728], [121.447681, 29.628621], [121.447048, 29.628723], [121.446949, 29.628565], [121.446752, 29.628492], [121.445679, 29.628472], [121.445317, 29.627923], [121.445777, 29.62762], [121.445786, 29.627525], [121.445391, 29.627115], [121.444906, 29.627258], [121.444737, 29.627398], [121.444615, 29.627389], [121.444453, 29.627157], [121.444026, 29.627172], [121.443983, 29.626673], [121.44386, 29.626579], [121.442753, 29.626856], [121.442355, 29.627083], [121.442089, 29.627365], [121.441713, 29.627421], [121.441094, 29.627823], [121.440408, 29.627744], [121.440018, 29.627962], [121.439771, 29.627993], [121.439354, 29.627827], [121.439279, 29.62771], [121.439298, 29.627328], [121.439431, 29.627072], [121.439696, 29.627008], [121.439882, 29.626874], [121.439963, 29.626672], [121.439948, 29.62649], [121.439419, 29.626302], [121.439347, 29.626478], [121.439363, 29.626775], [121.438998, 29.626853], [121.438887, 29.626673], [121.438831, 29.62626], [121.43867, 29.62607], [121.438012, 29.625891], [121.437715, 29.625916], [121.437063, 29.626374], [121.43712, 29.626595], [121.437077, 29.626817], [121.437261, 29.627065], [121.437161, 29.627114], [121.436893, 29.626879], [121.436652, 29.626867], [121.436298, 29.626693], [121.436085, 29.626694], [121.43593, 29.626842], [121.436014, 29.627521], [121.435646, 29.627644], [121.435533, 29.62778], [121.435617, 29.628286], [121.434682, 29.628627], [121.434511, 29.6283], [121.434312, 29.627596], [121.434242, 29.626093], [121.434329, 29.625864], [121.434401, 29.625193], [121.43433, 29.625044], [121.43389, 29.62484], [121.433563, 29.624497], [121.433379, 29.624178], [121.433164, 29.62346], [121.433477, 29.622764], [121.433239, 29.622497], [121.432941, 29.622536], [121.431545, 29.622802], [121.430841, 29.622353], [121.430249, 29.62135], [121.429625, 29.620737], [121.429486, 29.620376], [121.42897, 29.61963], [121.429038, 29.619347], [121.428884, 29.619154], [121.428847, 29.618615], [121.428455, 29.617895], [121.42739, 29.617365], [121.426908, 29.616665], [121.427002, 29.616353], [121.426895, 29.616035]]]}, "properties": {"display_name": "西坞街道, 奉化区, 宁波市, 浙江省, 315505, 中国", "type": "administrative", "osm_type": "relation", "osm_id": 18186757, "class": null, "keyword": "subdistrict"}}, {"type": "Feature", "geometry": {"type": "Polygon", "coordinates": [[[121.363438, 29.733943], [121.364736, 29.733884], [121.365184, 29.733635], [121.36721, 29.733495], [121.367341, 29.73313], [121.367783, 29.732894], [121.369742, 29.732838], [121.370367, 29.732692], [121.370518, 29.732593], [121.37053, 29.731465], [121.370772, 29.73049], [121.371032, 29.730082], [121.370664, 29.729468], [121.370076, 29.729351], [121.36969, 29.728754], [121.369283, 29.728608], [121.369331, 29.728175], [121.369611, 29.727679], [121.36996, 29.727578], [121.370006, 29.727409], [121.370289, 29.727328], [121.370315, 29.726968], [121.370009, 29.726748], [121.369887, 29.726526], [121.369878, 29.726158], [121.370069, 29.725567], [121.370124, 29.725087], [121.369959, 29.724645], [121.369997, 29.72448], [121.370268, 29.724277], [121.371476, 29.7245], [121.372822, 29.724495], [121.375308, 29.724181], [121.376503, 29.723955], [121.377058, 29.722077], [121.377397, 29.722174], [121.377711, 29.722151], [121.378324, 29.721211], [121.378568, 29.720453], [121.378761, 29.72049], [121.378852, 29.72026], [121.379247, 29.720317], [121.379315, 29.720187], [121.379699, 29.720387], [121.380053, 29.719951], [121.380156, 29.719924], [121.380003, 29.7198], [121.379946, 29.719282], [121.380124, 29.716456], [121.379678, 29.716178], [121.379498, 29.715936], [121.379407, 29.71588], [121.378261, 29.714982], [121.378396, 29.714865], [121.37885, 29.715175], [121.379245, 29.713934], [121.378987, 29.713741], [121.378929, 29.712898], [121.378591, 29.712745], [121.378332, 29.712224], [121.378715, 29.710881], [121.378626, 29.710547], [121.378911, 29.708954], [121.379149, 29.708955], [121.37924, 29.708726], [121.37968, 29.708692], [121.38, 29.708539], [121.379893, 29.707871], [121.379789, 29.707752], [121.380026, 29.706777], [121.380688, 29.706412], [121.380997, 29.706085], [121.383572, 29.706156], [121.383525, 29.706808], [121.385653, 29.707099], [121.385551, 29.707829], [121.38773, 29.708132], [121.387593, 29.708936], [121.388435, 29.70908], [121.388455, 29.709667], [121.3888, 29.709663], [121.389625, 29.709466], [121.390006, 29.709454], [121.39162, 29.709828], [121.392253, 29.709644], [121.392572, 29.709849], [121.392704, 29.709847], [121.392829, 29.710032], [121.393132, 29.709902], [121.393238, 29.709666], [121.393312, 29.709034], [121.394319, 29.709074], [121.394326, 29.706591], [121.395994, 29.706629], [121.39601, 29.706025], [121.396145, 29.705884], [121.401069, 29.705656], [121.401431, 29.705647], [121.403378, 29.705703], [121.404499, 29.705951], [121.404481, 29.705534], [121.40401, 29.70404], [121.404084, 29.703839], [121.404547, 29.703277], [121.404408, 29.70066], [121.406283, 29.700628], [121.407609, 29.70066], [121.407999, 29.698126], [121.404758, 29.697879], [121.404908, 29.697128], [121.404643, 29.696826], [121.404935, 29.696519], [121.405545, 29.696508], [121.405829, 29.694362], [121.406384, 29.694404], [121.406501, 29.693581], [121.409052, 29.693812], [121.408702, 29.695397], [121.409711, 29.694277], [121.411212, 29.693344], [121.418403, 29.689356], [121.419229, 29.689942], [121.420457, 29.690296], [121.42021, 29.692763], [121.419829, 29.696853], [121.420223, 29.696872], [121.423795, 29.697029], [121.424111, 29.69563], [121.423783, 29.695315], [121.423681, 29.695114], [121.423679, 29.694723], [121.423286, 29.694055], [121.42281, 29.69365], [121.422105, 29.693386], [121.423294, 29.691984], [121.42351, 29.692175], [121.423524, 29.692646], [121.423749, 29.692824], [121.424305, 29.692883], [121.424982, 29.692729], [121.425473, 29.692723], [121.425654, 29.693337], [121.425809, 29.693381], [121.425997, 29.693156], [121.426029, 29.692813], [121.425593, 29.691801], [121.426074, 29.691647], [121.425798, 29.690976], [121.425789, 29.689774], [121.426831, 29.689824], [121.427105, 29.689718], [121.427549, 29.68923], [121.427763, 29.688859], [121.428616, 29.691059], [121.428764, 29.691003], [121.428663, 29.690136], [121.428739, 29.689692], [121.429287, 29.689589], [121.429749, 29.690436], [121.430008, 29.690718], [121.430498, 29.690865], [121.430796, 29.690819], [121.431309, 29.690487], [121.43092, 29.689882], [121.430643, 29.689773], [121.430389, 29.689551], [121.429615, 29.689315], [121.428976, 29.688925], [121.429088, 29.688887], [121.429775, 29.689182], [121.429928, 29.689122], [121.430285, 29.688687], [121.430576, 29.688567], [121.431079, 29.689534], [121.431388, 29.689532], [121.43161, 29.689397], [121.431915, 29.688843], [121.432135, 29.688588], [121.431533, 29.688248], [121.431464, 29.688113], [121.431636, 29.687856], [121.431739, 29.687901], [121.432048, 29.687522], [121.431887, 29.687231], [121.432084, 29.687053], [121.431949, 29.686886], [121.432172, 29.686786], [121.432015, 29.686418], [121.432442, 29.686275], [121.432257, 29.685712], [121.433189, 29.685535], [121.433502, 29.685402], [121.433834, 29.685798], [121.434443, 29.685553], [121.435135, 29.686006], [121.435668, 29.686257], [121.436544, 29.68655], [121.436749, 29.68655], [121.436953, 29.686059], [121.437514, 29.685487], [121.437901, 29.684499], [121.438139, 29.684274], [121.438634, 29.684248], [121.439551, 29.684379], [121.441048, 29.684429], [121.441459, 29.685474], [121.441442, 29.685949], [121.441273, 29.686707], [121.441458, 29.686913], [121.442296, 29.687235], [121.442426, 29.687104], [121.442373, 29.68683], [121.441817, 29.686679], [121.44185, 29.686606], [121.442447, 29.686369], [121.442782, 29.686079], [121.44311, 29.685143], [121.443331, 29.685014], [121.443732, 29.684968], [121.444122, 29.684639], [121.445438, 29.683876], [121.445825, 29.683778], [121.4459, 29.683813], [121.445781, 29.684174], [121.444418, 29.68546], [121.44407, 29.685634], [121.443854, 29.685959], [121.443716, 29.686617], [121.443827, 29.686719], [121.443965, 29.686705], [121.444535, 29.686266], [121.445084, 29.686009], [121.445511, 29.685917], [121.445851, 29.685957], [121.445878, 29.686086], [121.445763, 29.686174], [121.445189, 29.686411], [121.444276, 29.687017], [121.444172, 29.687333], [121.444283, 29.687518], [121.444571, 29.687584], [121.445642, 29.686474], [121.446276, 29.686375], [121.446786, 29.686254], [121.447227, 29.686322], [121.447687, 29.686591], [121.448501, 29.686819], [121.449649, 29.68744], [121.45056, 29.687702], [121.451107, 29.688915], [121.451354, 29.689249], [121.451638, 29.689428], [121.453067, 29.689395], [121.454236, 29.689878], [121.454829, 29.689984], [121.45544, 29.690034], [121.456235, 29.689992], [121.456923, 29.689801], [121.45722, 29.689818], [121.457815, 29.690373], [121.458305, 29.691115], [121.461147, 29.690659], [121.461248, 29.690822], [121.461228, 29.690922], [121.460729, 29.691204], [121.460866, 29.691364], [121.460943, 29.691756], [121.460635, 29.69218], [121.460555, 29.692442], [121.460586, 29.692734], [121.460735, 29.692956], [121.461052, 29.693125], [121.461403, 29.693128], [121.461743, 29.692974], [121.462041, 29.693502], [121.462141, 29.693945], [121.464082, 29.693838], [121.465287, 29.693548], [121.465591, 29.693537], [121.466058, 29.693651], [121.466395, 29.693619], [121.466537, 29.693477], [121.466531, 29.693175], [121.46925, 29.693188], [121.469659, 29.693187], [121.469727, 29.693637], [121.474284, 29.694009], [121.474334, 29.693693], [121.474897, 29.69382], [121.474442, 29.695708], [121.474385, 29.696261], [121.4752, 29.696282], [121.475268, 29.696335], [121.475277, 29.696859], [121.475071, 29.69762], [121.476032, 29.697763], [121.475915, 29.698125], [121.476278, 29.69824], [121.476272, 29.698451], [121.477201, 29.698627], [121.477113, 29.699581], [121.476977, 29.700148], [121.477435, 29.7003], [121.477948, 29.700351], [121.478073, 29.700196], [121.478302, 29.700147], [121.478887, 29.700377], [121.479852, 29.700466], [121.481295, 29.700743], [121.48145, 29.70083], [121.481465, 29.70281], [121.481816, 29.702848], [121.482369, 29.702755], [121.483973, 29.702927], [121.484581, 29.702843], [121.485235, 29.702991], [121.485376, 29.703101], [121.485897, 29.704236], [121.486061, 29.706934], [121.484798, 29.706876], [121.484784, 29.707086], [121.484745, 29.70721], [121.48473, 29.70721], [121.484716, 29.707242], [121.484709, 29.707269], [121.484524, 29.707822], [121.484457, 29.707829], [121.48442, 29.707823], [121.48436, 29.707811], [121.483412, 29.707504], [121.483339, 29.707576], [121.482997, 29.708099], [121.48296, 29.708093], [121.482923, 29.708087], [121.482841, 29.708055], [121.482259, 29.707874], [121.48176, 29.707795], [121.481693, 29.707789], [121.481511, 29.708064], [121.481237, 29.708592], [121.481046, 29.708737], [121.480138, 29.709143], [121.479098, 29.709635], [121.477561, 29.710184], [121.476942, 29.710509], [121.476486, 29.710845], [121.475641, 29.711484], [121.474838, 29.711954], [121.473731, 29.712459], [121.473038, 29.712824], [121.472413, 29.713266], [121.47179, 29.713798], [121.471607, 29.714015], [121.471275, 29.714641], [121.470909, 29.715515], [121.470631, 29.716323], [121.47049, 29.716895], [121.470417, 29.717441], [121.470361, 29.718201], [121.470216, 29.718955], [121.470203, 29.719046], [121.467526, 29.719383], [121.463857, 29.719141], [121.461947, 29.719141], [121.457548, 29.719924], [121.454844, 29.719812], [121.441069, 29.720446], [121.440157, 29.720697], [121.439685, 29.721377], [121.439105, 29.721452], [121.438858, 29.721303], [121.438451, 29.721284], [121.438386, 29.722607], [121.438816, 29.723595], [121.438558, 29.723781], [121.438472, 29.724657], [121.438043, 29.724694], [121.438108, 29.724992], [121.437614, 29.725048], [121.437592, 29.725272], [121.436756, 29.725477], [121.437507, 29.726968], [121.437185, 29.727322], [121.436799, 29.726837], [121.434996, 29.727191], [121.434803, 29.727359], [121.434224, 29.727601], [121.433837, 29.727247], [121.43255, 29.728235], [121.430297, 29.727564], [121.430061, 29.727042], [121.427658, 29.725291], [121.426885, 29.725328], [121.426198, 29.72503], [121.425791, 29.725086], [121.425083, 29.724974], [121.424868, 29.725533], [121.423259, 29.726166], [121.421864, 29.727154], [121.421564, 29.728421], [121.420791, 29.728906], [121.420212, 29.728253], [121.417787, 29.727657], [121.415641, 29.727229], [121.413753, 29.726875], [121.412723, 29.72693], [121.411736, 29.727489], [121.411157, 29.728403], [121.411521, 29.729167], [121.413495, 29.73062], [121.414247, 29.732111], [121.414139, 29.732856], [121.413646, 29.733191], [121.412122, 29.733396], [121.410792, 29.733117], [121.409204, 29.732017], [121.407702, 29.732148], [121.407251, 29.732558], [121.408303, 29.735949], [121.411371, 29.740141], [121.414136, 29.742895], [121.41369, 29.742836], [121.413361, 29.742834], [121.413124, 29.742916], [121.412888, 29.743028], [121.412713, 29.743043], [121.412551, 29.743008], [121.41224, 29.742785], [121.411809, 29.742496], [121.411582, 29.742254], [121.411347, 29.742036], [121.41115, 29.741959], [121.410849, 29.741925], [121.410331, 29.741955], [121.409862, 29.741972], [121.409116, 29.742176], [121.408732, 29.742235], [121.40843, 29.742196], [121.408108, 29.742181], [121.407836, 29.742275], [121.407434, 29.742591], [121.407239, 29.742679], [121.40724, 29.742746], [121.40725, 29.742905], [121.407626, 29.743806], [121.407768, 29.744392], [121.407772, 29.744456], [121.407755, 29.744539], [121.407694, 29.744662], [121.407562, 29.744718], [121.407122, 29.744827], [121.4062, 29.744995], [121.405942, 29.745029], [121.40569, 29.745019], [121.405452, 29.745046], [121.405271, 29.745097], [121.404761, 29.745219], [121.403923, 29.74538], [121.403364, 29.745417], [121.403041, 29.74539], [121.402817, 29.745355], [121.402621, 29.745382], [121.402475, 29.745432], [121.402239, 29.745631], [121.401448, 29.746116], [121.400878, 29.746446], [121.400711, 29.746478], [121.400613, 29.746467], [121.400311, 29.746403], [121.399854, 29.746276], [121.399672, 29.746281], [121.399566, 29.74631], [121.399359, 29.746456], [121.399047, 29.746673], [121.398309, 29.746993], [121.397822, 29.747212], [121.397668, 29.747226], [121.39757, 29.747209], [121.397486, 29.747179], [121.397415, 29.747125], [121.397265, 29.746931], [121.397123, 29.746804], [121.396728, 29.7466], [121.3963, 29.746488], [121.396174, 29.746484], [121.396076, 29.746491], [121.395887, 29.746517], [121.395656, 29.74652], [121.395236, 29.746512], [121.394222, 29.746608], [121.394124, 29.746591], [121.394088, 29.746554], [121.393987, 29.746366], [121.393916, 29.7463], [121.393845, 29.746239], [121.393775, 29.746173], [121.393732, 29.746106], [121.393729, 29.74591], [121.393671, 29.745788], [121.393543, 29.745655], [121.393373, 29.745468], [121.393251, 29.745267], [121.39317, 29.745005], [121.393097, 29.744786], [121.393104, 29.744761], [121.393118, 29.744736], [121.393146, 29.74473], [121.393944, 29.744728], [121.39416, 29.744713], [121.394272, 29.744675], [121.394523, 29.744569], [121.395115, 29.744379], [121.395178, 29.744336], [121.395315, 29.744169], [121.395349, 29.744108], [121.395405, 29.744083], [121.395531, 29.744045], [121.395684, 29.744018], [121.396146, 29.743965], [121.396727, 29.743958], [121.397279, 29.743922], [121.397356, 29.743897], [121.397349, 29.743872], [121.397333, 29.743769], [121.39731, 29.74364], [121.397081, 29.743215], [121.397002, 29.743148], [121.396939, 29.743125], [121.3968, 29.743163], [121.396334, 29.743437], [121.396077, 29.743568], [121.395888, 29.7436], [121.395651, 29.743615], [121.395323, 29.743686], [121.395121, 29.743798], [121.394893, 29.744027], [121.394741, 29.744145], [121.394622, 29.74417], [121.394378, 29.744222], [121.394085, 29.744304], [121.393436, 29.744452], [121.39303, 29.744523], [121.39303, 29.744481], [121.392884, 29.743559], [121.392842, 29.743523], [121.392673, 29.7435], [121.391954, 29.743611], [121.391919, 29.743606], [121.391883, 29.743557], [121.391823, 29.743289], [121.391741, 29.74288], [121.391761, 29.742843], [121.391942, 29.74278], [121.392396, 29.742677], [121.393291, 29.74257], [121.394011, 29.742501], [121.394276, 29.74245], [121.39452, 29.74238], [121.395036, 29.742179], [121.395448, 29.742119], [121.395763, 29.74214], [121.396374, 29.742275], [121.396928, 29.74233], [121.397137, 29.742266], [121.397137, 29.742242], [121.39711, 29.741784], [121.397108, 29.741184], [121.396914, 29.740294], [121.396858, 29.740282], [121.396411, 29.740373], [121.396435, 29.740617], [121.395883, 29.740647], [121.395882, 29.740629], [121.395872, 29.740366], [121.395906, 29.740347], [121.396067, 29.740321], [121.396058, 29.740187], [121.396078, 29.740107], [121.396119, 29.740058], [121.396398, 29.739926], [121.39655, 29.739766], [121.396548, 29.739686], [121.396541, 29.739662], [121.39652, 29.739644], [121.396478, 29.739632], [121.396239, 29.739628], [121.395924, 29.739595], [121.395706, 29.739524], [121.395635, 29.739463], [121.395565, 29.739464], [121.395217, 29.73959], [121.394931, 29.739667], [121.39463, 29.7397], [121.39456, 29.739707], [121.39456, 29.739719], [121.394582, 29.74027], [121.394594, 29.740655], [121.394478, 29.74087], [121.39421, 29.741203], [121.39376, 29.741587], [121.393365, 29.741854], [121.393025, 29.742084], [121.392629, 29.742284], [121.391973, 29.742511], [121.391715, 29.742587], [121.391631, 29.742582], [121.391582, 29.742533], [121.391206, 29.741699], [121.391156, 29.741596], [121.391155, 29.741535], [121.391161, 29.741498], [121.391325, 29.741209], [121.391627, 29.740747], [121.391653, 29.740588], [121.391629, 29.740423], [121.391449, 29.740021], [121.391157, 29.739181], [121.391021, 29.738974], [121.391007, 29.738962], [121.390896, 29.739024], [121.390015, 29.739645], [121.389716, 29.739789], [121.389661, 29.739838], [121.389577, 29.739845], [121.389486, 29.739871], [121.389431, 29.73989], [121.389362, 29.739964], [121.389334, 29.739989], [121.389278, 29.740008], [121.389215, 29.740008], [121.389131, 29.739978], [121.389019, 29.739961], [121.388695, 29.739867], [121.388625, 29.73988], [121.388556, 29.739936], [121.38855, 29.739997], [121.388538, 29.740132], [121.388524, 29.740181], [121.388476, 29.740224], [121.38835, 29.740237], [121.388287, 29.740201], [121.388216, 29.740141], [121.38818, 29.740062], [121.388171, 29.739934], [121.388097, 29.739671], [121.387941, 29.739526], [121.387871, 29.739527], [121.387829, 29.739534], [121.387774, 29.739571], [121.387663, 29.739676], [121.387595, 29.739793], [121.387583, 29.739928], [121.387592, 29.740086], [121.387614, 29.74019], [121.387658, 29.740281], [121.387793, 29.740451], [121.387838, 29.740665], [121.387833, 29.740805], [121.387799, 29.74091], [121.387709, 29.740984], [121.387632, 29.740997], [121.387527, 29.740992], [121.38745, 29.74095], [121.387294, 29.740854], [121.387146, 29.740727], [121.387012, 29.740655], [121.38692, 29.740625], [121.386548, 29.740556], [121.385515, 29.740304], [121.384323, 29.74017], [121.384071, 29.740172], [121.383596, 29.74025], [121.383022, 29.740275], [121.382441, 29.740263], [121.382391, 29.74022], [121.382391, 29.74019], [121.38239, 29.740147], [121.382432, 29.740079], [121.382527, 29.739858], [121.382551, 29.739595], [121.382631, 29.739331], [121.382821, 29.738889], [121.382979, 29.738618], [121.383005, 29.738477], [121.383005, 29.738006], [121.383044, 29.737749], [121.383132, 29.737516], [121.383123, 29.737437], [121.383058, 29.737284], [121.382959, 29.737145], [121.382548, 29.736813], [121.382456, 29.736783], [121.382282, 29.736809], [121.381787, 29.736967], [121.380948, 29.73708], [121.380405, 29.737282], [121.380218, 29.7374], [121.379906, 29.737629], [121.379663, 29.73784], [121.379566, 29.737883], [121.379301, 29.737935], [121.378749, 29.738033], [121.37863, 29.738028], [121.378531, 29.737998], [121.378361, 29.737829], [121.378153, 29.737544], [121.378011, 29.737349], [121.377934, 29.737307], [121.3778, 29.737278], [121.377611, 29.737225], [121.377308, 29.737149], [121.377111, 29.737059], [121.376998, 29.73695], [121.376799, 29.736763], [121.376369, 29.736517], [121.375925, 29.736332], [121.375532, 29.736269], [121.374971, 29.736225], [121.374886, 29.736241], [121.374853, 29.736269], [121.374694, 29.736449], [121.374549, 29.736584], [121.374445, 29.736622], [121.374032, 29.736669], [121.373374, 29.736646], [121.372694, 29.736573], [121.372554, 29.736562], [121.372401, 29.736662], [121.37227, 29.736785], [121.372154, 29.737013], [121.372072, 29.737191], [121.371975, 29.737296], [121.37174, 29.737476], [121.371574, 29.737661], [121.371321, 29.738079], [121.37106, 29.738443], [121.370831, 29.738635], [121.370435, 29.738853], [121.369129, 29.739576], [121.36858, 29.739893], [121.368435, 29.740023], [121.36829, 29.740208], [121.368235, 29.740276], [121.368193, 29.740282], [121.368151, 29.740246], [121.368051, 29.740143], [121.367901, 29.739894], [121.367858, 29.739833], [121.367735, 29.739803], [121.367764, 29.739753], [121.368185, 29.738757], [121.368605, 29.73826], [121.367626, 29.737369], [121.366891, 29.736908], [121.367002, 29.736146], [121.365785, 29.735521], [121.364604, 29.735095], [121.364135, 29.734798], [121.363665, 29.734348], [121.363438, 29.733943]]]}, "properties": {"display_name": "江口街道, 奉化区, 宁波市, 浙江省, 中国", "type": "administrative", "osm_type": "relation", "osm_id": 18186761, "class": null, "keyword": "subdistrict"}}, {"type": "Feature", "geometry": {"type": "Polygon", "coordinates": [[[121.440353, 29.830958], [121.441002, 29.830551], [121.44179, 29.83013], [121.442329, 29.830814], [121.443818, 29.829976], [121.445247, 29.829157], [121.446704, 29.828317], [121.448592, 29.827242], [121.448324, 29.826888], [121.449925, 29.825964], [121.450255, 29.826411], [121.451693, 29.825594], [121.451406, 29.825231], [121.451975, 29.824882], [121.452173, 29.825152], [121.452431, 29.82519], [121.453844, 29.82438], [121.454088, 29.823879], [121.452928, 29.823313], [121.451789, 29.82253], [121.454258, 29.821108], [121.455647, 29.820391], [121.459285, 29.818257], [121.459428, 29.818333], [121.462703, 29.816483], [121.462838, 29.816465], [121.462935, 29.816591], [121.462457, 29.818178], [121.462801, 29.818276], [121.4638, 29.819428], [121.46636, 29.817982], [121.465037, 29.816205], [121.469218, 29.81391], [121.471158, 29.81637], [121.471399, 29.815891], [121.471836, 29.815604], [121.472056, 29.815905], [121.47286, 29.815458], [121.472973, 29.815637], [121.47326, 29.815502], [121.473591, 29.815928], [121.473658, 29.815898], [121.474009, 29.816407], [121.474076, 29.816363], [121.4745, 29.81687], [121.475082, 29.816528], [121.475229, 29.816742], [121.475479, 29.816579], [121.475667, 29.816458], [121.475827, 29.816593], [121.476525, 29.816782], [121.476747, 29.81684], [121.477147, 29.817178], [121.477574, 29.816935], [121.47813, 29.816625], [121.478244, 29.816666], [121.478349, 29.816752], [121.478637, 29.817126], [121.478837, 29.817013], [121.483721, 29.814243], [121.483761, 29.814301], [121.478704, 29.817196], [121.479179, 29.81792], [121.479287, 29.818108], [121.479314, 29.818192], [121.479316, 29.81825], [121.47922, 29.81829], [121.478512, 29.818599], [121.479073, 29.819288], [121.477713, 29.820026], [121.477284, 29.820256], [121.47693, 29.820404], [121.476959, 29.820455], [121.476203, 29.820809], [121.476173, 29.820765], [121.474988, 29.821321], [121.474469, 29.821566], [121.473851, 29.82186], [121.473086, 29.822236], [121.472782, 29.822409], [121.47188, 29.822924], [121.470901, 29.823476], [121.470291, 29.823829], [121.470262, 29.823791], [121.469771, 29.824073], [121.469798, 29.824122], [121.468616, 29.824788], [121.467647, 29.825337], [121.464601, 29.827081], [121.463638, 29.827636], [121.462439, 29.828271], [121.462926, 29.828956], [121.462089, 29.829421], [121.461628, 29.828828], [121.461606, 29.828804], [121.461573, 29.828813], [121.460291, 29.829549], [121.45894, 29.830313], [121.45795, 29.83088], [121.457124, 29.83136], [121.456251, 29.831864], [121.456218, 29.831833], [121.456046, 29.831914], [121.45587, 29.831991], [121.455316, 29.832317], [121.454256, 29.832935], [121.454279, 29.833001], [121.454148, 29.833112], [121.453943, 29.833238], [121.453699, 29.833407], [121.452669, 29.834117], [121.451453, 29.834939], [121.450131, 29.835829], [121.449727, 29.836074], [121.449139, 29.836418], [121.448651, 29.836691], [121.44849, 29.836765], [121.448205, 29.836863], [121.447467, 29.837128], [121.44722, 29.837189], [121.446849, 29.837219], [121.446131, 29.837211], [121.445978, 29.837208], [121.445875, 29.837175], [121.445791, 29.837125], [121.445679, 29.83701], [121.445457, 29.836742], [121.445228, 29.83633], [121.441621, 29.838451], [121.441594, 29.838403], [121.445202, 29.836285], [121.444877, 29.835951], [121.444711, 29.835742], [121.44467, 29.835683], [121.444679, 29.835638], [121.444695, 29.835595], [121.444952, 29.835376], [121.445061, 29.835247], [121.445128, 29.835132], [121.445183, 29.83504], [121.445223, 29.834966], [121.445264, 29.834853], [121.445282, 29.834699], [121.445264, 29.834495], [121.445205, 29.834313], [121.44514, 29.834176], [121.44514, 29.834125], [121.445148, 29.83409], [121.44532, 29.833976], [121.445205, 29.833831], [121.443909, 29.834555], [121.442976, 29.833308], [121.442936, 29.833224], [121.442936, 29.833173], [121.442968, 29.833098], [121.442278, 29.83215], [121.44232, 29.832122], [121.442111, 29.831855], [121.442007, 29.831832], [121.44101, 29.832412], [121.440951, 29.832393], [121.440387, 29.832719], [121.440353, 29.830958]]]}, "properties": {"display_name": "宁波栎社国际机场, 航安路, 石碶街道, 海曙区, 宁波市, 浙江省, 中国", "type": "aerodrome", "osm_type": "way", "osm_id": 592924334, "class": null, "keyword": "district"}}, {"type": "Feature", "geometry": {"type": "Polygon", "coordinates": [[[121.536577, 29.806568], [121.537344, 29.806481], [121.54008, 29.806171], [121.53936, 29.803782], [121.539313, 29.803626], [121.54615, 29.802716], [121.54641, 29.802955], [121.546903, 29.804873], [121.547499, 29.807047], [121.548701, 29.811713], [121.544208, 29.812177], [121.538323, 29.812614], [121.536577, 29.806568]]]}, "properties": {"display_name": "南部商务区, 首南街道, 鄞州区, 宁波市, 浙江省, 中国", "type": "commercial", "osm_type": "way", "osm_id": 298995008, "class": null, "keyword": "CBD"}}, {"type": "Feature", "geometry": {"type": "Polygon", "coordinates": [[[121.64798, 30.018627], [121.648226, 30.018195], [121.650807, 30.01472], [121.655452, 30.01727], [121.652867, 30.020865], [121.64798, 30.018627]]]}, "properties": {"display_name": "中石化英力士苯领高新材料有限公司, 澥浦镇, 镇海区, 宁波市, 浙江省, 中国", "type": "industrial", "osm_type": "way", "osm_id": 1376754951, "class": null, "keyword": "市中心"}}, {"type": "Feature", "geometry": {"type": "Polygon", "coordinates": [[[121.12595, 30.022711], [121.127885, 30.020247], [121.129894, 30.017804], [121.131569, 30.0181], [121.131561, 30.018171], [121.131682, 30.018171], [121.131601, 30.018515], [121.131731, 30.018551], [121.131601, 30.019241], [121.131479, 30.019994], [121.131184, 30.020175], [121.131251, 30.021029], [121.131368, 30.02129], [121.131621, 30.021504], [121.131744, 30.021744], [121.131738, 30.022187], [121.131676, 30.022437], [121.131171, 30.02288], [121.13042, 30.024294], [121.130179, 30.024379], [121.128386, 30.023696], [121.126001, 30.022848], [121.12595, 30.022711]]]}, "properties": {"display_name": "余姚市职成教中心学校, 谭家岭西路, 𪈼尔蓬, 兰江街道, 余姚市, 宁波市, 浙江省, 中国", "type": "school", "osm_type": "way", "osm_id": 1059566596, "class": null, "keyword": "市中心"}}, {"type": "Feature", "geometry": {"type": "Polygon", "coordinates": [[[121.57387, 29.873224], [121.576142, 29.872706], [121.579847, 29.871772], [121.58124, 29.875003], [121.576689, 29.876282], [121.57387, 29.873224]]]}, "properties": {"display_name": "宁波市体育发展中心, 惊驾路, 朝晖社区, 东胜街道, 鄞州区, 宁波市, 浙江省, 315000, 中国", "type": "sports_centre", "osm_type": "way", "osm_id": 251609491, "class": null, "keyword": "市中心"}}, {"type": "Feature", "geometry": {"type": "Polygon", "coordinates": [[[121.404098, 29.704031], [121.404117, 29.703894], [121.404308, 29.703469], [121.404432, 29.703213], [121.404458, 29.702962], [121.404502, 29.701841], [121.404993, 29.701837], [121.40502, 29.701562], [121.40509, 29.70118], [121.406999, 29.701213], [121.407251, 29.701445], [121.406801, 29.703987], [121.406734, 29.704062], [121.404263, 29.704031], [121.404098, 29.704031]]]}, "properties": {"display_name": "中信城, 江口街道, 奉化区, 宁波市, 浙江省, 中国", "type": "residential", "osm_type": "way", "osm_id": 1391173022, "class": null, "keyword": "中心城区"}}, {"type": "Feature", "geometry": {"type": "Polygon", "coordinates": [[[121.169881, 30.327949], [121.171024, 30.325323], [121.173341, 30.32605], [121.173245, 30.326478], [121.17321, 30.326902], [121.173129, 30.32715], [121.172963, 30.32749], [121.172515, 30.328078], [121.172244, 30.328588], [121.17052, 30.328041], [121.170487, 30.328143], [121.169881, 30.327949]]]}, "properties": {"display_name": "杭州湾青少年学生实践基地管理中心, 滨海五路, 庵东镇, 慈溪市, 宁波市, 浙江省, 中国", "type": "school", "osm_type": "way", "osm_id": 1249403549, "class": null, "keyword": "市中心"}}, {"type": "Feature", "geometry": {"type": "Polygon", "coordinates": [[[121.168774, 30.044843], [121.168814, 30.044778], [121.170216, 30.044098], [121.170595, 30.044012], [121.170745, 30.044058], [121.171491, 30.043998], [121.17185, 30.044003], [121.171984, 30.04417], [121.172327, 30.046111], [121.170611, 30.0469], [121.170482, 30.046953], [121.170395, 30.046817], [121.170276, 30.046874], [121.170265, 30.046848], [121.170005, 30.046414], [121.169683, 30.045954], [121.168875, 30.044976], [121.168774, 30.044843]]]}, "properties": {"display_name": "余姚市公 共文化中心, 凤山街道, 余姚市, 宁波市, 浙江省, 中国", "type": "commercial", "osm_type": "way", "osm_id": 1285020446, "class": null, "keyword": "市中心"}}, {"type": "Feature", "geometry": {"type": "Polygon", "coordinates": [[[121.556408, 29.85517], [121.558027, 29.855157], [121.558092, 29.855815], [121.558181, 29.85696], [121.558341, 29.857482], [121.55848, 29.857859], [121.559032, 29.858701], [121.55854, 29.859181], [121.556661, 29.857343], [121.556432, 29.857131], [121.556516, 29.856223], [121.556408, 29.85517]]]}, "properties": {"display_name": "李惠利医院兴宁院区, 彩虹南路, 王隘社区, 白鹤街道, 鄞州区, 宁波市, 浙江省, 315010, 中国", "type": "hospital", "osm_type": "way", "osm_id": 1209334333, "class": null, "keyword": "市中心"}}, {"type": "Feature", "geometry": {"type": "Polygon", "coordinates": [[[121.615904, 29.937102], [121.615926, 29.937069], [121.617541, 29.936281], [121.61926, 29.938706], [121.619252, 29.93882], [121.619158, 29.938923], [121.619043, 29.938965], [121.617578, 29.939045], [121.617504, 29.938996], [121.616587, 29.937855], [121.616395, 29.93764], [121.615906, 29.937141], [121.615904, 29.937102]]]}, "properties": {"display_name": "宁波大学附属康宁医院, 1, 兆龙路, 中兴社区, 庄市街道, 镇海区, 宁波市, 浙江省, 315201, 中国", "type": "hospital", "osm_type": "way", "osm_id": 1395528339, "class": null, "keyword": "市中心"}}, {"type": "Feature", "geometry": {"type": "Polygon", "coordinates": [[[121.625972, 29.880574], [121.626168, 29.880325], [121.62668, 29.87973], [121.62675, 29.879646], [121.626876, 29.879632], [121.62899, 29.880509], [121.629062, 29.880623], [121.629035, 29.880739], [121.628939, 29.881039], [121.628931, 29.881667], [121.628863, 29.881844], [121.628684, 29.8819], [121.626002, 29.880709], [121.625975, 29.880632], [121.625972, 29.880574]]]}, "properties": {"display_name": "太平鸟时尚中心, 聚贤街道, 鄞州区, 宁波市, 浙江省, 中国", "type": "commercial", "osm_type": "way", "osm_id": 1390104188, "class": null, "keyword": "市中心"}}, {"type": "Feature", "geometry": {"type": "Polygon", "coordinates": [[[121.263356, 30.1626], [121.265355, 30.162561], [121.265357, 30.163558], [121.266158, 30.163565], [121.266186, 30.164019], [121.263742, 30.164609], [121.263453, 30.163368], [121.263356, 30.1626]]]}, "properties": {"display_name": "宁波市新城中学, 南二环东路, 白沙路街道, 慈溪市, 宁波市, 浙江省, 315300, 中国", "type": "school", "osm_type": "way", "osm_id": 1423916771, "class": null, "keyword": "市中心"}}, {"type": "Feature", "geometry": {"type": "Polygon", "coordinates": [[[121.444027, 29.867926], [121.444979, 29.867929], [121.446988, 29.868022], [121.446962, 29.86955], [121.445363, 29.869492], [121.445148, 29.869127], [121.445063, 29.868943], [121.445014, 29.868768], [121.444885, 29.868769], [121.44404, 29.868771], [121.444027, 29.867926]]]}, "properties": {"display_name": "集士港镇中心小学, 惠兰路, 集士港镇, 海曙区, 宁波市, 浙江省, 中国", "type": "school", "osm_type": "way", "osm_id": 1270450115, "class": null, "keyword": "市中心"}}, {"type": "Feature", "geometry": {"type": "Polygon", "coordinates": [[[121.233105, 30.204102], [121.234636, 30.203718], [121.235092, 30.205873], [121.23357, 30.206222], [121.233105, 30.204102]]]}, "properties": {"display_name": "慈溪市早期教育中心, 北三环西路, 宗汉街道, 慈溪市, 宁波市, 浙江省, 中国", "type": "kindergarten", "osm_type": "way", "osm_id": 1235075762, "class": null, "keyword": "市中心"}}, {"type": "Feature", "geometry": {"type": "Polygon", "coordinates": [[[121.509157, 29.942405], [121.511042, 29.942371], [121.510986, 29.94417], [121.509213, 29.944221], [121.509157, 29.942405]]]}, "properties": {"display_name": "宁波市圆通速递转运中心, 洪塘街道, 江北区, 宁波市, 浙江省, 中国", "type": "industrial", "osm_type": "way", "osm_id": 1351885402, "class": null, "keyword": "市中心"}}, {"type": "Feature", "geometry": {"type": "Polygon", "coordinates": [[[121.266036, 30.180176], [121.266037, 30.180026], [121.266065, 30.179862], [121.266125, 30.17973], [121.266229, 30.179555], [121.266084, 30.179478], [121.266174, 30.179394], [121.266305, 30.179306], [121.266504, 30.179186], [121.266711, 30.179121], [121.266886, 30.179102], [121.267075, 30.179104], [121.267267, 30.179137], [121.267473, 30.179199], [121.267637, 30.179273], [121.267795, 30.179369], [121.26773, 30.179425], [121.267874, 30.179635], [121.267972, 30.179828], [121.268036, 30.180056], [121.268044, 30.180323], [121.267978, 30.180526], [121.267856, 30.180769], [121.267732, 30.18088], [121.267531, 30.181013], [121.267343, 30.181074], [121.267132, 30.18111], [121.26694, 30.181111], [121.266726, 30.181083], [121.266553, 30.18103], [121.266375, 30.180946], [121.266231, 30.180845], [121.266098, 30.180731], [121.266198, 30.180657], [121.266112, 30.180484], [121.266061, 30.180342], [121.266036, 30.180176]]]}, "properties": {"display_name": "慈溪市体育中心, 开发大道, 白沙路街道, 慈溪市, 宁波市, 浙江省, 315300, 中国", "type": "stadium", "osm_type": "way", "osm_id": 414265210, "class": null, "keyword": "市中心"}}, {"type": "Feature", "geometry": {"type": "Polygon", "coordinates": [[[121.576847, 29.876572], [121.579013, 29.87612], [121.579235, 29.876546], [121.579605, 29.877337], [121.578985, 29.877534], [121.578371, 29.87772], [121.577419, 29.877983], [121.576847, 29.876572]]]}, "properties": {"display_name": "宁波市游泳健身中心, 惊驾路, 朝晖社区, 明楼街道, 鄞州区, 宁波市, 浙江省, 315000, 中国", "type": "fitness_centre", "osm_type": "way", "osm_id": 1267554987, "class": null, "keyword": "市中心"}}, {"type": "Feature", "geometry": {"type": "Polygon", "coordinates": [[[121.603771, 29.817306], [121.606408, 29.816814], [121.606478, 29.816852], [121.606942, 29.817969], [121.605914, 29.81826], [121.605794, 29.817925], [121.604176, 29.818367], [121.603771, 29.817306]]]}, "properties": {"display_name": "璟丽时尚中心, 潘火街道, 鄞州区, 宁波市, 浙江省, 中国", "type": "commercial", "osm_type": "way", "osm_id": 1371939742, "class": null, "keyword": "市中心"}}, {"type": "Feature", "geometry": {"type": "Polygon", "coordinates": [[[121.434402, 29.307872], [121.436067, 29.307913], [121.436304, 29.308228], [121.436516, 29.309119], [121.436289, 29.309291], [121.435338, 29.309241], [121.434406, 29.309193], [121.434402, 29.307872]]]}, "properties": {"display_name": "世贸中心, 跃龙街道, 宁海县, 宁波市, 浙江省, 中国", "type": "commercial", "osm_type": "way", "osm_id": 1125790935, "class": null, "keyword": "市中心"}}, {"type": "Feature", "geometry": {"type": "Polygon", "coordinates": [[[121.15349, 30.036756], [121.153695, 30.035194], [121.155111, 30.035046], [121.155217, 30.036566], [121.15349, 30.036756]]]}, "properties": {"display_name": "余姚市金融中心大楼, 梨洲街道, 余姚市, 宁波市, 浙江省, 中国", "type": "commercial", "osm_type": "way", "osm_id": 1283827688, "class": null, "keyword": "市中心"}}, {"type": "Feature", "geometry": {"type": "Polygon", "coordinates": [[[121.152704, 30.053629], [121.153471, 30.053531], [121.153783, 30.053466], [121.153927, 30.054947], [121.152855, 30.055012], [121.152704, 30.053629]]]}, "properties": {"display_name": "河姆渡时尚商业中心, 凤山街道, 余姚市, 宁波市, 浙江省, 中国", "type": "commercial", "osm_type": "way", "osm_id": 1284777741, "class": null, "keyword": "市中心"}}, {"type": "Feature", "geometry": {"type": "Polygon", "coordinates": [[[121.54097, 29.868404], [121.541135, 29.86762], [121.541149, 29.867565], [121.542329, 29.867786], [121.542207, 29.868191], [121.542396, 29.869047], [121.542094, 29.869068], [121.541628, 29.869125], [121.541558, 29.868534], [121.54149, 29.868524], [121.541479, 29.868634], [121.541232, 29.868588], [121.54127, 29.868435], [121.54097, 29.868404]]]}, "properties": {"display_name": "宁波市镇明中心小学, 镇明路, 梅园社区, 月湖街道, 海曙区, 宁波市, 浙江省, 315010, 中国", "type": "school", "osm_type": "way", "osm_id": 251716343, "class": null, "keyword": "市中心"}}, {"type": "Feature", "geometry": {"type": "Polygon", "coordinates": [[[121.440741, 29.979168], [121.441189, 29.979045], [121.441919, 29.978701], [121.442238, 29.978617], [121.442206, 29.97848], [121.443402, 29.97818], [121.444161, 29.978006], [121.444255, 29.978322], [121.44352, 29.978527], [121.442943, 29.978701], [121.441079, 29.979533], [121.440924, 29.979567], [121.440803, 29.979349], [121.440741, 29.979168]]]}, "properties": {"display_name": "慈城老火车站 城南旧事街区, 慈城镇, 江北区, 宁波市, 浙江省, 中国", "type": "retail", "osm_type": "way", "osm_id": 1243181920, "class": null, "keyword": "老城区"}}, {"type": "Feature", "geometry": {"type": "Polygon", "coordinates": [[[121.625452, 29.888956], [121.625474, 29.888817], [121.626279, 29.887969], [121.626424, 29.887939], [121.627032, 29.887951], [121.627171, 29.888011], [121.6272, 29.888084], [121.62719, 29.888393], [121.627184, 29.888636], [121.627072, 29.888656], [121.627035, 29.888766], [121.627004, 29.888777], [121.626808, 29.888814], [121.626809, 29.889027], [121.625558, 29.88906], [121.625452, 29.888956]]]}, "properties": {"display_name": "宁波市青少年宫高新发展中心, 聚贤街道, 鄞州区, 宁波市, 浙江省, 中国", "type": "commercial", "osm_type": "way", "osm_id": 1390104181, "class": null, "keyword": "市中心"}}, {"type": "Feature", "geometry": {"type": "Polygon", "coordinates": [[[121.57652, 29.873854], [121.576526, 29.87379], [121.576535, 29.873701], [121.576551, 29.873594], [121.576574, 29.873487], [121.576604, 29.873377], [121.576629, 29.873383], [121.576642, 29.873333], [121.576684, 29.873251], [121.576739, 29.873171], [121.576793, 29.873103], [121.576878, 29.87303], [121.576933, 29.872991], [121.577023, 29.872936], [121.577105, 29.872898], [121.57719, 29.872868], [121.577315, 29.872843], [121.577431, 29.87284], [121.577533, 29.87285], [121.577645, 29.872875], [121.577735, 29.872907], [121.57784, 29.872958], [121.577915, 29.873007], [121.577991, 29.873071], [121.578044, 29.873136], [121.578088, 29.873194], [121.578127, 29.873264], [121.57815, 29.873316], [121.57818, 29.873383], [121.578197, 29.873435], [121.578214, 29.873489], [121.57823, 29.87356], [121.578259, 29.87373], [121.578265, 29.873822], [121.578273, 29.873926], [121.578273, 29.874012], [121.57827, 29.874118], [121.57825, 29.874236], [121.578236, 29.87432], [121.578212, 29.874399], [121.578173, 29.874511], [121.578123, 29.874611], [121.578071, 29.874703], [121.577997, 29.874785], [121.577885, 29.874867], [121.577776, 29.874926], [121.577685, 29.874966], [121.577555, 29.874996], [121.577496, 29.875004], [121.577446, 29.875007], [121.577378, 29.875009], [121.577311, 29.875004], [121.577195, 29.874981], [121.577098, 29.87495], [121.576997, 29.874906], [121.576924, 29.874858], [121.576841, 29.874796], [121.576777, 29.874732], [121.576713, 29.874652], [121.576677, 29.874591], [121.576652, 29.87453], [121.57661, 29.87444], [121.576581, 29.874368], [121.576551, 29.874241], [121.576536, 29.874124], [121.576526, 29.874005], [121.57652, 29.873919], [121.57652, 29.873854]], [[121.576763, 29.873921], [121.576764, 29.874008], [121.576768, 29.874089], [121.576774, 29.874149], [121.576786, 29.874227], [121.576801, 29.874309], [121.576825, 29.874406], [121.576853, 29.874488], [121.576894, 29.874574], [121.576943, 29.874636], [121.577014, 29.874707], [121.57709, 29.874756], [121.577173, 29.874795], [121.577273, 29.874825], [121.577341, 29.874831], [121.577338, 29.874859], [121.577378, 29.874864], [121.577445, 29.874864], [121.577485, 29.874861], [121.577484, 29.874831], [121.577558, 29.874822], [121.577619, 29.874805], [121.577668, 29.874786], [121.577731, 29.874756], [121.57779, 29.874719], [121.577834, 29.874681], [121.577894, 29.874621], [121.577918, 29.874591], [121.577944, 29.874553], [121.577961, 29.874517], [121.578007, 29.874407], [121.578041, 29.874223], [121.578052, 29.874009], [121.578057, 29.87386], [121.578049, 29.873763], [121.578042, 29.87371], [121.578035, 29.873656], [121.57802, 29.873576], [121.577988, 29.873472], [121.577961, 29.87339], [121.577927, 29.873324], [121.577889, 29.873267], [121.577836, 29.873209], [121.577792, 29.873171], [121.577729, 29.873129], [121.577654, 29.873096], [121.577598, 29.873078], [121.577541, 29.873064], [121.577477, 29.873056], [121.577477, 29.873017], [121.57735, 29.873019], [121.57735, 29.873052], [121.577275, 29.873067], [121.577207, 29.873083], [121.577128, 29.873113], [121.577049, 29.87316], [121.57697, 29.873225], [121.576924, 29.873277], [121.576882, 29.873351], [121.576851, 29.873423], [121.576819, 29.873533], [121.576794, 29.873631], [121.576778, 29.873742], [121.57677, 29.873821], [121.576763, 29.873921]]]}, "properties": {"display_name": "宁波市体育发展中心体育场, 姚隘路, 东胜街道, 鄞州区, 宁波市, 浙江省, 315000, 中国", "type": "stadium", "osm_type": "relation", "osm_id": 15666750, "class": null, "keyword": "市中心"}}, {"type": "Feature", "geometry": {"type": "Polygon", "coordinates": [[[121.426129, 29.866521], [121.426239, 29.865696], [121.426335, 29.865528], [121.426552, 29.86537], [121.427298, 29.865772], [121.427159, 29.866661], [121.426129, 29.866521]]]}, "properties": {"display_name": "集士港镇中心幼儿园, 广蔺路, 集士港镇, 海曙区, 宁波市, 浙江省, 中国", "type": "kindergarten", "osm_type": "way", "osm_id": 1274497410, "class": null, "keyword": "市中心"}}, {"type": "Feature", "geometry": {"type": "Polygon", "coordinates": [[[121.550112, 29.869035], [121.550154, 29.869003], [121.550252, 29.868971], [121.551325, 29.868832], [121.551381, 29.868889], [121.551541, 29.869543], [121.55151, 29.869592], [121.55138, 29.869637], [121.550283, 29.869816], [121.550224, 29.869813], [121.550202, 29.869794], [121.550163, 29.869678], [121.550112, 29.869035]]]}, "properties": {"display_name": "都市仁和中心, 江厦街道, 海曙区, 宁波市, 浙江省, 中国", "type": "commercial", "osm_type": "way", "osm_id": 1372221987, "class": null, "keyword": "市中心"}}, {"type": "Feature", "geometry": {"type": "Polygon", "coordinates": [[[121.5735, 29.866077], [121.573546, 29.865721], [121.573628, 29.865384], [121.574036, 29.865429], [121.574283, 29.865563], [121.574331, 29.865735], [121.574385, 29.865926], [121.57446, 29.866089], [121.574519, 29.86641], [121.574535, 29.866712], [121.574479, 29.866759], [121.574112, 29.866919], [121.573991, 29.866487], [121.573554, 29.86654], [121.573513, 29.866191], [121.5735, 29.866077]]]}, "properties": {"display_name": "宁波市鄞州区江东中心小学, 中山东路, 中山社区, 百丈街道, 鄞州区, 宁波市, 浙江省, 315000, 中国", "type": "school", "osm_type": "way", "osm_id": 235304480, "class": null, "keyword": "市中心"}}, {"type": "Feature", "geometry": {"type": "Polygon", "coordinates": [[[121.54173, 29.886825], [121.542441, 29.886389], [121.542725, 29.886724], [121.542765, 29.886967], [121.543022, 29.887306], [121.542429, 29.887666], [121.54238, 29.887607], [121.542016, 29.887244], [121.54173, 29.886825]]]}, "properties": {"display_name": "宁波市疾病预防控制中心, 西北街, 孝闻社区, 鼓楼街道, 海曙区, 宁波市, 浙江省, 315000, 中国", "type": "hospital", "osm_type": "way", "osm_id": 1231131692, "class": null, "keyword": "市中心"}}, {"type": "Feature", "geometry": {"type": "Polygon", "coordinates": [[[121.428852, 29.83986], [121.42892, 29.839246], [121.428986, 29.839165], [121.429141, 29.839131], [121.430222, 29.839057], [121.430329, 29.839526], [121.428852, 29.83986]]]}, "properties": {"display_name": "宁波市海曙区古林镇中心幼儿园, 鄞县大道, 下郭𡍲, 古林镇, 海曙区, 宁波市, 浙江省, 中国", "type": "kindergarten", "osm_type": "way", "osm_id": 1237493701, "class": null, "keyword": "市中心"}}, {"type": "Feature", "geometry": {"type": "Polygon", "coordinates": [[[121.509668, 29.874613], [121.509857, 29.874277], [121.510322, 29.87424], [121.51038, 29.873924], [121.510786, 29.873874], [121.510825, 29.874418], [121.510872, 29.874613], [121.510768, 29.874745], [121.509907, 29.874857], [121.509824, 29.874838], [121.509668, 29.874613]]]}, "properties": {"display_name": "宁波市广济中心小学实验校区, 丽园北路75弄, 联丰世纪苑, 白云街道, 海曙区, 宁波市, 浙江省, 315010, 中国", "type": "school", "osm_type": "way", "osm_id": 1230324338, "class": null, "keyword": "市中心"}}, {"type": "Feature", "geometry": {"type": "Polygon", "coordinates": [[[121.626544, 29.880472], [121.62657, 29.880305], [121.62666, 29.880156], [121.626804, 29.880042], [121.626984, 29.879978], [121.627182, 29.879971], [121.627367, 29.880024], [121.62752, 29.880128], [121.627623, 29.880271], [121.627664, 29.880436], [121.627637, 29.880603], [121.627541, 29.880756], [121.627395, 29.880868], [121.627214, 29.880929], [121.627019, 29.880933], [121.626835, 29.880879], [121.626683, 29.880773], [121.626586, 29.880637], [121.626544, 29.880472]], [[121.626906, 29.880456], [121.626913, 29.880506], [121.626944, 29.880562], [121.626994, 29.880605], [121.627059, 29.880631], [121.62713, 29.880636], [121.627199, 29.880619], [121.627265, 29.880575], [121.627302, 29.880522], [121.627315, 29.880462], [121.627304, 29.880401], [121.62727, 29.880347], [121.627216, 29.880306], [121.627149, 29.880284], [121.627078, 29.880283], [121.627011, 29.880304], [121.626956, 29.880342], [121.626919, 29.880395], [121.626906, 29.880456]]]}, "properties": {"display_name": "太平鸟时尚中心-鸟巢, 福庆北路, 广贤社区, 聚贤街道, 鄞州区, 宁波市, 浙江省, 中国", "type": "yes", "osm_type": "relation", "osm_id": 14310207, "class": null, "keyword": "市中心"}}, {"type": "Feature", "geometry": {"type": "Polygon", "coordinates": [[[121.611947, 29.8264], [121.612529, 29.826237], [121.612923, 29.827319], [121.612314, 29.827437], [121.611947, 29.8264]]]}, "properties": {"display_name": "浙江师范大学EDP浙东教育中心, 启明路, 潘火街道, 鄞州区, 宁波市, 浙江省, 315122, 中国", "type": "college", "osm_type": "way", "osm_id": 1353746297, "class": null, "keyword": "市中心"}}, {"type": "Feature", "geometry": {"type": "Polygon", "coordinates": [[[121.541922, 29.870856], [121.541957, 29.870653], [121.542779, 29.870714], [121.542912, 29.871408], [121.542585, 29.871454], [121.542187, 29.871607], [121.542117, 29.871362], [121.542028, 29.871166], [121.542028, 29.87112], [121.541922, 29.870856]]]}, "properties": {"display_name": "宁波市广济中心小学, 药行街, 郡庙社区, 月湖街道, 海曙区, 宁波市, 浙江省, 315000, 中国", "type": "school", "osm_type": "way", "osm_id": 1234112548, "class": null, "keyword": "市中心"}}, {"type": "Feature", "geometry": {"type": "Polygon", "coordinates": [[[121.207624, 29.727062], [121.207631, 29.726856], [121.207722, 29.726747], [121.207801, 29.726685], [121.208006, 29.72664], [121.208243, 29.726623], [121.208417, 29.72664], [121.2086, 29.726726], [121.208744, 29.726846], [121.208945, 29.726979], [121.209125, 29.727118], [121.209096, 29.727202], [121.208949, 29.727228], [121.208784, 29.727196], [121.208537, 29.727127], [121.208318, 29.727178], [121.208113, 29.727478], [121.207881, 29.727374], [121.207966, 29.727235], [121.208042, 29.727046], [121.207624, 29.727062]]]}, "properties": {"display_name": "宁波广播电视发射中心发射三台, 溪口镇, 奉化区, 宁波市, 浙江省, 中国", "type": "service", "osm_type": "way", "osm_id": 973901272, "class": null, "keyword": "市中心"}}, {"type": "Feature", "geometry": {"type": "Polygon", "coordinates": [[[121.168841, 30.03586], [121.169991, 30.035381], [121.170149, 30.035936], [121.168943, 30.036229], [121.168841, 30.03586]]]}, "properties": {"display_name": "余姚市梨洲街道中心幼儿园, 北兰江东路, 梨洲街道, 余姚市, 宁波市, 浙江省, 中国", "type": "kindergarten", "osm_type": "way", "osm_id": 1284136015, "class": null, "keyword": "市中心"}}, {"type": "Feature", "geometry": {"type": "Polygon", "coordinates": [[[121.575264, 29.873998], [121.575271, 29.873336], [121.575452, 29.873338], [121.575507, 29.873286], [121.575555, 29.873247], [121.575606, 29.873219], [121.575676, 29.873195], [121.575747, 29.873176], [121.575819, 29.873166], [121.575864, 29.873168], [121.575926, 29.873174], [121.576001, 29.873191], [121.576078, 29.87322], [121.576134, 29.873252], [121.576178, 29.873284], [121.576336, 29.873284], [121.576335, 29.874622], [121.576206, 29.874621], [121.576166, 29.874661], [121.57612, 29.874697], [121.576066, 29.874724], [121.57602, 29.874741], [121.57597, 29.874753], [121.575896, 29.874764], [121.57583, 29.874768], [121.575745, 29.874766], [121.57568, 29.874755], [121.575631, 29.874741], [121.575581, 29.874721], [121.575526, 29.874693], [121.575482, 29.874668], [121.575447, 29.874645], [121.575446, 29.874613], [121.575411, 29.874607], [121.575374, 29.874592], [121.575331, 29.874549], [121.575329, 29.874], [121.575264, 29.873998]], [[121.575445, 29.874355], [121.575461, 29.874407], [121.575481, 29.874438], [121.57551, 29.874438], [121.576183, 29.874439], [121.576202, 29.874409], [121.576212, 29.874384], [121.576218, 29.874348], [121.576224, 29.873583], [121.576212, 29.873517], [121.576187, 29.873456], [121.576166, 29.873418], [121.57612, 29.873362], [121.57607, 29.873332], [121.576021, 29.873301], [121.57597, 29.873276], [121.575912, 29.87326], [121.57584, 29.873253], [121.575774, 29.873258], [121.575707, 29.873276], [121.575667, 29.873293], [121.57562, 29.873317], [121.575571, 29.873347], [121.575522, 29.873398], [121.575504, 29.873425], [121.57548, 29.873456], [121.575461, 29.87351], [121.575448, 29.873581], [121.575445, 29.874355]], [[121.575506, 29.874473], [121.575516, 29.874489], [121.575543, 29.87452], [121.575561, 29.874539], [121.57559, 29.874563], [121.575638, 29.874596], [121.575684, 29.874618], [121.575744, 29.874637], [121.575798, 29.874644], [121.57582, 29.874643], [121.575817, 29.874471], [121.575506, 29.874473]], [[121.575856, 29.874645], [121.575901, 29.874642], [121.575944, 29.874632], [121.575997, 29.874616], [121.576035, 29.874599], [121.576082, 29.87457], [121.576126, 29.874532], [121.576161, 29.874492], [121.576175, 29.874469], [121.575856, 29.874467], [121.575856, 29.874645]]]}, "properties": {"display_name": "宁波市体育中心室外田径场, 朝晖路, 朝晖社区, 东胜街道, 鄞州区, 宁波市, 浙江省, 315000, 中国", "type": "track", "osm_type": "relation", "osm_id": 18741351, "class": null, "keyword": "市中心"}}, {"type": "Feature", "geometry": {"type": "Polygon", "coordinates": [[[121.617861, 29.8623], [121.618628, 29.862143], [121.618821, 29.862851], [121.618054, 29.863008], [121.617861, 29.8623]]]}, "properties": {"display_name": "宁波市政务服务中心, 宁穿路, 江城社区, 福明街道, 鄞州区, 宁波市, 浙江省, 中国", "type": "government", "osm_type": "way", "osm_id": 302177982, "class": null, "keyword": "市中心"}}, {"type": "Feature", "geometry": {"type": "Polygon", "coordinates": [[[121.840696, 29.234662], [121.840734, 29.234039], [121.841547, 29.234128], [121.841536, 29.234362], [121.841407, 29.234519], [121.841362, 29.234725], [121.840696, 29.234662]]]}, "properties": {"display_name": "定塘镇中心幼儿园, 小定山, 定塘镇, 象山县, 宁波市, 浙江省, 中国", "type": "kindergarten", "osm_type": "way", "osm_id": 724090831, "class": null, "keyword": "town center"}}, {"type": "Feature", "geometry": {"type": "Polygon", "coordinates": [[[121.553493, 29.870706], [121.553583, 29.870694], [121.55403, 29.870628], [121.554078, 29.870626], [121.554108, 29.870635], [121.554135, 29.870654], [121.554148, 29.870667], [121.554171, 29.870693], [121.55418, 29.87071], [121.554187, 29.870728], [121.554185, 29.870771], [121.554177, 29.870797], [121.554163, 29.870821], [121.554145, 29.870839], [121.554125, 29.870854], [121.554075, 29.870893], [121.554115, 29.871125], [121.554142, 29.871339], [121.554145, 29.871395], [121.554135, 29.871417], [121.554113, 29.871441], [121.554078, 29.871457], [121.554034, 29.871459], [121.553966, 29.871454], [121.553965, 29.871434], [121.553929, 29.871435], [121.553928, 29.87139], [121.553695, 29.871399], [121.553646, 29.871393], [121.55362, 29.871373], [121.553607, 29.871349], [121.553607, 29.871335], [121.553613, 29.87131], [121.553607, 29.871235], [121.553572, 29.871236], [121.553557, 29.871106], [121.55359, 29.871102], [121.55355, 29.870806], [121.553504, 29.870809], [121.553493, 29.870706]]]}, "properties": {"display_name": "宁波世贸中心大厦, 车轿街, 郡庙社区, 江厦街道, 海曙区, 宁波市, 浙江省, 315010, 中国", "type": "office", "osm_type": "way", "osm_id": 302175355, "class": null, "keyword": "市中心"}}, {"type": "Feature", "geometry": {"type": "Polygon", "coordinates": [[[121.543407, 29.809612], [121.544452, 29.809498], [121.544506, 29.809876], [121.543462, 29.80999], [121.543407, 29.809612]]]}, "properties": {"display_name": "宁波商会国贸中心, 康泰中路, 南部商务区, 首南街道, 鄞州区, 宁波市, 浙江省, 315100, 中国", "type": "office", "osm_type": "way", "osm_id": 1276268587, "class": null, "keyword": "中心商務區"}}, {"type": "Feature", "geometry": {"type": "Polygon", "coordinates": [[[121.548546, 29.896418], [121.548552, 29.895968], [121.548803, 29.895967], [121.54929, 29.895935], [121.549304, 29.896137], [121.549323, 29.896226], [121.549351, 29.89643], [121.548546, 29.896418]]]}, "properties": {"display_name": "宁波市江北区中心幼儿园, 清湖路, 北岸琴森社区, 文教街道, 江北区, 宁波市, 浙江省, 315021, 中国", "type": "kindergarten", "osm_type": "way", "osm_id": 251616676, "class": null, "keyword": "市中心"}}, {"type": "Feature", "geometry": {"type": "Polygon", "coordinates": [[[121.544207, 29.805194], [121.544902, 29.805106], [121.54497, 29.805508], [121.544275, 29.805596], [121.544207, 29.805194]]]}, "properties": {"display_name": "金盛中心, 天童南路, 南部商务区, 首南街道, 鄞州区, 宁波市, 浙江省, 315100, 中国", "type": "office", "osm_type": "way", "osm_id": 1046392661, "class": null, "keyword": "中心商務區"}}, {"type": "Feature", "geometry": {"type": "Polygon", "coordinates": [[[121.622543, 29.874819], [121.622628, 29.874796], [121.622575, 29.874651], [121.622756, 29.874601], [121.622887, 29.874962], [121.623058, 29.874916], [121.623176, 29.875243], [121.62274, 29.875362], [121.622543, 29.874819]]]}, "properties": {"display_name": "宁波市生态环境监测监控中心, 北明程路, 维科城东院, 福明街道, 鄞州区, 宁波市, 浙江省, 中国", "type": "government", "osm_type": "way", "osm_id": 1232441017, "class": null, "keyword": "市中心"}}, {"type": "Feature", "geometry": {"type": "Polygon", "coordinates": [[[121.82348, 29.895027], [121.824107, 29.894853], [121.824264, 29.89521], [121.82367, 29.895373], [121.82348, 29.895027]]]}, "properties": {"display_name": "北仑金融中心, 中河南路, 新碶街道, 北仑区, 宁波市, 浙江省, 315800, 中国", "type": "commercial", "osm_type": "way", "osm_id": 491332893, "class": null, "keyword": "financial district"}}, {"type": "Feature", "geometry": {"type": "Polygon", "coordinates": [[[121.647851, 29.772795], [121.647857, 29.772552], [121.648802, 29.772568], [121.648797, 29.772812], [121.647851, 29.772795]]]}, "properties": {"display_name": "宁波院士中心-东楼, 连心路, 白石社区, 东钱湖镇, 鄞州区, 宁波市, 浙江省, 315122, 中国", "type": "yes", "osm_type": "way", "osm_id": 963963265, "class": null, "keyword": "市中心"}}, {"type": "Feature", "geometry": {"type": "Polygon", "coordinates": [[[121.618332, 29.852076], [121.618757, 29.851997], [121.618925, 29.851966], [121.618945, 29.851962], [121.619089, 29.852221], [121.618986, 29.852241], [121.618838, 29.85227], [121.618854, 29.85234], [121.61877, 29.852358], [121.618774, 29.852375], [121.618412, 29.852457], [121.618404, 29.852284], [121.618381, 29.852255], [121.618332, 29.852076]]]}, "properties": {"display_name": "宁波市建设数据和档案管理中心, 百丈东路, 邱隘镇, 鄞州区, 宁波市, 浙江省, 中国", "type": "government", "osm_type": "way", "osm_id": 792570733, "class": null, "keyword": "市中心"}}, {"type": "Feature", "geometry": {"type": "Polygon", "coordinates": [[[121.541083, 29.822526], [121.541876, 29.822523], [121.541876, 29.822549], [121.542001, 29.82255], [121.542275, 29.822787], [121.542281, 29.822941], [121.542163, 29.822838], [121.541898, 29.822622], [121.541894, 29.822675], [121.541886, 29.822725], [121.541874, 29.822759], [121.54186, 29.822785], [121.541842, 29.822811], [121.541823, 29.822832], [121.541789, 29.822867], [121.541761, 29.822889], [121.5417, 29.82291], [121.541628, 29.822923], [121.541538, 29.822928], [121.54154, 29.822963], [121.541442, 29.822963], [121.541182, 29.822964], [121.541181, 29.822882], [121.541248, 29.822881], [121.541245, 29.822631], [121.541083, 29.822633], [121.541083, 29.822526]], [[121.541354, 29.822629], [121.541356, 29.822892], [121.541425, 29.822893], [121.541495, 29.822892], [121.541576, 29.822881], [121.541643, 29.822863], [121.541705, 29.822836], [121.541759, 29.822796], [121.541799, 29.822757], [121.541821, 29.822715], [121.541821, 29.822668], [121.541823, 29.822626], [121.541354, 29.822629]]]}, "properties": {"display_name": "华茂考试中心, 鄞县大道, 钟公庙街道, 鄞州区, 宁波市, 浙江省, 315100, 中国", "type": "school", "osm_type": "relation", "osm_id": 17414486, "class": null, "keyword": "市中心"}}, {"type": "Feature", "geometry": {"type": "Polygon", "coordinates": [[[121.644064, 29.772713], [121.644078, 29.772517], [121.64503, 29.772568], [121.645016, 29.772764], [121.644064, 29.772713]]]}, "properties": {"display_name": "宁波院士中心-西楼, 兴凯路, 东钱湖镇, 鄞州区, 宁波市, 浙江省, 315122, 中国", "type": "yes", "osm_type": "way", "osm_id": 963963263, "class": null, "keyword": "市中心"}}, {"type": "Feature", "geometry": {"type": "Polygon", "coordinates": [[[121.622089, 29.862973], [121.622538, 29.862882], [121.622582, 29.863045], [121.622271, 29.863108], [121.622357, 29.863424], [121.622595, 29.863376], [121.622635, 29.863524], [121.622259, 29.863601], [121.622089, 29.862973]]]}, "properties": {"display_name": "宁波市后勤服务中心, 宁东路, 江城社区, 福明街道, 鄞州区, 宁波市, 浙江省, 中国", "type": "government", "osm_type": "way", "osm_id": 788675973, "class": null, "keyword": "市中心"}}, {"type": "Feature", "geometry": {"type": "Polygon", "coordinates": [[[121.544617, 29.806119], [121.545033, 29.80607], [121.545094, 29.806459], [121.544678, 29.806508], [121.544617, 29.806119]]]}, "properties": {"display_name": "金安中心, 天童南路, 南部商务区, 首南街道, 鄞州区, 宁波市, 浙江省, 315100, 中国", "type": "office", "osm_type": "way", "osm_id": 1046392656, "class": null, "keyword": "中心商務區"}}, {"type": "Feature", "geometry": {"type": "Polygon", "coordinates": [[[121.526587, 29.889937], [121.526588, 29.889866], [121.526799, 29.889867], [121.526799, 29.889844], [121.527162, 29.889846], [121.527162, 29.889875], [121.527282, 29.889876], [121.527284, 29.889675], [121.5276, 29.889678], [121.527598, 29.889857], [121.527531, 29.889856], [121.52753, 29.889977], [121.527494, 29.889976], [121.527494, 29.890026], [121.52733, 29.890025], [121.527331, 29.889941], [121.527154, 29.889939], [121.527154, 29.88991], [121.526796, 29.889908], [121.526796, 29.889939], [121.526587, 29.889937]]]}, "properties": {"display_name": "宁波市教育考试中心, 翠柏路, 翠中社区, 西门街道, 海曙区, 宁波市, 浙江省, 315010, 中国", "type": "government", "osm_type": "way", "osm_id": 1235595663, "class": null, "keyword": "市中心"}}, {"type": "Feature", "geometry": {"type": "Polygon", "coordinates": [[[121.54428, 29.810207], [121.544678, 29.810159], [121.544729, 29.810479], [121.544331, 29.810527], [121.54428, 29.810207]]]}, "properties": {"display_name": "广博丽景中心, 天童南路, 南部商务区, 首南街道, 鄞州区, 宁波市, 浙江省, 315100, 中国", "type": "office", "osm_type": "way", "osm_id": 1092304855, "class": null, "keyword": "中心商務區"}}, {"type": "Feature", "geometry": {"type": "Polygon", "coordinates": [[[121.647127, 29.773118], [121.647137, 29.772903], [121.647727, 29.772924], [121.647717, 29.773139], [121.647127, 29.773118]]]}, "properties": {"display_name": "宁波院士中心-陶公讲堂, 连心路, 白石社区, 东钱湖镇, 鄞州区, 宁波市, 浙江省, 315122, 中国", "type": "yes", "osm_type": "way", "osm_id": 963963264, "class": null, "keyword": "市中心"}}, {"type": "Feature", "geometry": {"type": "Polygon", "coordinates": [[[121.581942, 29.863284], [121.582161, 29.863211], [121.582231, 29.863386], [121.582242, 29.863388], [121.582263, 29.863401], [121.582278, 29.863419], [121.582294, 29.863446], [121.582298, 29.86347], [121.582299, 29.863492], [121.582293, 29.863509], [121.582285, 29.863517], [121.582363, 29.863704], [121.582283, 29.86373], [121.582273, 29.863706], [121.582127, 29.863749], [121.581942, 29.863284]]]}, "properties": {"display_name": "宁波市生产力促进中心大楼, 桑田路, 东柳街道, 鄞州区, 宁波市, 浙江省, 315000, 中国", "type": "office", "osm_type": "way", "osm_id": 1359900236, "class": null, "keyword": "市中心"}}, {"type": "Feature", "geometry": {"type": "Polygon", "coordinates": [[[121.644814, 29.774078], [121.644829, 29.773903], [121.64548, 29.773944], [121.645466, 29.774119], [121.644814, 29.774078]]]}, "properties": {"display_name": "宁波院士中心-访客中心, 兴凯路, 东钱湖镇, 鄞州区, 宁波市, 浙江省, 315122, 中国", "type": "yes", "osm_type": "way", "osm_id": 963963266, "class": null, "keyword": "市中心"}}, {"type": "Feature", "geometry": {"type": "Polygon", "coordinates": [[[121.540608, 29.822655], [121.541123, 29.822645], [121.541126, 29.822744], [121.540779, 29.82275], [121.54078, 29.822783], [121.540611, 29.822786], [121.540608, 29.822655]]]}, "properties": {"display_name": "华茂考试中心, 鄞县大道, 钟公庙街道, 鄞州区, 宁波市, 浙江省, 315100, 中国", "type": "school", "osm_type": "way", "osm_id": 1212177072, "class": null, "keyword": "市中心"}}, {"type": "Feature", "geometry": {"type": "Polygon", "coordinates": [[[121.560567, 29.800324], [121.560753, 29.800176], [121.560956, 29.800368], [121.560832, 29.800467], [121.560703, 29.800345], [121.560641, 29.800394], [121.560567, 29.800324]]]}, "properties": {"display_name": "学生事务中心, 学府路, 文华社区, 首南街道, 鄞州区, 宁波市, 浙江省, 315100, 中国", "type": "university", "osm_type": "way", "osm_id": 1364509327, "class": null, "keyword": "市中心"}}]}