{"type": "FeatureCollection", "features": [{"type": "Feature", "geometry": {"type": "Polygon", "coordinates": [[[-15.971869, 18.045524], [-15.971739, 18.044992], [-15.971273, 18.045095], [-15.971403, 18.045627], [-15.971869, 18.045524]]]}, "properties": {"display_name": "Centre de Santé مركز الصحة, Carrefour 3 Poteaux, Nouakchott نواكشوط, Arafat, Nouakchott Sud نواكشوط الجنوبية, Mauritanie موريتانيا", "type": "hospital", "osm_type": "way", "osm_id": 229021978, "class": null, "keyword": "centro"}}, {"type": "Feature", "geometry": {"type": "Polygon", "coordinates": [[[-15.973544, 18.107585], [-15.972963, 18.107489], [-15.972929, 18.107769], [-15.973499, 18.107871], [-15.973544, 18.107585]]]}, "properties": {"display_name": "City Centre, Avenue Moktar Ould Daddah شارع المختار ولد داداه, Las Palmas لاس بالماس, E-Nord شمال ه, Nouakchott نواكشوط, Tevragh Zein, Nouakchott Ouest نواكشوط الغربية, Mauritanie موريتانيا", "type": "yes", "osm_type": "way", "osm_id": 229025082, "class": null, "keyword": "city centre"}}, {"type": "Feature", "geometry": {"type": "Polygon", "coordinates": [[[-15.975807, 18.098421], [-15.975463, 18.098371], [-15.97543, 18.098576], [-15.975775, 18.098626], [-15.975807, 18.098421]]]}, "properties": {"display_name": "City Centre, Avenue du Général de Gaulle شارع شارل ديغول, E-Nord شمال ه, Nouakchott نواكشوط, Tevragh Zein, Nouakchott Ouest نواكشوط الغربية, Mauritanie موريتانيا", "type": "yes", "osm_type": "way", "osm_id": 941168692, "class": null, "keyword": "city centre"}}, {"type": "Feature", "geometry": {"type": "Polygon", "coordinates": [[[-15.981606, 18.093051], [-15.981369, 18.093009], [-15.98132, 18.093261], [-15.981557, 18.093303], [-15.981606, 18.093051]]]}, "properties": {"display_name": "Neighborhood, Nouakchott نواكشوط, Tevragh Zein, Nouakchott Ouest نواكشوط الغربية, Mauritanie موريتانيا", "type": "residential", "osm_type": "way", "osm_id": 1052254585, "class": null, "keyword": "neighborhood"}}]}