{"type": "FeatureCollection", "features": [{"type": "Feature", "geometry": {"type": "Polygon", "coordinates": [[[19.843514, 45.248157], [19.843738, 45.247722], [19.843806, 45.247681], [19.843869, 45.247644], [19.844093, 45.247518], [19.844082, 45.247507], [19.844181, 45.247453], [19.844447, 45.247306], [19.844498, 45.247218], [19.844563, 45.247108], [19.844273, 45.246877], [19.84444, 45.246649], [19.844712, 45.246894], [19.845038, 45.246709], [19.845347, 45.246544], [19.845478, 45.246474], [19.845197, 45.246234], [19.845144, 45.246188], [19.845119, 45.246167], [19.845049, 45.246168], [19.844968, 45.246091], [19.844805, 45.24593], [19.844923, 45.245708], [19.84495, 45.245656], [19.844995, 45.245572], [19.845129, 45.245676], [19.845152, 45.245651], [19.845661, 45.246107], [19.845646, 45.246144], [19.845675, 45.246165], [19.845738, 45.246059], [19.845843, 45.246139], [19.846074, 45.246013], [19.846121, 45.245987], [19.846258, 45.246105], [19.846443, 45.246001], [19.846798, 45.246371], [19.846707, 45.24642], [19.846628, 45.246591], [19.846492, 45.246881], [19.846585, 45.246945], [19.846482, 45.247134], [19.846506, 45.247155], [19.846549, 45.247195], [19.846565, 45.24721], [19.846593, 45.247236], [19.846631, 45.247271], [19.846656, 45.247294], [19.846756, 45.247386], [19.846808, 45.247454], [19.846699, 45.247511], [19.84665, 45.247537], [19.846793, 45.247657], [19.846329, 45.247923], [19.846287, 45.247945], [19.846225, 45.247897], [19.846199, 45.247879], [19.846164, 45.247896], [19.846148, 45.247904], [19.846121, 45.247922], [19.846009, 45.248125], [19.845937, 45.248166], [19.845895, 45.24819], [19.845946, 45.248241], [19.845891, 45.248272], [19.845663, 45.2484], [19.845514, 45.248258], [19.845554, 45.248159], [19.845526, 45.248132], [19.84547, 45.248081], [19.844625, 45.248549], [19.8445, 45.248448], [19.844254, 45.248574], [19.844238, 45.248561], [19.844144, 45.248488], [19.844235, 45.248312], [19.844093, 45.248193], [19.843766, 45.248384], [19.843595, 45.248231], [19.843514, 45.248157]]]}, "properties": {"display_name": "Спенс, 2, Сутјеска, Стари град, МЗ Прва војвођанска бригада, Нови Сад, Град Нови Сад, Јужнобачки управни округ, Војводина, 21000, Србија", "type": "sports_centre", "osm_type": "way", "osm_id": 44582024, "class": null, "keyword": "business district"}}, {"type": "Feature", "geometry": {"type": "Polygon", "coordinates": [[[19.80838, 45.247121], [19.808769, 45.246456], [19.809972, 45.246808], [19.810033, 45.246724], [19.810223, 45.246778], [19.810271, 45.246692], [19.81056, 45.246762], [19.810138, 45.247569], [19.808602, 45.247489], [19.808659, 45.247208], [19.80838, 45.247121]]]}, "properties": {"display_name": "Novella business & residence, Телеп, МЗ Никола Тесла телеп, Нови Сад, Град Нови Сад, Јужнобачки управни округ, Војводина, Србија", "type": "construction", "osm_type": "way", "osm_id": 298669101, "class": null, "keyword": "business district"}}, {"type": "Feature", "geometry": {"type": "Polygon", "coordinates": [[[19.808782, 45.24749], [19.808935, 45.24727], [19.809493, 45.247309], [19.809471, 45.247527], [19.808782, 45.24749]]]}, "properties": {"display_name": "Novella Business Center, Футошки пут, Северни Телеп, Телеп, МЗ Никола Тесла телеп, Нови Сад, Град Нови Сад, Јужнобачки управни округ, Војводина, 21000, Србија", "type": "construction", "osm_type": "way", "osm_id": 1198008061, "class": null, "keyword": "business district"}}]}