{"type": "FeatureCollection", "features": [{"type": "Feature", "geometry": {"type": "Polygon", "coordinates": [[[-95.961559, 41.257965], [-95.961506, 41.257788], [-95.961384, 41.257484], [-95.961352, 41.257382], [-95.961351, 41.256896], [-95.961344, 41.256783], [-95.961309, 41.256759], [-95.961208, 41.256754], [-95.960581, 41.25675], [-95.959393, 41.256751], [-95.958761, 41.256745], [-95.958031, 41.256745], [-95.958011, 41.25676], [-95.957978, 41.256842], [-95.957956, 41.257278], [-95.957964, 41.257547], [-95.957964, 41.257551], [-95.957859, 41.257614], [-95.957766, 41.257785], [-95.957689, 41.257859], [-95.957575, 41.258009], [-95.957483, 41.258146], [-95.95743, 41.258247], [-95.957404, 41.258318], [-95.957387, 41.2584], [-95.957375, 41.25855], [-95.957391, 41.258714], [-95.957473, 41.258755], [-95.957613, 41.258847], [-95.957668, 41.258907], [-95.957708, 41.258972], [-95.957734, 41.25905], [-95.957735, 41.259217], [-95.957737, 41.259308], [-95.957782, 41.259416], [-95.957821, 41.259478], [-95.957915, 41.259555], [-95.958047, 41.259617], [-95.958239, 41.259658], [-95.959241, 41.259654], [-95.960565, 41.259661], [-95.961429, 41.259663], [-95.961514, 41.259654], [-95.961546, 41.259614], [-95.961559, 41.257965]]]}, "properties": {"display_name": "Midtown Crossing, Omaha, Douglas County, Nebraska, United States", "type": "neighbourhood", "osm_type": "way", "osm_id": 999350115, "class": null, "keyword": "midtown"}}, {"type": "Feature", "geometry": {"type": "Polygon", "coordinates": [[[-95.961301, 41.257206], [-95.961276, 41.257206], [-95.961276, 41.257192], [-95.961276, 41.257173], [-95.961276, 41.257154], [-95.961276, 41.256874], [-95.961214, 41.256874], [-95.961215, 41.256827], [-95.960832, 41.256826], [-95.960758, 41.256825], [-95.960688, 41.256825], [-95.959351, 41.256821], [-95.959302, 41.256821], [-95.959257, 41.256821], [-95.959254, 41.257168], [-95.959201, 41.257168], [-95.959201, 41.257256], [-95.959254, 41.257256], [-95.959267, 41.257257], [-95.959285, 41.257257], [-95.959305, 41.257257], [-95.959897, 41.257258], [-95.959967, 41.257259], [-95.959967, 41.257272], [-95.960021, 41.257272], [-95.96007, 41.257272], [-95.96007, 41.257259], [-95.960102, 41.257259], [-95.960707, 41.257261], [-95.961215, 41.257263], [-95.961301, 41.257263], [-95.961301, 41.257206]]]}, "properties": {"display_name": "Midtown Crossing Ramp A, 3202, Harney Street, Blackstone, Omaha, Douglas County, Nebraska, 68131, United States", "type": "parking", "osm_type": "way", "osm_id": 321238627, "class": null, "keyword": "midtown"}}, {"type": "Feature", "geometry": {"type": "Polygon", "coordinates": [[[-95.929061, 41.254671], [-95.92906, 41.254605], [-95.928709, 41.254607], [-95.928019, 41.254608], [-95.92802, 41.255076], [-95.928196, 41.255076], [-95.928197, 41.255346], [-95.928133, 41.255346], [-95.928133, 41.255433], [-95.928131, 41.255545], [-95.928715, 41.25555], [-95.928717, 41.255447], [-95.928966, 41.255449], [-95.928968, 41.255297], [-95.929055, 41.255298], [-95.92906, 41.254969], [-95.929061, 41.254671]]]}, "properties": {"display_name": "Embassy Suites by Hilton Omaha - Downtown/Old Market, 555, South 10th Street, The Old Market, Omaha, Douglas County, Nebraska, 68102, United States", "type": "hotel", "osm_type": "way", "osm_id": 240986181, "class": null, "keyword": "downtown"}}, {"type": "Feature", "geometry": {"type": "Polygon", "coordinates": [[[-96.110521, 41.267229], [-96.110136, 41.267231], [-96.10975, 41.267224], [-96.109645, 41.267217], [-96.109614, 41.267727], [-96.109603, 41.26774], [-96.109824, 41.267836], [-96.10989, 41.267865], [-96.109931, 41.26785], [-96.110011, 41.267877], [-96.110103, 41.267903], [-96.110225, 41.267933], [-96.110325, 41.267966], [-96.110349, 41.267961], [-96.11035, 41.267918], [-96.11041, 41.267915], [-96.110519, 41.267891], [-96.110521, 41.267229]]]}, "properties": {"display_name": "Candlewood Neighborhood Park, Omaha, Douglas County, Nebraska, United States", "type": "park", "osm_type": "way", "osm_id": 286197040, "class": null, "keyword": "neighborhood"}}, {"type": "Feature", "geometry": {"type": "Polygon", "coordinates": [[[-95.930279, 41.271647], [-95.930205, 41.271647], [-95.930207, 41.271409], [-95.930108, 41.271408], [-95.930108, 41.271216], [-95.930035, 41.271214], [-95.930038, 41.271173], [-95.929902, 41.271173], [-95.929901, 41.271215], [-95.929829, 41.271214], [-95.929822, 41.271698], [-95.929709, 41.271698], [-95.929703, 41.271425], [-95.929524, 41.271429], [-95.929524, 41.271371], [-95.929294, 41.271372], [-95.929299, 41.271425], [-95.929115, 41.27142], [-95.929113, 41.271813], [-95.929708, 41.271814], [-95.929711, 41.271735], [-95.929823, 41.271738], [-95.929819, 41.272015], [-95.930267, 41.272013], [-95.930269, 41.271933], [-95.92995, 41.271933], [-95.929953, 41.27196], [-95.929907, 41.271961], [-95.929901, 41.271888], [-95.929949, 41.271887], [-95.929949, 41.27183], [-95.930273, 41.271833], [-95.930279, 41.271647]]]}, "properties": {"display_name": "Midtown Doors and Services, North 11th Street, NoDo, Omaha, Douglas County, Nebraska, 68110, United States", "type": "commercial", "osm_type": "way", "osm_id": 1239756620, "class": null, "keyword": "midtown"}}, {"type": "Feature", "geometry": {"type": "Polygon", "coordinates": [[[-95.930343, 41.261254], [-95.930256, 41.261254], [-95.930256, 41.261212], [-95.9302, 41.261212], [-95.929938, 41.261211], [-95.929901, 41.26121], [-95.929901, 41.26118], [-95.929902, 41.261113], [-95.929947, 41.261113], [-95.92995, 41.260839], [-95.929758, 41.260838], [-95.929758, 41.260785], [-95.929505, 41.260784], [-95.929504, 41.260878], [-95.929494, 41.260878], [-95.929492, 41.261093], [-95.929491, 41.261272], [-95.929489, 41.26152], [-95.929498, 41.26152], [-95.929498, 41.261571], [-95.929498, 41.261595], [-95.929751, 41.261596], [-95.929751, 41.261572], [-95.930341, 41.261574], [-95.930342, 41.261453], [-95.930342, 41.261416], [-95.930343, 41.261254]]]}, "properties": {"display_name": "Marriott Hotel Downtown Omaha at The Capitol District, 222, North 10th Street, NoDo, Omaha, Douglas County, Nebraska, 68102, United States", "type": "hotel", "osm_type": "way", "osm_id": 699328516, "class": null, "keyword": "downtown"}}, {"type": "Feature", "geometry": {"type": "Polygon", "coordinates": [[[-95.940793, 41.256712], [-95.940114, 41.256704], [-95.939922, 41.256705], [-95.939922, 41.256718], [-95.939922, 41.25672], [-95.939921, 41.256918], [-95.939921, 41.25692], [-95.939921, 41.256947], [-95.940023, 41.256947], [-95.940022, 41.257015], [-95.940018, 41.257193], [-95.940526, 41.257199], [-95.94052, 41.257451], [-95.940778, 41.257454], [-95.940787, 41.25701], [-95.94079, 41.25685], [-95.940793, 41.256712]]]}, "properties": {"display_name": "City/County Civic Center, Harney Street, The Old Market, Omaha, Douglas County, Nebraska, 68131, United States", "type": "yes;public", "osm_type": "way", "osm_id": 466422406, "class": null, "keyword": "city center"}}, {"type": "Feature", "geometry": {"type": "Polygon", "coordinates": [[[-95.993637, 41.211627], [-95.993533, 41.211622], [-95.993542, 41.211507], [-95.992955, 41.211481], [-95.992952, 41.211524], [-95.9929, 41.211521], [-95.992878, 41.211811], [-95.992926, 41.211813], [-95.992899, 41.212157], [-95.993491, 41.212183], [-95.993517, 41.211845], [-95.993566, 41.211847], [-95.993619, 41.211849], [-95.993637, 41.211627]]]}, "properties": {"display_name": "Walmart Neighborhood Market, 5051, L Street, Omaha, Douglas County, Nebraska, 68117, United States", "type": "supermarket", "osm_type": "way", "osm_id": 632577334, "class": null, "keyword": "neighborhood"}}, {"type": "Feature", "geometry": {"type": "Polygon", "coordinates": [[[-96.176937, 41.191671], [-96.17684, 41.191671], [-96.176842, 41.191549], [-96.176251, 41.191545], [-96.17625, 41.191593], [-96.176209, 41.191593], [-96.176206, 41.191875], [-96.176251, 41.191875], [-96.176247, 41.192226], [-96.176835, 41.19223], [-96.176838, 41.19189], [-96.176884, 41.19189], [-96.176935, 41.19189], [-96.176937, 41.191671]]]}, "properties": {"display_name": "Walmart Neighborhood Market, 6710, South 167th Street, Millard, Omaha, Richland VII Precinct, Douglas County, Nebraska, 68135, United States", "type": "supermarket", "osm_type": "way", "osm_id": 440807036, "class": null, "keyword": "neighborhood"}}, {"type": "Feature", "geometry": {"type": "Polygon", "coordinates": [[[-95.981689, 41.262804], [-95.98168, 41.262281], [-95.981486, 41.262283], [-95.98147, 41.262325], [-95.981456, 41.262364], [-95.980787, 41.26237], [-95.980795, 41.262812], [-95.981266, 41.262812], [-95.981266, 41.262842], [-95.981475, 41.26284], [-95.981636, 41.262839], [-95.981636, 41.262805], [-95.981689, 41.262804]]]}, "properties": {"display_name": "Walmart Neighborhood Market, 360, North Saddle Creek Road, Blackstone, Omaha, Douglas County, Nebraska, 68131, United States", "type": "supermarket", "osm_type": "way", "osm_id": 477069920, "class": null, "keyword": "neighborhood"}}, {"type": "Feature", "geometry": {"type": "Polygon", "coordinates": [[[-96.118109, 41.291106], [-96.118107, 41.290663], [-96.117267, 41.290666], [-96.117221, 41.29071], [-96.117223, 41.290763], [-96.117179, 41.290764], [-96.11712, 41.290826], [-96.11712, 41.29088], [-96.117181, 41.29088], [-96.117227, 41.29088], [-96.117228, 41.291103], [-96.117282, 41.291103], [-96.117282, 41.291147], [-96.117654, 41.291146], [-96.117654, 41.291107], [-96.118109, 41.291106]]]}, "properties": {"display_name": "Walmart Neighborhood Market, 13105, Birch Drive, Omaha, Douglas County, Nebraska, 68164, United States", "type": "supermarket", "osm_type": "way", "osm_id": 489024856, "class": null, "keyword": "neighborhood"}}, {"type": "Feature", "geometry": {"type": "MultiPolygon", "coordinates": [[[[-95.93269, 41.258109], [-95.932634, 41.258026], [-95.932388, 41.257985], [-95.932169, 41.257971], [-95.932178, 41.258141], [-95.932163, 41.258289], [-95.932455, 41.258287], [-95.932668, 41.258263], [-95.932687, 41.258221], [-95.93269, 41.258109]]], [[[-95.932106, 41.25797], [-95.931871, 41.257978], [-95.931504, 41.258026], [-95.931148, 41.258048], [-95.931162, 41.258122], [-95.931163, 41.258159], [-95.931144, 41.258255], [-95.931419, 41.25825], [-95.931693, 41.258279], [-95.931812, 41.258281], [-95.932102, 41.25829], [-95.93209, 41.258137], [-95.932106, 41.25797]]]]}, "properties": {"display_name": "Downtown Green, Omaha, Douglas County, Nebraska, United States", "type": "grass", "osm_type": "relation", "osm_id": 14702087, "class": null, "keyword": "downtown"}}, {"type": "Feature", "geometry": {"type": "Polygon", "coordinates": [[[-96.051631, 41.281257], [-96.051631, 41.280959], [-96.05163, 41.280679], [-96.05163, 41.280639], [-96.051073, 41.280639], [-96.051073, 41.281045], [-96.050973, 41.281045], [-96.050973, 41.281115], [-96.050973, 41.281183], [-96.051069, 41.281183], [-96.051069, 41.281257], [-96.051631, 41.281257]]]}, "properties": {"display_name": "Walmart Neighborhood Market, 2451, North 90th Street, Omaha, Douglas County, Nebraska, 68134, United States", "type": "supermarket", "osm_type": "way", "osm_id": 413250461, "class": null, "keyword": "neighborhood"}}, {"type": "Feature", "geometry": {"type": "Polygon", "coordinates": [[[-95.934383, 41.255624], [-95.93397, 41.255623], [-95.933967, 41.256245], [-95.933935, 41.256246], [-95.933937, 41.256278], [-95.933948, 41.256278], [-95.933948, 41.256296], [-95.934028, 41.256296], [-95.934027, 41.256343], [-95.934374, 41.256347], [-95.934383, 41.255624]]]}, "properties": {"display_name": "Omaha Park Two, Howard Street, The Old Market, Omaha, Douglas County, Nebraska, 68102, United States", "type": "parking", "osm_type": "way", "osm_id": 245708705, "class": null, "keyword": "district"}}, {"type": "Feature", "geometry": {"type": "Polygon", "coordinates": [[[-95.935631, 41.268145], [-95.934783, 41.268139], [-95.934744, 41.268174], [-95.934965, 41.26851], [-95.935628, 41.268526], [-95.935631, 41.268145]]]}, "properties": {"display_name": "Holiday Inn Omaha Downtown Airport, Cuming Street, NoDo, Omaha, Douglas County, Nebraska, 68132, United States", "type": "hotel", "osm_type": "way", "osm_id": 466356930, "class": null, "keyword": "downtown"}}, {"type": "Feature", "geometry": {"type": "Polygon", "coordinates": [[[-95.932958, 41.268176], [-95.932784, 41.268175], [-95.932045, 41.268242], [-95.932061, 41.268398], [-95.932715, 41.268367], [-95.932707, 41.268719], [-95.932947, 41.268722], [-95.932957, 41.268304], [-95.932958, 41.268176]]]}, "properties": {"display_name": "Hampton Inn & Suites Omaha-Downtown, 1212, Cuming Street, NoDo, Omaha, Douglas County, Nebraska, 68102, United States", "type": "hotel", "osm_type": "way", "osm_id": 466356928, "class": null, "keyword": "downtown"}}, {"type": "Feature", "geometry": {"type": "Polygon", "coordinates": [[[-95.92899, 41.259159], [-95.928492, 41.259164], [-95.92836, 41.259165], [-95.928355, 41.259143], [-95.928256, 41.259147], [-95.928009, 41.259159], [-95.928001, 41.259517], [-95.928285, 41.259518], [-95.928288, 41.259339], [-95.928494, 41.25934], [-95.928982, 41.259343], [-95.92899, 41.259159]]]}, "properties": {"display_name": "Courtyard Omaha Downtown/Old Market Area, South 9th Street, Omaha, Douglas County, Nebraska, 68102, United States", "type": "hotel", "osm_type": "way", "osm_id": 262614789, "class": null, "keyword": "downtown"}}, {"type": "Feature", "geometry": {"type": "Polygon", "coordinates": [[[-95.946738, 41.257769], [-95.946073, 41.257771], [-95.945979, 41.257771], [-95.945972, 41.257972], [-95.94607, 41.257978], [-95.946471, 41.257978], [-95.946465, 41.258144], [-95.946731, 41.258146], [-95.946738, 41.257769]]]}, "properties": {"display_name": "EVEN Hotels Omaha Downtown, 2220, Farnam Street, Omaha, Douglas County, Nebraska, 68102, United States", "type": "hotel", "osm_type": "way", "osm_id": 466356921, "class": null, "keyword": "downtown"}}, {"type": "Feature", "geometry": {"type": "Polygon", "coordinates": [[[-95.92992, 41.259174], [-95.929406, 41.259169], [-95.929407, 41.259327], [-95.929407, 41.259384], [-95.929406, 41.259537], [-95.929916, 41.259537], [-95.92992, 41.259174]]]}, "properties": {"display_name": "Hilton Garden Inn Omaha Downtown / Old Market Area, 1005, Dodge Street, NoDo, Omaha, Douglas County, Nebraska, 68102, United States", "type": "hotel", "osm_type": "way", "osm_id": 466356926, "class": null, "keyword": "downtown"}}, {"type": "Feature", "geometry": {"type": "Polygon", "coordinates": [[[-95.933845, 41.268159], [-95.93328, 41.268158], [-95.93328, 41.268273], [-95.93328, 41.268304], [-95.93328, 41.268338], [-95.93328, 41.268377], [-95.933315, 41.268377], [-95.933314, 41.268603], [-95.933265, 41.268603], [-95.933265, 41.268729], [-95.933498, 41.268729], [-95.933499, 41.268326], [-95.933845, 41.268326], [-95.933845, 41.268159]]]}, "properties": {"display_name": "Homewood Suites by Hilton Omaha-Downtown, North 13th Street, NoDo, Omaha, Douglas County, Nebraska, 68102, United States", "type": "hotel", "osm_type": "way", "osm_id": 466356929, "class": null, "keyword": "downtown"}}, {"type": "Feature", "geometry": {"type": "Polygon", "coordinates": [[[-95.934923, 41.267169], [-95.934923, 41.26688], [-95.934923, 41.266808], [-95.934923, 41.266796], [-95.934923, 41.266772], [-95.934923, 41.266754], [-95.934899, 41.266754], [-95.934899, 41.266479], [-95.934751, 41.266479], [-95.934751, 41.26649], [-95.934678, 41.26649], [-95.934678, 41.266517], [-95.934648, 41.266517], [-95.934648, 41.266727], [-95.934648, 41.266812], [-95.934672, 41.266812], [-95.934672, 41.266833], [-95.934656, 41.266833], [-95.934656, 41.266922], [-95.934667, 41.266922], [-95.934667, 41.267138], [-95.934678, 41.267138], [-95.934678, 41.267156], [-95.934751, 41.267156], [-95.934751, 41.267169], [-95.934892, 41.267169], [-95.934923, 41.267169]]]}, "properties": {"display_name": "Cambria Hotel Omaha Downtown, 740, North 14th Street, NoDo, Omaha, Douglas County, Nebraska, 68102, United States", "type": "hotel", "osm_type": "way", "osm_id": 783785354, "class": null, "keyword": "downtown"}}, {"type": "Feature", "geometry": {"type": "Polygon", "coordinates": [[[-95.937894, 41.260318], [-95.936994, 41.260317], [-95.936994, 41.260508], [-95.937893, 41.260509], [-95.937894, 41.260318]]]}, "properties": {"display_name": "DoubleTree by Hilton Hotel Omaha Downtown, 1616, Dodge Street, NoDo, Omaha, Douglas County, Nebraska, 68102, United States", "type": "hotel", "osm_type": "way", "osm_id": 1378820513, "class": null, "keyword": "downtown"}}, {"type": "Feature", "geometry": {"type": "Polygon", "coordinates": [[[-95.935728, 41.269413], [-95.935664, 41.269411], [-95.935604, 41.26941], [-95.935604, 41.269375], [-95.935551, 41.269376], [-95.935551, 41.26916], [-95.935534, 41.26916], [-95.935534, 41.269138], [-95.935363, 41.269139], [-95.935363, 41.269161], [-95.93534, 41.269162], [-95.935337, 41.269398], [-95.935316, 41.269397], [-95.935314, 41.26951], [-95.935343, 41.269511], [-95.935338, 41.269804], [-95.935537, 41.269806], [-95.935548, 41.269532], [-95.935605, 41.269532], [-95.935608, 41.269499], [-95.935664, 41.269499], [-95.935727, 41.269498], [-95.935728, 41.269413]]]}, "properties": {"display_name": "Fairfield Inn & Suites Omaha Downtown, 1501, Nicholas Street, NoDo, Omaha, Douglas County, Nebraska, 68102, United States", "type": "hotel", "osm_type": "way", "osm_id": 466356931, "class": null, "keyword": "downtown"}}, {"type": "Feature", "geometry": {"type": "Polygon", "coordinates": [[[-95.933888, 41.256131], [-95.933833, 41.256133], [-95.933838, 41.256035], [-95.933401, 41.256031], [-95.933403, 41.25611], [-95.933448, 41.256111], [-95.93345, 41.256129], [-95.933396, 41.256127], [-95.933398, 41.256217], [-95.93344, 41.256256], [-95.933437, 41.256366], [-95.933586, 41.256366], [-95.933635, 41.256399], [-95.933883, 41.256221], [-95.933888, 41.256131]]]}, "properties": {"display_name": "Greater Omaha Chamber of Commerce, Harney Street, The Old Market, Omaha, Douglas County, Nebraska, 68131, United States", "type": "office", "osm_type": "way", "osm_id": 245708707, "class": null, "keyword": "district"}}, {"type": "Feature", "geometry": {"type": "Polygon", "coordinates": [[[-95.936348, 41.259199], [-95.93602, 41.259198], [-95.936018, 41.259573], [-95.936345, 41.259574], [-95.936346, 41.259456], [-95.93622, 41.259455], [-95.93622, 41.259315], [-95.936348, 41.259315], [-95.936348, 41.259199]]]}, "properties": {"display_name": "Residence Inn Omaha Downtown/Old Market Area, 106, South 15th Street, NoDo, Omaha, Douglas County, Nebraska, 68102, United States", "type": "hotel", "osm_type": "way", "osm_id": 256628413, "class": null, "keyword": "downtown"}}, {"type": "Feature", "geometry": {"type": "Polygon", "coordinates": [[[-95.940826, 41.256245], [-95.940339, 41.256245], [-95.940339, 41.256433], [-95.94058, 41.256433], [-95.940826, 41.256433], [-95.940826, 41.256245]]]}, "properties": {"display_name": "Omaha Housing Authority, 1823, Harney Street, The Old Market, Omaha, Douglas County, Nebraska, 68102, United States", "type": "public", "osm_type": "way", "osm_id": 262614816, "class": null, "keyword": "district"}}, {"type": "Feature", "geometry": {"type": "Polygon", "coordinates": [[[-95.973223, 41.258577], [-95.973222, 41.258424], [-95.972769, 41.258424], [-95.972681, 41.258424], [-95.97268, 41.258571], [-95.972786, 41.258572], [-95.972979, 41.258574], [-95.972994, 41.258575], [-95.972994, 41.258606], [-95.973055, 41.258609], [-95.973056, 41.258576], [-95.973223, 41.258577]]]}, "properties": {"display_name": "Nebraska Medicine Midtown Health Center, 139, South 40th Street, Blackstone, Omaha, Douglas County, Nebraska, 68131, United States", "type": "clinic", "osm_type": "way", "osm_id": 478287063, "class": null, "keyword": "midtown"}}, {"type": "Feature", "geometry": {"type": "Polygon", "coordinates": [[[-95.930227, 41.257917], [-95.930225, 41.257915], [-95.930223, 41.257914], [-95.930223, 41.257896], [-95.930222, 41.257862], [-95.930205, 41.257799], [-95.930204, 41.257794], [-95.930201, 41.257792], [-95.930196, 41.257791], [-95.930188, 41.257792], [-95.930164, 41.257794], [-95.930093, 41.2578], [-95.930031, 41.257806], [-95.929965, 41.257812], [-95.929921, 41.257994], [-95.930004, 41.258006], [-95.930197, 41.258034], [-95.930227, 41.257917]]]}, "properties": {"display_name": "Downtown Omaha Slides, Farnam Street, The Old Market, Omaha, Douglas County, Nebraska, 68102, United States", "type": "playground", "osm_type": "way", "osm_id": 1117536332, "class": null, "keyword": "downtown"}}, {"type": "Feature", "geometry": {"type": "Polygon", "coordinates": [[[-96.120354, 41.292923], [-96.120166, 41.292922], [-96.120163, 41.29323], [-96.120351, 41.29323], [-96.120354, 41.292923]]]}, "properties": {"display_name": "Applebee's, Manderson Street, Omaha, Douglas County, Nebraska, 68164, United States", "type": "restaurant", "osm_type": "way", "osm_id": 488846993, "class": null, "keyword": "neighborhood"}}, {"type": "Feature", "geometry": {"type": "Polygon", "coordinates": [[[-96.137949, 41.228049], [-96.137909, 41.228048], [-96.13791, 41.228001], [-96.137773, 41.228], [-96.137772, 41.228044], [-96.137618, 41.228043], [-96.137616, 41.228168], [-96.137947, 41.228172], [-96.137949, 41.228049]]]}, "properties": {"display_name": "Applebee's, 3350, South 143rd Plaza, Oak View Shopping Center, Millard, Omaha, Douglas County, Nebraska, 68144, United States", "type": "restaurant", "osm_type": "way", "osm_id": 170818993, "class": null, "keyword": "neighborhood"}}, {"type": "Feature", "geometry": {"type": "Polygon", "coordinates": [[[-95.9555, 41.245573], [-95.955499, 41.24556], [-95.955497, 41.245463], [-95.955496, 41.245454], [-95.955438, 41.245455], [-95.95524, 41.245455], [-95.955242, 41.245576], [-95.9555, 41.245573]]]}, "properties": {"display_name": "Midtown Gas & Grocery, Woolworth Avenue, Omaha, Douglas County, Nebraska, 68106, United States", "type": "convenience", "osm_type": "way", "osm_id": 186708501, "class": null, "keyword": "midtown"}}, {"type": "Feature", "geometry": {"type": "Polygon", "coordinates": [[[-95.969316, 41.252164], [-95.969172, 41.252165], [-95.969169, 41.252288], [-95.969192, 41.252305], [-95.969315, 41.252305], [-95.969316, 41.252164]]]}, "properties": {"display_name": "Midtown Laundry, 3801, Leavenworth Street, Blackstone, Omaha, Douglas County, Nebraska, 68105, United States", "type": "laundry", "osm_type": "way", "osm_id": 1432181423, "class": null, "keyword": "midtown"}}]}