{"type": "FeatureCollection", "features": [{"type": "Feature", "geometry": {"type": "Polygon", "coordinates": [[[18.201968, 49.826507], [18.202062, 49.826399], [18.202603, 49.826265], [18.20446, 49.826936], [18.204149, 49.827296], [18.201968, 49.826507]]]}, "properties": {"display_name": "Centro Ostrava, Elektrárenská, Svinov, Ostrava, okres Ostrava-město, Moravskoslezský kraj, Moravskoslezsko, 721 00, Česko", "type": "mall", "osm_type": "way", "osm_id": 380967996, "class": null, "keyword": "centro"}}]}