{"type": "FeatureCollection", "features": [{"type": "Feature", "geometry": {"type": "Polygon", "coordinates": [[[-75.6828, 45.412258], [-75.682778, 45.412101], [-75.682758, 45.411951], [-75.682586, 45.411647], [-75.682554, 45.4116], [-75.682288, 45.411211], [-75.682081, 45.411032], [-75.681816, 45.410817], [-75.681619, 45.410657], [-75.681413, 45.410486], [-75.681139, 45.410221], [-75.680703, 45.409606], [-75.680564, 45.409204], [-75.680662, 45.408808], [-75.68081, 45.40822], [-75.680821, 45.407748], [-75.680839, 45.407565], [-75.680798, 45.406931], [-75.680625, 45.40629], [-75.680204, 45.405533], [-75.679954, 45.404853], [-75.679791, 45.404394], [-75.679412, 45.403712], [-75.679209, 45.40333], [-75.678989, 45.402657], [-75.678855, 45.402266], [-75.678696, 45.402034], [-75.67805, 45.401249], [-75.678002, 45.400915], [-75.678439, 45.399028], [-75.678301, 45.398979], [-75.678526, 45.398592], [-75.678593, 45.398477], [-75.678647, 45.398384], [-75.678561, 45.398366], [-75.678479, 45.398342], [-75.678434, 45.398328], [-75.677913, 45.398269], [-75.677771, 45.398253], [-75.677546, 45.398346], [-75.676823, 45.398644], [-75.676764, 45.398668], [-75.676633, 45.398721], [-75.676291, 45.398862], [-75.676037, 45.398965], [-75.675809, 45.399059], [-75.675638, 45.399129], [-75.675428, 45.399213], [-75.675145, 45.399326], [-75.675079, 45.399369], [-75.674996, 45.399338], [-75.674274, 45.399075], [-75.673107, 45.398674], [-75.67208, 45.399807], [-75.671942, 45.399988], [-75.671864, 45.400076], [-75.671506, 45.400029], [-75.671477, 45.400025], [-75.671304, 45.400154], [-75.671017, 45.400483], [-75.670851, 45.40068], [-75.670836, 45.400784], [-75.670794, 45.400832], [-75.670696, 45.400861], [-75.670283, 45.401415], [-75.670058, 45.401826], [-75.669666, 45.403153], [-75.669486, 45.403243], [-75.66946, 45.403309], [-75.669512, 45.403388], [-75.669392, 45.403444], [-75.66965, 45.404589], [-75.669993, 45.404491], [-75.67087, 45.404241], [-75.670991, 45.404504], [-75.671245, 45.405069], [-75.671317, 45.405162], [-75.671587, 45.405389], [-75.671995, 45.405659], [-75.67219, 45.405794], [-75.672439, 45.406103], [-75.672488, 45.406161], [-75.672516, 45.406177], [-75.672539, 45.40618], [-75.672571, 45.406178], [-75.673097, 45.405932], [-75.674318, 45.407106], [-75.672826, 45.407711], [-75.672354, 45.407908], [-75.672483, 45.408095], [-75.673016, 45.408999], [-75.673493, 45.40982], [-75.673499, 45.410293], [-75.67344, 45.410849], [-75.672491, 45.412332], [-75.671874, 45.41299], [-75.670804, 45.413811], [-75.669488, 45.414401], [-75.669078, 45.414661], [-75.6697, 45.415652], [-75.670033, 45.415901], [-75.671119, 45.415434], [-75.671604, 45.416167], [-75.671676, 45.416368], [-75.671608, 45.416561], [-75.671542, 45.416652], [-75.671521, 45.416685], [-75.671682, 45.416759], [-75.672215, 45.416653], [-75.672657, 45.416534], [-75.672911, 45.416448], [-75.673006, 45.416362], [-75.673113, 45.416244], [-75.67311, 45.41607], [-75.673005, 45.41591], [-75.672439, 45.415126], [-75.672582, 45.415067], [-75.673931, 45.414504], [-75.675192, 45.413979], [-75.675291, 45.413937], [-75.675832, 45.414494], [-75.676092, 45.41462], [-75.676403, 45.414656], [-75.676889, 45.4146], [-75.677278, 45.414492], [-75.677629, 45.414977], [-75.677455, 45.415133], [-75.677136, 45.415605], [-75.67694, 45.416117], [-75.676959, 45.416601], [-75.677085, 45.417226], [-75.67731, 45.417438], [-75.677807, 45.417445], [-75.678295, 45.417506], [-75.678657, 45.417555], [-75.678702, 45.418322], [-75.679292, 45.418309], [-75.680237, 45.416915], [-75.680372, 45.416914], [-75.680836, 45.416296], [-75.681589, 45.414866], [-75.681723, 45.414669], [-75.682662, 45.412952], [-75.68275, 45.412893], [-75.6828, 45.412258]]]}, "properties": {"display_name": "Old Ottawa East, Capital, Ottawa, Eastern Ontario, Ontario, Canada", "type": "suburb", "osm_type": "way", "osm_id": 475917819, "class": null, "keyword": "suburb"}}, {"type": "Feature", "geometry": {"type": "Polygon", "coordinates": [[[-75.695139, 45.393407], [-75.695132, 45.393346], [-75.694948, 45.393024], [-75.693364, 45.390305], [-75.692817, 45.389598], [-75.691717, 45.390027], [-75.691404, 45.389673], [-75.690551, 45.390013], [-75.690057, 45.389399], [-75.689894, 45.389191], [-75.689747, 45.389102], [-75.688476, 45.389609], [-75.687693, 45.388687], [-75.68765, 45.38856], [-75.687164, 45.388756], [-75.687014, 45.38877], [-75.68674, 45.388873], [-75.685906, 45.389214], [-75.685161, 45.388262], [-75.684078, 45.388496], [-75.683479, 45.388646], [-75.682924, 45.388732], [-75.682669, 45.388809], [-75.682374, 45.388919], [-75.681929, 45.389087], [-75.681836, 45.389128], [-75.681808, 45.389144], [-75.681756, 45.389163], [-75.681696, 45.389177], [-75.681663, 45.389194], [-75.681612, 45.389201], [-75.681548, 45.389198], [-75.681529, 45.389174], [-75.681518, 45.389142], [-75.681496, 45.389124], [-75.681453, 45.389117], [-75.681411, 45.389104], [-75.681358, 45.389112], [-75.681329, 45.38912], [-75.681298, 45.389122], [-75.681252, 45.389083], [-75.681201, 45.38906], [-75.681134, 45.389053], [-75.681041, 45.389032], [-75.680986, 45.389027], [-75.680958, 45.389004], [-75.680913, 45.389005], [-75.680846, 45.388988], [-75.680822, 45.388966], [-75.680798, 45.388925], [-75.680786, 45.388919], [-75.680768, 45.388925], [-75.680753, 45.388926], [-75.680715, 45.388918], [-75.680698, 45.388913], [-75.68068, 45.388899], [-75.680654, 45.388864], [-75.680622, 45.388846], [-75.680512, 45.388828], [-75.680489, 45.388816], [-75.680432, 45.388813], [-75.680376, 45.388807], [-75.680312, 45.388791], [-75.680235, 45.388779], [-75.680145, 45.388773], [-75.67998, 45.388768], [-75.67992, 45.388774], [-75.679872, 45.388776], [-75.679839, 45.388776], [-75.679792, 45.388764], [-75.679762, 45.388759], [-75.679728, 45.388758], [-75.679714, 45.388766], [-75.679696, 45.388772], [-75.679668, 45.388772], [-75.679634, 45.388771], [-75.679585, 45.3888], [-75.679563, 45.388806], [-75.679407, 45.388838], [-75.679344, 45.38885], [-75.679291, 45.388871], [-75.679199, 45.388925], [-75.679134, 45.388944], [-75.679115, 45.388946], [-75.67911, 45.388934], [-75.679101, 45.388925], [-75.679084, 45.388925], [-75.679065, 45.388931], [-75.679059, 45.388945], [-75.679042, 45.388946], [-75.67903, 45.388951], [-75.67902, 45.388963], [-75.679015, 45.388978], [-75.679013, 45.388993], [-75.679019, 45.38901], [-75.679011, 45.389013], [-75.678988, 45.38901], [-75.67897, 45.389021], [-75.67895, 45.389035], [-75.678933, 45.389052], [-75.678892, 45.389062], [-75.678878, 45.389066], [-75.67887, 45.389074], [-75.678874, 45.389087], [-75.678875, 45.389091], [-75.678836, 45.389116], [-75.678822, 45.389147], [-75.678794, 45.389153], [-75.678772, 45.389152], [-75.678758, 45.38916], [-75.678749, 45.389178], [-75.67874, 45.3892], [-75.678741, 45.389223], [-75.678722, 45.389245], [-75.678673, 45.389251], [-75.678628, 45.389281], [-75.678578, 45.389306], [-75.678566, 45.389315], [-75.678545, 45.38933], [-75.678514, 45.389353], [-75.678465, 45.389377], [-75.67842, 45.389405], [-75.678388, 45.389433], [-75.678229, 45.389592], [-75.67817, 45.389592], [-75.678104, 45.389615], [-75.678077, 45.389636], [-75.678011, 45.389679], [-75.677941, 45.389727], [-75.677908, 45.389738], [-75.677904, 45.389767], [-75.67792, 45.389786], [-75.677945, 45.389814], [-75.677971, 45.389832], [-75.677967, 45.389865], [-75.677983, 45.389894], [-75.67802, 45.389895], [-75.678066, 45.389905], [-75.678078, 45.389923], [-75.678085, 45.389968], [-75.678143, 45.390017], [-75.678138, 45.390035], [-75.678084, 45.390061], [-75.678084, 45.39016], [-75.678025, 45.390211], [-75.67804, 45.390252], [-75.678056, 45.39031], [-75.678037, 45.390351], [-75.678016, 45.39042], [-75.677967, 45.390447], [-75.677945, 45.390495], [-75.677926, 45.39058], [-75.677898, 45.390605], [-75.67784, 45.390655], [-75.677794, 45.390776], [-75.677819, 45.390814], [-75.677807, 45.390865], [-75.677376, 45.391487], [-75.677309, 45.39168], [-75.677299, 45.391707], [-75.67726, 45.391757], [-75.677211, 45.391805], [-75.677158, 45.391825], [-75.677073, 45.391874], [-75.677014, 45.391925], [-75.676979, 45.391964], [-75.676974, 45.392023], [-75.676986, 45.392067], [-75.67698, 45.392128], [-75.676942, 45.392228], [-75.676794, 45.392451], [-75.676948, 45.392641], [-75.67707, 45.392806], [-75.67718, 45.392937], [-75.677399, 45.393214], [-75.6772, 45.393299], [-75.677252, 45.393372], [-75.677459, 45.393289], [-75.677649, 45.393521], [-75.678043, 45.393376], [-75.678896, 45.393338], [-75.678907, 45.39369], [-75.678319, 45.393771], [-75.678337, 45.393909], [-75.676485, 45.394687], [-75.676621, 45.394878], [-75.676522, 45.394921], [-75.676369, 45.394731], [-75.674515, 45.395536], [-75.674075, 45.395762], [-75.673938, 45.396123], [-75.673865, 45.396356], [-75.673719, 45.396969], [-75.674157, 45.396802], [-75.674359, 45.397041], [-75.674323, 45.397056], [-75.674486, 45.397249], [-75.673881, 45.3975], [-75.673995, 45.397565], [-75.673887, 45.397686], [-75.673613, 45.39802], [-75.673107, 45.398674], [-75.674274, 45.399075], [-75.674996, 45.399338], [-75.675079, 45.399369], [-75.675145, 45.399326], [-75.675428, 45.399213], [-75.675638, 45.399129], [-75.675809, 45.399059], [-75.676037, 45.398965], [-75.676291, 45.398862], [-75.676633, 45.398721], [-75.676764, 45.398668], [-75.676823, 45.398644], [-75.677546, 45.398346], [-75.677771, 45.398253], [-75.677913, 45.398269], [-75.678434, 45.398328], [-75.678479, 45.398342], [-75.678561, 45.398366], [-75.678647, 45.398384], [-75.678685, 45.398309], [-75.678821, 45.398036], [-75.678987, 45.398187], [-75.679199, 45.397902], [-75.679925, 45.396957], [-75.680537, 45.396473], [-75.681374, 45.396053], [-75.681743, 45.395993], [-75.682206, 45.395921], [-75.682882, 45.395933], [-75.683431, 45.395931], [-75.683777, 45.395907], [-75.684421, 45.395757], [-75.684314, 45.395604], [-75.685244, 45.395214], [-75.685571, 45.395638], [-75.685753, 45.395653], [-75.686227, 45.395623], [-75.686783, 45.395435], [-75.687029, 45.395607], [-75.687083, 45.395606], [-75.687593, 45.395385], [-75.687916, 45.395201], [-75.688425, 45.394936], [-75.68876, 45.394611], [-75.688879, 45.394543], [-75.689227, 45.394388], [-75.689272, 45.39437], [-75.68977, 45.394169], [-75.689914, 45.394111], [-75.690578, 45.393842], [-75.690745, 45.393775], [-75.69086, 45.393725], [-75.690976, 45.393676], [-75.691115, 45.393614], [-75.691408, 45.393485], [-75.691497, 45.393454], [-75.691641, 45.393403], [-75.691781, 45.393354], [-75.692996, 45.393331], [-75.693263, 45.393343], [-75.693915, 45.393371], [-75.694346, 45.393383], [-75.694475, 45.393382], [-75.695139, 45.393407]]]}, "properties": {"display_name": "Old Ottawa South, Capital, Ottawa, Eastern Ontario, Ontario, Canada", "type": "suburb", "osm_type": "way", "osm_id": 475917820, "class": null, "keyword": "suburb"}}, {"type": "Feature", "geometry": {"type": "Polygon", "coordinates": [[[-75.753452, 45.267426], [-75.752114, 45.265928], [-75.747651, 45.26771], [-75.746939, 45.267438], [-75.745196, 45.268103], [-75.7456, 45.268707], [-75.746364, 45.270175], [-75.746484, 45.270235], [-75.746638, 45.270235], [-75.750501, 45.268749], [-75.752269, 45.268049], [-75.752529, 45.267938], [-75.752796, 45.267806], [-75.753066, 45.26766], [-75.753452, 45.267426]]]}, "properties": {"display_name": "Barrhaven Town Centre, Nepean, Ottawa, Eastern Ontario, Ontario, Canada", "type": "retail", "osm_type": "way", "osm_id": 5904638, "class": null, "keyword": "town centre"}}, {"type": "Feature", "geometry": {"type": "Polygon", "coordinates": [[[-75.897606, 45.313299], [-75.896985, 45.312783], [-75.897089, 45.311909], [-75.897046, 45.311895], [-75.897005, 45.311878], [-75.896967, 45.311858], [-75.896933, 45.311834], [-75.896906, 45.31181], [-75.896811, 45.311728], [-75.895958, 45.311002], [-75.895384, 45.311419], [-75.895386, 45.311458], [-75.893921, 45.312683], [-75.893765, 45.312814], [-75.895707, 45.314431], [-75.89605, 45.314225], [-75.897606, 45.313299]]]}, "properties": {"display_name": "Kanata Town Centre, 150, Kanata, Kanata South, Ottawa, Eastern Ontario, Ontario, K2K 2N2, Canada", "type": "commercial", "osm_type": "way", "osm_id": 473014190, "class": null, "keyword": "town centre"}}, {"type": "Feature", "geometry": {"type": "Polygon", "coordinates": [[[-75.737649, 45.256031], [-75.737485, 45.255786], [-75.737453, 45.255755], [-75.737416, 45.255727], [-75.737368, 45.255707], [-75.73732, 45.255702], [-75.737266, 45.255704], [-75.737198, 45.255715], [-75.737111, 45.25576], [-75.737012, 45.25581], [-75.736185, 45.256751], [-75.734754, 45.257789], [-75.734894, 45.25791], [-75.734722, 45.258189], [-75.732273, 45.259273], [-75.732423, 45.259493], [-75.732402, 45.259621], [-75.731797, 45.259838], [-75.731746, 45.259915], [-75.732295, 45.260355], [-75.733175, 45.259815], [-75.733609, 45.259705], [-75.733947, 45.259887], [-75.734221, 45.25989], [-75.734988, 45.259581], [-75.735231, 45.259461], [-75.73516, 45.259426], [-75.735108, 45.259403], [-75.73497, 45.25934], [-75.734934, 45.259324], [-75.734895, 45.259306], [-75.73485, 45.25935], [-75.734804, 45.259345], [-75.734764, 45.259349], [-75.734739, 45.259358], [-75.734556, 45.259432], [-75.73442, 45.259508], [-75.73428, 45.259598], [-75.734224, 45.259607], [-75.734161, 45.259613], [-75.734108, 45.25961], [-75.73405, 45.259598], [-75.733971, 45.259546], [-75.733918, 45.259515], [-75.733845, 45.259491], [-75.733654, 45.259451], [-75.733585, 45.259439], [-75.733506, 45.259439], [-75.733323, 45.259496], [-75.733213, 45.259541], [-75.733154, 45.259541], [-75.733106, 45.259528], [-75.733068, 45.259501], [-75.733044, 45.259471], [-75.733033, 45.259447], [-75.73303, 45.259423], [-75.733031, 45.259397], [-75.733045, 45.259372], [-75.73311, 45.259314], [-75.733185, 45.259264], [-75.733357, 45.259168], [-75.73353, 45.259101], [-75.733589, 45.259087], [-75.733651, 45.259068], [-75.733724, 45.258994], [-75.733847, 45.258934], [-75.734002, 45.258894], [-75.734221, 45.2588], [-75.734382, 45.258705], [-75.734452, 45.258681], [-75.734517, 45.258666], [-75.734632, 45.258676], [-75.734726, 45.258694], [-75.734812, 45.258736], [-75.734885, 45.258796], [-75.734903, 45.25885], [-75.734879, 45.258919], [-75.734881, 45.258951], [-75.734897, 45.258979], [-75.734952, 45.259014], [-75.734988, 45.259032], [-75.735035, 45.259042], [-75.735074, 45.259026], [-75.735113, 45.259002], [-75.735143, 45.258918], [-75.735157, 45.258832], [-75.735143, 45.258781], [-75.73511, 45.258739], [-75.735029, 45.258673], [-75.734934, 45.258593], [-75.734899, 45.258507], [-75.734896, 45.258504], [-75.73485, 45.258455], [-75.734876, 45.258437], [-75.734934, 45.258474], [-75.735072, 45.258508], [-75.735227, 45.258554], [-75.735306, 45.258609], [-75.735371, 45.258671], [-75.735418, 45.25883], [-75.735426, 45.258912], [-75.735409, 45.258989], [-75.735328, 45.259095], [-75.735297, 45.259125], [-75.735259, 45.259169], [-75.735181, 45.25924], [-75.735138, 45.259233], [-75.735, 45.259162], [-75.734869, 45.259102], [-75.734808, 45.259029], [-75.734723, 45.258961], [-75.73455, 45.258921], [-75.734453, 45.258903], [-75.734328, 45.258901], [-75.734214, 45.258928], [-75.734115, 45.25897], [-75.734034, 45.259025], [-75.733976, 45.259098], [-75.733958, 45.259156], [-75.733944, 45.259214], [-75.733952, 45.259249], [-75.733965, 45.25928], [-75.733996, 45.259305], [-75.73403, 45.259308], [-75.734096, 45.259296], [-75.734136, 45.259265], [-75.734181, 45.259172], [-75.734201, 45.259126], [-75.734235, 45.259083], [-75.734275, 45.259055], [-75.734325, 45.259032], [-75.734396, 45.259018], [-75.734464, 45.259015], [-75.734576, 45.259028], [-75.734781, 45.259137], [-75.734918, 45.259215], [-75.734904, 45.259246], [-75.73488, 45.259265], [-75.73489, 45.259269], [-75.734902, 45.259274], [-75.734957, 45.259297], [-75.73511, 45.259366], [-75.735138, 45.259379], [-75.735198, 45.259406], [-75.735235, 45.259423], [-75.735265, 45.259444], [-75.735274, 45.259439], [-75.735417, 45.259369], [-75.73605, 45.259078], [-75.736536, 45.25879], [-75.736279, 45.258639], [-75.736148, 45.258385], [-75.736129, 45.258151], [-75.736257, 45.257921], [-75.736878, 45.256663], [-75.737485, 45.256179], [-75.737649, 45.256031]]]}, "properties": {"display_name": "Half Moon Bay District Park, Barrhaven West, Nepean, Ottawa, Eastern Ontario, Ontario, Canada", "type": "scrub", "osm_type": "way", "osm_id": 618641592, "class": null, "keyword": "district"}}, {"type": "Feature", "geometry": {"type": "Polygon", "coordinates": [[[-75.899863, 45.314517], [-75.898922, 45.313745], [-75.896543, 45.315031], [-75.896715, 45.315168], [-75.897332, 45.315692], [-75.898815, 45.31521], [-75.89916, 45.314982], [-75.899863, 45.314517]]]}, "properties": {"display_name": "Kanata Town Centre Stormwater Pond, 147, Kanata, Kanata North, Ottawa, Eastern Ontario, Ontario, K2K 3L8, Canada", "type": "park", "osm_type": "way", "osm_id": 545714255, "class": null, "keyword": "town centre"}}, {"type": "Feature", "geometry": {"type": "Polygon", "coordinates": [[[-75.719533, 45.408992], [-75.719525, 45.408767], [-75.719507, 45.408622], [-75.719464, 45.408423], [-75.719426, 45.408312], [-75.719373, 45.408173], [-75.71931, 45.408046], [-75.719229, 45.407887], [-75.719191, 45.407827], [-75.719152, 45.407767], [-75.719109, 45.407708], [-75.719051, 45.407631], [-75.719006, 45.407576], [-75.718959, 45.407521], [-75.718893, 45.407449], [-75.718823, 45.407379], [-75.718726, 45.407287], [-75.718694, 45.407306], [-75.718647, 45.40733], [-75.71862, 45.407346], [-75.718606, 45.407336], [-75.718168, 45.407579], [-75.718274, 45.407683], [-75.718346, 45.407759], [-75.718415, 45.407836], [-75.718488, 45.407931], [-75.718555, 45.408028], [-75.718612, 45.408121], [-75.718662, 45.408215], [-75.718706, 45.408311], [-75.718737, 45.408392], [-75.718764, 45.408473], [-75.718787, 45.408556], [-75.718805, 45.408636], [-75.718816, 45.408694], [-75.718826, 45.408773], [-75.71883, 45.408832], [-75.718833, 45.408922], [-75.718865, 45.408922], [-75.719249, 45.408922], [-75.719299, 45.408921], [-75.7193, 45.40894], [-75.719346, 45.408939], [-75.719345, 45.40892], [-75.719377, 45.408919], [-75.719424, 45.408918], [-75.719425, 45.408951], [-75.719422, 45.408973], [-75.719416, 45.408995], [-75.719405, 45.409016], [-75.719391, 45.409036], [-75.719211, 45.409227], [-75.719009, 45.409437], [-75.719079, 45.409473], [-75.719459, 45.409073], [-75.719533, 45.408992]]]}, "properties": {"display_name": "City Centre, 250, City Centre Avenue, Centretown West, Somerset, Ottawa, Eastern Ontario, Ontario, K1R 6K7, Canada", "type": "commercial", "osm_type": "way", "osm_id": 68588382, "class": null, "keyword": "city centre"}}, {"type": "Feature", "geometry": {"type": "Polygon", "coordinates": [[[-75.934398, 45.355408], [-75.934118, 45.355189], [-75.933418, 45.354642], [-75.933288, 45.354702], [-75.933986, 45.355247], [-75.933382, 45.355633], [-75.933527, 45.355746], [-75.933573, 45.355714], [-75.933807, 45.355897], [-75.934398, 45.355408]]]}, "properties": {"display_name": "Old March Town Hall Park, 821, Morgan's Grant, Kanata, Kanata North, Ottawa, Eastern Ontario, Ontario, Canada", "type": "park", "osm_type": "way", "osm_id": 548588891, "class": null, "keyword": "old town"}}, {"type": "Feature", "geometry": {"type": "Polygon", "coordinates": [[[-75.689435, 45.412628], [-75.689418, 45.412609], [-75.689386, 45.412603], [-75.689376, 45.412607], [-75.689302, 45.412516], [-75.689382, 45.412484], [-75.689332, 45.412422], [-75.689251, 45.412454], [-75.689179, 45.412365], [-75.689186, 45.412363], [-75.689194, 45.41234], [-75.689177, 45.412321], [-75.689146, 45.412315], [-75.689118, 45.412327], [-75.68911, 45.412349], [-75.689118, 45.412359], [-75.688976, 45.412418], [-75.689044, 45.412497], [-75.688733, 45.412624], [-75.688702, 45.412589], [-75.68871, 45.412586], [-75.688713, 45.412579], [-75.688708, 45.412573], [-75.688698, 45.412571], [-75.688689, 45.412575], [-75.688651, 45.412531], [-75.688613, 45.412507], [-75.688565, 45.412493], [-75.688514, 45.412489], [-75.688464, 45.412498], [-75.68842, 45.412517], [-75.688387, 45.412544], [-75.688368, 45.412578], [-75.688365, 45.412614], [-75.688378, 45.412649], [-75.688413, 45.412689], [-75.688405, 45.412692], [-75.688402, 45.412699], [-75.688407, 45.412705], [-75.688417, 45.412707], [-75.688426, 45.412703], [-75.68846, 45.412742], [-75.688149, 45.412871], [-75.688079, 45.41279], [-75.687939, 45.412845], [-75.687936, 45.412841], [-75.687904, 45.412835], [-75.687876, 45.412847], [-75.687868, 45.412869], [-75.687885, 45.412889], [-75.687916, 45.412895], [-75.687928, 45.41289], [-75.688002, 45.412979], [-75.687918, 45.413013], [-75.687967, 45.413072], [-75.688048, 45.413039], [-75.688124, 45.41313], [-75.688118, 45.413132], [-75.688109, 45.413155], [-75.688126, 45.413174], [-75.688158, 45.41318], [-75.688186, 45.413168], [-75.688194, 45.413146], [-75.688188, 45.413139], [-75.688328, 45.41308], [-75.688257, 45.412998], [-75.688594, 45.412857], [-75.688604, 45.412869], [-75.688618, 45.412863], [-75.688706, 45.412965], [-75.688697, 45.412969], [-75.688703, 45.412975], [-75.688695, 45.412979], [-75.688702, 45.412987], [-75.688708, 45.412985], [-75.688714, 45.412991], [-75.688722, 45.412987], [-75.688726, 45.412992], [-75.688739, 45.412986], [-75.688734, 45.412981], [-75.688741, 45.412978], [-75.688734, 45.41297], [-75.688802, 45.41294], [-75.688882, 45.412906], [-75.68889, 45.412916], [-75.688899, 45.412912], [-75.688903, 45.412917], [-75.688914, 45.412912], [-75.688911, 45.412908], [-75.68892, 45.412904], [-75.688914, 45.412898], [-75.68892, 45.412895], [-75.688914, 45.412888], [-75.688906, 45.412892], [-75.6889, 45.412885], [-75.688893, 45.412889], [-75.688804, 45.412786], [-75.688819, 45.41278], [-75.688811, 45.41277], [-75.689149, 45.412626], [-75.689222, 45.412709], [-75.689361, 45.41265], [-75.689367, 45.412657], [-75.689398, 45.412662], [-75.689426, 45.412651], [-75.689435, 45.412628]]]}, "properties": {"display_name": "Victoria Memorial Museum Building, 240, McLeod Street, Golden Triangle, Centretown, Somerset, Ottawa, Eastern Ontario, Ontario, K2P 1A2, Canada", "type": "building", "osm_type": "way", "osm_id": 222839600, "class": null, "keyword": "historic centre"}}, {"type": "Feature", "geometry": {"type": "Polygon", "coordinates": [[[-75.780426, 45.3322], [-75.780234, 45.331957], [-75.780049, 45.33203], [-75.780012, 45.331984], [-75.780033, 45.331976], [-75.780049, 45.331979], [-75.780112, 45.331822], [-75.780097, 45.331819], [-75.78009, 45.331801], [-75.780076, 45.331785], [-75.780067, 45.331778], [-75.780045, 45.331768], [-75.780033, 45.331765], [-75.780007, 45.331763], [-75.779994, 45.331764], [-75.779969, 45.331769], [-75.779957, 45.331774], [-75.779938, 45.331787], [-75.779921, 45.331783], [-75.779857, 45.33194], [-75.779873, 45.331943], [-75.77988, 45.331952], [-75.779829, 45.331972], [-75.779508, 45.331913], [-75.779451, 45.332054], [-75.779339, 45.332036], [-75.779301, 45.332111], [-75.779735, 45.332198], [-75.779742, 45.332207], [-75.779751, 45.332219], [-75.779696, 45.332241], [-75.779887, 45.332483], [-75.78013, 45.332388], [-75.780148, 45.332411], [-75.780194, 45.332393], [-75.780176, 45.33237], [-75.780218, 45.332353], [-75.780206, 45.332338], [-75.780175, 45.332299], [-75.780426, 45.3322]]]}, "properties": {"display_name": "Ottawa-Carleton District School Board, 133, Greenbank Road, Craig Henry, Knoxdale-Merivale, Nepean, Ottawa, Eastern Ontario, Ontario, K2H 6L3, Canada", "type": "educational_institution", "osm_type": "way", "osm_id": 68607801, "class": null, "keyword": "district"}}, {"type": "Feature", "geometry": {"type": "Polygon", "coordinates": [[[-75.680522, 45.43168], [-75.680472, 45.431619], [-75.680486, 45.431613], [-75.680195, 45.431275], [-75.68017, 45.431285], [-75.680134, 45.431241], [-75.680005, 45.431295], [-75.679828, 45.431369], [-75.679731, 45.431409], [-75.67988, 45.431589], [-75.679944, 45.431564], [-75.67985, 45.431451], [-75.679885, 45.431436], [-75.680064, 45.43136], [-75.680103, 45.431343], [-75.680357, 45.431643], [-75.679812, 45.431873], [-75.679875, 45.43195], [-75.680522, 45.43168]]]}, "properties": {"display_name": "Econo Lodge, 475, Rideau Street, Sandy Hill, Rideau-Vanier, Ottawa, Eastern Ontario, Ontario, K1N 6B9, Canada", "type": "motel", "osm_type": "way", "osm_id": 152494678, "class": null, "keyword": "downtown"}}, {"type": "Feature", "geometry": {"type": "Polygon", "coordinates": [[[-75.694944, 45.420764], [-75.694821, 45.420625], [-75.694757, 45.420554], [-75.694726, 45.420518], [-75.694267, 45.420718], [-75.694333, 45.420792], [-75.694485, 45.420964], [-75.694944, 45.420764]]]}, "properties": {"display_name": "Sonder Rideau Apartments Downtown, 161, Laurier Avenue West, Centretown, Somerset, Ottawa, Eastern Ontario, Ontario, K1P 5J2, Canada", "type": "hotel", "osm_type": "way", "osm_id": 55411730, "class": null, "keyword": "downtown"}}, {"type": "Feature", "geometry": {"type": "Polygon", "coordinates": [[[-75.688634, 45.43255], [-75.688396, 45.432266], [-75.688151, 45.432372], [-75.688265, 45.432479], [-75.688172, 45.432518], [-75.687964, 45.432603], [-75.688112, 45.432757], [-75.688308, 45.432679], [-75.688634, 45.43255]]]}, "properties": {"display_name": "Holiday Inn Express & Suites Downtown Ottawa East, 235, King Edward Avenue, Byward Market, Lowertown, Rideau-Vanier, Ottawa, Eastern Ontario, Ontario, K1N 5T7, Canada", "type": "hotel", "osm_type": "way", "osm_id": 628364465, "class": null, "keyword": "downtown"}}, {"type": "Feature", "geometry": {"type": "Polygon", "coordinates": [[[-75.685447, 45.429852], [-75.684932, 45.429232], [-75.68476, 45.429302], [-75.684743, 45.429309], [-75.684675, 45.429337], [-75.684796, 45.429483], [-75.684866, 45.429454], [-75.684884, 45.429447], [-75.68494, 45.429424], [-75.685277, 45.42983], [-75.685214, 45.429856], [-75.685271, 45.429924], [-75.685447, 45.429852]]]}, "properties": {"display_name": "Days Inn Downtown Ottawa, 319, Rideau Street, Byward Market, Lowertown, Rideau-Vanier, Ottawa, Eastern Ontario, Ontario, K1N 5Y4, Canada", "type": "hotel", "osm_type": "way", "osm_id": 152493245, "class": null, "keyword": "downtown"}}, {"type": "Feature", "geometry": {"type": "Polygon", "coordinates": [[[-75.734188, 45.399578], [-75.734141, 45.399499], [-75.734047, 45.399332], [-75.733802, 45.399386], [-75.733957, 45.399646], [-75.734188, 45.399578]]]}, "properties": {"display_name": "Saint Vincent de Paul Central Store, Ottawa, 1273, Wellington Street West, Wellington Village, Hintonburg, Kitchissippi, Ottawa, Eastern Ontario, Ontario, K1Y 3A8, Canada", "type": "charity", "osm_type": "way", "osm_id": 153024570, "class": null, "keyword": "central area"}}, {"type": "Feature", "geometry": {"type": "Polygon", "coordinates": [[[-75.69711, 45.419593], [-75.697022, 45.419489], [-75.696917, 45.419532], [-75.696574, 45.419675], [-75.696608, 45.419714], [-75.696663, 45.41978], [-75.696729, 45.419752], [-75.69711, 45.419593]]]}, "properties": {"display_name": "TCC Ottawa Downtown Centre, 251, Laurier Avenue West, Centretown, Somerset, Ottawa, Eastern Ontario, Ontario, K2P 0A2, Canada", "type": "yes", "osm_type": "way", "osm_id": 131639108, "class": null, "keyword": "downtown"}}, {"type": "Feature", "geometry": {"type": "Polygon", "coordinates": [[[-75.78715, 45.341914], [-75.787001, 45.341737], [-75.786888, 45.341784], [-75.787036, 45.341961], [-75.78715, 45.341914]]]}, "properties": {"display_name": "The Neighbourhood Pub, 2559, Baseline Road, Leslie Park, College, Ottawa, Eastern Ontario, Ontario, K2H 7B3, Canada", "type": "bar", "osm_type": "way", "osm_id": 587955609, "class": null, "keyword": "neighbourhood"}}, {"type": "Feature", "geometry": {"type": "Polygon", "coordinates": [[[-76.037434, 45.346568], [-76.03738, 45.346528], [-76.037065, 45.346739], [-76.037119, 45.346778], [-76.037434, 45.346568]]]}, "properties": {"display_name": "Neighbourhood Tomato Community Garden-West Carleton, West Carleton-March, Ottawa, Eastern Ontario, Ontario, Canada", "type": "allotments", "osm_type": "way", "osm_id": 613826661, "class": null, "keyword": "neighbourhood"}}, {"type": "Feature", "geometry": {"type": "Polygon", "coordinates": [[[-75.933683, 45.3556], [-75.933615, 45.355548], [-75.933622, 45.355544], [-75.933607, 45.355532], [-75.933599, 45.355537], [-75.933596, 45.355535], [-75.933418, 45.355646], [-75.933439, 45.355662], [-75.933413, 45.355679], [-75.933461, 45.355716], [-75.933486, 45.3557], [-75.933505, 45.355715], [-75.933683, 45.3556]]]}, "properties": {"display_name": "Old March Town Hall, 821, March Road, Kanata, Kanata North, Ottawa, Eastern Ontario, Ontario, K2K 0G1, Canada", "type": "community_centre", "osm_type": "way", "osm_id": 471838370, "class": null, "keyword": "old town"}}, {"type": "Feature", "geometry": {"type": "Polygon", "coordinates": [[[-75.69015, 45.413042], [-75.690124, 45.413012], [-75.690143, 45.413004], [-75.690078, 45.41293], [-75.69004, 45.412947], [-75.690022, 45.412927], [-75.689982, 45.412944], [-75.69, 45.412964], [-75.689959, 45.412982], [-75.690025, 45.413057], [-75.69003, 45.413055], [-75.690055, 45.413084], [-75.69015, 45.413042]]]}, "properties": {"display_name": "Downtown Bed & Breakfast, 263, McLeod Street, Golden Triangle, Centretown, Somerset, Ottawa, Eastern Ontario, Ontario, K2P 1A2, Canada", "type": "guest_house", "osm_type": "way", "osm_id": 483731603, "class": null, "keyword": "downtown"}}, {"type": "Feature", "geometry": {"type": "Polygon", "coordinates": [[[-75.680037, 45.412943], [-75.679971, 45.412863], [-75.679821, 45.412923], [-75.679887, 45.413004], [-75.680037, 45.412943]]]}, "properties": {"display_name": "Old Town Hall Community Centre, 61, Main Street, Old Ottawa East, Capital, Ottawa, Eastern Ontario, Ontario, K1S 1B4, Canada", "type": "community_centre", "osm_type": "way", "osm_id": 460215286, "class": null, "keyword": "old town"}}, {"type": "Feature", "geometry": {"type": "Polygon", "coordinates": [[[-75.60215, 45.427304], [-75.602054, 45.427187], [-75.601984, 45.427215], [-75.60208, 45.427332], [-75.60215, 45.427304]]]}, "properties": {"display_name": "Ottawa Spinal Decompression Center, 2043, Meadowbrook Road, Pineview, Gloucester, Beacon Hill-Cyrville, Ottawa, Eastern Ontario, Ontario, K1B 4Y9, Canada", "type": "retail", "osm_type": "way", "osm_id": 587297069, "class": null, "keyword": "city center"}}, {"type": "Feature", "geometry": {"type": "Polygon", "coordinates": [[[-75.779244, 45.324488], [-75.779165, 45.324387], [-75.779112, 45.324408], [-75.779191, 45.324509], [-75.779244, 45.324488]]]}, "properties": {"display_name": "Uptown Pet Grooming, 250, Greenbank Road, Arlington Woods, Knoxdale-Merivale, Nepean, Ottawa, Eastern Ontario, Ontario, K2H 8X4, Canada", "type": "pet_grooming", "osm_type": "way", "osm_id": 545573695, "class": null, "keyword": "uptown"}}, {"type": "Feature", "geometry": {"type": "Polygon", "coordinates": [[[-75.75705, 45.287079], [-75.757041, 45.287067], [-75.756987, 45.287089], [-75.756971, 45.28707], [-75.756881, 45.287107], [-75.756882, 45.287108], [-75.756868, 45.287114], [-75.756889, 45.28714], [-75.756968, 45.287107], [-75.756974, 45.287114], [-75.756995, 45.287105], [-75.756993, 45.287102], [-75.75705, 45.287079]]]}, "properties": {"display_name": "Old Town Barbershop, 804, Greenbank Road, Barrhaven West, Nepean, Ottawa, Eastern Ontario, Ontario, K2J 1A2, Canada", "type": "hairdresser", "osm_type": "way", "osm_id": 478977110, "class": null, "keyword": "old town"}}]}