{"type": "FeatureCollection", "features": [{"type": "Feature", "geometry": {"type": "Polygon", "coordinates": [[[104.920159, 11.570061], [104.920229, 11.569608], [104.920267, 11.569362], [104.920338, 11.568897], [104.920342, 11.568875], [104.920352, 11.568853], [104.920364, 11.568839], [104.920384, 11.568834], [104.920405, 11.568834], [104.920431, 11.568836], [104.920498, 11.568847], [104.921044, 11.568929], [104.921229, 11.568957], [104.921628, 11.56902], [104.921931, 11.569063], [104.921961, 11.56907], [104.921983, 11.569079], [104.921997, 11.569093], [104.922003, 11.56911], [104.922003, 11.569132], [104.922002, 11.569153], [104.921935, 11.56956], [104.921876, 11.569904], [104.921813, 11.570303], [104.921806, 11.570328], [104.921796, 11.570345], [104.921782, 11.570358], [104.921762, 11.570365], [104.92174, 11.570368], [104.921719, 11.570368], [104.921408, 11.570321], [104.921019, 11.570263], [104.920808, 11.570231], [104.920232, 11.570142], [104.92021, 11.570137], [104.920195, 11.570131], [104.920178, 11.57012], [104.920169, 11.570108], [104.920162, 11.570087], [104.920159, 11.570061]]]}, "properties": {"display_name": "ផ្សារធំថ្មី, មហាវិថី កម្ពុជាក្រោម (ផ្លូវ ១២៨), សង្កាត់ផ្សារថ្មីទី ២, ខណ្ឌដូនពេញ, រាជធានីភ្នំពេញ, 120202, ព្រះរាជាណាចក្រ​កម្ពុជា", "type": "marketplace", "osm_type": "way", "osm_id": 377373297, "class": null, "keyword": "中央区"}}, {"type": "Feature", "geometry": {"type": "Polygon", "coordinates": [[[104.905229, 11.571574], [104.905348, 11.570831], [104.905471, 11.570846], [104.90553, 11.570464], [104.906437, 11.570564], [104.906346, 11.571335], [104.906035, 11.571303], [104.906004, 11.571551], [104.905623, 11.571626], [104.905229, 11.571574]]]}, "properties": {"display_name": "Phnom Penh Megamall (under construction), មហាវិថី សហព័ន្ធរុស្ស៊ី, សង្កាត់ផ្សារថ្មីទី ២, ខណ្ឌដូនពេញ, រាជធានីភ្នំពេញ, 120202, ព្រះរាជាណាចក្រ​កម្ពុជា", "type": "mall", "osm_type": "way", "osm_id": 407958685, "class": null, "keyword": "city centre"}}, {"type": "Feature", "geometry": {"type": "Polygon", "coordinates": [[[104.878827, 11.501093], [104.879652, 11.501098], [104.88159, 11.500858], [104.881607, 11.501006], [104.879625, 11.501258], [104.878842, 11.501263], [104.878827, 11.501093]]]}, "properties": {"display_name": "Borey Uptown, សង្កាត់ដង្កោ, ខណ្ឌដង្កោ, រាជធានីភ្នំពេញ, 120501, ព្រះរាជាណាចក្រ​កម្ពុជា", "type": "residential", "osm_type": "way", "osm_id": 1423468962, "class": null, "keyword": "uptown"}}, {"type": "Feature", "geometry": {"type": "Polygon", "coordinates": [[[104.879418, 11.552727], [104.879485, 11.552693], [104.879963, 11.552738], [104.879987, 11.553525], [104.879478, 11.553465], [104.879418, 11.552727]]]}, "properties": {"display_name": "Midtown Mall, ផ្លូវ ១៣ប៊ី, ភូមិចុងថ្នល់ខាងកើត, សង្កាត់អូរបែកក្អម, ខណ្ឌសែនសុខ, រាជធានីភ្នំពេញ, 120802, ព្រះរាជាណាចក្រ​កម្ពុជា", "type": "mall", "osm_type": "way", "osm_id": 626114547, "class": null, "keyword": "midtown"}}, {"type": "Feature", "geometry": {"type": "Polygon", "coordinates": [[[104.920288, 11.553262], [104.920312, 11.553099], [104.920477, 11.553118], [104.920446, 11.553285], [104.920288, 11.553262]]]}, "properties": {"display_name": "Shelter for Street Children, ផ្លូវ ៩៥, សង្កាត់បឹងកេងកងទី ២, ខណ្ឌបឹងកេងកង, រាជធានីភ្នំពេញ, 120103, ព្រះរាជាណាចក្រ​កម្ពុជា", "type": "ngo", "osm_type": "way", "osm_id": 481660507, "class": null, "keyword": "centro"}}]}