{"type": "FeatureCollection", "features": [{"type": "Feature", "geometry": {"type": "Polygon", "coordinates": [[[16.912208, 52.399119], [16.912212, 52.3991], [16.912232, 52.39908], [16.912256, 52.399068], [16.912311, 52.399057], [16.912331, 52.399053], [16.912447, 52.399034], [16.912523, 52.399027], [16.912567, 52.399023], [16.91261, 52.399019], [16.912637, 52.399017], [16.912736, 52.399015], [16.912765, 52.39902], [16.91279, 52.399029], [16.912812, 52.399049], [16.912898, 52.399142], [16.91317, 52.399434], [16.913196, 52.399462], [16.913213, 52.399483], [16.913394, 52.399695], [16.913559, 52.399889], [16.913892, 52.400284], [16.914068, 52.400487], [16.914089, 52.400521], [16.914104, 52.400557], [16.914168, 52.40075], [16.914549, 52.401912], [16.91455, 52.401929], [16.91454, 52.401945], [16.914525, 52.401954], [16.914505, 52.401959], [16.914529, 52.402031], [16.914552, 52.402099], [16.914569, 52.402099], [16.914591, 52.402102], [16.914608, 52.402111], [16.914618, 52.402126], [16.914675, 52.402299], [16.914161, 52.402362], [16.913947, 52.402388], [16.913409, 52.402455], [16.9133, 52.402468], [16.912782, 52.400891], [16.912715, 52.400688], [16.912721, 52.400686], [16.912706, 52.40064], [16.912433, 52.399807], [16.912208, 52.399119]]]}, "properties": {"display_name": "Avenida Poznań, 2, Stanisława Matyi, Wierzbięcice, Wilda, Poznań, województwo wielkopolskie, 61-586, Polska", "type": "mall", "osm_type": "way", "osm_id": 368791550, "class": null, "keyword": "city center"}}, {"type": "Feature", "geometry": {"type": "Polygon", "coordinates": [[[16.929622, 52.405932], [16.930101, 52.40589], [16.930138, 52.405984], [16.930244, 52.406092], [16.929917, 52.406227], [16.929828, 52.406093], [16.929815, 52.40607], [16.929736, 52.406096], [16.92969, 52.406034], [16.929622, 52.405932]]]}, "properties": {"display_name": "Hampton by Hilton Poznań Old Town, 6, Święty Marcin, Stare Miasto, Poznań, województwo wielkopolskie, 61-803, Polska", "type": "hotel", "osm_type": "way", "osm_id": 586056761, "class": null, "keyword": "old town"}}, {"type": "Feature", "geometry": {"type": "Polygon", "coordinates": [[[16.93183, 52.409089], [16.931849, 52.409093], [16.931861, 52.409092], [16.931911, 52.409085], [16.931918, 52.409092], [16.931937, 52.409097], [16.931959, 52.409095], [16.931971, 52.409129], [16.932016, 52.409124], [16.932039, 52.409177], [16.932043, 52.409176], [16.932065, 52.409231], [16.931924, 52.409252], [16.931847, 52.409253], [16.931836, 52.409145], [16.93183, 52.409089]]]}, "properties": {"display_name": "Hill Old Town Inn Hostel, 1/2, Zamkowa, Garbary, Stare Miasto, Poznań, województwo wielkopolskie, 61-768, Polska", "type": "hostel", "osm_type": "way", "osm_id": 363747420, "class": null, "keyword": "old town"}}]}