{"type": "FeatureCollection", "features": [{"type": "Feature", "geometry": {"type": "Polygon", "coordinates": [[[-71.413495, 41.825388], [-71.413326, 41.825133], [-71.413076, 41.824758], [-71.413124, 41.824721], [-71.413035, 41.824698], [-71.412999, 41.824685], [-71.412843, 41.824585], [-71.412818, 41.82457], [-71.412803, 41.824561], [-71.412793, 41.824557], [-71.412779, 41.824556], [-71.41277, 41.824558], [-71.412768, 41.82456], [-71.412759, 41.824564], [-71.412416, 41.824811], [-71.412404, 41.82482], [-71.412397, 41.824829], [-71.412394, 41.824839], [-71.412394, 41.824859], [-71.412397, 41.824869], [-71.4124, 41.824875], [-71.412748, 41.825554], [-71.412759, 41.825565], [-71.412774, 41.825576], [-71.412794, 41.825586], [-71.412813, 41.825593], [-71.412839, 41.825598], [-71.412862, 41.825599], [-71.412886, 41.825597], [-71.412909, 41.825592], [-71.412933, 41.825583], [-71.413495, 41.825388]]]}, "properties": {"display_name": "BankNewport City Center, Downtown, Providence, Providence County, Rhode Island, United States", "type": "park", "osm_type": "way", "osm_id": 121497737, "class": null, "keyword": "city center"}}, {"type": "Feature", "geometry": {"type": "Polygon", "coordinates": [[[-71.42647, 41.820384], [-71.42625, 41.819855], [-71.426037, 41.819905], [-71.426258, 41.820433], [-71.42647, 41.820384]]]}, "properties": {"display_name": "Uptown Theater, 270, Broadway, Federal Hill, Olneyville, Providence, Providence County, Rhode Island, 02907, United States", "type": "theatre", "osm_type": "way", "osm_id": 379396089, "class": null, "keyword": "uptown"}}, {"type": "Feature", "geometry": {"type": "Polygon", "coordinates": [[[-71.409638, 41.816578], [-71.409573, 41.816485], [-71.409476, 41.816523], [-71.409326, 41.816308], [-71.409216, 41.816351], [-71.409148, 41.816254], [-71.409059, 41.816288], [-71.40934, 41.816693], [-71.409638, 41.816578]]]}, "properties": {"display_name": "Providence Children's Museum, Parsonage Street, Providence Jewelry Manufacturing Historic District, Providence, Providence County, Rhode Island, 02903, United States", "type": "museum", "osm_type": "way", "osm_id": 425693227, "class": null, "keyword": "district"}}, {"type": "Feature", "geometry": {"type": "Polygon", "coordinates": [[[-71.411663, 41.820257], [-71.411601, 41.820223], [-71.411467, 41.820152], [-71.411442, 41.820177], [-71.411341, 41.820283], [-71.411537, 41.820387], [-71.411663, 41.820257]]]}, "properties": {"display_name": "EGO Providence, 73, Richmond Street, Downtown, Providence, Providence County, Rhode Island, 02903, United States", "type": "nightclub", "osm_type": "way", "osm_id": 975102698, "class": null, "keyword": "district"}}, {"type": "Feature", "geometry": {"type": "Polygon", "coordinates": [[[-71.408691, 41.81628], [-71.408625, 41.816191], [-71.408582, 41.816132], [-71.408421, 41.816198], [-71.40853, 41.816346], [-71.408691, 41.81628]]]}, "properties": {"display_name": "Providence River Animal Hospital, Point Street, Downtown, Providence, Providence County, Rhode Island, 02903, United States", "type": "veterinary", "osm_type": "way", "osm_id": 369433553, "class": null, "keyword": "district"}}, {"type": "Feature", "geometry": {"type": "Polygon", "coordinates": [[[-71.407962, 41.816923], [-71.407905, 41.81684], [-71.407649, 41.816938], [-71.407668, 41.816966], [-71.40769, 41.816958], [-71.407727, 41.817013], [-71.407962, 41.816923]]]}, "properties": {"display_name": "JR's Providence, 371, Richmond Street, Downtown, Providence, Providence County, Rhode Island, 02903, United States", "type": "restaurant", "osm_type": "way", "osm_id": 1328978099, "class": null, "keyword": "district"}}, {"type": "Feature", "geometry": {"type": "Polygon", "coordinates": [[[-71.435477, 41.815909], [-71.435445, 41.815767], [-71.435335, 41.81578], [-71.435357, 41.815858], [-71.435421, 41.815917], [-71.435477, 41.815909]]]}, "properties": {"display_name": "West Broadway Neighborhood Association, Westminster Street, Federal Hill, Olneyville, Providence, Providence County, Rhode Island, 02940, United States", "type": "yes", "osm_type": "way", "osm_id": 334942794, "class": null, "keyword": "neighborhood"}}]}