{"type": "FeatureCollection", "features": [{"type": "Feature", "geometry": {"type": "MultiPolygon", "coordinates": [[[[119.123393, 39.790056], [119.123441, 39.789979], [119.123875, 39.789511], [119.124952, 39.788953], [119.125742, 39.788747], [119.126194, 39.788892], [119.126642, 39.788884], [119.127381, 39.78864], [119.127816, 39.788248], [119.12829, 39.787472], [119.128219, 39.786782], [119.127803, 39.786175], [119.127325, 39.785409], [119.129857, 39.784496], [119.130497, 39.78384], [119.131777, 39.783643], [119.133441, 39.783479], [119.134507, 39.78266], [119.135078, 39.781934], [119.135229, 39.781262], [119.135199, 39.780613], [119.135531, 39.780311], [119.136768, 39.78001], [119.139302, 39.779314], [119.139824, 39.779208], [119.140171, 39.779266], [119.140886, 39.779822], [119.141176, 39.779987], [119.143983, 39.781046], [119.14688, 39.782032], [119.14873, 39.782938], [119.14902, 39.783208], [119.149215, 39.783571], [119.149274, 39.784356], [119.149411, 39.784615], [119.149567, 39.78472], [119.149857, 39.784705], [119.150195, 39.784648], [119.151212, 39.784385], [119.152083, 39.784127], [119.152646, 39.784028], [119.15306, 39.784036], [119.153859, 39.784313], [119.153974, 39.784472], [119.153999, 39.785246], [119.154258, 39.785972], [119.154667, 39.786451], [119.155557, 39.787165], [119.156237, 39.787586], [119.156601, 39.787784], [119.157629, 39.787963], [119.159302, 39.788138], [119.159695, 39.78826], [119.159892, 39.78839], [119.160436, 39.788814], [119.160918, 39.789116], [119.16106, 39.78916], [119.162323, 39.789198], [119.162536, 39.789279], [119.163444, 39.789725], [119.164497, 39.790218], [119.165489, 39.790388], [119.165804, 39.790544], [119.166412, 39.791312], [119.166697, 39.791998], [119.16695, 39.792179], [119.167306, 39.792299], [119.167875, 39.792438], [119.168421, 39.792387], [119.168714, 39.792191], [119.1689, 39.791929], [119.168965, 39.791724], [119.169306, 39.791095], [119.169423, 39.790675], [119.169372, 39.790162], [119.169449, 39.789434], [119.169674, 39.788977], [119.169686, 39.788658], [119.169589, 39.788342], [119.169302, 39.787943], [119.168799, 39.787402], [119.168705, 39.787169], [119.16874, 39.7869], [119.16886, 39.78643], [119.168992, 39.785575], [119.168926, 39.78522], [119.168736, 39.784972], [119.167722, 39.784237], [119.167605, 39.784081], [119.167733, 39.783885], [119.168219, 39.783582], [119.169832, 39.782957], [119.171496, 39.782486], [119.172985, 39.782155], [119.174406, 39.782189], [119.174895, 39.782276], [119.175202, 39.782404], [119.175689, 39.782663], [119.175927, 39.782909], [119.176013, 39.783203], [119.175942, 39.783816], [119.17593, 39.784118], [119.17598, 39.784318], [119.176137, 39.784621], [119.176621, 39.784977], [119.177338, 39.785364], [119.177539, 39.785545], [119.177924, 39.78623], [119.178209, 39.786822], [119.178367, 39.787005], [119.178697, 39.787149], [119.179531, 39.787203], [119.180799, 39.787423], [119.181759, 39.787831], [119.181971, 39.78804], [119.182667, 39.789152], [119.183231, 39.789507], [119.185751, 39.789398], [119.188191, 39.791104], [119.188098, 39.791301], [119.190726, 39.792103], [119.190887, 39.792222], [119.190739, 39.792458], [119.190428, 39.792656], [119.189805, 39.792944], [119.189181, 39.793106], [119.188702, 39.793148], [119.188017, 39.793181], [119.187673, 39.793147], [119.187085, 39.792934], [119.186093, 39.792738], [119.186129, 39.792285], [119.185421, 39.792526], [119.185157, 39.79306], [119.185871, 39.793168], [119.185959, 39.79347], [119.185814, 39.793899], [119.185399, 39.79431], [119.185292, 39.794658], [119.185278, 39.795066], [119.185787, 39.795512], [119.187442, 39.795481], [119.187574, 39.794687], [119.188286, 39.794734], [119.188553, 39.795703], [119.190437, 39.795424], [119.190803, 39.794505], [119.191672, 39.794549], [119.191296, 39.795376], [119.190753, 39.795418], [119.190765, 39.795783], [119.192737, 39.795807], [119.191808, 39.796371], [119.190606, 39.796335], [119.190637, 39.796759], [119.191928, 39.796748], [119.191833, 39.797162], [119.192635, 39.797573], [119.191929, 39.797707], [119.191367, 39.797731], [119.191393, 39.798204], [119.191877, 39.798255], [119.1918, 39.798905], [119.192843, 39.799151], [119.192851, 39.799394], [119.194671, 39.799603], [119.1951, 39.798196], [119.195812, 39.798243], [119.198904, 39.798793], [119.198755, 39.799617], [119.199249, 39.799698], [119.199318, 39.799393], [119.200963, 39.799058], [119.201318, 39.799633], [119.202406, 39.799765], [119.202425, 39.800368], [119.204319, 39.800393], [119.206286, 39.800234], [119.207472, 39.800455], [119.207985, 39.8005], [119.210244, 39.800525], [119.210849, 39.800704], [119.211381, 39.80079], [119.212175, 39.800802], [119.212759, 39.800845], [119.213722, 39.800945], [119.214915, 39.801226], [119.217224, 39.801912], [119.219985, 39.803028], [119.220362, 39.803077], [119.220694, 39.803103], [119.221017, 39.803088], [119.221331, 39.803014], [119.221471, 39.802965], [119.221558, 39.802896], [119.225201, 39.804366], [119.228465, 39.806544], [119.230356, 39.807766], [119.232622, 39.811918], [119.23435, 39.815086], [119.24079, 39.82313], [119.236041, 39.831421], [119.234005, 39.834976], [119.229964, 39.850162], [119.22498, 39.860502], [119.225151, 39.861886], [119.226569, 39.862183], [119.227772, 39.862711], [119.228588, 39.863996], [119.225905, 39.864942], [119.228661, 39.868486], [119.228414, 39.87085], [119.228875, 39.873425], [119.229004, 39.874389], [119.229413, 39.874949], [119.229852, 39.874958], [119.230444, 39.875172], [119.231054, 39.87509], [119.231398, 39.876778], [119.231731, 39.87835], [119.231876, 39.879202], [119.228477, 39.879221], [119.224718, 39.879208], [119.222462, 39.87942], [119.222446, 39.879356], [119.22229, 39.878712], [119.224352, 39.878089], [119.22648, 39.877778], [119.226867, 39.875282], [119.223688, 39.875231], [119.222499, 39.878171], [119.221775, 39.878505], [119.21952, 39.878417], [119.219242, 39.879624], [119.216946, 39.884972], [119.216206, 39.886697], [119.214081, 39.891645], [119.212429, 39.895488], [119.211979, 39.896538], [119.215417, 39.901612], [119.218426, 39.901155], [119.219745, 39.900755], [119.219777, 39.898773], [119.219906, 39.893901], [119.219938, 39.891557], [119.219993, 39.887381], [119.220121, 39.88516], [119.220798, 39.885135], [119.222463, 39.885277], [119.22314, 39.885303], [119.225084, 39.885378], [119.227963, 39.885455], [119.227801, 39.887464], [119.227769, 39.888179], [119.227812, 39.888756], [119.227834, 39.889339], [119.227866, 39.8898], [119.227898, 39.890073], [119.227941, 39.89078], [119.227941, 39.891109], [119.228607, 39.891035], [119.229649, 39.890979], [119.230852, 39.890947], [119.231722, 39.890922], [119.232108, 39.890865], [119.232076, 39.891004], [119.231926, 39.892124], [119.231926, 39.892453], [119.231808, 39.893144], [119.231742, 39.893869], [119.231528, 39.894132], [119.231388, 39.894757], [119.231206, 39.89572], [119.231012, 39.896527], [119.230941, 39.897221], [119.231406, 39.897069], [119.232069, 39.896855], [119.233518, 39.896598], [119.234841, 39.896363], [119.235785, 39.897202], [119.236365, 39.897796], [119.237337, 39.897842], [119.238969, 39.897308], [119.241052, 39.896569], [119.241377, 39.896397], [119.24541, 39.894273], [119.246033, 39.894948], [119.247234, 39.894355], [119.248179, 39.893631], [119.249381, 39.8934], [119.249467, 39.89289], [119.248931, 39.8921], [119.248566, 39.891343], [119.24788, 39.889114], [119.248073, 39.888323], [119.248609, 39.887928], [119.248987, 39.88765], [119.249146, 39.887533], [119.24979, 39.886973], [119.250434, 39.886793], [119.251958, 39.886233], [119.252345, 39.88541], [119.251894, 39.88383], [119.250393, 39.883131], [119.249127, 39.883395], [119.249063, 39.881667], [119.248506, 39.878769], [119.248543, 39.878499], [119.248634, 39.877847], [119.248249, 39.87564], [119.248335, 39.872907], [119.249129, 39.872495], [119.250073, 39.871292], [119.250224, 39.869744], [119.247842, 39.86864], [119.24546, 39.86416], [119.243019, 39.858931], [119.248085, 39.855572], [119.250403, 39.853925], [119.256458, 39.853464], [119.263981, 39.854638], [119.26984, 39.855505], [119.272556, 39.855543], [119.277672, 39.854461], [119.280814, 39.853182], [119.283935, 39.853178], [119.286428, 39.853175], [119.289771, 39.853797], [119.296453, 39.855422], [119.298146, 39.855734], [119.300225, 39.855329], [119.303057, 39.854444], [119.307164, 39.851957], [119.310637, 39.850727], [119.313004, 39.849074], [119.330473, 39.851831], [119.329915, 39.861236], [119.328542, 39.864662], [119.323821, 39.868022], [119.323692, 39.876635], [119.325216, 39.885411], [119.326181, 39.887683], [119.325395, 39.888523], [119.324131, 39.890132], [119.319673, 39.895803], [119.317747, 39.898253], [119.317515, 39.898547], [119.311676, 39.905783], [119.308521, 39.90969], [119.304066, 39.914569], [119.297813, 39.918464], [119.297698, 39.918515], [119.284616, 39.924406], [119.281514, 39.925438], [119.275872, 39.927311], [119.278272, 39.933299], [119.270126, 39.938702], [119.266009, 39.942258], [119.262457, 39.946073], [119.258289, 39.95055], [119.253137, 39.95608], [119.24833, 39.962625], [119.245968, 39.969202], [119.250431, 39.978147], [119.252025, 39.980175], [119.250021, 39.980333], [119.241476, 39.984047], [119.241002, 39.990622], [119.233901, 40.001447], [119.2308, 40.000843], [119.226339, 39.999973], [119.214162, 39.997598], [119.208269, 39.996446], [119.204763, 39.995761], [119.207804, 39.978986], [119.205543, 39.97337], [119.204451, 39.970661], [119.2009, 39.967734], [119.198775, 39.965982], [119.197166, 39.95926], [119.195698, 39.953131], [119.19538, 39.951799], [119.197412, 39.941567], [119.199339, 39.931868], [119.203425, 39.921739], [119.192975, 39.919254], [119.19147, 39.914511], [119.179003, 39.914038], [119.17327, 39.91382], [119.164795, 39.912883], [119.159516, 39.912655], [119.158006, 39.91259], [119.152061, 39.912334], [119.142599, 39.912317], [119.14118, 39.909254], [119.13932, 39.907341], [119.133744, 39.901607], [119.140279, 39.890226], [119.139592, 39.884693], [119.137615, 39.877021], [119.137496, 39.876558], [119.136788, 39.873815], [119.13667, 39.87336], [119.136712, 39.871698], [119.136768, 39.869425], [119.136843, 39.866379], [119.137613, 39.85922], [119.138781, 39.848362], [119.135385, 39.84325], [119.13444, 39.837483], [119.132678, 39.837351], [119.132142, 39.836191], [119.132092, 39.83605], [119.131989, 39.835913], [119.131795, 39.835829], [119.131536, 39.835804], [119.131366, 39.835805], [119.131151, 39.835749], [119.130796, 39.835526], [119.130387, 39.83539], [119.129719, 39.8352], [119.128602, 39.834386], [119.128674, 39.834238], [119.129012, 39.834006], [119.129299, 39.83387], [119.12945, 39.833134], [119.129391, 39.832828], [119.129431, 39.83252], [119.12957, 39.832023], [119.130134, 39.831002], [119.130814, 39.830363], [119.1315, 39.830083], [119.131446, 39.82911], [119.131446, 39.827464], [119.132464, 39.82668], [119.132448, 39.826183], [119.132595, 39.824496], [119.133412, 39.823638], [119.134092, 39.823128], [119.134716, 39.822428], [119.135385, 39.821612], [119.135571, 39.821225], [119.135608, 39.820765], [119.135489, 39.820155], [119.135218, 39.819433], [119.134638, 39.818333], [119.134594, 39.818314], [119.134097, 39.817577], [119.134178, 39.816963], [119.134113, 39.816465], [119.134252, 39.815582], [119.134324, 39.815432], [119.134916, 39.815068], [119.136233, 39.814199], [119.136719, 39.813844], [119.136809, 39.813497], [119.136792, 39.812959], [119.136981, 39.812649], [119.138248, 39.811742], [119.13868, 39.811236], [119.138852, 39.810977], [119.138885, 39.810798], [119.138723, 39.810593], [119.139097, 39.8102], [119.138527, 39.809511], [119.13794, 39.808255], [119.137681, 39.807914], [119.13777, 39.807567], [119.138005, 39.807102], [119.138927, 39.806356], [119.139019, 39.806085], [119.138951, 39.805511], [119.13839, 39.804772], [119.137913, 39.804335], [119.137052, 39.803934], [119.136917, 39.803282], [119.136702, 39.80202], [119.136747, 39.801866], [119.136693, 39.801713], [119.136539, 39.801563], [119.136833, 39.801442], [119.137128, 39.801283], [119.137818, 39.801079], [119.138099, 39.800497], [119.137838, 39.800118], [119.137024, 39.799558], [119.135953, 39.798732], [119.135186, 39.798055], [119.135077, 39.79775], [119.135067, 39.797405], [119.134958, 39.797138], [119.134853, 39.796948], [119.1342, 39.796768], [119.133296, 39.796478], [119.132539, 39.796146], [119.132126, 39.795654], [119.131843, 39.794546], [119.131826, 39.794009], [119.131616, 39.793668], [119.131566, 39.793669], [119.131358, 39.793366], [119.12888, 39.792333], [119.127916, 39.7916], [119.127378, 39.791788], [119.124998, 39.79045], [119.124706, 39.790221], [119.124338, 39.790039], [119.12404, 39.790045], [119.123593, 39.790091], [119.123393, 39.790056]]], [[[119.242202, 39.885519], [119.242611, 39.884786], [119.242536, 39.883997], [119.242729, 39.883849], [119.242879, 39.88352], [119.243501, 39.883116], [119.243534, 39.882005], [119.243438, 39.880935], [119.246539, 39.880762], [119.24669, 39.882152], [119.246848, 39.884053], [119.242202, 39.885519]]]]}, "properties": {"display_name": "抚宁区, 秦皇岛市, 河北省, 中国", "type": "administrative", "osm_type": "relation", "osm_id": 9762825, "class": null, "keyword": "district"}}, {"type": "Feature", "geometry": {"type": "Polygon", "coordinates": [[[119.482241, 39.804118], [119.521036, 39.802734], [119.527817, 39.803195], [119.532451, 39.804052], [119.535799, 39.805305], [119.538545, 39.806756], [119.540863, 39.808866], [119.542322, 39.811569], [119.543094, 39.814602], [119.543781, 39.818557], [119.547558, 39.861527], [119.55078, 39.872441], [119.531669, 39.885959], [119.530124, 39.886614], [119.528942, 39.887404], [119.527591, 39.887406], [119.525915, 39.887661], [119.525238, 39.88787], [119.524562, 39.888004], [119.524241, 39.888081], [119.523241, 39.887477], [119.515905, 39.882279], [119.51009, 39.877981], [119.505936, 39.875956], [119.505936, 39.87551], [119.503766, 39.87432], [119.504079, 39.873767], [119.496378, 39.867919], [119.49403, 39.866421], [119.494037, 39.86605], [119.493501, 39.86573], [119.494566, 39.863568], [119.493882, 39.862658], [119.493558, 39.861304], [119.493723, 39.859523], [119.493863, 39.858537], [119.493863, 39.857351], [119.494208, 39.85577], [119.494381, 39.854585], [119.494553, 39.853004], [119.494554, 39.850896], [119.49546, 39.849777], [119.495562, 39.848366], [119.494899, 39.846812], [119.494685, 39.846244], [119.49518, 39.845835], [119.495741, 39.84544], [119.498844, 39.843951], [119.500203, 39.841945], [119.501366, 39.842327], [119.503457, 39.842004], [119.504254, 39.842006], [119.504815, 39.842618], [119.505569, 39.844185], [119.506795, 39.844211], [119.507312, 39.842895], [119.508865, 39.841187], [119.510416, 39.839873], [119.512739, 39.838257], [119.512315, 39.837699], [119.511884, 39.836413], [119.511367, 39.835291], [119.510807, 39.833906], [119.51029, 39.832487], [119.509773, 39.831431], [119.509428, 39.830211], [119.508652, 39.829352], [119.506626, 39.826955], [119.504988, 39.827082], [119.503739, 39.827111], [119.502962, 39.829349], [119.500291, 39.829426], [119.498739, 39.829578], [119.497701, 39.829595], [119.497586, 39.8296], [119.496314, 39.829703], [119.495127, 39.830044], [119.491883, 39.831351], [119.491239, 39.831501], [119.490872, 39.831574], [119.490428, 39.831611], [119.489975, 39.831758], [119.488063, 39.832464], [119.487654, 39.832579], [119.487158, 39.831834], [119.486684, 39.831189], [119.486145, 39.830595], [119.485693, 39.830017], [119.485111, 39.829373], [119.484573, 39.828827], [119.484012, 39.828348], [119.483452, 39.827835], [119.482978, 39.827093], [119.482676, 39.826333], [119.482806, 39.82551], [119.483172, 39.824803], [119.48369, 39.824178], [119.484314, 39.823751], [119.484918, 39.823242], [119.485328, 39.822733], [119.485565, 39.822206], [119.485629, 39.821679], [119.485543, 39.821086], [119.485134, 39.820244], [119.48438, 39.818874], [119.484078, 39.818264], [119.483626, 39.817472], [119.483217, 39.816629], [119.483217, 39.816003], [119.483195, 39.815459], [119.48313, 39.814701], [119.482937, 39.81386], [119.482592, 39.812705], [119.482424, 39.812153], [119.482241, 39.804118]], [[119.495992, 39.821637], [119.496229, 39.821579], [119.496908, 39.821268], [119.497672, 39.820892], [119.498373, 39.820433], [119.498697, 39.820137], [119.496229, 39.82013], [119.496304, 39.820427], [119.496336, 39.820921], [119.495992, 39.821637]], [[119.497013, 39.822938], [119.497034, 39.823597], [119.497228, 39.824322], [119.497982, 39.824357], [119.500353, 39.824365], [119.500677, 39.824332], [119.500181, 39.823144], [119.499534, 39.821676], [119.498932, 39.820224], [119.49766, 39.821028], [119.498069, 39.822133], [119.497702, 39.822165], [119.497077, 39.822542], [119.497013, 39.822938]], [[119.497816, 39.824846], [119.497837, 39.826568], [119.499109, 39.826588], [119.501515, 39.8267], [119.501168, 39.825705], [119.501049, 39.82535], [119.500915, 39.825162], [119.500517, 39.825153], [119.500085, 39.825169], [119.500064, 39.825004], [119.500064, 39.824748], [119.499482, 39.824755], [119.498664, 39.824741], [119.49821, 39.824713], [119.497834, 39.824718], [119.497816, 39.824846]], [[119.510905, 39.828583], [119.511002, 39.828693], [119.511153, 39.828742], [119.51168, 39.828901], [119.512176, 39.829025], [119.512457, 39.829076], [119.512715, 39.829184], [119.512974, 39.829259], [119.51319, 39.829424], [119.513674, 39.829368], [119.514601, 39.829156], [119.514945, 39.828671], [119.514989, 39.828285], [119.517215, 39.828132], [119.517194, 39.827094], [119.517233, 39.826648], [119.516619, 39.826637], [119.516614, 39.826192], [119.515248, 39.826026], [119.515173, 39.825983], [119.514742, 39.825842], [119.513996, 39.825674], [119.513704, 39.826357], [119.513268, 39.826331], [119.513344, 39.8261], [119.513096, 39.826038], [119.51329, 39.825462], [119.512652, 39.825309], [119.512242, 39.825283], [119.511919, 39.826114], [119.511574, 39.826913], [119.510905, 39.828583]], [[119.515005, 39.825796], [119.515199, 39.825903], [119.515549, 39.825974], [119.515959, 39.826079], [119.516406, 39.826121], [119.516778, 39.826126], [119.51709, 39.826098], [119.517176, 39.825999], [119.517198, 39.825913], [119.517241, 39.825814], [119.517268, 39.825686], [119.517317, 39.825604], [119.517451, 39.825576], [119.517656, 39.825576], [119.517661, 39.825201], [119.51744, 39.825176], [119.516966, 39.825167], [119.516784, 39.825129], [119.516762, 39.825043], [119.516762, 39.824911], [119.516805, 39.824717], [119.516821, 39.824544], [119.516794, 39.824396], [119.516724, 39.824326], [119.516568, 39.824267], [119.515749, 39.824199], [119.515647, 39.82431], [119.515528, 39.824639], [119.51542, 39.824816], [119.515269, 39.825146], [119.515064, 39.82561], [119.515005, 39.825796]], [[119.518538, 39.826476], [119.518543, 39.826752], [119.518648, 39.826768], [119.518848, 39.826756], [119.518826, 39.827107], [119.518912, 39.827135], [119.519063, 39.827152], [119.519204, 39.827112], [119.519473, 39.827084], [119.51979, 39.826985], [119.520099, 39.826966], [119.520072, 39.826846], [119.520163, 39.826616], [119.520346, 39.826451], [119.520307, 39.826266], [119.519349, 39.826259], [119.518634, 39.826303], [119.518564, 39.826406], [119.518538, 39.826476]], [[119.518787, 39.825131], [119.518912, 39.826062], [119.519159, 39.826092], [119.5196, 39.826101], [119.52084, 39.826096], [119.52105, 39.826043], [119.520958, 39.825895], [119.520904, 39.825759], [119.520742, 39.825461], [119.520635, 39.825309], [119.520516, 39.825206], [119.520145, 39.825213], [119.519892, 39.8252], [119.519719, 39.825154], [119.519488, 39.825125], [119.518857, 39.82509], [119.518787, 39.825131]]]}, "properties": {"display_name": "东山街道, 北戴河区, 秦皇岛市, 河北省, 中国", "type": "administrative", "osm_type": "relation", "osm_id": 9763185, "class": null, "keyword": "subdistrict"}}, {"type": "Feature", "geometry": {"type": "Polygon", "coordinates": [[[119.613261, 39.931168], [119.619453, 39.929682], [119.620235, 39.929493], [119.619248, 39.928036], [119.618862, 39.926621], [119.618647, 39.925297], [119.618668, 39.924712], [119.618808, 39.924202], [119.619087, 39.923569], [119.619344, 39.923231], [119.619816, 39.922688], [119.620364, 39.922236], [119.624205, 39.91971], [119.625793, 39.919084], [119.629784, 39.918229], [119.633833, 39.9054], [119.653129, 39.908946], [119.677505, 39.911185], [119.704628, 39.91395], [119.716164, 39.915505], [119.713554, 39.924482], [119.712331, 39.934404], [119.712481, 39.937859], [119.714348, 39.937859], [119.714134, 39.941923], [119.714016, 39.942384], [119.713651, 39.942894], [119.710427, 39.945787], [119.70996, 39.94556], [119.704816, 39.942934], [119.697615, 39.942879], [119.688175, 39.94285], [119.684332, 39.942838], [119.666948, 39.942807], [119.638568, 39.942123], [119.617776, 39.941623], [119.613261, 39.931168]]]}, "properties": {"display_name": "河东街道, 海港区, 秦皇岛市, 河北省, 中国", "type": "administrative", "osm_type": "relation", "osm_id": 9760858, "class": null, "keyword": "subdistrict"}}, {"type": "Feature", "geometry": {"type": "Polygon", "coordinates": [[[119.405704, 39.91658], [119.408086, 39.913387], [119.414352, 39.912284], [119.425941, 39.91368], [119.427159, 39.913842], [119.43104, 39.914355], [119.436104, 39.915025], [119.439618, 39.911708], [119.442223, 39.908831], [119.44507, 39.907389], [119.443535, 39.905484], [119.444037, 39.903971], [119.448569, 39.902448], [119.452857, 39.903219], [119.453322, 39.904617], [119.455239, 39.905716], [119.455742, 39.906903], [119.455027, 39.907769], [119.456487, 39.908982], [119.458449, 39.911151], [119.458072, 39.911792], [119.458697, 39.911859], [119.459536, 39.911976], [119.460419, 39.912209], [119.46253, 39.91223], [119.46421, 39.912433], [119.464727, 39.912565], [119.465524, 39.912946], [119.466148, 39.912947], [119.466816, 39.91285], [119.46645, 39.914215], [119.467053, 39.915467], [119.472395, 39.915942], [119.473451, 39.914678], [119.474464, 39.914187], [119.479462, 39.914152], [119.485309, 39.916421], [119.487243, 39.91717], [119.493633, 39.919703], [119.49582, 39.92057], [119.495986, 39.920558], [119.497782, 39.920411], [119.498794, 39.920513], [119.500519, 39.920814], [119.501382, 39.920833], [119.506878, 39.922215], [119.507222, 39.921146], [119.512072, 39.916865], [119.514444, 39.918755], [119.515325, 39.919458], [119.517266, 39.918098], [119.518278, 39.916833], [119.519226, 39.916277], [119.519335, 39.916803], [119.519787, 39.916969], [119.520454, 39.918271], [119.521209, 39.91796], [119.522717, 39.918904], [119.52414, 39.918891], [119.526056, 39.920098], [119.526433, 39.920208], [119.523809, 39.922561], [119.521844, 39.921238], [119.519396, 39.923545], [119.521021, 39.925145], [119.518153, 39.927729], [119.515625, 39.93076], [119.507943, 39.926729], [119.501905, 39.933697], [119.508966, 39.938281], [119.507381, 39.941326], [119.5069, 39.942464], [119.506579, 39.94351], [119.506458, 39.94454], [119.506498, 39.945417], [119.50659, 39.946589], [119.506538, 39.948827], [119.506257, 39.948975], [119.50643, 39.951788], [119.506989, 39.95281], [119.505998, 39.952445], [119.50492, 39.953691], [119.502894, 39.953093], [119.499316, 39.952952], [119.487956, 39.948838], [119.478012, 39.944444], [119.47611, 39.942596], [119.473933, 39.940989], [119.467582, 39.942858], [119.458211, 39.941185], [119.455929, 39.938781], [119.437984, 39.939172], [119.437202, 39.932927], [119.426411, 39.937955], [119.426068, 39.936523], [119.423772, 39.936885], [119.4186, 39.935454], [119.416026, 39.93422], [119.409696, 39.929794], [119.413236, 39.924249], [119.409052, 39.923524], [119.410275, 39.918917], [119.405704, 39.91658]]]}, "properties": {"display_name": "腾飞路街道, 海港区, 秦皇岛市, 河北省, 066300, 中国", "type": "administrative", "osm_type": "relation", "osm_id": 9760863, "class": null, "keyword": "subdistrict"}}, {"type": "Feature", "geometry": {"type": "MultiPolygon", "coordinates": [[[[119.339437, 39.721832], [119.342057, 39.720753], [119.343711, 39.720474], [119.344595, 39.720298], [119.344988, 39.720194], [119.356435, 39.715796], [119.372141, 39.729452], [119.355662, 39.741595], [119.353343, 39.743681], [119.351709, 39.746154], [119.34502, 39.743955], [119.344152, 39.74262], [119.344662, 39.732058], [119.344509, 39.730448], [119.342926, 39.727267], [119.339437, 39.721832]]], [[[119.386413, 39.786912], [119.389783, 39.785326], [119.392491, 39.783272], [119.394947, 39.782717], [119.398167, 39.784725], [119.398196, 39.784743], [119.399316, 39.785548], [119.40319, 39.78524], [119.40731, 39.783608], [119.413061, 39.779453], [119.416022, 39.777243], [119.417224, 39.775693], [119.423446, 39.766853], [119.439239, 39.776617], [119.459959, 39.792701], [119.44808, 39.798975], [119.443761, 39.800505], [119.438213, 39.802162], [119.437412, 39.802453], [119.4296, 39.804606], [119.428808, 39.804471], [119.425698, 39.80394], [119.422501, 39.803394], [119.420057, 39.803673], [119.418168, 39.805025], [119.417572, 39.805452], [119.416609, 39.807066], [119.416448, 39.807336], [119.41633, 39.807534], [119.415324, 39.807805], [119.413372, 39.808331], [119.412066, 39.808684], [119.407971, 39.808414], [119.405684, 39.808706], [119.405346, 39.808749], [119.405113, 39.809258], [119.404956, 39.809601], [119.404443, 39.810722], [119.404979, 39.811785], [119.405131, 39.811897], [119.407706, 39.814067], [119.40679, 39.815045], [119.406169, 39.815457], [119.404878, 39.816102], [119.404099, 39.81642], [119.40075, 39.815634], [119.398302, 39.814353], [119.394076, 39.813735], [119.3875, 39.813567], [119.387597, 39.811434], [119.387938, 39.809769], [119.388632, 39.807851], [119.388839, 39.806616], [119.38722, 39.80541], [119.387183, 39.804324], [119.389181, 39.803514], [119.390876, 39.803218], [119.392657, 39.801899], [119.39358, 39.799871], [119.393, 39.795601], [119.392078, 39.792766], [119.386413, 39.786912]]]]}, "properties": {"display_name": "南戴河街道, 抚宁区, 秦皇岛市, 河北省, 中国", "type": "administrative", "osm_type": "relation", "osm_id": 9762827, "class": null, "keyword": "subdistrict"}}, {"type": "Feature", "geometry": {"type": "MultiPolygon", "coordinates": [[[[119.510154, 39.911788], [119.510327, 39.907229], [119.51425, 39.903076], [119.51494, 39.902351], [119.516189, 39.901041], [119.516492, 39.900647], [119.517182, 39.899497], [119.51813, 39.897771], [119.518712, 39.896571], [119.519272, 39.896787], [119.519595, 39.896771], [119.519983, 39.89646], [119.520177, 39.896377], [119.5205, 39.896395], [119.521061, 39.894471], [119.522138, 39.894819], [119.523143, 39.895366], [119.522454, 39.89459], [119.522045, 39.894112], [119.520881, 39.892397], [119.520408, 39.891637], [119.520148, 39.891259], [119.519524, 39.890072], [119.518425, 39.887896], [119.518231, 39.8875], [119.518533, 39.886974], [119.518899, 39.886827], [119.519459, 39.886796], [119.520472, 39.886964], [119.521614, 39.887296], [119.522368, 39.887709], [119.523701, 39.888608], [119.526462, 39.89047], [119.530792, 39.893411], [119.533954, 39.895475], [119.532184, 39.897192], [119.530583, 39.898719], [119.531308, 39.899075], [119.534734, 39.901025], [119.537059, 39.902677], [119.538869, 39.904426], [119.537899, 39.904704], [119.537404, 39.905147], [119.537705, 39.906102], [119.537791, 39.90686], [119.537339, 39.907385], [119.536995, 39.907533], [119.536693, 39.908009], [119.538049, 39.908588], [119.539513, 39.909333], [119.541927, 39.906803], [119.540333, 39.905582], [119.539019, 39.904213], [119.539472, 39.903341], [119.539773, 39.902749], [119.540119, 39.902371], [119.540743, 39.902159], [119.540613, 39.901913], [119.540269, 39.901895], [119.538654, 39.901331], [119.538116, 39.901128], [119.537384, 39.900835], [119.538655, 39.898368], [119.538762, 39.898171], [119.534664, 39.895402], [119.534305, 39.895155], [119.534556, 39.894906], [119.534772, 39.894678], [119.534979, 39.894389], [119.535064, 39.894231], [119.535194, 39.893912], [119.535245, 39.893741], [119.535278, 39.893544], [119.53528, 39.893334], [119.535269, 39.893197], [119.535231, 39.892943], [119.535161, 39.892708], [119.535059, 39.892481], [119.534939, 39.89231], [119.534526, 39.891846], [119.533937, 39.89127], [119.533354, 39.890652], [119.53195, 39.889244], [119.53107, 39.888345], [119.530738, 39.887868], [119.530545, 39.887509], [119.530124, 39.886614], [119.531669, 39.885959], [119.55078, 39.872441], [119.553566, 39.877007], [119.556913, 39.881223], [119.561119, 39.88478], [119.567642, 39.88827], [119.577873, 39.891298], [119.57468, 39.895613], [119.573779, 39.89716], [119.573135, 39.898938], [119.570882, 39.910246], [119.568093, 39.912798], [119.566956, 39.915497], [119.566355, 39.91655], [119.565411, 39.917554], [119.563485, 39.919258], [119.56248, 39.920222], [119.561684, 39.920749], [119.560726, 39.921117], [119.560083, 39.921221], [119.55907, 39.921263], [119.557406, 39.921783], [119.556908, 39.922109], [119.555805, 39.923386], [119.555389, 39.923621], [119.554674, 39.923663], [119.553679, 39.923614], [119.552277, 39.923379], [119.551237, 39.923337], [119.550251, 39.923441], [119.549446, 39.923642], [119.548351, 39.924128], [119.547311, 39.924391], [119.546524, 39.924412], [119.544687, 39.924329], [119.543982, 39.924509], [119.543041, 39.925023], [119.542073, 39.925342], [119.541041, 39.923671], [119.544943, 39.92249], [119.543178, 39.919706], [119.543587, 39.919657], [119.547677, 39.919682], [119.547765, 39.919683], [119.549261, 39.919657], [119.552845, 39.919595], [119.553039, 39.919858], [119.553448, 39.919875], [119.55362, 39.920122], [119.553943, 39.920271], [119.554351, 39.920634], [119.554847, 39.920685], [119.554868, 39.921145], [119.555041, 39.921392], [119.555407, 39.921689], [119.557537, 39.921117], [119.557257, 39.920425], [119.557838, 39.92018], [119.55814, 39.920459], [119.558836, 39.920127], [119.559409, 39.919853], [119.560162, 39.9202], [119.560679, 39.91974], [119.561195, 39.919215], [119.562185, 39.918919], [119.560463, 39.917862], [119.553685, 39.913753], [119.55364, 39.913728], [119.551253, 39.912366], [119.552631, 39.91097], [119.551017, 39.910078], [119.549768, 39.91147], [119.546835, 39.909612], [119.546318, 39.910023], [119.547137, 39.910551], [119.546706, 39.910863], [119.545027, 39.909839], [119.54522, 39.910893], [119.543283, 39.910872], [119.543261, 39.911678], [119.545048, 39.913081], [119.544294, 39.913458], [119.543777, 39.91372], [119.542937, 39.913817], [119.542249, 39.913487], [119.541602, 39.913468], [119.540719, 39.913614], [119.540206, 39.913079], [119.537964, 39.910744], [119.537016, 39.910561], [119.53609, 39.910591], [119.535917, 39.911118], [119.535573, 39.911331], [119.534409, 39.911262], [119.533247, 39.911309], [119.534966, 39.913868], [119.533986, 39.914829], [119.533125, 39.915329], [119.532176, 39.916067], [119.528255, 39.918838], [119.526295, 39.916108], [119.525713, 39.915186], [119.524323, 39.912935], [119.524518, 39.912755], [119.524604, 39.9125], [119.524906, 39.912394], [119.524873, 39.912089], [119.526348, 39.911468], [119.526025, 39.910709], [119.525614, 39.910206], [119.525487, 39.91005], [119.52497, 39.909612], [119.524346, 39.909224], [119.52358, 39.908876], [119.522751, 39.908627], [119.521932, 39.908509], [119.521059, 39.908473], [119.519938, 39.908672], [119.5193, 39.908899], [119.518603, 39.909146], [119.517762, 39.909802], [119.516835, 39.910803], [119.516533, 39.912069], [119.516641, 39.913124], [119.517395, 39.914426], [119.515025, 39.914962], [119.512417, 39.914855], [119.511598, 39.914277], [119.511447, 39.913404], [119.512137, 39.911992], [119.510154, 39.911788]]], [[[119.536074, 39.957138], [119.537685, 39.953179], [119.538063, 39.952231], [119.538723, 39.951431], [119.539197, 39.951374], [119.53924, 39.951703], [119.541028, 39.952052], [119.54236, 39.952128], [119.542373, 39.952228], [119.542136, 39.952672], [119.541965, 39.952909], [119.54138, 39.953694], [119.540694, 39.954698], [119.538585, 39.957807], [119.536074, 39.957138]]], [[[119.539677, 39.948716], [119.539808, 39.946631], [119.543124, 39.946835], [119.544136, 39.946838], [119.544442, 39.950304], [119.542846, 39.950305], [119.540238, 39.950254], [119.539677, 39.948716]]], [[[119.55271, 39.968829], [119.553549, 39.967193], [119.553948, 39.967252], [119.555766, 39.967896], [119.55709, 39.968426], [119.557509, 39.967677], [119.558843, 39.967705], [119.558799, 39.969062], [119.558176, 39.96892], [119.557823, 39.969622], [119.557024, 39.971211], [119.555668, 39.970437], [119.555033, 39.970016], [119.554915, 39.969819], [119.553549, 39.969273], [119.55329, 39.96915], [119.553086, 39.96896], [119.55271, 39.968829]]], [[[119.55519, 39.965621], [119.55547, 39.962941], [119.557601, 39.963554], [119.558677, 39.963802], [119.558956, 39.963835], [119.558784, 39.965151], [119.557687, 39.96533], [119.557346, 39.965397], [119.556782, 39.965509], [119.55519, 39.965621]]], [[[119.557451, 39.95806], [119.558161, 39.95635], [119.561194, 39.957358], [119.56042, 39.958887], [119.557451, 39.95806]]], [[[119.564407, 39.964348], [119.56445, 39.963494], [119.564514, 39.963132], [119.564698, 39.962564], [119.56516, 39.96273], [119.566192, 39.96278], [119.566279, 39.961941], [119.567945, 39.961961], [119.567881, 39.962322], [119.567397, 39.963514], [119.56709, 39.964143], [119.566988, 39.964352], [119.564407, 39.964348]]]]}, "properties": {"display_name": "白塔岭街道, 海港区, 秦皇岛市, 河北省, 066004, 中国", "type": "administrative", "osm_type": "relation", "osm_id": 9760848, "class": null, "keyword": "subdistrict"}}, {"type": "Feature", "geometry": {"type": "Polygon", "coordinates": [[[119.568207, 39.919615], [119.568543, 39.91887], [119.569359, 39.916599], [119.570882, 39.910246], [119.573135, 39.898938], [119.573779, 39.89716], [119.57468, 39.895613], [119.577873, 39.891298], [119.611931, 39.901375], [119.633833, 39.9054], [119.629784, 39.918229], [119.625793, 39.919084], [119.624205, 39.91971], [119.620364, 39.922236], [119.619816, 39.922688], [119.619344, 39.923231], [119.619087, 39.923569], [119.618808, 39.924202], [119.618668, 39.924712], [119.618647, 39.925297], [119.618862, 39.926621], [119.619248, 39.928036], [119.620235, 39.929493], [119.619453, 39.929682], [119.613261, 39.931168], [119.612615, 39.929767], [119.612235, 39.929198], [119.611855, 39.928699], [119.61134, 39.928179], [119.610924, 39.927846], [119.610128, 39.927346], [119.609639, 39.92709], [119.609142, 39.926868], [119.608572, 39.926667], [119.607685, 39.926458], [119.606663, 39.926313], [119.605903, 39.926271], [119.605035, 39.926313], [119.60432, 39.926403], [119.60195, 39.926986], [119.601218, 39.927138], [119.600575, 39.927228], [119.599951, 39.927249], [119.598386, 39.927194], [119.595953, 39.927201], [119.584881, 39.927055], [119.582493, 39.926888], [119.581787, 39.926812], [119.581081, 39.92668], [119.579743, 39.926333], [119.579064, 39.926098], [119.578232, 39.925751], [119.577626, 39.925466], [119.577223, 39.92525], [119.572868, 39.922608], [119.568807, 39.920021], [119.568207, 39.919615]]]}, "properties": {"display_name": "海滨路街道, 海港区, 秦皇岛市, 河北省, 中国", "type": "administrative", "osm_type": "relation", "osm_id": 9760855, "class": null, "keyword": "subdistrict"}}, {"type": "Feature", "geometry": {"type": "Polygon", "coordinates": [[[119.421337, 39.80734], [119.421938, 39.805709], [119.423336, 39.805365], [119.427743, 39.805583], [119.429376, 39.805602], [119.42957, 39.805124], [119.4296, 39.804606], [119.437412, 39.802453], [119.438213, 39.802162], [119.443761, 39.800505], [119.44808, 39.798975], [119.459959, 39.792701], [119.469023, 39.799832], [119.473658, 39.802206], [119.478893, 39.803789], [119.482241, 39.804118], [119.482424, 39.812153], [119.482592, 39.812705], [119.482937, 39.81386], [119.48313, 39.814701], [119.483195, 39.815459], [119.483217, 39.816003], [119.483217, 39.816629], [119.483626, 39.817472], [119.484078, 39.818264], [119.48438, 39.818874], [119.485134, 39.820244], [119.485543, 39.821086], [119.485629, 39.821679], [119.485565, 39.822206], [119.485328, 39.822733], [119.484918, 39.823242], [119.484314, 39.823751], [119.48369, 39.824178], [119.483172, 39.824803], [119.482806, 39.82551], [119.482676, 39.826333], [119.482978, 39.827093], [119.483452, 39.827835], [119.484012, 39.828348], [119.484573, 39.828827], [119.485111, 39.829373], [119.485693, 39.830017], [119.486145, 39.830595], [119.486684, 39.831189], [119.487158, 39.831834], [119.487654, 39.832579], [119.487222, 39.832759], [119.486814, 39.832824], [119.486025, 39.83305], [119.484387, 39.832914], [119.482879, 39.832712], [119.481393, 39.832559], [119.480056, 39.832292], [119.478483, 39.832387], [119.477061, 39.832514], [119.476302, 39.832718], [119.475726, 39.832873], [119.474712, 39.833166], [119.473915, 39.833445], [119.47299, 39.833739], [119.472236, 39.834016], [119.471482, 39.834229], [119.47105, 39.83431], [119.470533, 39.834457], [119.469801, 39.834505], [119.469047, 39.834601], [119.46825, 39.834682], [119.467517, 39.834746], [119.466957, 39.834745], [119.466634, 39.834579], [119.466461, 39.834298], [119.466225, 39.834067], [119.465695, 39.833784], [119.465005, 39.833667], [119.464553, 39.833666], [119.46408, 39.833647], [119.463791, 39.8336], [119.463554, 39.833879], [119.463037, 39.834026], [119.462886, 39.833745], [119.462886, 39.833334], [119.462973, 39.83312], [119.462757, 39.832691], [119.46293, 39.83228], [119.462844, 39.831752], [119.462586, 39.831455], [119.462154, 39.830992], [119.461853, 39.83053], [119.461637, 39.829821], [119.461034, 39.82977], [119.460561, 39.829242], [119.460065, 39.828779], [119.459031, 39.828678], [119.458343, 39.82889], [119.457524, 39.828724], [119.456641, 39.828442], [119.456319, 39.828403], [119.455867, 39.828291], [119.4552, 39.828323], [119.454618, 39.828141], [119.453498, 39.828154], [119.452271, 39.827988], [119.45154, 39.827656], [119.450593, 39.82739], [119.449795, 39.827373], [119.449171, 39.827272], [119.448611, 39.826909], [119.448031, 39.826644], [119.447299, 39.826742], [119.446675, 39.826873], [119.446222, 39.827036], [119.446222, 39.827333], [119.446201, 39.827811], [119.44618, 39.828255], [119.445943, 39.828766], [119.445427, 39.828798], [119.444824, 39.828945], [119.444243, 39.828812], [119.443468, 39.828728], [119.442715, 39.828677], [119.441903, 39.82852], [119.441785, 39.828001], [119.441646, 39.827539], [119.441269, 39.827102], [119.441086, 39.826715], [119.440829, 39.82636], [119.440441, 39.826006], [119.440087, 39.82542], [119.43943, 39.82486], [119.438818, 39.824372], [119.438538, 39.824125], [119.438086, 39.823827], [119.437807, 39.823538], [119.437592, 39.823101], [119.437258, 39.822796], [119.437429, 39.822384], [119.437429, 39.822121], [119.437408, 39.821857], [119.437429, 39.821544], [119.437429, 39.821346], [119.437365, 39.820901], [119.437688, 39.820869], [119.437989, 39.820704], [119.438225, 39.820408], [119.438527, 39.820293], [119.438698, 39.820244], [119.439171, 39.820212], [119.43943, 39.820031], [119.43943, 39.819701], [119.438957, 39.819503], [119.438462, 39.819338], [119.438462, 39.819156], [119.438247, 39.818908], [119.438139, 39.818809], [119.437882, 39.818743], [119.437472, 39.818726], [119.437279, 39.818676], [119.436978, 39.818643], [119.436935, 39.818511], [119.437086, 39.818314], [119.437559, 39.818314], [119.437968, 39.818348], [119.438247, 39.818348], [119.438677, 39.818349], [119.439237, 39.81835], [119.43943, 39.818218], [119.439538, 39.818104], [119.439624, 39.817873], [119.439581, 39.817708], [119.439731, 39.817576], [119.439881, 39.817659], [119.440161, 39.81766], [119.440506, 39.817561], [119.440657, 39.817413], [119.440786, 39.817249], [119.441109, 39.8171], [119.44141, 39.817101], [119.441625, 39.817068], [119.441753, 39.816887], [119.44171, 39.816623], [119.441862, 39.816344], [119.441947, 39.815932], [119.442012, 39.814565], [119.442056, 39.814334], [119.441864, 39.814104], [119.441714, 39.813659], [119.441735, 39.813214], [119.441714, 39.812868], [119.442251, 39.812886], [119.44279, 39.812902], [119.44322, 39.812936], [119.443971, 39.812915], [119.443977, 39.81247], [119.444207, 39.811306], [119.444034, 39.811009], [119.44432, 39.810127], [119.444401, 39.809407], [119.444722, 39.809438], [119.444937, 39.808921], [119.446088, 39.809227], [119.446384, 39.808643], [119.444538, 39.807882], [119.44399, 39.807527], [119.443465, 39.80725], [119.443242, 39.807099], [119.442476, 39.807392], [119.4414, 39.807308], [119.44112, 39.807307], [119.441098, 39.807752], [119.441248, 39.808197], [119.44127, 39.809434], [119.440022, 39.809432], [119.440044, 39.810536], [119.44041, 39.810553], [119.441011, 39.810538], [119.44155, 39.810522], [119.441527, 39.812483], [119.441442, 39.812977], [119.440796, 39.814047], [119.440226, 39.813742], [119.43986, 39.813659], [119.439839, 39.813147], [119.439839, 39.812422], [119.439871, 39.811031], [119.439678, 39.810758], [119.439667, 39.810527], [119.439108, 39.810519], [119.439183, 39.811038], [119.439183, 39.811498], [119.439194, 39.81192], [119.439237, 39.812043], [119.439226, 39.812331], [119.439215, 39.812703], [119.439171, 39.812833], [119.439011, 39.813048], [119.438495, 39.81303], [119.437624, 39.813013], [119.435257, 39.81277], [119.435214, 39.812152], [119.435204, 39.811534], [119.435182, 39.81127], [119.434666, 39.811245], [119.434655, 39.810932], [119.434741, 39.809885], [119.434903, 39.806589], [119.434914, 39.805881], [119.432645, 39.805812], [119.432054, 39.805836], [119.431741, 39.808836], [119.430988, 39.810877], [119.430687, 39.811041], [119.429569, 39.811238], [119.426, 39.810937], [119.4234, 39.810572], [119.421337, 39.80734]], [[119.464455, 39.82959], [119.464842, 39.829854], [119.464778, 39.831023], [119.4651, 39.831156], [119.465035, 39.831617], [119.465832, 39.83218], [119.465832, 39.832163], [119.465832, 39.832147], [119.467103, 39.831837], [119.467276, 39.831211], [119.469279, 39.831299], [119.469344, 39.82797], [119.467233, 39.827438], [119.466414, 39.827831], [119.466177, 39.828588], [119.464713, 39.828601], [119.464455, 39.82959]], [[119.469206, 39.821967], [119.469669, 39.822134], [119.470208, 39.821607], [119.471135, 39.821419], [119.47093, 39.822054], [119.471242, 39.822351], [119.471226, 39.823807], [119.471205, 39.824129], [119.471356, 39.824195], [119.471948, 39.824204], [119.472724, 39.824255], [119.47366, 39.824299], [119.473596, 39.823649], [119.474059, 39.823608], [119.474285, 39.823766], [119.474328, 39.82403], [119.474403, 39.824417], [119.474964, 39.824394], [119.47547, 39.824321], [119.476203, 39.824274], [119.476677, 39.824233], [119.476893, 39.824308], [119.478444, 39.823686], [119.478536, 39.823656], [119.478595, 39.823637], [119.478616, 39.82363], [119.478164, 39.821503], [119.478041, 39.82086], [119.478611, 39.820809], [119.479301, 39.820766], [119.479253, 39.820642], [119.479484, 39.820602], [119.479586, 39.820569], [119.479688, 39.820688], [119.479936, 39.82064], [119.480313, 39.82053], [119.480771, 39.820366], [119.480297, 39.819409], [119.48019, 39.819182], [119.481105, 39.819197], [119.481584, 39.81919], [119.481272, 39.818646], [119.480664, 39.818569], [119.479716, 39.818505], [119.479403, 39.818611], [119.478973, 39.819145], [119.477077, 39.818843], [119.47706, 39.81884], [119.477057, 39.819188], [119.477055, 39.819383], [119.477119, 39.819705], [119.47711, 39.819929], [119.477103, 39.820121], [119.476931, 39.820445], [119.476893, 39.820874], [119.474954, 39.821008], [119.471361, 39.820984], [119.470692, 39.820282], [119.469917, 39.82], [119.469745, 39.820955], [119.469206, 39.821967]], [[119.470809, 39.827793], [119.470809, 39.827809], [119.470873, 39.829161], [119.471584, 39.829146], [119.472704, 39.8291], [119.472618, 39.827749], [119.471756, 39.827796], [119.470809, 39.827793]], [[119.472715, 39.820179], [119.472791, 39.820311], [119.472941, 39.82078], [119.472984, 39.820963], [119.47349, 39.820964], [119.473501, 39.820955], [119.47349, 39.820898], [119.473458, 39.820708], [119.473404, 39.820576], [119.473253, 39.820509], [119.4732, 39.820262], [119.472715, 39.820179]], [[119.473868, 39.828123], [119.473879, 39.828955], [119.473879, 39.828963], [119.473879, 39.829573], [119.475355, 39.829585], [119.475366, 39.828085], [119.473868, 39.828123]], [[119.478685, 39.826354], [119.478772, 39.826552], [119.478696, 39.826749], [119.47903, 39.826857], [119.479257, 39.827245], [119.479267, 39.827236], [119.479364, 39.827229], [119.479601, 39.827114], [119.480129, 39.826943], [119.480636, 39.826828], [119.481012, 39.826706], [119.48084, 39.826409], [119.480614, 39.826087], [119.480453, 39.825798], [119.480344, 39.825634], [119.480151, 39.825418], [119.480011, 39.825328], [119.479634, 39.825319], [119.479139, 39.825473], [119.478718, 39.825596], [119.478815, 39.825909], [119.478901, 39.826214], [119.478685, 39.826354]]]}, "properties": {"display_name": "西山街道, 北戴河区, 秦皇岛市, 河北省, 中国", "type": "administrative", "osm_type": "relation", "osm_id": 9763188, "class": null, "keyword": "subdistrict"}}, {"type": "Feature", "geometry": {"type": "Polygon", "coordinates": [[[119.211979, 39.896538], [119.212429, 39.895488], [119.214081, 39.891645], [119.216206, 39.886697], [119.216946, 39.884972], [119.219242, 39.879624], [119.21952, 39.878417], [119.221775, 39.878505], [119.222499, 39.878171], [119.223688, 39.875231], [119.226867, 39.875282], [119.22648, 39.877778], [119.224352, 39.878089], [119.22229, 39.878712], [119.222446, 39.879356], [119.222462, 39.87942], [119.224718, 39.879208], [119.228477, 39.879221], [119.231876, 39.879202], [119.231731, 39.87835], [119.231398, 39.876778], [119.231054, 39.87509], [119.230444, 39.875172], [119.229852, 39.874958], [119.229413, 39.874949], [119.229004, 39.874389], [119.228875, 39.873425], [119.228414, 39.87085], [119.228661, 39.868486], [119.225905, 39.864942], [119.228588, 39.863996], [119.230317, 39.863289], [119.233563, 39.862708], [119.23836, 39.861351], [119.243019, 39.858931], [119.24546, 39.86416], [119.247842, 39.86864], [119.250224, 39.869744], [119.250073, 39.871292], [119.249129, 39.872495], [119.248335, 39.872907], [119.248249, 39.87564], [119.248634, 39.877847], [119.248543, 39.878499], [119.248506, 39.878769], [119.249063, 39.881667], [119.249127, 39.883395], [119.250393, 39.883131], [119.251894, 39.88383], [119.252345, 39.88541], [119.251958, 39.886233], [119.250434, 39.886793], [119.24979, 39.886973], [119.249146, 39.887533], [119.248987, 39.88765], [119.248609, 39.887928], [119.248073, 39.888323], [119.24788, 39.889114], [119.248566, 39.891343], [119.248931, 39.8921], [119.249467, 39.89289], [119.249381, 39.8934], [119.248179, 39.893631], [119.247234, 39.894355], [119.246033, 39.894948], [119.24541, 39.894273], [119.241377, 39.896397], [119.241052, 39.896569], [119.238969, 39.897308], [119.237337, 39.897842], [119.236365, 39.897796], [119.235785, 39.897202], [119.234841, 39.896363], [119.233518, 39.896598], [119.232069, 39.896855], [119.231406, 39.897069], [119.230941, 39.897221], [119.231012, 39.896527], [119.231206, 39.89572], [119.231388, 39.894757], [119.231528, 39.894132], [119.231742, 39.893869], [119.231808, 39.893144], [119.231926, 39.892453], [119.231926, 39.892124], [119.232076, 39.891004], [119.232108, 39.890865], [119.231722, 39.890922], [119.230852, 39.890947], [119.229649, 39.890979], [119.228607, 39.891035], [119.227941, 39.891109], [119.227941, 39.89078], [119.227898, 39.890073], [119.227866, 39.8898], [119.227834, 39.889339], [119.227812, 39.888756], [119.227769, 39.888179], [119.227801, 39.887464], [119.227963, 39.885455], [119.225084, 39.885378], [119.22314, 39.885303], [119.222463, 39.885277], [119.220798, 39.885135], [119.220121, 39.88516], [119.219993, 39.887381], [119.219938, 39.891557], [119.219906, 39.893901], [119.219777, 39.898773], [119.219745, 39.900755], [119.218426, 39.901155], [119.215417, 39.901612], [119.211979, 39.896538]], [[119.242202, 39.885519], [119.246848, 39.884053], [119.24669, 39.882152], [119.246539, 39.880762], [119.243438, 39.880935], [119.243534, 39.882005], [119.243501, 39.883116], [119.242879, 39.88352], [119.242729, 39.883849], [119.242536, 39.883997], [119.242611, 39.884786], [119.242202, 39.885519]]]}, "properties": {"display_name": "骊城街道, 抚宁区, 秦皇岛市, 河北省, 中国", "type": "administrative", "osm_type": "relation", "osm_id": 9762826, "class": null, "keyword": "subdistrict"}}, {"type": "Feature", "geometry": {"type": "Polygon", "coordinates": [[[119.607932, 39.964041], [119.609179, 39.963532], [119.610066, 39.963068], [119.610871, 39.962582], [119.611649, 39.962034], [119.612545, 39.96141], [119.614825, 39.959746], [119.614264, 39.95951], [119.613088, 39.959399], [119.608646, 39.959233], [119.608998, 39.953102], [119.609469, 39.945043], [119.610537, 39.945029], [119.61079, 39.945071], [119.610989, 39.945237], [119.611631, 39.945951], [119.611821, 39.946049], [119.614264, 39.946555], [119.614572, 39.94541], [119.613513, 39.945376], [119.613495, 39.944946], [119.609469, 39.944932], [119.6096, 39.943235], [119.60974, 39.941408], [119.615024, 39.941568], [119.617776, 39.941623], [119.638568, 39.942123], [119.666948, 39.942807], [119.666925, 39.948872], [119.667033, 39.949365], [119.664162, 39.948959], [119.660157, 39.948588], [119.651287, 39.94839], [119.638128, 39.948117], [119.638103, 39.950832], [119.637437, 39.95088], [119.63722, 39.950652], [119.636622, 39.950346], [119.636269, 39.950242], [119.636215, 39.953253], [119.633718, 39.953266], [119.63237, 39.958094], [119.629909, 39.958052], [119.629487, 39.968804], [119.628715, 39.968607], [119.623012, 39.967561], [119.619579, 39.966972], [119.618507, 39.966545], [119.61679, 39.965889], [119.614732, 39.965134], [119.612286, 39.964643], [119.608853, 39.964184], [119.607932, 39.964041]], [[119.623566, 39.95328], [119.623995, 39.953888], [119.624585, 39.954471], [119.625281, 39.954972], [119.626214, 39.955472], [119.627135, 39.956072], [119.6275, 39.95631], [119.628797, 39.956349], [119.628855, 39.955903], [119.630041, 39.955937], [119.6301, 39.953373], [119.625275, 39.953282], [119.624156, 39.953181], [119.623566, 39.95328]], [[119.624266, 39.951213], [119.625916, 39.951211], [119.626367, 39.950471], [119.624909, 39.949831], [119.624277, 39.94984], [119.624266, 39.951213]], [[119.631418, 39.945584], [119.63213, 39.947036], [119.635029, 39.94715], [119.635147, 39.945299], [119.634313, 39.945248], [119.633961, 39.945026], [119.632854, 39.945022], [119.632658, 39.945229], [119.631436, 39.945216], [119.631418, 39.945584]]]}, "properties": {"display_name": "东环路街道, 海港区, 秦皇岛市, 河北省, 中国", "type": "administrative", "osm_type": "relation", "osm_id": 9760852, "class": null, "keyword": "subdistrict"}}, {"type": "Feature", "geometry": {"type": "Polygon", "coordinates": [[[119.515625, 39.93076], [119.518153, 39.927729], [119.521021, 39.925145], [119.519396, 39.923545], [119.521844, 39.921238], [119.523809, 39.922561], [119.526433, 39.920208], [119.527811, 39.920326], [119.529061, 39.920643], [119.528745, 39.921281], [119.529812, 39.92151], [119.53021, 39.924438], [119.535567, 39.924091], [119.535168, 39.922905], [119.534879, 39.922468], [119.534418, 39.922051], [119.533992, 39.921809], [119.533404, 39.921593], [119.531904, 39.921291], [119.531711, 39.919794], [119.535459, 39.920132], [119.53925, 39.920569], [119.541041, 39.923671], [119.542073, 39.925342], [119.543041, 39.925023], [119.543982, 39.924509], [119.544687, 39.924329], [119.546524, 39.924412], [119.547311, 39.924391], [119.548351, 39.924128], [119.549446, 39.923642], [119.550251, 39.923441], [119.551237, 39.923337], [119.552277, 39.923379], [119.553679, 39.923614], [119.554674, 39.923663], [119.555389, 39.923621], [119.555805, 39.923386], [119.556908, 39.922109], [119.557406, 39.921783], [119.55907, 39.921263], [119.560083, 39.921221], [119.560726, 39.921117], [119.561684, 39.920749], [119.56248, 39.920222], [119.563485, 39.919258], [119.565411, 39.917554], [119.566355, 39.91655], [119.566956, 39.915497], [119.568093, 39.912798], [119.570882, 39.910246], [119.569359, 39.916599], [119.568543, 39.91887], [119.568207, 39.919615], [119.567324, 39.921573], [119.56604, 39.923484], [119.564966, 39.924583], [119.562944, 39.925525], [119.560948, 39.925937], [119.557417, 39.926114], [119.555369, 39.926703], [119.553655, 39.927468], [119.552682, 39.928371], [119.552119, 39.929882], [119.552017, 39.931197], [119.552222, 39.932825], [119.555213, 39.942679], [119.555312, 39.943296], [119.555204, 39.943948], [119.554697, 39.945044], [119.553647, 39.946466], [119.553077, 39.94716], [119.551567, 39.948318], [119.551567, 39.947232], [119.547563, 39.946122], [119.546809, 39.946466], [119.546314, 39.946481], [119.545948, 39.94686], [119.545518, 39.946859], [119.543994, 39.945833], [119.543595, 39.940888], [119.542326, 39.940416], [119.525274, 39.935679], [119.515625, 39.93076]], [[119.546942, 39.941932], [119.548889, 39.942541], [119.549383, 39.941555], [119.549427, 39.940962], [119.55003, 39.938513], [119.547963, 39.938179], [119.547859, 39.938707], [119.547315, 39.941211], [119.547147, 39.941271], [119.546942, 39.941932]]]}, "properties": {"display_name": "珠江道街道, 海港区, 秦皇岛市, 河北省, 中国", "type": "administrative", "osm_type": "relation", "osm_id": 9760869, "class": null, "keyword": "subdistrict"}}, {"type": "Feature", "geometry": {"type": "Polygon", "coordinates": [[[119.549917, 39.951059], [119.550692, 39.949152], [119.551567, 39.948318], [119.553077, 39.94716], [119.553647, 39.946466], [119.554697, 39.945044], [119.555204, 39.943948], [119.555312, 39.943296], [119.555213, 39.942679], [119.552222, 39.932825], [119.552017, 39.931197], [119.552119, 39.929882], [119.552682, 39.928371], [119.553655, 39.927468], [119.555369, 39.926703], [119.557417, 39.926114], [119.560948, 39.925937], [119.562944, 39.925525], [119.564966, 39.924583], [119.56604, 39.923484], [119.567324, 39.921573], [119.568207, 39.919615], [119.568807, 39.920021], [119.572868, 39.922608], [119.577223, 39.92525], [119.577626, 39.925466], [119.577384, 39.926505], [119.577167, 39.928039], [119.5758, 39.939281], [119.5759, 39.93942], [119.576144, 39.939531], [119.57694, 39.93975], [119.564143, 39.946352], [119.563536, 39.946734], [119.56255, 39.947477], [119.561002, 39.948857], [119.560658, 39.949204], [119.560441, 39.949523], [119.559853, 39.950856], [119.559228, 39.950634], [119.55892, 39.950453], [119.558015, 39.950099], [119.557445, 39.949843], [119.557545, 39.949239], [119.556929, 39.948864], [119.556115, 39.9486], [119.555445, 39.94969], [119.554576, 39.949614], [119.553924, 39.949829], [119.553562, 39.949843], [119.553101, 39.949815], [119.553092, 39.950509], [119.553218, 39.950925], [119.553191, 39.951563], [119.554884, 39.951993], [119.555228, 39.951702], [119.556176, 39.952083], [119.556192, 39.952087], [119.556379, 39.952139], [119.556434, 39.952154], [119.557265, 39.952382], [119.557378, 39.952414], [119.558399, 39.952702], [119.558911, 39.952847], [119.558585, 39.953561], [119.558558, 39.953628], [119.557756, 39.955537], [119.555211, 39.954424], [119.553447, 39.953795], [119.551983, 39.953267], [119.551337, 39.953265], [119.550347, 39.953592], [119.549917, 39.951059]], [[119.557719, 39.926987], [119.55773, 39.927266], [119.559322, 39.927257], [119.559343, 39.926973], [119.557719, 39.926987]], [[119.566986, 39.934571], [119.568196, 39.934585], [119.568223, 39.934038], [119.56876, 39.934097], [119.568862, 39.933023], [119.56705, 39.93293], [119.566986, 39.934571]], [[119.574612, 39.934987], [119.575246, 39.935037], [119.575257, 39.93479], [119.574623, 39.934756], [119.574612, 39.934987]]]}, "properties": {"display_name": "西港路街道, 海港区, 秦皇岛市, 河北省, 中国", "type": "administrative", "osm_type": "relation", "osm_id": 9760866, "class": null, "keyword": "subdistrict"}}, {"type": "Feature", "geometry": {"type": "MultiPolygon", "coordinates": [[[[119.501905, 39.933697], [119.507943, 39.926729], [119.515625, 39.93076], [119.525274, 39.935679], [119.542326, 39.940416], [119.543595, 39.940888], [119.543994, 39.945833], [119.543398, 39.94572], [119.539429, 39.944968], [119.539429, 39.94352], [119.538201, 39.943632], [119.537426, 39.944157], [119.5351, 39.94471], [119.534282, 39.944708], [119.534325, 39.943359], [119.533118, 39.943257], [119.530684, 39.942906], [119.530059, 39.944105], [119.529326, 39.943988], [119.528271, 39.946025], [119.52672, 39.945626], [119.52672, 39.945214], [119.525297, 39.944932], [119.525749, 39.949423], [119.518272, 39.949288], [119.51297, 39.947595], [119.50659, 39.946589], [119.506498, 39.945417], [119.506458, 39.94454], [119.506579, 39.94351], [119.5069, 39.942464], [119.507381, 39.941326], [119.508966, 39.938281], [119.501905, 39.933697]]], [[[119.528745, 39.921281], [119.529061, 39.920643], [119.531904, 39.921291], [119.533404, 39.921593], [119.533992, 39.921809], [119.534418, 39.922051], [119.534879, 39.922468], [119.535168, 39.922905], [119.535567, 39.924091], [119.53021, 39.924438], [119.529812, 39.92151], [119.528745, 39.921281]]], [[[119.546942, 39.941932], [119.547147, 39.941271], [119.547315, 39.941211], [119.547859, 39.938707], [119.547963, 39.938179], [119.55003, 39.938513], [119.549427, 39.940962], [119.549383, 39.941555], [119.548889, 39.942541], [119.546942, 39.941932]]]]}, "properties": {"display_name": "黄河道街道, 海港区, 秦皇岛市, 河北省, 中国", "type": "administrative", "osm_type": "relation", "osm_id": 9760859, "class": null, "keyword": "subdistrict"}}, {"type": "Feature", "geometry": {"type": "MultiPolygon", "coordinates": [[[[119.73637, 39.986449], [119.737075, 39.985628], [119.739573, 39.98395], [119.742234, 39.982535], [119.749894, 39.979812], [119.752955, 39.982901], [119.753793, 39.983769], [119.754512, 39.984324], [119.755112, 39.984497], [119.755714, 39.984316], [119.756263, 39.983967], [119.756655, 39.983975], [119.757152, 39.983691], [119.75638, 39.983346], [119.756554, 39.983146], [119.756494, 39.982813], [119.756586, 39.982583], [119.756446, 39.982472], [119.757089, 39.981752], [119.757386, 39.981604], [119.757871, 39.981689], [119.758595, 39.982083], [119.75885, 39.9819], [119.759482, 39.981384], [119.760953, 39.982149], [119.761877, 39.981078], [119.761797, 39.980799], [119.761894, 39.980581], [119.762291, 39.980437], [119.762592, 39.980451], [119.762716, 39.980291], [119.763001, 39.980349], [119.763554, 39.98016], [119.763796, 39.979892], [119.763184, 39.979535], [119.763082, 39.979448], [119.763098, 39.97935], [119.76348, 39.979148], [119.764116, 39.979025], [119.76478, 39.978767], [119.765451, 39.978603], [119.765768, 39.978702], [119.766391, 39.978636], [119.767252, 39.978587], [119.767757, 39.978423], [119.767816, 39.978099], [119.767252, 39.977617], [119.769745, 39.976188], [119.767553, 39.974969], [119.769423, 39.973557], [119.775356, 39.976718], [119.775722, 39.977147], [119.776281, 39.977854], [119.77699, 39.979565], [119.776775, 39.980896], [119.77658, 39.982456], [119.776453, 39.982569], [119.775333, 39.983556], [119.774924, 39.983704], [119.774193, 39.983785], [119.773785, 39.984114], [119.773097, 39.984245], [119.772913, 39.98424], [119.772408, 39.984228], [119.771742, 39.984178], [119.771162, 39.984111], [119.770366, 39.983996], [119.769592, 39.983897], [119.768517, 39.983847], [119.768186, 39.983924], [119.769632, 39.984791], [119.770151, 39.985147], [119.769871, 39.985624], [119.769119, 39.986132], [119.768173, 39.986789], [119.766396, 39.985524], [119.766389, 39.985933], [119.767012, 39.986542], [119.767722, 39.987085], [119.767959, 39.987414], [119.768539, 39.987677], [119.769098, 39.987809], [119.769012, 39.988254], [119.768496, 39.988105], [119.76803, 39.988076], [119.767614, 39.988089], [119.767331, 39.988131], [119.767104, 39.98822], [119.76681, 39.988326], [119.766266, 39.988516], [119.76482, 39.989155], [119.763929, 39.990063], [119.763746, 39.99029], [119.76366, 39.99044], [119.763445, 39.990519], [119.763273, 39.990585], [119.763036, 39.990749], [119.762683, 39.99113], [119.762198, 39.991653], [119.761639, 39.992212], [119.761361, 39.992424], [119.760888, 39.992687], [119.76063, 39.992809], [119.760919, 39.992992], [119.760935, 39.993337], [119.761275, 39.993237], [119.761457, 39.993159], [119.762945, 39.993114], [119.763719, 39.992934], [119.764272, 39.992922], [119.765348, 39.993243], [119.766473, 39.992895], [119.766627, 39.992847], [119.768032, 39.993503], [119.768636, 39.993785], [119.769901, 39.994471], [119.769785, 39.994556], [119.768743, 39.995314], [119.767797, 39.996177], [119.766658, 39.997491], [119.765015, 39.996644], [119.76495, 39.99675], [119.764304, 39.997603], [119.763681, 39.998327], [119.764133, 39.998738], [119.765702, 39.999314], [119.765981, 39.999363], [119.767206, 39.997852], [119.767052, 39.997721], [119.767385, 39.997338], [119.767755, 39.996937], [119.7682, 39.996798], [119.769612, 39.997559], [119.770839, 39.998003], [119.770671, 39.998438], [119.770284, 39.999191], [119.770359, 39.99929], [119.77052, 39.99926], [119.771286, 39.99973], [119.770281, 40.000008], [119.769873, 40.000174], [119.769429, 40.000431], [119.769094, 40.000702], [119.768832, 40.000986], [119.768462, 40.001555], [119.767033, 40.000931], [119.761775, 39.99856], [119.758779, 39.997319], [119.757648, 39.996875], [119.753891, 39.995661], [119.753267, 39.995426], [119.752461, 39.995065], [119.749737, 39.993595], [119.745329, 39.991037], [119.742089, 39.989213], [119.738722, 39.987583], [119.73637, 39.986449]]], [[[119.78393, 39.979814], [119.784231, 39.978482], [119.786146, 39.978781], [119.786346, 39.978457], [119.787042, 39.978629], [119.788606, 39.979009], [119.788431, 39.979516], [119.788356, 39.980036], [119.786251, 39.980221], [119.785241, 39.980309], [119.78393, 39.979814]]]]}, "properties": {"display_name": "路南街道, 山海关区, 秦皇岛市, 河北省, 中国", "type": "administrative", "osm_type": "relation", "osm_id": 9761399, "class": null, "keyword": "subdistrict"}}, {"type": "Feature", "geometry": {"type": "Polygon", "coordinates": [[[119.731543, 39.992066], [119.73637, 39.986449], [119.738722, 39.987583], [119.742089, 39.989213], [119.745329, 39.991037], [119.749737, 39.993595], [119.752461, 39.995065], [119.753267, 39.995426], [119.753891, 39.995661], [119.757648, 39.996875], [119.758779, 39.997319], [119.761775, 39.99856], [119.767033, 40.000931], [119.768462, 40.001555], [119.77002, 40.002172], [119.772509, 40.003087], [119.775387, 40.004467], [119.778021, 40.005805], [119.779405, 40.006366], [119.778464, 40.00986], [119.778817, 40.010297], [119.779351, 40.010526], [119.780808, 40.011018], [119.781913, 40.011739], [119.782772, 40.012467], [119.782881, 40.012709], [119.782827, 40.012924], [119.784175, 40.013874], [119.784139, 40.014054], [119.784392, 40.014221], [119.784483, 40.014747], [119.785822, 40.014768], [119.786103, 40.014927], [119.786637, 40.014255], [119.786881, 40.014629], [119.785126, 40.017263], [119.784936, 40.017756], [119.783551, 40.017548], [119.782275, 40.017284], [119.781107, 40.016917], [119.780428, 40.016647], [119.77955, 40.016293], [119.778736, 40.015905], [119.780809, 40.011241], [119.780407, 40.01112], [119.780146, 40.01114], [119.780024, 40.011261], [119.779335, 40.011094], [119.778916, 40.011181], [119.778803, 40.011641], [119.778542, 40.011969], [119.776344, 40.013838], [119.776002, 40.014012], [119.773894, 40.012113], [119.773169, 40.011468], [119.772708, 40.011101], [119.764381, 40.00656], [119.762517, 40.005368], [119.76125, 40.00464], [119.75906, 40.003462], [119.756851, 40.002373], [119.754751, 40.001499], [119.75372, 40.001236], [119.75295, 40.000993], [119.748416, 39.999163], [119.74046, 39.996154], [119.738258, 39.995308], [119.736074, 39.994468], [119.734691, 39.99387], [119.731543, 39.992066]]]}, "properties": {"display_name": "南关街道, 山海关区, 秦皇岛市, 河北省, 中国", "type": "administrative", "osm_type": "relation", "osm_id": 9761401, "class": null, "keyword": "subdistrict"}}, {"type": "Feature", "geometry": {"type": "Polygon", "coordinates": [[[119.558585, 39.953561], [119.558911, 39.952847], [119.559853, 39.950856], [119.560441, 39.949523], [119.560658, 39.949204], [119.561002, 39.948857], [119.56255, 39.947477], [119.563536, 39.946734], [119.564143, 39.946352], [119.57694, 39.93975], [119.581003, 39.940659], [119.581519, 39.940763], [119.582324, 39.940784], [119.582225, 39.942164], [119.581981, 39.945134], [119.581763, 39.948755], [119.58113, 39.952848], [119.580429, 39.958213], [119.580334, 39.958945], [119.578687, 39.958772], [119.578533, 39.958987], [119.576886, 39.958869], [119.57685, 39.95907], [119.575782, 39.959035], [119.575619, 39.959798], [119.574397, 39.959764], [119.574144, 39.959757], [119.574008, 39.96018], [119.563775, 39.957631], [119.562715, 39.957337], [119.56379, 39.954512], [119.558585, 39.953561]]]}, "properties": {"display_name": "北环路街道, 海港区, 秦皇岛市, 河北省, 中国", "type": "administrative", "osm_type": "relation", "osm_id": 9760850, "class": null, "keyword": "subdistrict"}}, {"type": "Feature", "geometry": {"type": "Polygon", "coordinates": [[[119.58113, 39.952848], [119.581763, 39.948755], [119.581981, 39.945134], [119.582352, 39.945238], [119.582741, 39.945397], [119.582958, 39.945349], [119.583175, 39.945113], [119.583302, 39.944766], [119.583501, 39.944093], [119.583682, 39.943025], [119.582994, 39.942858], [119.583283, 39.942199], [119.582225, 39.942164], [119.582324, 39.940784], [119.596215, 39.941138], [119.601226, 39.941238], [119.60974, 39.941408], [119.6096, 39.943235], [119.609469, 39.944932], [119.609469, 39.945043], [119.608998, 39.953102], [119.601399, 39.953088], [119.592229, 39.952973], [119.58113, 39.952848]], [[119.589088, 39.944613], [119.589956, 39.944671], [119.589977, 39.944484], [119.589109, 39.944427], [119.589088, 39.944613]], [[119.591639, 39.945057], [119.59326, 39.945102], [119.59326, 39.944748], [119.592486, 39.944741], [119.592495, 39.944417], [119.591703, 39.944372], [119.591639, 39.945057]], [[119.59334, 39.944691], [119.59421, 39.944773], [119.594259, 39.94393], [119.593367, 39.943909], [119.59334, 39.944691]], [[119.604057, 39.946639], [119.604872, 39.946665], [119.604878, 39.946365], [119.605624, 39.946369], [119.605687, 39.945958], [119.605769, 39.944424], [119.604064, 39.94477], [119.604078, 39.945223], [119.6041, 39.945527], [119.604057, 39.946639]]]}, "properties": {"display_name": "港城大街街道, 海港区, 秦皇岛市, 河北省, 中国", "type": "administrative", "osm_type": "relation", "osm_id": 9760854, "class": null, "keyword": "subdistrict"}}, {"type": "Feature", "geometry": {"type": "Polygon", "coordinates": [[[119.5758, 39.939281], [119.577167, 39.928039], [119.577384, 39.926505], [119.577626, 39.925466], [119.578232, 39.925751], [119.579064, 39.926098], [119.579743, 39.926333], [119.581081, 39.92668], [119.581787, 39.926812], [119.582493, 39.926888], [119.584881, 39.927055], [119.595953, 39.927201], [119.598386, 39.927194], [119.597843, 39.929247], [119.597192, 39.934055], [119.596739, 39.937489], [119.596215, 39.941138], [119.582324, 39.940784], [119.581519, 39.940763], [119.581003, 39.940659], [119.57694, 39.93975], [119.576144, 39.939531], [119.5759, 39.93942], [119.5758, 39.939281]], [[119.584168, 39.933614], [119.584829, 39.933672], [119.584974, 39.932265], [119.584416, 39.932281], [119.584416, 39.932446], [119.584243, 39.932446], [119.584168, 39.933614]]]}, "properties": {"display_name": "文化路街道, 海港区, 秦皇岛市, 河北省, 中国", "type": "administrative", "osm_type": "relation", "osm_id": 9760864, "class": null, "keyword": "subdistrict"}}, {"type": "Feature", "geometry": {"type": "Polygon", "coordinates": [[[119.740498, 40.013309], [119.743968, 40.006087], [119.745345, 40.003499], [119.746559, 40.001446], [119.747066, 40.000981], [119.747953, 40.000099], [119.74818, 39.999732], [119.748416, 39.999163], [119.75295, 40.000993], [119.75372, 40.001236], [119.754751, 40.001499], [119.756851, 40.002373], [119.75906, 40.003462], [119.76125, 40.00464], [119.762517, 40.005368], [119.764381, 40.00656], [119.772708, 40.011101], [119.773169, 40.011468], [119.773894, 40.012113], [119.77338, 40.014244], [119.770708, 40.014404], [119.762729, 40.011594], [119.763752, 40.009839], [119.763598, 40.009763], [119.762973, 40.00986], [119.762665, 40.009957], [119.762212, 40.009888], [119.76214, 40.01004], [119.761307, 40.010019], [119.760475, 40.011368], [119.759592, 40.012864], [119.758517, 40.014194], [119.754706, 40.012681], [119.753674, 40.012287], [119.752729, 40.013995], [119.751698, 40.016641], [119.748855, 40.015846], [119.740498, 40.013309]]]}, "properties": {"display_name": "东街街道, 山海关区, 秦皇岛市, 河北省, 中国", "type": "administrative", "osm_type": "relation", "osm_id": 9761398, "class": null, "keyword": "subdistrict"}}, {"type": "Feature", "geometry": {"type": "Polygon", "coordinates": [[[119.596215, 39.941138], [119.596739, 39.937489], [119.597192, 39.934055], [119.597843, 39.929247], [119.598386, 39.927194], [119.599951, 39.927249], [119.600575, 39.927228], [119.601218, 39.927138], [119.60195, 39.926986], [119.60432, 39.926403], [119.605035, 39.926313], [119.605903, 39.926271], [119.606663, 39.926313], [119.607685, 39.926458], [119.608572, 39.926667], [119.609142, 39.926868], [119.609639, 39.92709], [119.610128, 39.927346], [119.610924, 39.927846], [119.61134, 39.928179], [119.611855, 39.928699], [119.612235, 39.929198], [119.612615, 39.929767], [119.613261, 39.931168], [119.617776, 39.941623], [119.615024, 39.941568], [119.60974, 39.941408], [119.601226, 39.941238], [119.596215, 39.941138]]]}, "properties": {"display_name": "建设大街街道, 海港区, 秦皇岛市, 河北省, 中国", "type": "administrative", "osm_type": "relation", "osm_id": 9760860, "class": null, "keyword": "subdistrict"}}, {"type": "Feature", "geometry": {"type": "Polygon", "coordinates": [[[119.579863, 39.961956], [119.580334, 39.958945], [119.580429, 39.958213], [119.58113, 39.952848], [119.592229, 39.952973], [119.601399, 39.953088], [119.608998, 39.953102], [119.608646, 39.959233], [119.606574, 39.959177], [119.606438, 39.959476], [119.606167, 39.959663], [119.606004, 39.960051], [119.60557, 39.959947], [119.605452, 39.960433], [119.606348, 39.96055], [119.606393, 39.961251], [119.606755, 39.961237], [119.606872, 39.961785], [119.606538, 39.962603], [119.607352, 39.962825], [119.606393, 39.96374], [119.602249, 39.963158], [119.601372, 39.963074], [119.600739, 39.963024], [119.599952, 39.963031], [119.597672, 39.9631], [119.597681, 39.961997], [119.595265, 39.961421], [119.594269, 39.961199], [119.593581, 39.961165], [119.592704, 39.961234], [119.591364, 39.961498], [119.590785, 39.961525], [119.589184, 39.961414], [119.58931, 39.960846], [119.589193, 39.960443], [119.589156, 39.959646], [119.589048, 39.959306], [119.588849, 39.959133], [119.588224, 39.958924], [119.58808, 39.959687], [119.586713, 39.959611], [119.586686, 39.959958], [119.585111, 39.959868], [119.584596, 39.959736], [119.58389, 39.95959], [119.583745, 39.959888], [119.583555, 39.959868], [119.583103, 39.960755], [119.583501, 39.960908], [119.583112, 39.962198], [119.583094, 39.962836], [119.582406, 39.962802], [119.581818, 39.962663], [119.579863, 39.961956]]]}, "properties": {"display_name": "燕山大街街道, 海港区, 秦皇岛市, 河北省, 中国", "type": "administrative", "osm_type": "relation", "osm_id": 9760867, "class": null, "keyword": "subdistrict"}}, {"type": "Feature", "geometry": {"type": "Polygon", "coordinates": [[[119.734431, 40.008158], [119.737178, 40.008847], [119.737715, 40.007565], [119.738158, 40.00739], [119.738895, 40.00615], [119.739582, 40.00564], [119.740055, 40.005492], [119.740856, 40.004835], [119.741085, 40.004785], [119.741343, 40.004456], [119.74164, 40.004539], [119.741699, 40.004634], [119.743261, 40.004979], [119.743743, 40.005144], [119.743868, 40.004937], [119.741763, 40.004395], [119.738613, 40.002865], [119.734919, 40.001044], [119.735872, 39.999843], [119.736416, 39.999318], [119.737106, 39.998824], [119.737884, 39.99845], [119.738696, 39.998009], [119.73891, 39.99787], [119.738004, 39.997447], [119.737532, 39.997278], [119.737821, 39.996452], [119.738258, 39.995308], [119.74046, 39.996154], [119.748416, 39.999163], [119.74818, 39.999732], [119.747953, 40.000099], [119.747066, 40.000981], [119.746559, 40.001446], [119.745345, 40.003499], [119.743968, 40.006087], [119.740498, 40.013309], [119.735461, 40.012069], [119.734732, 40.01197], [119.734431, 40.008158]]]}, "properties": {"display_name": "西街街道, 山海关区, 秦皇岛市, 河北省, 中国", "type": "administrative", "osm_type": "relation", "osm_id": 9761403, "class": null, "keyword": "subdistrict"}}, {"type": "Feature", "geometry": {"type": "Polygon", "coordinates": [[[119.502885, 39.886269], [119.504807, 39.884632], [119.508102, 39.88691], [119.50618, 39.888547], [119.502885, 39.886269]]]}, "properties": {"display_name": "新世纪高级中学, 河北大街西段辅路, 西港镇, 海港区, 秦皇岛市, 河北省, 066004, 中国", "type": "school", "osm_type": "way", "osm_id": 958225532, "class": null, "keyword": "市中心"}}, {"type": "Feature", "geometry": {"type": "Polygon", "coordinates": [[[119.560737, 39.980656], [119.560809, 39.979256], [119.563947, 39.979272], [119.563947, 39.981154], [119.560737, 39.980656]]]}, "properties": {"display_name": "秦皇岛市高新技术创业基地港城创业中心, 北部工业区, 海港区, 秦皇岛市, 河北省, 中国", "type": "residential", "osm_type": "way", "osm_id": 1036015888, "class": null, "keyword": "市中心"}}, {"type": "Feature", "geometry": {"type": "Polygon", "coordinates": [[[119.545982, 39.907369], [119.545992, 39.907114], [119.546094, 39.906801], [119.546228, 39.906575], [119.546464, 39.906406], [119.546786, 39.906217], [119.547189, 39.906128], [119.54758, 39.906135], [119.547835, 39.906199], [119.548052, 39.906283], [119.548417, 39.905945], [119.548793, 39.906192], [119.548428, 39.906546], [119.548557, 39.906703], [119.548696, 39.906958], [119.548726, 39.907168], [119.548707, 39.907435], [119.548621, 39.907665], [119.548374, 39.908036], [119.547934, 39.908299], [119.54765, 39.908361], [119.547398, 39.908375], [119.54713, 39.908349], [119.546749, 39.90825], [119.546432, 39.908069], [119.54625, 39.907912], [119.54613, 39.907736], [119.54611, 39.907707], [119.546075, 39.907614], [119.545982, 39.907369]]]}, "properties": {"display_name": "秦皇岛奥体中心体育场, Wensheng, 白塔岭街道, 海港区, 秦皇岛市, 河北省, 066004, 中国", "type": "stadium", "osm_type": "way", "osm_id": 116902905, "class": null, "keyword": "city centre"}}, {"type": "Feature", "geometry": {"type": "Polygon", "coordinates": [[[119.192484, 39.700565], [119.192501, 39.699101], [119.194738, 39.699088], [119.194772, 39.70056], [119.192484, 39.700565]]]}, "properties": {"display_name": "昌黎县市民中心, 民欣街, 昌黎县, 秦皇岛市, 河北省, 中国", "type": "government", "osm_type": "way", "osm_id": 1343705516, "class": null, "keyword": "市中心"}}, {"type": "Feature", "geometry": {"type": "Polygon", "coordinates": [[[119.174633, 39.705571], [119.175343, 39.704638], [119.176284, 39.704928], [119.176058, 39.705293], [119.175719, 39.705803], [119.175564, 39.705987], [119.174653, 39.705613], [119.174633, 39.705571]]]}, "properties": {"display_name": "昌黎教师发展中心, 汇文大街, 昌黎县, 秦皇岛市, 河北省, 中国", "type": "school", "osm_type": "way", "osm_id": 1232642045, "class": null, "keyword": "市中心"}}, {"type": "Feature", "geometry": {"type": "Polygon", "coordinates": [[[119.50349, 39.915318], [119.503497, 39.914376], [119.504164, 39.914369], [119.504148, 39.914761], [119.503842, 39.914762], [119.503843, 39.914936], [119.504136, 39.914936], [119.504145, 39.915322], [119.50349, 39.915318]]]}, "properties": {"display_name": "食堂 洗浴中心 超市, 横断山路, 西港镇, 海港区, 秦皇岛市, 河北省, 066004, 中国", "type": "school", "osm_type": "way", "osm_id": 1303319167, "class": null, "keyword": "市中心"}}, {"type": "Feature", "geometry": {"type": "Polygon", "coordinates": [[[119.814545, 39.993603], [119.814648, 39.993074], [119.815758, 39.993252], [119.815432, 39.993735], [119.814545, 39.993603]]]}, "properties": {"display_name": "秦皇岛市公安局经济技术开发区分局中心派出所, 动力路, 船厂小区, 船厂路街道, 山海关区, 秦皇岛市, 河北省, 中国", "type": "government", "osm_type": "way", "osm_id": 1218803823, "class": null, "keyword": "市中心"}}, {"type": "Feature", "geometry": {"type": "Polygon", "coordinates": [[[119.529766, 39.90507], [119.53027, 39.904683], [119.530125, 39.904559], [119.530275, 39.904444], [119.530774, 39.904831], [119.530013, 39.905419], [119.529852, 39.905292], [119.529943, 39.905218], [119.529766, 39.90507]]]}, "properties": {"display_name": "大学生工程训练中心, 求学路, 白塔岭街道, 海港区, 秦皇岛市, 河北省, 066004, 中国", "type": "yes", "osm_type": "way", "osm_id": 122022794, "class": null, "keyword": "中心城区"}}, {"type": "Feature", "geometry": {"type": "Polygon", "coordinates": [[[119.510576, 39.88699], [119.51088, 39.886746], [119.511052, 39.886871], [119.510875, 39.887014], [119.511331, 39.887348], [119.511485, 39.887224], [119.511605, 39.887312], [119.511324, 39.887538], [119.510576, 39.88699]]]}, "properties": {"display_name": "中共秦皇岛市委信访局, 河北大街西段辅路, 西港镇, 海港区, 秦皇岛市, 河北省, 066004, 中国", "type": "yes", "osm_type": "way", "osm_id": 579757919, "class": null, "keyword": "市中心"}}, {"type": "Feature", "geometry": {"type": "Polygon", "coordinates": [[[119.51164, 39.833472], [119.511855, 39.833301], [119.511791, 39.833251], [119.511985, 39.833106], [119.512132, 39.833222], [119.511983, 39.833333], [119.512152, 39.833458], [119.511897, 39.833662], [119.51164, 39.833472]]]}, "properties": {"display_name": "首都师范大学北戴河培训中心, 鸽赤路, 东山街道, 北戴河区, 秦皇岛市, 河北省, 中国", "type": "guest_house", "osm_type": "way", "osm_id": 366253137, "class": null, "keyword": "市中心"}}, {"type": "Feature", "geometry": {"type": "Polygon", "coordinates": [[[119.75851, 40.002844], [119.758716, 40.002567], [119.758927, 40.002659], [119.75872, 40.002936], [119.75851, 40.002844]]]}, "properties": {"display_name": "Bo Yi Business Hotel, 关城南路, 南关街道, 山海关区, 秦皇岛市, 河北省, 中国", "type": "hotel", "osm_type": "way", "osm_id": 391231548, "class": null, "keyword": "business district"}}]}