{"type": "FeatureCollection", "features": [{"type": "Feature", "geometry": {"type": "Polygon", "coordinates": [[[-71.284707, 46.833266], [-71.284318, 46.832789], [-71.283952, 46.832927], [-71.284251, 46.833299], [-71.283912, 46.833427], [-71.2842, 46.833785], [-71.284568, 46.833647], [-71.284364, 46.833397], [-71.284707, 46.833266]]]}, "properties": {"display_name": "District de la Capitale-Nationale-Chaudière-Appalaches, 1050, Rue des Rocailles, Zone industrielle de Lebourgneuf, Lebourgneuf, Neufchâtel-Est–Lebourgneuf, Les Rivières, Québec, Agglomération de Québec, Capitale-Nationale, Québec, G2K 0H3, Canada", "type": "government", "osm_type": "way", "osm_id": 128333445, "class": null, "keyword": "district"}}, {"type": "Feature", "geometry": {"type": "Polygon", "coordinates": [[[-71.226071, 46.81474], [-71.226001, 46.81464], [-71.225256, 46.814888], [-71.225447, 46.815157], [-71.226041, 46.81496], [-71.225978, 46.814872], [-71.22592, 46.81479], [-71.226071, 46.81474]]]}, "properties": {"display_name": "Best Western Plus Centre-Ville, Rue De la Salle, Saint-Roch, La Cité-Limoilou, Québec, Agglomération de Québec, Capitale-Nationale, Québec, G1K 3B2, Canada", "type": "hotel", "osm_type": "way", "osm_id": 246070580, "class": null, "keyword": "centre-ville"}}, {"type": "Feature", "geometry": {"type": "Polygon", "coordinates": [[[-71.21489, 46.811731], [-71.21489, 46.811715], [-71.214881, 46.811702], [-71.214867, 46.811687], [-71.214885, 46.811674], [-71.21483, 46.811625], [-71.214767, 46.811652], [-71.214735, 46.811623], [-71.214653, 46.811667], [-71.214614, 46.811687], [-71.214636, 46.811708], [-71.214406, 46.811829], [-71.214378, 46.811804], [-71.214276, 46.811856], [-71.21441, 46.81199], [-71.214872, 46.811761], [-71.214887, 46.811743], [-71.21489, 46.811731]]]}, "properties": {"display_name": "Quebec City Marriott Downtown, 850, Place d'Youville, Colline Parlementaire, Vieux-Québec–Cap-Blanc–Colline-Parlementaire, La Cité-Limoilou, Québec, Agglomération de Québec, Capitale-Nationale, Québec, G1R 3P6, Canada", "type": "hotel", "osm_type": "way", "osm_id": 27072937, "class": null, "keyword": "downtown"}}]}