{"type": "FeatureCollection", "features": [{"type": "Feature", "geometry": {"type": "Polygon", "coordinates": [[[-77.435061, 37.544709], [-77.435061, 37.544616], [-77.435047, 37.544518], [-77.435004, 37.544429], [-77.434947, 37.544343], [-77.434861, 37.544275], [-77.434769, 37.544213], [-77.434655, 37.544175], [-77.434534, 37.544149], [-77.434416, 37.544146], [-77.434299, 37.544161], [-77.434181, 37.544191], [-77.434079, 37.544238], [-77.433986, 37.544304], [-77.433914, 37.544381], [-77.43386, 37.544468], [-77.43383, 37.544561], [-77.433823, 37.544657], [-77.433837, 37.544746], [-77.43388, 37.544844], [-77.433944, 37.544931], [-77.434023, 37.544998], [-77.434124, 37.54506], [-77.434229, 37.545098], [-77.434344, 37.545122], [-77.434468, 37.545127], [-77.434593, 37.545118], [-77.434703, 37.545082], [-77.434814, 37.545033], [-77.434898, 37.544969], [-77.434971, 37.544894], [-77.435024, 37.544805], [-77.435061, 37.544709]]]}, "properties": {"display_name": "The Richmond Coliseum, 601, East Leigh Street, City Center, Richmond, Virginia, 23219, United States", "type": "yes", "osm_type": "way", "osm_id": 321367756, "class": null, "keyword": "city center"}}, {"type": "Feature", "geometry": {"type": "Polygon", "coordinates": [[[-77.432927, 37.5431], [-77.432785, 37.543016], [-77.432594, 37.542903], [-77.432286, 37.542721], [-77.431487, 37.543571], [-77.431811, 37.543762], [-77.432024, 37.543888], [-77.432129, 37.54395], [-77.432499, 37.543556], [-77.432602, 37.543447], [-77.432927, 37.5431]]]}, "properties": {"display_name": "Downtown Transfer Station, East Clay Street, City Center, Richmond, Virginia, 23219, United States", "type": "bus_station", "osm_type": "way", "osm_id": 44888569, "class": null, "keyword": "downtown"}}, {"type": "Feature", "geometry": {"type": "Polygon", "coordinates": [[[-77.438119, 37.542109], [-77.437394, 37.541672], [-77.437032, 37.542051], [-77.437393, 37.542268], [-77.437426, 37.542233], [-77.43748, 37.542266], [-77.43779, 37.542453], [-77.438119, 37.542109]]]}, "properties": {"display_name": "Hilton Richmond Downtown, 501, East Grace Street, City Center, Richmond, Virginia, 23219, United States", "type": "hotel", "osm_type": "way", "osm_id": 236488155, "class": null, "keyword": "downtown"}}, {"type": "Feature", "geometry": {"type": "Polygon", "coordinates": [[[-77.431061, 37.548498], [-77.430746, 37.548307], [-77.431035, 37.548007], [-77.430441, 37.547647], [-77.430318, 37.547773], [-77.430808, 37.54807], [-77.430071, 37.548834], [-77.430176, 37.548898], [-77.430254, 37.548818], [-77.430295, 37.548842], [-77.430478, 37.548653], [-77.430592, 37.548722], [-77.430653, 37.548659], [-77.430711, 37.548694], [-77.430861, 37.548539], [-77.430962, 37.5486], [-77.431061, 37.548498]]]}, "properties": {"display_name": "Downtown Campus Parking, I 64, Gilpin Court, Richmond, Virginia, 23219, United States", "type": "parking", "osm_type": "way", "osm_id": 38256052, "class": null, "keyword": "downtown"}}, {"type": "Feature", "geometry": {"type": "Polygon", "coordinates": [[[-77.436006, 37.54283], [-77.435282, 37.542392], [-77.435079, 37.542605], [-77.434977, 37.542712], [-77.435172, 37.542828], [-77.435317, 37.542914], [-77.435459, 37.542998], [-77.435654, 37.543113], [-77.435691, 37.543079], [-77.435747, 37.543108], [-77.435944, 37.542896], [-77.436006, 37.54283]]]}, "properties": {"display_name": "Richmond Marriott Downtown Parking, East Marshall Street, City Center, Richmond, Virginia, 23219, United States", "type": "parking", "osm_type": "way", "osm_id": 224757082, "class": null, "keyword": "downtown"}}, {"type": "Feature", "geometry": {"type": "Polygon", "coordinates": [[[-77.440369, 37.542143], [-77.440314, 37.54211], [-77.440305, 37.54209], [-77.440279, 37.542066], [-77.440246, 37.542044], [-77.440221, 37.542036], [-77.440191, 37.542027], [-77.440175, 37.542027], [-77.44015, 37.54201], [-77.440051, 37.541954], [-77.44002, 37.541985], [-77.439949, 37.541942], [-77.439422, 37.542501], [-77.439806, 37.542728], [-77.440333, 37.542181], [-77.440369, 37.542143]]]}, "properties": {"display_name": "Richmond Times Dispatch, 300, East Franklin Street, Central Office District, Richmond, Virginia, Richmond, Virginia, 23219, United States", "type": "newspaper", "osm_type": "way", "osm_id": 296318773, "class": null, "keyword": "district"}}, {"type": "Feature", "geometry": {"type": "Polygon", "coordinates": [[[-77.431763, 37.545656], [-77.431687, 37.545611], [-77.431614, 37.545688], [-77.4315, 37.54562], [-77.431466, 37.5456], [-77.431557, 37.545583], [-77.431567, 37.545571], [-77.431547, 37.545457], [-77.431526, 37.545443], [-77.431395, 37.545471], [-77.431378, 37.545479], [-77.431391, 37.545558], [-77.431372, 37.545547], [-77.431232, 37.545466], [-77.43131, 37.545382], [-77.43123, 37.545335], [-77.431028, 37.545552], [-77.431077, 37.54558], [-77.431024, 37.545637], [-77.430964, 37.545601], [-77.430861, 37.545712], [-77.430896, 37.545732], [-77.430877, 37.545752], [-77.431124, 37.545897], [-77.431376, 37.546046], [-77.431397, 37.546024], [-77.431426, 37.546041], [-77.431758, 37.545689], [-77.431741, 37.545679], [-77.431763, 37.545656]]]}, "properties": {"display_name": "J Sargeant Reynolds Community College Downtown Campus, East Jackson Street, City Center, Richmond, Virginia, 23219, United States", "type": "college", "osm_type": "way", "osm_id": 45088999, "class": null, "keyword": "downtown"}}, {"type": "Feature", "geometry": {"type": "Polygon", "coordinates": [[[-77.433046, 37.534985], [-77.432971, 37.534938], [-77.432965, 37.534958], [-77.432855, 37.534914], [-77.432747, 37.535147], [-77.432556, 37.535091], [-77.43266, 37.534811], [-77.432679, 37.534764], [-77.432624, 37.53474], [-77.432599, 37.534762], [-77.432569, 37.534774], [-77.432536, 37.53478], [-77.432505, 37.534776], [-77.432467, 37.534776], [-77.432297, 37.535189], [-77.432513, 37.535255], [-77.43267, 37.535301], [-77.432666, 37.535315], [-77.432861, 37.535374], [-77.432992, 37.535106], [-77.433007, 37.535111], [-77.433023, 37.535072], [-77.433008, 37.535067], [-77.433046, 37.534985]]]}, "properties": {"display_name": "Courtyard Richmond Downtown, 1320, East Cary Street, Shockoe Slip, Richmond, Virginia, 23219, United States", "type": "hotel", "osm_type": "way", "osm_id": 252837436, "class": null, "keyword": "downtown"}}, {"type": "Feature", "geometry": {"type": "Polygon", "coordinates": [[[-77.440962, 37.535661], [-77.440955, 37.535615], [-77.44093, 37.535618], [-77.440579, 37.535402], [-77.440576, 37.535384], [-77.440516, 37.53539], [-77.440521, 37.535417], [-77.440256, 37.535688], [-77.440229, 37.535691], [-77.440236, 37.535736], [-77.440264, 37.535734], [-77.440608, 37.535948], [-77.440611, 37.535967], [-77.440671, 37.535961], [-77.440668, 37.535943], [-77.440929, 37.535665], [-77.440962, 37.535661]]]}, "properties": {"display_name": "Federal Reserve Bank of Richmond, 701, East Byrd Street, Central Office District, Richmond, Virginia, Richmond, Virginia, 23219, United States", "type": "bank", "osm_type": "way", "osm_id": 113029210, "class": null, "keyword": "district"}}, {"type": "Feature", "geometry": {"type": "Polygon", "coordinates": [[[-77.443733, 37.54062], [-77.443433, 37.540439], [-77.443081, 37.540807], [-77.443199, 37.540878], [-77.443382, 37.540988], [-77.443714, 37.540641], [-77.443733, 37.54062]]]}, "properties": {"display_name": "Holiday Inn Express Richmond - Downtown, 201, East Cary Street, Monroe Ward, Richmond, Virginia, 23219, United States", "type": "hotel", "osm_type": "way", "osm_id": 321384675, "class": null, "keyword": "downtown"}}, {"type": "Feature", "geometry": {"type": "Polygon", "coordinates": [[[-77.437783, 37.547756], [-77.437445, 37.54756], [-77.437157, 37.547859], [-77.437497, 37.548064], [-77.437783, 37.547756]]]}, "properties": {"display_name": "Maggie L. Walker National Historic Site, Jackson Ward, Richmond, Virginia, United States", "type": "national_park", "osm_type": "way", "osm_id": 725718156, "class": null, "keyword": "historic center"}}, {"type": "Feature", "geometry": {"type": "Polygon", "coordinates": [[[-77.437904, 37.539279], [-77.437627, 37.539115], [-77.437304, 37.539458], [-77.437581, 37.539622], [-77.437904, 37.539279]]]}, "properties": {"display_name": "Hampton Inn & Suites Richmond - Downtown, 700, East Main Street, Central Office District, Richmond, Virginia, Richmond, Virginia, 23219, United States", "type": "hotel", "osm_type": "way", "osm_id": 263127156, "class": null, "keyword": "downtown"}}, {"type": "Feature", "geometry": {"type": "Polygon", "coordinates": [[[-77.470258, 37.548108], [-77.469891, 37.54806], [-77.469712, 37.54803], [-77.469626, 37.548225], [-77.470138, 37.54841], [-77.470258, 37.548108]]]}, "properties": {"display_name": "Uptown Community Garden, Parkwood Avenue, The Fan, Richmond, Virginia, 23220, United States", "type": "garden", "osm_type": "way", "osm_id": 823714647, "class": null, "keyword": "uptown"}}, {"type": "Feature", "geometry": {"type": "Polygon", "coordinates": [[[-77.441202, 37.541257], [-77.440819, 37.541027], [-77.440575, 37.541283], [-77.440789, 37.541411], [-77.440957, 37.541515], [-77.44108, 37.541384], [-77.441202, 37.541257]], [[-77.441006, 37.54134], [-77.440935, 37.541412], [-77.440843, 37.541355], [-77.440912, 37.541283], [-77.441006, 37.54134]]]}, "properties": {"display_name": "4N4 Midtown, 4, North 4th Street, City Center, Richmond, Virginia, 23219, United States", "type": "apartments", "osm_type": "relation", "osm_id": 4476346, "class": null, "keyword": "midtown"}}, {"type": "Feature", "geometry": {"type": "Polygon", "coordinates": [[[-77.441207, 37.538002], [-77.440796, 37.537857], [-77.440772, 37.537881], [-77.440727, 37.537854], [-77.440638, 37.53786], [-77.440585, 37.537838], [-77.44039, 37.53785], [-77.441, 37.538218], [-77.441207, 37.538002]]]}, "properties": {"display_name": "Delta Hotels Richmond Downtown, 555, East Canal Street, Central Office District, Richmond, Virginia, Richmond, Virginia, 23219, United States", "type": "hotel", "osm_type": "way", "osm_id": 264523632, "class": null, "keyword": "downtown"}}, {"type": "Feature", "geometry": {"type": "Polygon", "coordinates": [[[-77.444971, 37.540818], [-77.444668, 37.540637], [-77.444552, 37.540761], [-77.444705, 37.540848], [-77.444503, 37.541068], [-77.444654, 37.541161], [-77.444971, 37.540818]]]}, "properties": {"display_name": "Matrix Midtown Apartments, 119, South 1st Street, Monroe Ward, Richmond, Virginia, 23219, United States", "type": "apartments", "osm_type": "way", "osm_id": 321391761, "class": null, "keyword": "midtown"}}, {"type": "Feature", "geometry": {"type": "Polygon", "coordinates": [[[-77.435527, 37.535761], [-77.435394, 37.535677], [-77.43493, 37.535742], [-77.434842, 37.535833], [-77.434958, 37.535904], [-77.435434, 37.535853], [-77.435527, 37.535761]]]}, "properties": {"display_name": "Omni Richmond Hotel, 100, South 12th Street, Central Office District, Richmond, Virginia, Richmond, Virginia, 23219, United States", "type": "hotel", "osm_type": "way", "osm_id": 365156601, "class": null, "keyword": "district"}}, {"type": "Feature", "geometry": {"type": "Polygon", "coordinates": [[[-77.439366, 37.541533], [-77.439107, 37.54138], [-77.438918, 37.54158], [-77.439177, 37.541733], [-77.439366, 37.541533]]]}, "properties": {"display_name": "Richmond Free Press, East Franklin Street, Central Office District, Richmond, Virginia, Richmond, Virginia, 23219, United States", "type": "newspaper", "osm_type": "way", "osm_id": 296318766, "class": null, "keyword": "district"}}, {"type": "Feature", "geometry": {"type": "Polygon", "coordinates": [[[-77.435787, 37.542158], [-77.435621, 37.542053], [-77.435329, 37.542366], [-77.435494, 37.542461], [-77.435787, 37.542158]]]}, "properties": {"display_name": "University of Richmond Downtown, 626, East Broad Street, City Center, Richmond, Virginia, 23219, United States", "type": "office", "osm_type": "way", "osm_id": 224757084, "class": null, "keyword": "downtown"}}, {"type": "Feature", "geometry": {"type": "Polygon", "coordinates": [[[-77.486966, 37.557566], [-77.486786, 37.557501], [-77.486781, 37.55751], [-77.486731, 37.557492], [-77.48669, 37.557563], [-77.486574, 37.557767], [-77.486752, 37.557831], [-77.486804, 37.55785], [-77.486934, 37.557623], [-77.486966, 37.557566]]]}, "properties": {"display_name": "Richmond Post Office, 3517, Floyd Avenue, Carytown, Richmond, Virginia, 23221, United States", "type": "post_office", "osm_type": "way", "osm_id": 235998646, "class": null, "keyword": "district"}}, {"type": "Feature", "geometry": {"type": "Polygon", "coordinates": [[[-77.479863, 37.554339], [-77.479545, 37.554224], [-77.479445, 37.554398], [-77.479506, 37.55442], [-77.479495, 37.554439], [-77.479752, 37.554532], [-77.479863, 37.554339]]]}, "properties": {"display_name": "Richmond Public Library - Belmont Branch, 3100, Ellwood Avenue, Carytown, Richmond, Virginia, 23221, United States", "type": "library", "osm_type": "way", "osm_id": 236144762, "class": null, "keyword": "district"}}, {"type": "Feature", "geometry": {"type": "Polygon", "coordinates": [[[-77.442092, 37.538691], [-77.441791, 37.538509], [-77.441677, 37.538627], [-77.441979, 37.538809], [-77.442092, 37.538691]]]}, "properties": {"display_name": "Richmond Ballet, 407, East Canal Street, Central Office District, Richmond, Virginia, Richmond, Virginia, 23219, United States", "type": "arts_centre", "osm_type": "way", "osm_id": 321384567, "class": null, "keyword": "district"}}, {"type": "Feature", "geometry": {"type": "Polygon", "coordinates": [[[-77.397158, 37.514127], [-77.39702, 37.514126], [-77.39702, 37.51417], [-77.396981, 37.51417], [-77.39698, 37.514394], [-77.397158, 37.514394], [-77.397158, 37.514127]]]}, "properties": {"display_name": "Neighborhood Resource Center, 1519, Williamsburg Road, Fulton Hill, Richmond, Virginia, 23231, United States", "type": "community_centre", "osm_type": "way", "osm_id": 746477377, "class": null, "keyword": "neighborhood"}}, {"type": "Feature", "geometry": {"type": "Polygon", "coordinates": [[[-77.401904, 37.544663], [-77.401656, 37.544496], [-77.401654, 37.544498], [-77.401639, 37.544512], [-77.40162, 37.544529], [-77.401868, 37.544697], [-77.401904, 37.544663]]]}, "properties": {"display_name": "Roots of Woodville Neighborhood Garden, Tate Street, Creighton Court, Richmond, Virginia, 23223, United States", "type": "garden", "osm_type": "way", "osm_id": 1210472679, "class": null, "keyword": "neighborhood"}}, {"type": "Feature", "geometry": {"type": "Polygon", "coordinates": [[[-77.470861, 37.551139], [-77.470837, 37.551131], [-77.470833, 37.551121], [-77.470818, 37.551117], [-77.470797, 37.551121], [-77.470738, 37.551234], [-77.470754, 37.551239], [-77.470733, 37.551278], [-77.470774, 37.551291], [-77.470794, 37.551254], [-77.470795, 37.551257], [-77.470861, 37.551139]]]}, "properties": {"display_name": "Uptown Market & Deli, 2400, West Main Street, The Fan, Richmond, Virginia, 23220, United States", "type": "yes", "osm_type": "way", "osm_id": 367704151, "class": null, "keyword": "uptown"}}, {"type": "Feature", "geometry": {"type": "Polygon", "coordinates": [[[-77.401314, 37.541538], [-77.401306, 37.541499], [-77.401206, 37.541513], [-77.401228, 37.541615], [-77.401278, 37.541608], [-77.401264, 37.541545], [-77.401314, 37.541538]]]}, "properties": {"display_name": "Inner City Blues, 3015, Nine Mile Road, Creighton Court, Richmond, Virginia, 23223, United States", "type": "restaurant", "osm_type": "way", "osm_id": 755105654, "class": null, "keyword": "inner city"}}]}