{"type": "FeatureCollection", "features": [{"type": "Feature", "geometry": {"type": "Polygon", "coordinates": [[[24.105248, 56.941629], [24.107646, 56.940471], [24.111998, 56.938499], [24.120013, 56.934788], [24.124574, 56.932744], [24.145535, 56.921712], [24.14741, 56.920367], [24.151484, 56.920054], [24.154796, 56.917519], [24.157198, 56.915832], [24.162683, 56.918991], [24.168523, 56.922747], [24.175473, 56.927295], [24.171292, 56.931128], [24.169926, 56.932462], [24.169902, 56.932485], [24.166447, 56.935829], [24.164097, 56.938017], [24.161972, 56.939742], [24.160811, 56.940677], [24.158622, 56.942069], [24.15646, 56.943072], [24.154621, 56.943873], [24.152126, 56.944896], [24.148866, 56.945679], [24.148298, 56.945785], [24.143673, 56.946506], [24.138117, 56.946747], [24.125738, 56.946604], [24.118389, 56.946132], [24.117676, 56.94696], [24.115399, 56.946316], [24.109761, 56.943815], [24.105248, 56.941629]]]}, "properties": {"display_name": "Latgales apkaime, Rīga, Latvija", "type": "administrative", "osm_type": "relation", "osm_id": 1143435, "class": null, "keyword": "neighborhood"}}, {"type": "Feature", "geometry": {"type": "Polygon", "coordinates": [[[24.094268, 56.950901], [24.095042, 56.949853], [24.09602, 56.948451], [24.098772, 56.945872], [24.100987, 56.944572], [24.103474, 56.943086], [24.103877, 56.94271], [24.104806, 56.941841], [24.105248, 56.941629], [24.109761, 56.943815], [24.115399, 56.946316], [24.115329, 56.946713], [24.114513, 56.947956], [24.114015, 56.948581], [24.113753, 56.948986], [24.113635, 56.949114], [24.113585, 56.949159], [24.113408, 56.949287], [24.113318, 56.949349], [24.111681, 56.950438], [24.111476, 56.95058], [24.111417, 56.950621], [24.111291, 56.950704], [24.111167, 56.950786], [24.111041, 56.950869], [24.110689, 56.9511], [24.110319, 56.951344], [24.109961, 56.951563], [24.10958, 56.951769], [24.109486, 56.951812], [24.109396, 56.951847], [24.10924, 56.951904], [24.109043, 56.951958], [24.108842, 56.951992], [24.108692, 56.952009], [24.10854, 56.952016], [24.10834, 56.952021], [24.108065, 56.952037], [24.107761, 56.952069], [24.10744, 56.952133], [24.107363, 56.95215], [24.10712, 56.952225], [24.107022, 56.95226], [24.10696, 56.952287], [24.106899, 56.952313], [24.106655, 56.952444], [24.10647, 56.952565], [24.106401, 56.952621], [24.10632, 56.952686], [24.106171, 56.952809], [24.105684, 56.953211], [24.105628, 56.953251], [24.105552, 56.953306], [24.10547, 56.953268], [24.105398, 56.953236], [24.105097, 56.953105], [24.105045, 56.953082], [24.104783, 56.952995], [24.104646, 56.952949], [24.104544, 56.952927], [24.103359, 56.952697], [24.101965, 56.952428], [24.094268, 56.950901]]]}, "properties": {"display_name": "Vecrīga, Latgales apkaime, Rīga, Latvija", "type": "administrative", "osm_type": "relation", "osm_id": 1108902, "class": null, "keyword": "centro histórico"}}, {"type": "Feature", "geometry": {"type": "Polygon", "coordinates": [[[24.099752, 56.951115], [24.099812, 56.951006], [24.099892, 56.950845], [24.099869, 56.950841], [24.099891, 56.950797], [24.100081, 56.950828], [24.10006, 56.950834], [24.100041, 56.950841], [24.100018, 56.950857], [24.100003, 56.950875], [24.099998, 56.950897], [24.100006, 56.950921], [24.10003, 56.950942], [24.100062, 56.950957], [24.100073, 56.95096], [24.100051, 56.95097], [24.100009, 56.950975], [24.099981, 56.95097], [24.099903, 56.951088], [24.100215, 56.951159], [24.100208, 56.951166], [24.100246, 56.951176], [24.100306, 56.951192], [24.100333, 56.951163], [24.100363, 56.951171], [24.100395, 56.951179], [24.100372, 56.951208], [24.100731, 56.951291], [24.100734, 56.951307], [24.100785, 56.95132], [24.100811, 56.951316], [24.100846, 56.951275], [24.100834, 56.951258], [24.100845, 56.951245], [24.100853, 56.951237], [24.100864, 56.951226], [24.100928, 56.951158], [24.10094, 56.951146], [24.100985, 56.951102], [24.100922, 56.951081], [24.100875, 56.951126], [24.10054, 56.951014], [24.100255, 56.950919], [24.100262, 56.950894], [24.10026, 56.950882], [24.100254, 56.950869], [24.100238, 56.950853], [24.100653, 56.950498], [24.100679, 56.950507], [24.100708, 56.950516], [24.100729, 56.950498], [24.100742, 56.950486], [24.101026, 56.950583], [24.101029, 56.95058], [24.101053, 56.950589], [24.10108, 56.950597], [24.101076, 56.950601], [24.101363, 56.950695], [24.101359, 56.950715], [24.101367, 56.950738], [24.101389, 56.950759], [24.101421, 56.950774], [24.101465, 56.950784], [24.101509, 56.950784], [24.101553, 56.950777], [24.101577, 56.950768], [24.101077, 56.951287], [24.101067, 56.951298], [24.101059, 56.951306], [24.100925, 56.951449], [24.100652, 56.951387], [24.100328, 56.951314], [24.100293, 56.951361], [24.100277, 56.951381], [24.100274, 56.951381], [24.100249, 56.951409], [24.100185, 56.951395], [24.100121, 56.951381], [24.100156, 56.95133], [24.100188, 56.951283], [24.100182, 56.951282], [24.100191, 56.951271], [24.10018, 56.951269], [24.100194, 56.95125], [24.100178, 56.951246], [24.099782, 56.951154], [24.099793, 56.951151], [24.099801, 56.951146], [24.099806, 56.951139], [24.099807, 56.951133], [24.099804, 56.951126], [24.099798, 56.95112], [24.099788, 56.951116], [24.099777, 56.951113], [24.099764, 56.951113], [24.099752, 56.951115]], [[24.100488, 56.950856], [24.100513, 56.950864], [24.100538, 56.950873], [24.100672, 56.950919], [24.100826, 56.950972], [24.100881, 56.95099], [24.100927, 56.95095], [24.1011, 56.950796], [24.101117, 56.950781], [24.101134, 56.950767], [24.100974, 56.950714], [24.100949, 56.950735], [24.100893, 56.950716], [24.100841, 56.950699], [24.100863, 56.950679], [24.100742, 56.950639], [24.100488, 56.950856]]]}, "properties": {"display_name": "Rīgas Pils, 3, Pils laukums, Vecrīga, Latgales apkaime, Rīga, LV-1050, Latvija", "type": "castle", "osm_type": "relation", "osm_id": 1393926, "class": null, "keyword": "centro"}}, {"type": "Feature", "geometry": {"type": "Polygon", "coordinates": [[[24.104087, 56.948998], [24.104218, 56.948984], [24.104193, 56.948944], [24.104208, 56.948942], [24.104214, 56.948948], [24.104295, 56.948934], [24.104296, 56.948929], [24.104318, 56.948926], [24.104332, 56.94895], [24.104418, 56.948937], [24.104457, 56.948933], [24.104661, 56.948908], [24.104937, 56.948885], [24.104971, 56.948882], [24.10497, 56.948877], [24.104989, 56.948875], [24.104995, 56.948892], [24.105064, 56.948886], [24.105211, 56.948872], [24.105219, 56.948901], [24.105228, 56.948903], [24.105237, 56.948906], [24.105246, 56.94891], [24.105253, 56.948916], [24.105257, 56.948922], [24.105259, 56.94893], [24.10526, 56.948937], [24.105257, 56.948944], [24.105252, 56.948949], [24.105241, 56.948954], [24.105448, 56.948933], [24.105456, 56.948957], [24.105462, 56.948973], [24.105493, 56.948974], [24.105515, 56.948984], [24.105533, 56.948996], [24.105545, 56.94901], [24.105547, 56.949029], [24.105542, 56.949044], [24.105532, 56.949055], [24.105512, 56.949063], [24.105496, 56.949068], [24.105502, 56.949087], [24.105295, 56.94911], [24.105302, 56.949131], [24.105318, 56.949137], [24.105334, 56.949145], [24.105342, 56.949156], [24.105344, 56.949167], [24.105337, 56.949179], [24.105324, 56.949187], [24.105337, 56.949222], [24.104792, 56.949283], [24.104793, 56.949288], [24.104662, 56.949304], [24.104666, 56.949319], [24.104551, 56.94933], [24.104434, 56.949341], [24.104427, 56.949312], [24.104235, 56.949331], [24.104205, 56.949334], [24.104198, 56.949312], [24.10417, 56.94924], [24.104153, 56.949186], [24.104168, 56.949175], [24.104166, 56.949165], [24.10416, 56.949154], [24.104139, 56.949147], [24.104126, 56.949108], [24.104087, 56.948998]]]}, "properties": {"display_name": "Rīgas Doms, 6, Herdera laukums, Vecrīga, Latgales apkaime, Rīga, LV-1050, Latvija", "type": "place_of_worship", "osm_type": "way", "osm_id": 45105364, "class": null, "keyword": "centro"}}, {"type": "Feature", "geometry": {"type": "Polygon", "coordinates": [[[24.1045, 56.949917], [24.104618, 56.949912], [24.105186, 56.949909], [24.105187, 56.949916], [24.105263, 56.949956], [24.105273, 56.949956], [24.105274, 56.950244], [24.105261, 56.950244], [24.105262, 56.950254], [24.104743, 56.950206], [24.104683, 56.950206], [24.104596, 56.950204], [24.104622, 56.950123], [24.1045, 56.949917]], [[24.10473, 56.950151], [24.104764, 56.950151], [24.104927, 56.950153], [24.104934, 56.950021], [24.104737, 56.950018], [24.104735, 56.95005], [24.10473, 56.950151]]]}, "properties": {"display_name": "Mākslas muzejs \"Rīgas Birža\", 6, Doma laukums, Vecrīga, Latgales apkaime, Rīga, LV-1050, Latvija", "type": "museum", "osm_type": "relation", "osm_id": 9248240, "class": null, "keyword": "centro"}}, {"type": "Feature", "geometry": {"type": "Polygon", "coordinates": [[[24.109209, 56.948907], [24.109286, 56.94887], [24.109289, 56.948872], [24.109295, 56.948868], [24.109355, 56.94884], [24.109412, 56.948813], [24.109409, 56.948811], [24.109539, 56.94875], [24.109659, 56.948817], [24.109761, 56.948887], [24.109812, 56.948865], [24.110022, 56.949051], [24.1097, 56.949179], [24.109629, 56.949139], [24.109634, 56.949137], [24.109466, 56.949044], [24.109409, 56.949013], [24.109387, 56.949001], [24.109306, 56.948956], [24.109287, 56.948946], [24.109282, 56.948948], [24.109209, 56.948907]]]}, "properties": {"display_name": "Mihaila Čehova Rīgas Krievu teātris, 16, Kaļķu iela, Vecrīga, Latgales apkaime, Rīga, LV-1050, Latvija", "type": "theatre", "osm_type": "way", "osm_id": 129273125, "class": null, "keyword": "centro"}}, {"type": "Feature", "geometry": {"type": "Polygon", "coordinates": [[[24.105443, 56.952329], [24.105461, 56.952284], [24.105632, 56.952278], [24.105625, 56.952093], [24.105664, 56.952001], [24.105665, 56.951943], [24.10578, 56.951944], [24.105863, 56.951898], [24.105973, 56.951898], [24.105996, 56.952255], [24.106002, 56.952332], [24.106002, 56.952339], [24.105876, 56.95234], [24.105877, 56.952354], [24.105725, 56.952358], [24.105443, 56.952329]]]}, "properties": {"display_name": "Pullman Riga Old Town, 24, Jēkaba iela, Vecrīga, Latgales apkaime, Rīga, LV-1050, Latvija", "type": "hotel", "osm_type": "way", "osm_id": 632311284, "class": null, "keyword": "old town"}}, {"type": "Feature", "geometry": {"type": "Polygon", "coordinates": [[[24.109461, 56.9513], [24.109617, 56.951187], [24.109623, 56.951189], [24.109656, 56.951187], [24.109944, 56.95117], [24.110014, 56.951202], [24.110176, 56.951279], [24.110161, 56.951283], [24.110141, 56.951284], [24.109837, 56.951302], [24.10967, 56.951312], [24.10951, 56.951321], [24.109482, 56.95131], [24.109461, 56.9513]]]}, "properties": {"display_name": "Radisson Old Town Riga, 10, Zigfrīda Annas Meierovica bulvāris, Centra rajons, Vecrīga, Latgales apkaime, Rīga, LV-1050, Latvija", "type": "hotel", "osm_type": "way", "osm_id": 93867592, "class": null, "keyword": "old town"}}, {"type": "Feature", "geometry": {"type": "Polygon", "coordinates": [[[24.11012, 56.946426], [24.110454, 56.946286], [24.110508, 56.946322], [24.110622, 56.9464], [24.110538, 56.946444], [24.110272, 56.946549], [24.11012, 56.946426]]]}, "properties": {"display_name": "Reformātu baznīca, 10, Mārstaļu iela, Vecrīga, Latgales apkaime, Rīga, LV-1050, Latvija", "type": "place_of_worship", "osm_type": "way", "osm_id": 157821178, "class": null, "keyword": "centro"}}, {"type": "Feature", "geometry": {"type": "Polygon", "coordinates": [[[24.104074, 56.948446], [24.104616, 56.948392], [24.104653, 56.948504], [24.104142, 56.948556], [24.104116, 56.948559], [24.104113, 56.948549], [24.104104, 56.948549], [24.104103, 56.948546], [24.104113, 56.948538], [24.10411, 56.948529], [24.104107, 56.948519], [24.104091, 56.948514], [24.10409, 56.948511], [24.104098, 56.94851], [24.104074, 56.948446]]]}, "properties": {"display_name": "Rīgas vēstures un kuģniecības muzejs, 4, Palasta iela, Vecrīga, Latgales apkaime, Rīga, LV-1050, Latvija", "type": "museum", "osm_type": "way", "osm_id": 157821136, "class": null, "keyword": "centro"}}]}