{"type": "FeatureCollection", "features": [{"type": "Feature", "geometry": {"type": "Polygon", "coordinates": [[[141.457735, 43.036667], [141.457779, 43.035786], [141.460375, 43.035828], [141.460292, 43.03676], [141.457735, 43.036667]]]}, "properties": {"display_name": "札幌市立信濃中学校, 厚別旭町通, 厚別中央3条2, 厚別区, 札幌市, 石狩振興局, 北海道, 004-0053, 日本", "type": "school", "osm_type": "way", "osm_id": 795930378, "class": null, "keyword": "市中心"}}, {"type": "Feature", "geometry": {"type": "Polygon", "coordinates": [[[141.297964, 43.112382], [141.299032, 43.111775], [141.299094, 43.111778], [141.300339, 43.112963], [141.300336, 43.113019], [141.299252, 43.113622], [141.297964, 43.112382]]]}, "properties": {"display_name": "札幌市立新川西中学校, 1, 新川4条15丁目, 新川4条15, 北区, 札幌市, 石狩振興局, 北海道, 001-0924, 日本", "type": "school", "osm_type": "way", "osm_id": 131221282, "class": null, "keyword": "市中心"}}, {"type": "Feature", "geometry": {"type": "Polygon", "coordinates": [[[141.323044, 43.1217], [141.323048, 43.121656], [141.323463, 43.121451], [141.323625, 43.121364], [141.323752, 43.121485], [141.323864, 43.121413], [141.324277, 43.121817], [141.324939, 43.121453], [141.325728, 43.122248], [141.325726, 43.122292], [141.32468, 43.122849], [141.324436, 43.122615], [141.32413, 43.12278], [141.323328, 43.121991], [141.323044, 43.1217]]]}, "properties": {"display_name": "札幌市立新琴似北中学校, 46, 新琴似10条10, 北区, 札幌市, 石狩振興局, 北海道, 001-0910, 日本", "type": "school", "osm_type": "way", "osm_id": 131221284, "class": null, "keyword": "市中心"}}, {"type": "Feature", "geometry": {"type": "Polygon", "coordinates": [[[141.273123, 43.115483], [141.273993, 43.114816], [141.274073, 43.114816], [141.275626, 43.11592], [141.274693, 43.116621], [141.273123, 43.115522], [141.273123, 43.115483]]]}, "properties": {"display_name": "札幌市立新陵中学校, 1, 新発寒5条4丁目, 手稲区, 札幌市, 石狩振興局, 北海道, 006-0805, 日本", "type": "school", "osm_type": "way", "osm_id": 168992333, "class": null, "keyword": "市中心"}}, {"type": "Feature", "geometry": {"type": "Polygon", "coordinates": [[[141.327987, 43.113094], [141.328372, 43.112883], [141.328082, 43.112588], [141.329005, 43.112087], [141.329043, 43.112087], [141.330007, 43.113067], [141.329541, 43.113328], [141.329518, 43.11331], [141.328651, 43.113757], [141.327987, 43.113094]]]}, "properties": {"display_name": "札幌市立新琴似中学校, 1, 新琴似7条4, 北区, 札幌市, 石狩振興局, 北海道, 001-0907, 日本", "type": "school", "osm_type": "way", "osm_id": 131221283, "class": null, "keyword": "市中心"}}, {"type": "Feature", "geometry": {"type": "Polygon", "coordinates": [[[141.319809, 43.098695], [141.321071, 43.097773], [141.321777, 43.098636], [141.32177, 43.09868], [141.320524, 43.099584], [141.319809, 43.098695]]]}, "properties": {"display_name": "札幌市立新川中央小学校, 1, 新川3条3, 北区, 札幌市, 石狩振興局, 北海道, 001-0923, 日本", "type": "school", "osm_type": "way", "osm_id": 131196575, "class": null, "keyword": "市中心"}}, {"type": "Feature", "geometry": {"type": "Polygon", "coordinates": [[[141.321169, 43.099254], [141.322324, 43.098431], [141.322845, 43.09901], [141.323085, 43.099276], [141.322822, 43.099468], [141.321912, 43.100131], [141.321169, 43.099254]]]}, "properties": {"display_name": "札幌市立新川中学校, 1, 新川4条3, 北区, 札幌市, 石狩振興局, 北海道, 001-0924, 日本", "type": "school", "osm_type": "way", "osm_id": 131221281, "class": null, "keyword": "市中心"}}, {"type": "Feature", "geometry": {"type": "Polygon", "coordinates": [[[141.319496, 43.119901], [141.320116, 43.119558], [141.320449, 43.119892], [141.320859, 43.119666], [141.321441, 43.120255], [141.321439, 43.120299], [141.320452, 43.120825], [141.320423, 43.120825], [141.319496, 43.119901]]]}, "properties": {"display_name": "新琴似中央公園, 新琴似8条11, 北区, 札幌市, 石狩振興局, 北海道, 日本", "type": "park", "osm_type": "way", "osm_id": 428931909, "class": null, "keyword": "市中心"}}, {"type": "Feature", "geometry": {"type": "Polygon", "coordinates": [[[141.324594, 43.111359], [141.324743, 43.111283], [141.324833, 43.111369], [141.324686, 43.111446], [141.324594, 43.111359]]]}, "properties": {"display_name": "新琴似安春中央公園, 新琴似5条5, 北区, 札幌市, 石狩振興局, 北海道, 日本", "type": "park", "osm_type": "way", "osm_id": 523920004, "class": null, "keyword": "市中心"}}]}