{"type": "FeatureCollection", "features": [{"type": "Feature", "geometry": {"type": "Polygon", "coordinates": [[[-106.670229, 52.143863], [-106.670225, 52.137027], [-106.670175, 52.133632], [-106.670175, 52.133279], [-106.669612, 52.133308], [-106.668931, 52.133359], [-106.668303, 52.133449], [-106.667388, 52.133618], [-106.666325, 52.133873], [-106.666019, 52.13392], [-106.665523, 52.133935], [-106.664643, 52.133947], [-106.664436, 52.133944], [-106.664354, 52.134128], [-106.663128, 52.13673], [-106.660689, 52.14193], [-106.659848, 52.142809], [-106.659284, 52.143136], [-106.658336, 52.143559], [-106.658097, 52.143554], [-106.658055, 52.143695], [-106.658794, 52.143707], [-106.659268, 52.14373], [-106.660859, 52.143843], [-106.661481, 52.143867], [-106.662018, 52.143871], [-106.663167, 52.143872], [-106.66332, 52.143873], [-106.663471, 52.143873], [-106.664953, 52.143874], [-106.665377, 52.143874], [-106.666116, 52.143876], [-106.666864, 52.143876], [-106.668111, 52.143874], [-106.668217, 52.143873], [-106.668981, 52.143868], [-106.669017, 52.143867], [-106.669451, 52.143864], [-106.66953, 52.143863], [-106.67006, 52.143863], [-106.670166, 52.143863], [-106.670229, 52.143863]]]}, "properties": {"display_name": "Central Industrial, Lawson Sector, Saskatoon, Saskatchewan, Canada", "type": "administrative", "osm_type": "relation", "osm_id": 19109533, "class": null, "keyword": "central area"}}, {"type": "Feature", "geometry": {"type": "Polygon", "coordinates": [[[-106.653887, 52.160168], [-106.653871, 52.159305], [-106.65387, 52.159247], [-106.653852, 52.158232], [-106.651634, 52.158223], [-106.651534, 52.158266], [-106.651409, 52.158457], [-106.651341, 52.158518], [-106.651103, 52.158612], [-106.650049, 52.158766], [-106.649914, 52.158829], [-106.649832, 52.158886], [-106.649733, 52.159103], [-106.649494, 52.159988], [-106.650982, 52.160162], [-106.651291, 52.16017], [-106.653887, 52.160168]]]}, "properties": {"display_name": "River City Centre, 810, Saskatoon, Saskatchewan, S7K 3T8, Canada", "type": "retail", "osm_type": "way", "osm_id": 291706534, "class": null, "keyword": "city centre"}}, {"type": "Feature", "geometry": {"type": "Polygon", "coordinates": [[[-106.747909, 52.127323], [-106.747909, 52.126649], [-106.747909, 52.126503], [-106.744253, 52.126515], [-106.743899, 52.126525], [-106.743907, 52.127184], [-106.743919, 52.127457], [-106.743928, 52.127543], [-106.743944, 52.127623], [-106.743976, 52.1277], [-106.744047, 52.127822], [-106.744123, 52.127897], [-106.744217, 52.127964], [-106.744324, 52.128024], [-106.744434, 52.128069], [-106.744615, 52.128125], [-106.744747, 52.128155], [-106.744901, 52.128172], [-106.745173, 52.128174], [-106.745401, 52.128174], [-106.746717, 52.128166], [-106.746877, 52.128164], [-106.747064, 52.128149], [-106.747229, 52.128121], [-106.747351, 52.128089], [-106.747491, 52.128028], [-106.747618, 52.127953], [-106.747762, 52.127825], [-106.747831, 52.127736], [-106.747873, 52.127651], [-106.747892, 52.127576], [-106.747904, 52.127477], [-106.747909, 52.127323]]]}, "properties": {"display_name": "Morris T. Cherneskey Central, Blairmore Suburban Centre, Blairmore Sector, Saskatoon, Saskatchewan, S7M 0L1, Canada", "type": "park", "osm_type": "way", "osm_id": 287417089, "class": null, "keyword": "central area"}}, {"type": "Feature", "geometry": {"type": "Polygon", "coordinates": [[[-106.668978, 52.12705], [-106.668905, 52.127036], [-106.668921, 52.127002], [-106.668551, 52.126935], [-106.668527, 52.126986], [-106.66839, 52.126961], [-106.668546, 52.126638], [-106.66868, 52.126358], [-106.66718, 52.126086], [-106.666905, 52.126657], [-106.667031, 52.12668], [-106.666725, 52.127316], [-106.666605, 52.127294], [-106.666462, 52.127591], [-106.666377, 52.127768], [-106.666479, 52.127786], [-106.666246, 52.128275], [-106.666209, 52.128352], [-106.66611, 52.128334], [-106.665868, 52.128851], [-106.665967, 52.12887], [-106.665928, 52.128952], [-106.666806, 52.12911], [-106.666843, 52.129031], [-106.666949, 52.12905], [-106.667234, 52.128451], [-106.66727, 52.128375], [-106.66744, 52.128405], [-106.667623, 52.128021], [-106.667809, 52.128054], [-106.667834, 52.128002], [-106.66797, 52.128027], [-106.668028, 52.127905], [-106.668285, 52.127951], [-106.668334, 52.127849], [-106.668475, 52.127874], [-106.668634, 52.127541], [-106.668734, 52.127559], [-106.668978, 52.12705]]]}, "properties": {"display_name": "Midtown Plaza, 201, 1st Avenue South, Central Business District, Saskatoon, Saskatchewan, S7K 1J9, Canada", "type": "mall", "osm_type": "way", "osm_id": 23452586, "class": null, "keyword": "midtown"}}, {"type": "Feature", "geometry": {"type": "Polygon", "coordinates": [[[-106.667908, 52.129418], [-106.666622, 52.129403], [-106.666223, 52.129344], [-106.665539, 52.130637], [-106.667344, 52.130949], [-106.667908, 52.129418]]]}, "properties": {"display_name": "Midtown Plaza Parking, Pacific Avenue, Central Business District, Saskatoon, Saskatchewan, S7K 1N4, Canada", "type": "parking", "osm_type": "way", "osm_id": 23452397, "class": null, "keyword": "midtown"}}, {"type": "Feature", "geometry": {"type": "Polygon", "coordinates": [[[-106.669748, 52.125533], [-106.669576, 52.125127], [-106.669319, 52.125174], [-106.669336, 52.125211], [-106.668993, 52.125275], [-106.668967, 52.125233], [-106.668821, 52.125269], [-106.668477, 52.1246], [-106.668057, 52.124563], [-106.667851, 52.124758], [-106.667593, 52.125085], [-106.667567, 52.125185], [-106.667284, 52.125738], [-106.667988, 52.125865], [-106.669404, 52.125912], [-106.669533, 52.125875], [-106.66967, 52.125754], [-106.669739, 52.125638], [-106.669748, 52.125533]]]}, "properties": {"display_name": "Midtown Plaza Parking, 1st Avenue South, Central Business District, Saskatoon, Saskatchewan, S7K 1L1, Canada", "type": "parking", "osm_type": "way", "osm_id": 23452430, "class": null, "keyword": "midtown"}}, {"type": "Feature", "geometry": {"type": "Polygon", "coordinates": [[[-106.674902, 52.129841], [-106.674598, 52.129847], [-106.674478, 52.130033], [-106.674472, 52.130387], [-106.674625, 52.130496], [-106.674902, 52.130493], [-106.674902, 52.129841]]]}, "properties": {"display_name": "City Centre Bingo, Avenue D North, Caswell Hill, Saskatoon, Saskatchewan, S7M 5P2, Canada", "type": "commercial", "osm_type": "way", "osm_id": 267076512, "class": null, "keyword": "city centre"}}, {"type": "Feature", "geometry": {"type": "Polygon", "coordinates": [[[-106.667505, 52.127581], [-106.667091, 52.127509], [-106.666973, 52.127766], [-106.667388, 52.127838], [-106.667505, 52.127581]]]}, "properties": {"display_name": "Midtown Tower, 201, 1st Avenue South, Central Business District, Saskatoon, Saskatchewan, S7K 1J9, Canada", "type": "commercial", "osm_type": "way", "osm_id": 427481995, "class": null, "keyword": "midtown"}}, {"type": "Feature", "geometry": {"type": "Polygon", "coordinates": [[[-106.662862, 52.128737], [-106.662423, 52.128649], [-106.662333, 52.128836], [-106.662778, 52.128914], [-106.662862, 52.128737]]]}, "properties": {"display_name": "Financial Building, 230, 22nd Street East, Central Business District, Saskatoon, Saskatchewan, S7K 0E9, Canada", "type": "yes", "osm_type": "way", "osm_id": 469844402, "class": null, "keyword": "financial district"}}]}