{"type": "FeatureCollection", "features": [{"type": "Feature", "geometry": {"type": "Polygon", "coordinates": [[[-81.101593, 32.068757], [-81.08893, 32.065427], [-81.088246, 32.067232], [-81.086262, 32.07247], [-81.086212, 32.0726], [-81.083429, 32.079943], [-81.084509, 32.080319], [-81.084516, 32.080355], [-81.08529, 32.080637], [-81.086155, 32.080837], [-81.086889, 32.080986], [-81.086895, 32.08097], [-81.086973, 32.080988], [-81.086982, 32.080956], [-81.087288, 32.081015], [-81.087328, 32.080885], [-81.087579, 32.080932], [-81.087554, 32.081059], [-81.088518, 32.081236], [-81.088552, 32.081248], [-81.090464, 32.081741], [-81.090703, 32.081803], [-81.090907, 32.081863], [-81.091413, 32.082013], [-81.091879, 32.082151], [-81.092916, 32.082556], [-81.093611, 32.082878], [-81.093606, 32.082917], [-81.093965, 32.083107], [-81.094198, 32.083205], [-81.094277, 32.083176], [-81.094286, 32.08318], [-81.094308, 32.08319], [-81.095239, 32.083732], [-81.095317, 32.083778], [-81.095339, 32.083791], [-81.095877, 32.084122], [-81.098077, 32.078417], [-81.098714, 32.076706], [-81.101593, 32.068757]]]}, "properties": {"display_name": "Savannah Historic District, Savannah, Chatham County, Georgia, United States", "type": "suburb", "osm_type": "way", "osm_id": 330248927, "class": null, "keyword": "suburb"}}, {"type": "Feature", "geometry": {"type": "Polygon", "coordinates": [[[-81.094207, 32.045599], [-81.092011, 32.045011], [-81.091537, 32.046399], [-81.093702, 32.04698], [-81.094207, 32.045599]]]}, "properties": {"display_name": "Savannah Arts Academy, 500, Washington Avenue, Ardsley Park-Chatham Crescent Historic District, Savannah, Chatham County, Georgia, 31405, United States", "type": "school", "osm_type": "way", "osm_id": 121661795, "class": null, "keyword": "district"}}, {"type": "Feature", "geometry": {"type": "Polygon", "coordinates": [[[-81.097634, 32.076104], [-81.09689, 32.075891], [-81.096323, 32.077421], [-81.096666, 32.07752], [-81.097042, 32.077628], [-81.097634, 32.076104]]]}, "properties": {"display_name": "Savannah Civic Center, 301, West Oglethorpe Avenue, Savannah Historic District, Savannah, Chatham County, Georgia, 31401, United States", "type": "yes", "osm_type": "way", "osm_id": 634029102, "class": null, "keyword": "district"}}, {"type": "Feature", "geometry": {"type": "Polygon", "coordinates": [[[-81.093538, 32.045775], [-81.093005, 32.045634], [-81.092493, 32.045498], [-81.092211, 32.046262], [-81.092195, 32.046306], [-81.09324, 32.046583], [-81.093538, 32.045775]], [[-81.093276, 32.045871], [-81.093106, 32.046339], [-81.092943, 32.046297], [-81.093112, 32.045828], [-81.093276, 32.045871]], [[-81.092798, 32.045736], [-81.092714, 32.045969], [-81.092752, 32.045979], [-81.092656, 32.046244], [-81.092482, 32.046198], [-81.092662, 32.045701], [-81.092798, 32.045736]]]}, "properties": {"display_name": "Savannah Arts Academy, 500, Washington Avenue, Ardsley Park-Chatham Crescent Historic District, Savannah, Chatham County, Georgia, 31405, United States", "type": "school", "osm_type": "relation", "osm_id": 1663060, "class": null, "keyword": "district"}}, {"type": "Feature", "geometry": {"type": "Polygon", "coordinates": [[[-81.113363, 32.010418], [-81.113175, 32.01037], [-81.112912, 32.011106], [-81.112752, 32.011065], [-81.112733, 32.011117], [-81.112662, 32.011099], [-81.112771, 32.010797], [-81.112913, 32.010833], [-81.112926, 32.010797], [-81.112807, 32.010766], [-81.112976, 32.010292], [-81.112895, 32.010271], [-81.112972, 32.010056], [-81.112853, 32.010026], [-81.11241, 32.011266], [-81.112646, 32.011326], [-81.112624, 32.011386], [-81.112852, 32.011445], [-81.112822, 32.011529], [-81.112954, 32.011564], [-81.113363, 32.010418]]]}, "properties": {"display_name": "Quality Inn Midtown, 7100, Abercorn Street, Savannah, Chatham County, Georgia, 31406, United States", "type": "hotel", "osm_type": "way", "osm_id": 956664646, "class": null, "keyword": "midtown"}}, {"type": "Feature", "geometry": {"type": "Polygon", "coordinates": [[[-81.113214, 32.021242], [-81.113162, 32.021229], [-81.113192, 32.021203], [-81.112989, 32.02115], [-81.112959, 32.021233], [-81.112849, 32.021207], [-81.112663, 32.021152], [-81.112649, 32.021116], [-81.112691, 32.021017], [-81.112672, 32.020982], [-81.112564, 32.020952], [-81.112555, 32.020972], [-81.112481, 32.020947], [-81.112495, 32.020923], [-81.112389, 32.020896], [-81.112382, 32.020923], [-81.112301, 32.020901], [-81.112311, 32.020881], [-81.112203, 32.020851], [-81.112198, 32.020874], [-81.112169, 32.020869], [-81.112164, 32.02089], [-81.112139, 32.02089], [-81.112116, 32.020941], [-81.112138, 32.02095], [-81.112125, 32.020985], [-81.11215, 32.020992], [-81.112139, 32.021015], [-81.112274, 32.021056], [-81.112352, 32.021078], [-81.112407, 32.021091], [-81.112442, 32.021123], [-81.112341, 32.021126], [-81.112302, 32.021126], [-81.112299, 32.02111], [-81.11224, 32.021113], [-81.1122, 32.021111], [-81.112196, 32.021085], [-81.112095, 32.021085], [-81.1121, 32.021164], [-81.112072, 32.021172], [-81.112072, 32.021285], [-81.112095, 32.021287], [-81.112095, 32.021352], [-81.11206, 32.021378], [-81.112042, 32.021396], [-81.112021, 32.021398], [-81.111994, 32.021398], [-81.111952, 32.021455], [-81.111968, 32.021482], [-81.111954, 32.021498], [-81.111916, 32.021519], [-81.111885, 32.021518], [-81.111863, 32.021542], [-81.111837, 32.021584], [-81.111851, 32.021603], [-81.111835, 32.021638], [-81.111955, 32.021704], [-81.111987, 32.021705], [-81.112044, 32.021633], [-81.11209, 32.021606], [-81.112115, 32.021549], [-81.112182, 32.021486], [-81.112214, 32.021465], [-81.112341, 32.021458], [-81.112414, 32.021401], [-81.11244, 32.021408], [-81.112435, 32.021435], [-81.112607, 32.021483], [-81.112628, 32.021489], [-81.112704, 32.02151], [-81.112718, 32.021482], [-81.112759, 32.021494], [-81.112753, 32.021525], [-81.112837, 32.021551], [-81.112851, 32.021518], [-81.11287, 32.021524], [-81.112854, 32.021555], [-81.112879, 32.021564], [-81.112877, 32.021593], [-81.112934, 32.021605], [-81.11295, 32.021581], [-81.112991, 32.021593], [-81.11301, 32.021539], [-81.11306, 32.021549], [-81.113067, 32.021516], [-81.113099, 32.021525], [-81.113125, 32.021458], [-81.113093, 32.021447], [-81.113106, 32.021425], [-81.113106, 32.02141], [-81.11313, 32.021416], [-81.113162, 32.021335], [-81.113132, 32.021324], [-81.113141, 32.021288], [-81.113192, 32.021303], [-81.113214, 32.021242]]]}, "properties": {"display_name": "Homewood Suites by Hilton Savannah Midtown, 5820, White Bluff Road, Groveland, Savannah, Chatham County, Georgia, 31405, United States", "type": "hotel", "osm_type": "way", "osm_id": 912138393, "class": null, "keyword": "midtown"}}, {"type": "Feature", "geometry": {"type": "Polygon", "coordinates": [[[-81.112131, 32.014714], [-81.112082, 32.014702], [-81.112021, 32.014686], [-81.112011, 32.014713], [-81.111999, 32.014709], [-81.112043, 32.014586], [-81.112054, 32.014589], [-81.112094, 32.014475], [-81.111866, 32.014416], [-81.11187, 32.014404], [-81.11135, 32.01427], [-81.111339, 32.014301], [-81.111249, 32.014277], [-81.111222, 32.014351], [-81.111204, 32.014346], [-81.111165, 32.014454], [-81.111178, 32.014457], [-81.111151, 32.014533], [-81.111131, 32.014528], [-81.111079, 32.014674], [-81.111088, 32.014677], [-81.111073, 32.014718], [-81.111161, 32.014741], [-81.111152, 32.014769], [-81.111241, 32.014792], [-81.111248, 32.014771], [-81.111283, 32.01478], [-81.111274, 32.014805], [-81.111356, 32.014826], [-81.111351, 32.014841], [-81.11149, 32.014877], [-81.111495, 32.014865], [-81.111541, 32.014877], [-81.111535, 32.014894], [-81.111665, 32.014927], [-81.111668, 32.014919], [-81.11171, 32.01493], [-81.111714, 32.01492], [-81.111749, 32.014929], [-81.111746, 32.014938], [-81.111844, 32.014964], [-81.11185, 32.014945], [-81.111913, 32.014961], [-81.111944, 32.014874], [-81.111934, 32.014871], [-81.111978, 32.014745], [-81.111996, 32.01475], [-81.111986, 32.014778], [-81.112048, 32.014794], [-81.112098, 32.014807], [-81.112131, 32.014714]]]}, "properties": {"display_name": "Clarion Inn & Suites Savannah Midtown, 6800, Abercorn Street, Habersham Woods, Savannah, Chatham County, Georgia, 31405, United States", "type": "hotel", "osm_type": "way", "osm_id": 950230362, "class": null, "keyword": "midtown"}}, {"type": "Feature", "geometry": {"type": "Polygon", "coordinates": [[[-81.093681, 32.073981], [-81.093419, 32.073913], [-81.093286, 32.073878], [-81.093261, 32.073946], [-81.092747, 32.073812], [-81.092594, 32.074235], [-81.093242, 32.074404], [-81.093504, 32.074472], [-81.093546, 32.074356], [-81.093681, 32.073981]]]}, "properties": {"display_name": "Desoto Savannah, 15, East Liberty Street, Savannah Historic District, Savannah, Chatham County, Georgia, 31401, United States", "type": "hotel", "osm_type": "way", "osm_id": 533263975, "class": null, "keyword": "district"}}, {"type": "Feature", "geometry": {"type": "Polygon", "coordinates": [[[-81.085936, 32.035318], [-81.085918, 32.035297], [-81.085379, 32.03517], [-81.085148, 32.035781], [-81.085751, 32.035931], [-81.085936, 32.035318]]]}, "properties": {"display_name": "Edgemere Sackville Neighborhood Park, Edgemere, Savannah, Chatham County, Georgia, United States", "type": "park", "osm_type": "way", "osm_id": 1303134127, "class": null, "keyword": "neighborhood"}}, {"type": "Feature", "geometry": {"type": "Polygon", "coordinates": [[[-81.09597, 32.083537], [-81.095731, 32.083415], [-81.095293, 32.083194], [-81.095261, 32.083239], [-81.095183, 32.0832], [-81.095069, 32.083142], [-81.094982, 32.083266], [-81.094916, 32.083232], [-81.094838, 32.083342], [-81.094854, 32.083389], [-81.095352, 32.083651], [-81.095717, 32.083842], [-81.095806, 32.08372], [-81.095889, 32.083763], [-81.095929, 32.08365], [-81.09597, 32.083537]]]}, "properties": {"display_name": "JW Marriott Savannah Plant Riverside District, 400, West River Street, Savannah Historic District, Savannah, Chatham County, Georgia, 31401, United States", "type": "hotel", "osm_type": "way", "osm_id": 365721327, "class": null, "keyword": "district"}}, {"type": "Feature", "geometry": {"type": "Polygon", "coordinates": [[[-81.095388, 32.082122], [-81.095304, 32.0821], [-81.095264, 32.082207], [-81.095169, 32.082181], [-81.095182, 32.082146], [-81.095137, 32.082135], [-81.095134, 32.082139], [-81.094478, 32.081972], [-81.094374, 32.082283], [-81.09495, 32.082501], [-81.094948, 32.082506], [-81.095223, 32.082582], [-81.095335, 32.082293], [-81.095331, 32.082292], [-81.095388, 32.082122]]]}, "properties": {"display_name": "Quality Inn Savannah Historic District, 300, West Bay Street, Savannah Historic District, Savannah, Chatham County, Georgia, 31401, United States", "type": "hotel", "osm_type": "way", "osm_id": 949857756, "class": null, "keyword": "district"}}, {"type": "Feature", "geometry": {"type": "Polygon", "coordinates": [[[-81.114716, 32.016389], [-81.114369, 32.016303], [-81.114356, 32.016343], [-81.114277, 32.016323], [-81.114291, 32.016281], [-81.114045, 32.01622], [-81.114029, 32.016266], [-81.114005, 32.01626], [-81.113998, 32.01628], [-81.113923, 32.016261], [-81.113914, 32.016288], [-81.113851, 32.016273], [-81.113736, 32.016613], [-81.113788, 32.016625], [-81.113771, 32.016677], [-81.113867, 32.0167], [-81.113854, 32.016739], [-81.114127, 32.016805], [-81.114144, 32.016755], [-81.114221, 32.016773], [-81.114207, 32.016815], [-81.114544, 32.016897], [-81.114587, 32.01677], [-81.114502, 32.016749], [-81.114517, 32.016706], [-81.114046, 32.016592], [-81.114033, 32.016629], [-81.113995, 32.01662], [-81.113983, 32.016657], [-81.113959, 32.016651], [-81.114064, 32.016342], [-81.114081, 32.016346], [-81.11407, 32.016379], [-81.114116, 32.01639], [-81.114103, 32.016428], [-81.114579, 32.016546], [-81.114592, 32.016507], [-81.114669, 32.016526], [-81.114716, 32.016389]]]}, "properties": {"display_name": "Courtyard Savannah Midtown, 6703, Abercorn Street, Habersham Woods, Savannah, Chatham County, Georgia, 31405, United States", "type": "hotel", "osm_type": "way", "osm_id": 829880260, "class": null, "keyword": "midtown"}}, {"type": "Feature", "geometry": {"type": "Polygon", "coordinates": [[[-81.095106, 32.067045], [-81.0951, 32.067034], [-81.095089, 32.067028], [-81.095075, 32.067028], [-81.095066, 32.067031], [-81.095063, 32.067032], [-81.094964, 32.067006], [-81.094959, 32.06702], [-81.094952, 32.067018], [-81.09495, 32.067005], [-81.094931, 32.067], [-81.094918, 32.067005], [-81.094912, 32.066995], [-81.094896, 32.066991], [-81.094885, 32.066994], [-81.094887, 32.066987], [-81.094671, 32.066932], [-81.094674, 32.066923], [-81.094619, 32.066909], [-81.094591, 32.066987], [-81.094582, 32.066984], [-81.094561, 32.067043], [-81.094566, 32.067044], [-81.094538, 32.067122], [-81.094594, 32.067136], [-81.094598, 32.067123], [-81.094813, 32.067179], [-81.094807, 32.067195], [-81.094774, 32.067187], [-81.094766, 32.067209], [-81.094781, 32.067213], [-81.094779, 32.067218], [-81.094764, 32.067214], [-81.094759, 32.067227], [-81.094738, 32.067222], [-81.09475, 32.067189], [-81.094656, 32.067164], [-81.094628, 32.067243], [-81.094692, 32.067259], [-81.094687, 32.067275], [-81.094682, 32.067274], [-81.094679, 32.067284], [-81.094656, 32.067278], [-81.094661, 32.067266], [-81.094633, 32.067259], [-81.094629, 32.067271], [-81.094613, 32.067267], [-81.094618, 32.067255], [-81.094591, 32.067248], [-81.094587, 32.067259], [-81.094569, 32.067255], [-81.094573, 32.067243], [-81.094556, 32.067238], [-81.094557, 32.067235], [-81.094499, 32.06722], [-81.094472, 32.067296], [-81.094443, 32.067288], [-81.094423, 32.067344], [-81.09445, 32.067351], [-81.094419, 32.06744], [-81.094408, 32.067437], [-81.094398, 32.067463], [-81.094461, 32.06748], [-81.094463, 32.067475], [-81.094488, 32.067481], [-81.094429, 32.067649], [-81.094418, 32.067651], [-81.094413, 32.067654], [-81.094411, 32.067658], [-81.09441, 32.067662], [-81.094412, 32.067667], [-81.094419, 32.067671], [-81.094657, 32.067733], [-81.09467, 32.067699], [-81.094716, 32.067711], [-81.094718, 32.067706], [-81.094752, 32.067715], [-81.094751, 32.067717], [-81.094751, 32.067722], [-81.094751, 32.067725], [-81.094752, 32.067728], [-81.094753, 32.067731], [-81.094756, 32.067733], [-81.094758, 32.067735], [-81.094762, 32.067737], [-81.094763, 32.067738], [-81.09477, 32.06774], [-81.094776, 32.06774], [-81.094779, 32.06774], [-81.094783, 32.067739], [-81.094786, 32.067738], [-81.094789, 32.067736], [-81.094792, 32.067734], [-81.094794, 32.067731], [-81.094795, 32.067729], [-81.094797, 32.067723], [-81.094798, 32.067718], [-81.094797, 32.067715], [-81.094796, 32.067712], [-81.094795, 32.067709], [-81.094793, 32.067707], [-81.09479, 32.067704], [-81.094787, 32.067703], [-81.094785, 32.067702], [-81.094779, 32.0677], [-81.094788, 32.067675], [-81.094811, 32.067681], [-81.094842, 32.067595], [-81.094827, 32.067591], [-81.094837, 32.067561], [-81.094744, 32.067537], [-81.094751, 32.067518], [-81.094692, 32.067503], [-81.094704, 32.06747], [-81.09483, 32.067503], [-81.09485, 32.067446], [-81.094839, 32.067443], [-81.09491, 32.067243], [-81.094981, 32.067261], [-81.094982, 32.067269], [-81.094986, 32.067275], [-81.09499, 32.067278], [-81.094996, 32.067281], [-81.095001, 32.067282], [-81.095007, 32.067282], [-81.095012, 32.06728], [-81.095018, 32.067277], [-81.095022, 32.067273], [-81.095025, 32.067264], [-81.095024, 32.067257], [-81.095021, 32.067252], [-81.095014, 32.067248], [-81.095019, 32.067232], [-81.095035, 32.067236], [-81.09509, 32.067081], [-81.09508, 32.067078], [-81.095085, 32.067065], [-81.095094, 32.067064], [-81.095102, 32.067058], [-81.095106, 32.067045]]]}, "properties": {"display_name": "Hotel Bardo Savannah, 700, Drayton Street, Savannah Historic District, Savannah, Chatham County, Georgia, 31401, United States", "type": "hotel", "osm_type": "way", "osm_id": 950239228, "class": null, "keyword": "district"}}, {"type": "Feature", "geometry": {"type": "Polygon", "coordinates": [[[-81.100456, 32.076273], [-81.099273, 32.075955], [-81.09919, 32.076189], [-81.100375, 32.076496], [-81.100456, 32.076273]]]}, "properties": {"display_name": "Savannah History Museum, Louisville Road, Savannah Historic District, Savannah, Chatham County, Georgia, 31401, United States", "type": "museum", "osm_type": "way", "osm_id": 566232312, "class": null, "keyword": "district"}}, {"type": "Feature", "geometry": {"type": "Polygon", "coordinates": [[[-81.097996, 32.077537], [-81.097963, 32.077522], [-81.097984, 32.077465], [-81.097443, 32.077311], [-81.097353, 32.077541], [-81.097388, 32.077585], [-81.097312, 32.077798], [-81.097338, 32.077805], [-81.097305, 32.077889], [-81.097394, 32.077913], [-81.097472, 32.077922], [-81.097564, 32.077915], [-81.097646, 32.077887], [-81.097713, 32.077838], [-81.097761, 32.077801], [-81.09766, 32.077737], [-81.097677, 32.077687], [-81.097924, 32.077742], [-81.097996, 32.077537]]]}, "properties": {"display_name": "Savannah Cultural Arts Center, 201, Montgomery Street, Savannah Historic District, Savannah, Chatham County, Georgia, 31401, United States", "type": "arts_centre", "osm_type": "way", "osm_id": 384222085, "class": null, "keyword": "district"}}, {"type": "Feature", "geometry": {"type": "Polygon", "coordinates": [[[-81.091284, 32.046757], [-81.09125, 32.046749], [-81.091256, 32.046731], [-81.09122, 32.046722], [-81.091224, 32.046709], [-81.091181, 32.046699], [-81.091177, 32.046711], [-81.091163, 32.046708], [-81.091156, 32.046727], [-81.091109, 32.046715], [-81.091108, 32.04672], [-81.090929, 32.046676], [-81.09092, 32.046702], [-81.090898, 32.046696], [-81.090878, 32.046754], [-81.090785, 32.046731], [-81.090807, 32.046669], [-81.090666, 32.046635], [-81.090603, 32.046819], [-81.090572, 32.046811], [-81.090584, 32.046777], [-81.09047, 32.046749], [-81.090463, 32.046769], [-81.090427, 32.04676], [-81.090415, 32.046796], [-81.090401, 32.046792], [-81.090428, 32.046712], [-81.090375, 32.046699], [-81.090372, 32.046708], [-81.090309, 32.046693], [-81.090289, 32.046751], [-81.090276, 32.046748], [-81.090264, 32.046782], [-81.090231, 32.046774], [-81.090214, 32.046825], [-81.090291, 32.046844], [-81.090285, 32.046863], [-81.090321, 32.046872], [-81.090324, 32.046863], [-81.09037, 32.046874], [-81.090376, 32.046856], [-81.090396, 32.046861], [-81.090378, 32.046914], [-81.090503, 32.046944], [-81.090509, 32.046927], [-81.090573, 32.046943], [-81.090566, 32.046962], [-81.090703, 32.046996], [-81.090712, 32.04697], [-81.090791, 32.04699], [-81.090784, 32.04701], [-81.091021, 32.047069], [-81.091026, 32.047054], [-81.091048, 32.047059], [-81.091051, 32.04705], [-81.091134, 32.04707], [-81.091154, 32.047011], [-81.091193, 32.047021], [-81.091284, 32.046757]]]}, "properties": {"display_name": "First Presbyterian Church of Savannah, East 46th Street, Ardsley Park-Chatham Crescent Historic District, Savannah, Chatham County, Georgia, 31401, United States", "type": "place_of_worship", "osm_type": "way", "osm_id": 954046357, "class": null, "keyword": "district"}}, {"type": "Feature", "geometry": {"type": "Polygon", "coordinates": [[[-81.093562, 32.080844], [-81.092638, 32.080601], [-81.092582, 32.080753], [-81.092565, 32.080799], [-81.092551, 32.080837], [-81.092749, 32.080889], [-81.092775, 32.080816], [-81.093325, 32.080961], [-81.093297, 32.081037], [-81.093474, 32.081084], [-81.093562, 32.080844]]]}, "properties": {"display_name": "Andaz Savannah, West Bryan Street, Savannah Historic District, Savannah, Chatham County, Georgia, 31412, United States", "type": "hotel", "osm_type": "way", "osm_id": 365616681, "class": null, "keyword": "district"}}, {"type": "Feature", "geometry": {"type": "Polygon", "coordinates": [[[-81.112892, 32.021998], [-81.112819, 32.021981], [-81.112825, 32.021962], [-81.11279, 32.021953], [-81.112783, 32.021972], [-81.112723, 32.021958], [-81.112657, 32.022156], [-81.112496, 32.022117], [-81.112506, 32.022087], [-81.112609, 32.022112], [-81.112655, 32.021976], [-81.112674, 32.02198], [-81.112694, 32.02192], [-81.112548, 32.021885], [-81.112528, 32.021944], [-81.112346, 32.0219], [-81.112308, 32.022015], [-81.112488, 32.022058], [-81.112478, 32.022087], [-81.112483, 32.022088], [-81.112477, 32.022105], [-81.112189, 32.022035], [-81.11217, 32.022093], [-81.112144, 32.022087], [-81.112132, 32.022124], [-81.112157, 32.02213], [-81.112139, 32.022184], [-81.112678, 32.022315], [-81.112675, 32.022324], [-81.112773, 32.022348], [-81.112892, 32.021998]]]}, "properties": {"display_name": "Residence Inn Savannah Midtown, 5710, White Bluff Road, Groveland, Savannah, Chatham County, Georgia, 31405, United States", "type": "hotel", "osm_type": "way", "osm_id": 658494183, "class": null, "keyword": "midtown"}}, {"type": "Feature", "geometry": {"type": "Polygon", "coordinates": [[[-81.096849, 32.078178], [-81.096113, 32.077984], [-81.096026, 32.078222], [-81.096457, 32.078336], [-81.09647, 32.078299], [-81.096618, 32.078338], [-81.096605, 32.078375], [-81.096762, 32.078416], [-81.096849, 32.078178]]]}, "properties": {"display_name": "SpringHill Suites Savannah Downtown/Historic District, 150, Montgomery Street, Savannah Historic District, Savannah, Chatham County, Georgia, 31401, United States", "type": "hotel", "osm_type": "way", "osm_id": 829903076, "class": null, "keyword": "downtown"}}, {"type": "Feature", "geometry": {"type": "Polygon", "coordinates": [[[-81.100566, 32.075134], [-81.100544, 32.075127], [-81.100566, 32.075063], [-81.100132, 32.074953], [-81.100137, 32.074913], [-81.100052, 32.074889], [-81.100029, 32.074928], [-81.099966, 32.07491], [-81.099945, 32.074967], [-81.099926, 32.074962], [-81.099828, 32.075232], [-81.099845, 32.075235], [-81.099823, 32.075297], [-81.099889, 32.075314], [-81.099886, 32.075331], [-81.099987, 32.075358], [-81.099993, 32.075343], [-81.100137, 32.075381], [-81.100188, 32.075235], [-81.100033, 32.075188], [-81.100066, 32.075086], [-81.100516, 32.075204], [-81.100521, 32.075185], [-81.100547, 32.075192], [-81.100566, 32.075134]]]}, "properties": {"display_name": "Residence Inn Savannah Downtown/Historic District, 500, West Charlton Street, Savannah Historic District, Savannah, Chatham County, Georgia, 31401, United States", "type": "hotel", "osm_type": "way", "osm_id": 914833737, "class": null, "keyword": "downtown"}}, {"type": "Feature", "geometry": {"type": "Polygon", "coordinates": [[[-81.09902, 32.075256], [-81.098839, 32.075208], [-81.098802, 32.075308], [-81.098449, 32.075213], [-81.09849, 32.075103], [-81.098293, 32.07505], [-81.098193, 32.07532], [-81.098923, 32.075516], [-81.09902, 32.075256]]]}, "properties": {"display_name": "Courtyard Savannah Downtown/Historic District, 415, West Liberty Street, Savannah Historic District, Savannah, Chatham County, Georgia, 31401, United States", "type": "hotel", "osm_type": "way", "osm_id": 332547292, "class": null, "keyword": "downtown"}}, {"type": "Feature", "geometry": {"type": "Polygon", "coordinates": [[[-81.11014, 32.011842], [-81.109906, 32.011782], [-81.109692, 32.012382], [-81.109708, 32.012386], [-81.10969, 32.012437], [-81.109703, 32.01246], [-81.109726, 32.012466], [-81.109718, 32.012487], [-81.109831, 32.012515], [-81.109839, 32.012492], [-81.109872, 32.0125], [-81.109892, 32.012491], [-81.109911, 32.012438], [-81.109926, 32.012442], [-81.11014, 32.011842]]]}, "properties": {"display_name": "Days Inn & Suites by Wyndham Savannah Midtown, 211, Stephenson Avenue, Savannah, Chatham County, Georgia, 31405, United States", "type": "hotel", "osm_type": "way", "osm_id": 950230465, "class": null, "keyword": "midtown"}}, {"type": "Feature", "geometry": {"type": "Polygon", "coordinates": [[[-81.110052, 32.025518], [-81.109873, 32.025469], [-81.109625, 32.0254], [-81.109565, 32.025554], [-81.109813, 32.025623], [-81.109804, 32.025646], [-81.109731, 32.025626], [-81.109719, 32.025656], [-81.109702, 32.0257], [-81.109752, 32.025714], [-81.109769, 32.02567], [-81.109793, 32.025677], [-81.109668, 32.026001], [-81.109664, 32.026012], [-81.109799, 32.026049], [-81.109803, 32.026039], [-81.109847, 32.026051], [-81.110052, 32.025518]]]}, "properties": {"display_name": "Extended Stay America - Savannah - Midtown, 5511, Abercorn Street, Groveland, Kensington Park, Savannah, Chatham County, Georgia, 31405, United States", "type": "hotel", "osm_type": "way", "osm_id": 658249213, "class": null, "keyword": "midtown"}}, {"type": "Feature", "geometry": {"type": "Polygon", "coordinates": [[[-81.114727, 32.008246], [-81.114658, 32.008223], [-81.114668, 32.008194], [-81.113899, 32.007991], [-81.11384, 32.008168], [-81.113928, 32.008191], [-81.113926, 32.008178], [-81.114514, 32.008332], [-81.114509, 32.008343], [-81.114597, 32.008368], [-81.114611, 32.008348], [-81.114682, 32.008369], [-81.114727, 32.008246]]]}, "properties": {"display_name": "Econo Lodge Midtown, 7500, Abercorn Street, Savannah, Chatham County, Georgia, 31406, United States", "type": "motel", "osm_type": "way", "osm_id": 944362876, "class": null, "keyword": "midtown"}}, {"type": "Feature", "geometry": {"type": "Polygon", "coordinates": [[[-81.113255, 32.020547], [-81.113184, 32.020527], [-81.113179, 32.020541], [-81.112795, 32.020435], [-81.112741, 32.020421], [-81.112745, 32.02041], [-81.112697, 32.020397], [-81.112693, 32.020407], [-81.112682, 32.020436], [-81.112692, 32.020439], [-81.112676, 32.020479], [-81.112352, 32.02039], [-81.112358, 32.020373], [-81.112289, 32.020354], [-81.112282, 32.02037], [-81.112263, 32.020421], [-81.112285, 32.020427], [-81.112283, 32.020433], [-81.112276, 32.020452], [-81.112255, 32.020446], [-81.112236, 32.020495], [-81.11223, 32.020511], [-81.112298, 32.02053], [-81.112304, 32.020514], [-81.11272, 32.020629], [-81.112718, 32.020636], [-81.112752, 32.020645], [-81.112755, 32.020638], [-81.11277, 32.0206], [-81.112735, 32.02059], [-81.112747, 32.020561], [-81.11313, 32.020667], [-81.113125, 32.020682], [-81.113194, 32.020702], [-81.1132, 32.020686], [-81.113219, 32.020636], [-81.113199, 32.02063], [-81.113207, 32.020609], [-81.113229, 32.020614], [-81.113249, 32.020561], [-81.113255, 32.020547]]]}, "properties": {"display_name": "Baymont Savannah Midtown, 2, Lee Boulevard, Habersham Woods, Savannah, Chatham County, Georgia, 31405, United States", "type": "hotel", "osm_type": "way", "osm_id": 658494196, "class": null, "keyword": "midtown"}}, {"type": "Feature", "geometry": {"type": "Polygon", "coordinates": [[[-81.087868, 32.079671], [-81.087349, 32.079528], [-81.087258, 32.079768], [-81.087777, 32.07991], [-81.087868, 32.079671]]]}, "properties": {"display_name": "Staybridge Suites Savannah Historic District, 301, East Bay Street, Savannah Historic District, Savannah, Chatham County, Georgia, 31401, United States", "type": "hotel", "osm_type": "way", "osm_id": 141080234, "class": null, "keyword": "district"}}, {"type": "Feature", "geometry": {"type": "Polygon", "coordinates": [[[-81.097427, 32.081902], [-81.096906, 32.081758], [-81.096815, 32.081995], [-81.097337, 32.082138], [-81.097427, 32.081902]]]}, "properties": {"display_name": "Holiday Inn Savannah Historic District, West Bryan Street, Savannah Historic District, Savannah, Chatham County, Georgia, 31412, United States", "type": "hotel", "osm_type": "way", "osm_id": 533263974, "class": null, "keyword": "district"}}, {"type": "Feature", "geometry": {"type": "Polygon", "coordinates": [[[-81.098456, 32.079289], [-81.098103, 32.079198], [-81.098141, 32.079093], [-81.097941, 32.079041], [-81.097833, 32.079343], [-81.098157, 32.079425], [-81.098174, 32.079378], [-81.098404, 32.079437], [-81.098456, 32.079289]]]}, "properties": {"display_name": "Fairfield Inn & Suites Savannah Downtown/Historic District, 135, Martin Luther King Junior Boulevard, Savannah Historic District, Savannah, Chatham County, Georgia, 31401, United States", "type": "hotel", "osm_type": "way", "osm_id": 829882011, "class": null, "keyword": "downtown"}}, {"type": "Feature", "geometry": {"type": "Polygon", "coordinates": [[[-81.128808, 32.050775], [-81.128703, 32.050699], [-81.128595, 32.05062], [-81.128538, 32.050607], [-81.128482, 32.050594], [-81.128451, 32.050699], [-81.128421, 32.050805], [-81.12839, 32.05091], [-81.12836, 32.051016], [-81.128613, 32.05108], [-81.128639, 32.051003], [-81.128666, 32.050916], [-81.128777, 32.050894], [-81.128808, 32.050775]]]}, "properties": {"display_name": "Liberty City Community Center, 1401, Mills B Lane Boulevard, Southover, Liberty City, Savannah, Chatham County, Georgia, 31405, United States", "type": "community_centre", "osm_type": "way", "osm_id": 636031633, "class": null, "keyword": "city center"}}, {"type": "Feature", "geometry": {"type": "Polygon", "coordinates": [[[-81.088947, 32.080046], [-81.08883, 32.080015], [-81.088856, 32.079942], [-81.088563, 32.079865], [-81.088538, 32.079933], [-81.088384, 32.079892], [-81.088324, 32.080056], [-81.08889, 32.080204], [-81.088947, 32.080046]]]}, "properties": {"display_name": "Hampton Inn Savannah Historic District, 201, East Bay Street, Savannah Historic District, Savannah, Chatham County, Georgia, 31401, United States", "type": "hotel", "osm_type": "way", "osm_id": 321938657, "class": null, "keyword": "district"}}, {"type": "Feature", "geometry": {"type": "Polygon", "coordinates": [[[-81.092039, 32.07522], [-81.091484, 32.075074], [-81.091411, 32.075273], [-81.091966, 32.075419], [-81.092039, 32.07522]]]}, "properties": {"display_name": "Perry Lane Hotel, a Luxury Collection Hotel, Savannah, 256, East Perry Street, Savannah Historic District, Savannah, Chatham County, Georgia, 31401, United States", "type": "hotel", "osm_type": "way", "osm_id": 829903088, "class": null, "keyword": "district"}}, {"type": "Feature", "geometry": {"type": "Polygon", "coordinates": [[[-81.098268, 32.074434], [-81.098052, 32.074378], [-81.097965, 32.07462], [-81.097849, 32.07459], [-81.097784, 32.074771], [-81.098018, 32.074831], [-81.098022, 32.074826], [-81.098108, 32.074848], [-81.098142, 32.074752], [-81.09815, 32.074753], [-81.098198, 32.074616], [-81.098186, 32.074613], [-81.098196, 32.074587], [-81.098209, 32.07459], [-81.098224, 32.074548], [-81.098217, 32.074547], [-81.098229, 32.074514], [-81.098239, 32.074517], [-81.098268, 32.074434]]]}, "properties": {"display_name": "TRYP by Wyndham Savannah Downtown/Historic District, 320, Montgomery Street, Savannah Historic District, Savannah, Chatham County, Georgia, 31401, United States", "type": "hotel", "osm_type": "way", "osm_id": 786084228, "class": null, "keyword": "downtown"}}, {"type": "Feature", "geometry": {"type": "Polygon", "coordinates": [[[-81.098893, 32.074853], [-81.098446, 32.074742], [-81.098419, 32.07482], [-81.098375, 32.074809], [-81.098339, 32.074913], [-81.09847, 32.074946], [-81.098458, 32.074979], [-81.09871, 32.075042], [-81.098717, 32.075023], [-81.098833, 32.075052], [-81.098868, 32.074949], [-81.098861, 32.074947], [-81.098893, 32.074853]]]}, "properties": {"display_name": "Cambria Hotel Savannah Downtown Historic District, 321, Montgomery Street, Savannah Historic District, Savannah, Chatham County, Georgia, 31401, United States", "type": "hotel", "osm_type": "way", "osm_id": 985573807, "class": null, "keyword": "downtown"}}, {"type": "Feature", "geometry": {"type": "Polygon", "coordinates": [[[-81.125407, 32.000703], [-81.12536, 32.00069], [-81.125368, 32.00067], [-81.125223, 32.00063], [-81.12503, 32.001132], [-81.12519, 32.001176], [-81.125214, 32.001113], [-81.125261, 32.001126], [-81.12531, 32.000999], [-81.125261, 32.000985], [-81.12529, 32.000912], [-81.125323, 32.000921], [-81.125407, 32.000703]]]}, "properties": {"display_name": "Tru by Hilton Savannah Midtown, 77, West Fairmont Avenue, Oakhurst, Savannah, Chatham County, Georgia, 31406, United States", "type": "hotel", "osm_type": "way", "osm_id": 914832901, "class": null, "keyword": "midtown"}}, {"type": "Feature", "geometry": {"type": "Polygon", "coordinates": [[[-81.099031, 32.078935], [-81.098559, 32.078804], [-81.098511, 32.078933], [-81.098558, 32.078946], [-81.098515, 32.079064], [-81.098573, 32.079081], [-81.098656, 32.079103], [-81.098704, 32.078972], [-81.098856, 32.079012], [-81.098807, 32.079144], [-81.098958, 32.079184], [-81.099031, 32.078935]]]}, "properties": {"display_name": "Aloft Savannah Downtown Historic District, 512, West Oglethorpe Avenue, Savannah Historic District, Savannah, Chatham County, Georgia, 31401, United States", "type": "hotel", "osm_type": "way", "osm_id": 829882013, "class": null, "keyword": "downtown"}}, {"type": "Feature", "geometry": {"type": "Polygon", "coordinates": [[[-81.11124, 32.022111], [-81.110976, 32.022039], [-81.110992, 32.021995], [-81.110804, 32.021943], [-81.110785, 32.021992], [-81.110811, 32.021999], [-81.11079, 32.022053], [-81.110763, 32.022045], [-81.110723, 32.02215], [-81.111177, 32.022275], [-81.11124, 32.022111]]]}, "properties": {"display_name": "Fairfield Inn & Suites Savannah Midtown, 5801, Abercorn Street, Groveland, Savannah, Chatham County, Georgia, 31405, United States", "type": "hotel", "osm_type": "way", "osm_id": 829883573, "class": null, "keyword": "midtown"}}, {"type": "Feature", "geometry": {"type": "Polygon", "coordinates": [[[-81.092251, 32.091582], [-81.092216, 32.09158], [-81.092224, 32.091507], [-81.091806, 32.091471], [-81.091781, 32.09167], [-81.092193, 32.091706], [-81.0922, 32.091645], [-81.092243, 32.091649], [-81.092251, 32.091582]]]}, "properties": {"display_name": "Savannah Economic Development Authority, 2, East Bay Street, Savannah Historic District, Savannah, Chatham County, Georgia, 31401, United States", "type": "public", "osm_type": "way", "osm_id": 403721503, "class": null, "keyword": "district"}}, {"type": "Feature", "geometry": {"type": "Polygon", "coordinates": [[[-81.14703, 31.979139], [-81.146866, 31.979093], [-81.146694, 31.979531], [-81.146858, 31.979578], [-81.14703, 31.979139]]]}, "properties": {"display_name": "TownePlace Suites by Marriott Savannah Midtown (Second Building), Collingwood Drive, Tranquilla Woods, Savannah, Chatham County, Georgia, 31419, United States", "type": "yes", "osm_type": "way", "osm_id": 603831737, "class": null, "keyword": "midtown"}}, {"type": "Feature", "geometry": {"type": "Polygon", "coordinates": [[[-81.146582, 31.979006], [-81.146501, 31.978983], [-81.146424, 31.978968], [-81.146243, 31.979392], [-81.146324, 31.979423], [-81.146405, 31.979442], [-81.146582, 31.979006]]]}, "properties": {"display_name": "TownePlace Suites Savannah Midtown, 11309, Abercorn Street, Tranquilla Woods, Savannah, Chatham County, Georgia, 31419, United States", "type": "hotel", "osm_type": "way", "osm_id": 914834654, "class": null, "keyword": "midtown"}}, {"type": "Feature", "geometry": {"type": "Polygon", "coordinates": [[[-81.092495, 32.075738], [-81.092083, 32.075632], [-81.092028, 32.075784], [-81.092441, 32.07589], [-81.092495, 32.075738]]]}, "properties": {"display_name": "Savannah Theatre, 222, Bull Street, Savannah Historic District, Savannah, Chatham County, Georgia, 31401, United States", "type": "theatre", "osm_type": "way", "osm_id": 130209224, "class": null, "keyword": "district"}}, {"type": "Feature", "geometry": {"type": "Polygon", "coordinates": [[[-81.090145, 32.080274], [-81.089952, 32.080223], [-81.089927, 32.08029], [-81.089865, 32.080461], [-81.090058, 32.080511], [-81.090145, 32.080274]]]}, "properties": {"display_name": "Savannah Area Chamber of Commerce, 101, East Bay Street, Savannah Historic District, Savannah, Chatham County, Georgia, 31412, United States", "type": "information", "osm_type": "way", "osm_id": 330749996, "class": null, "keyword": "district"}}, {"type": "Feature", "geometry": {"type": "Polygon", "coordinates": [[[-81.088288, 32.068936], [-81.088224, 32.068919], [-81.088221, 32.068925], [-81.088194, 32.068917], [-81.088195, 32.068915], [-81.087998, 32.068861], [-81.087992, 32.068876], [-81.087973, 32.068871], [-81.087888, 32.069099], [-81.088037, 32.06914], [-81.088042, 32.069126], [-81.088053, 32.069129], [-81.088066, 32.069127], [-81.088078, 32.06912], [-81.088085, 32.06911], [-81.088087, 32.069098], [-81.088081, 32.069086], [-81.088073, 32.069078], [-81.088061, 32.069075], [-81.088071, 32.069048], [-81.088106, 32.069057], [-81.088123, 32.069012], [-81.088088, 32.069003], [-81.088116, 32.068929], [-81.088183, 32.068948], [-81.088186, 32.068939], [-81.088215, 32.068947], [-81.088204, 32.068975], [-81.088267, 32.068993], [-81.088288, 32.068936]]]}, "properties": {"display_name": "Clarence Thomas Center for Historic Preservation, 439, East Broad Street, Savannah Historic District, Savannah, Chatham County, Georgia, 31401, United States", "type": "college", "osm_type": "way", "osm_id": 953145327, "class": null, "keyword": "historic center"}}, {"type": "Feature", "geometry": {"type": "Polygon", "coordinates": [[[-81.142867, 31.980293], [-81.142709, 31.980249], [-81.142601, 31.980534], [-81.142759, 31.980577], [-81.142867, 31.980293]]]}, "properties": {"display_name": "Applebee's, Abercorn Street, Tranquilla Woods, Savannah, Chatham County, Georgia, 31409, United States", "type": "restaurant", "osm_type": "way", "osm_id": 603831735, "class": null, "keyword": "neighborhood"}}, {"type": "Feature", "geometry": {"type": "Polygon", "coordinates": [[[-81.091335, 32.080261], [-81.091145, 32.080211], [-81.091071, 32.080413], [-81.091058, 32.08045], [-81.091248, 32.0805], [-81.091335, 32.080261]]]}, "properties": {"display_name": "Johnson Square Business Center, 2, East Bryan Street, Savannah Historic District, Savannah, Chatham County, Georgia, 31401, United States", "type": "yes", "osm_type": "way", "osm_id": 399680727, "class": null, "keyword": "business district"}}, {"type": "Feature", "geometry": {"type": "Polygon", "coordinates": [[[-81.08321, 32.075862], [-81.082994, 32.075796], [-81.082987, 32.075812], [-81.082843, 32.075769], [-81.082819, 32.075827], [-81.082975, 32.075874], [-81.082944, 32.07595], [-81.083137, 32.076008], [-81.083153, 32.075968], [-81.083164, 32.075972], [-81.08321, 32.075862]]]}, "properties": {"display_name": "inner city mission - homeless shelter, Arnold Street, Robert M Hitch Village, Savannah, Chatham County, Georgia, 31401, United States", "type": "yes", "osm_type": "way", "osm_id": 949857451, "class": null, "keyword": "inner city"}}, {"type": "Feature", "geometry": {"type": "Polygon", "coordinates": [[[-81.099273, 32.075955], [-81.099118, 32.075909], [-81.099026, 32.07615], [-81.09919, 32.076189], [-81.099273, 32.075955]]]}, "properties": {"display_name": "Savannah Visitors Center, 301, Martin Luther King Junior Boulevard, Savannah Historic District, Savannah, Chatham County, Georgia, 31401, United States", "type": "information", "osm_type": "way", "osm_id": 566232318, "class": null, "keyword": "district"}}, {"type": "Feature", "geometry": {"type": "Polygon", "coordinates": [[[-81.094448, 32.065448], [-81.094293, 32.065402], [-81.094283, 32.065427], [-81.094196, 32.065404], [-81.094168, 32.065482], [-81.094269, 32.065509], [-81.09423, 32.065613], [-81.094374, 32.065652], [-81.094395, 32.065593], [-81.094426, 32.065509], [-81.094448, 32.065448]]]}, "properties": {"display_name": "Midtown Foot Clinic - Dr. John Murrell, 908, Abercorn Street, Savannah Historic District, Savannah, Chatham County, Georgia, 31401, United States", "type": "yes", "osm_type": "way", "osm_id": 950239190, "class": null, "keyword": "midtown"}}, {"type": "Feature", "geometry": {"type": "Polygon", "coordinates": [[[-81.088506, 32.077155], [-81.088428, 32.077131], [-81.08844, 32.077103], [-81.088429, 32.077074], [-81.088314, 32.077042], [-81.088276, 32.077051], [-81.088259, 32.077099], [-81.088238, 32.077093], [-81.088215, 32.077158], [-81.088241, 32.077185], [-81.088357, 32.077221], [-81.088385, 32.077229], [-81.088393, 32.077211], [-81.088447, 32.077228], [-81.088459, 32.0772], [-81.088484, 32.077207], [-81.088506, 32.077155]]]}, "properties": {"display_name": "Kehoe House, Historic Inns of Savannah, 123, Habersham Street, Savannah Historic District, Savannah, Chatham County, Georgia, 31401, United States", "type": "house", "osm_type": "way", "osm_id": 365724084, "class": null, "keyword": "district"}}, {"type": "Feature", "geometry": {"type": "Polygon", "coordinates": [[[-81.076718, 32.046271], [-81.076598, 32.046243], [-81.076546, 32.046401], [-81.076588, 32.046411], [-81.076572, 32.046461], [-81.076545, 32.046454], [-81.076513, 32.046553], [-81.076598, 32.046573], [-81.076632, 32.046468], [-81.076611, 32.046463], [-81.076625, 32.046421], [-81.076666, 32.046431], [-81.076718, 32.046271]]]}, "properties": {"display_name": "Connect Savannah, 1464, East Victory Drive, Ardsley Park-Chatham Crescent Historic District, Savannah, Chatham County, Georgia, 31404, United States", "type": "newspaper", "osm_type": "way", "osm_id": 634277464, "class": null, "keyword": "district"}}, {"type": "Feature", "geometry": {"type": "Polygon", "coordinates": [[[-81.090579, 32.080061], [-81.090399, 32.080013], [-81.090339, 32.080172], [-81.090435, 32.080198], [-81.090519, 32.080221], [-81.090579, 32.080061]]]}, "properties": {"display_name": "Propes Hall, Savannah College of Art and Design, 15, Drayton Street, Savannah Historic District, Savannah, Chatham County, Georgia, 31401, United States", "type": "college", "osm_type": "way", "osm_id": 208376474, "class": null, "keyword": "district"}}, {"type": "Feature", "geometry": {"type": "Polygon", "coordinates": [[[-81.088126, 32.073467], [-81.088072, 32.073454], [-81.088068, 32.073467], [-81.088057, 32.073464], [-81.088016, 32.073575], [-81.087998, 32.073571], [-81.087992, 32.073588], [-81.087897, 32.073563], [-81.087859, 32.073668], [-81.08804, 32.073715], [-81.088124, 32.073482], [-81.088121, 32.073481], [-81.088126, 32.073467]]]}, "properties": {"display_name": "Social Apostolate of Savannah, 502, East Liberty Street, Savannah Historic District, Savannah, Chatham County, Georgia, 31401, United States", "type": "social_facility", "osm_type": "way", "osm_id": 949856236, "class": null, "keyword": "district"}}, {"type": "Feature", "geometry": {"type": "Polygon", "coordinates": [[[-81.090029, 32.081096], [-81.089895, 32.081062], [-81.089892, 32.081073], [-81.089828, 32.081254], [-81.089963, 32.081288], [-81.090029, 32.081096]]]}, "properties": {"display_name": "Savannah Cotton Exchange, 100, East Bay Street, Savannah Historic District, Savannah, Chatham County, Georgia, 31401, United States", "type": "yes", "osm_type": "way", "osm_id": 208324749, "class": null, "keyword": "district"}}, {"type": "Feature", "geometry": {"type": "Polygon", "coordinates": [[[-81.090356, 32.078167], [-81.090225, 32.078132], [-81.090138, 32.078367], [-81.090233, 32.078392], [-81.090277, 32.078275], [-81.090293, 32.078231], [-81.090299, 32.078213], [-81.090335, 32.078223], [-81.090356, 32.078167]]]}, "properties": {"display_name": "Savannah Taphouse, East Broughton Lane, Savannah Historic District, Savannah, Chatham County, Georgia, 31401, United States", "type": "yes", "osm_type": "way", "osm_id": 399686901, "class": null, "keyword": "district"}}, {"type": "Feature", "geometry": {"type": "Polygon", "coordinates": [[[-81.094768, 32.065692], [-81.094629, 32.065654], [-81.094572, 32.065805], [-81.094711, 32.065843], [-81.094768, 32.065692]]]}, "properties": {"display_name": "Escape Savannah, 905, Abercorn Street, Savannah Historic District, Savannah, Chatham County, Georgia, 31401, United States", "type": "commercial", "osm_type": "way", "osm_id": 950239243, "class": null, "keyword": "district"}}, {"type": "Feature", "geometry": {"type": "Polygon", "coordinates": [[[-81.087773, 32.078166], [-81.08768, 32.07814], [-81.087693, 32.078106], [-81.087643, 32.078093], [-81.087615, 32.078167], [-81.087758, 32.078207], [-81.087773, 32.078166]]]}, "properties": {"display_name": "Savannah Bike Tours, 41, Habersham Street, Savannah Historic District, Savannah, Chatham County, Georgia, 31401, United States", "type": "yes", "osm_type": "way", "osm_id": 415935619, "class": null, "keyword": "district"}}, {"type": "Feature", "geometry": {"type": "Polygon", "coordinates": [[[-81.098143, 32.065278], [-81.098026, 32.065245], [-81.098007, 32.065295], [-81.098123, 32.065328], [-81.098143, 32.065278]]]}, "properties": {"display_name": "Savannah Well # 5 (Whitaker Street and Park Ave), Whitaker Street, Savannah Historic District, Savannah, Chatham County, Georgia, 31401, United States", "type": "government", "osm_type": "way", "osm_id": 950222208, "class": null, "keyword": "district"}}]}