{"type": "FeatureCollection", "features": [{"type": "Feature", "geometry": {"type": "Polygon", "coordinates": [[[116.610593, 23.346428], [116.611686, 23.316654], [116.613975, 23.314754], [116.615575, 23.316331], [116.616501, 23.317967], [116.617162, 23.318459], [116.617952, 23.318558], [116.624618, 23.318854], [116.624817, 23.314118], [116.623012, 23.303757], [116.625419, 23.300303], [116.627224, 23.295744], [116.623915, 23.2916], [116.619553, 23.290356], [116.611129, 23.282342], [116.613084, 23.277368], [116.621658, 23.272808], [116.630233, 23.260647], [116.637603, 23.251664], [116.644866, 23.250894], [116.649336, 23.25042], [116.654434, 23.242244], [116.6543, 23.238119], [116.663025, 23.229135], [116.674914, 23.221884], [116.675307, 23.221512], [116.678437, 23.219788], [117.005185, 23.050369], [117.124386, 23.085259], [116.831359, 23.247656], [116.774883, 23.304582], [116.768837, 23.316441], [116.762742, 23.328397], [116.755303, 23.332309], [116.753598, 23.332322], [116.752072, 23.33197], [116.751188, 23.331241], [116.750395, 23.330623], [116.749157, 23.330553], [116.747656, 23.330807], [116.743763, 23.332495], [116.741928, 23.333861], [116.740333, 23.335836], [116.738738, 23.338402], [116.73813, 23.339034], [116.737256, 23.339945], [116.735325, 23.341231], [116.732745, 23.342078], [116.725449, 23.341323], [116.716002, 23.343932], [116.711682, 23.345125], [116.700894, 23.346802], [116.69907, 23.347085], [116.690789, 23.347598], [116.681733, 23.348159], [116.680346, 23.347916], [116.667694, 23.345701], [116.658047, 23.344011], [116.632113, 23.339721], [116.62999, 23.340366], [116.627834, 23.340757], [116.625329, 23.340913], [116.610593, 23.346428]]]}, "properties": {"display_name": "濠江区, 汕头市, 广东省, 中国", "type": "administrative", "osm_type": "relation", "osm_id": 3283306, "class": null, "keyword": "district"}}, {"type": "Feature", "geometry": {"type": "Polygon", "coordinates": [[[116.761665, 23.44805], [116.768128, 23.44486], [116.783019, 23.43959], [116.796209, 23.433345], [116.803016, 23.427489], [116.804981, 23.42089], [116.799898, 23.418253], [116.799624, 23.418581], [116.796726, 23.416542], [116.797946, 23.41489], [116.797236, 23.414339], [116.798298, 23.412606], [116.797562, 23.411986], [116.798246, 23.41076], [116.799135, 23.411457], [116.799498, 23.410903], [116.800509, 23.411392], [116.80154, 23.410051], [116.799452, 23.40662], [116.79849, 23.404908], [116.798231, 23.404048], [116.79821, 23.403709], [116.798718, 23.402621], [116.800245, 23.401255], [116.800624, 23.400646], [116.800952, 23.399925], [116.801149, 23.398964], [116.801242, 23.397087], [116.801117, 23.395942], [116.805305, 23.394592], [116.805429, 23.395123], [116.80475, 23.395722], [116.809806, 23.397403], [116.816033, 23.39116], [116.890292, 23.333131], [116.896587, 23.454003], [116.871099, 23.456239], [116.867795, 23.457262], [116.850114, 23.456396], [116.83475, 23.455255], [116.827369, 23.454192], [116.823506, 23.454979], [116.815052, 23.458444], [116.805353, 23.46053], [116.80192, 23.461908], [116.792822, 23.4686], [116.776491, 23.482993], [116.773796, 23.481043], [116.77364, 23.480723], [116.773474, 23.480353], [116.772895, 23.479467], [116.772916, 23.4793], [116.773313, 23.479104], [116.773442, 23.478396], [116.773581, 23.477574], [116.773625, 23.477313], [116.773732, 23.476338], [116.77356, 23.475978], [116.77355, 23.474965], [116.774171, 23.47482], [116.774161, 23.474407], [116.773545, 23.47439], [116.772992, 23.474341], [116.772901, 23.473716], [116.772733, 23.472452], [116.772122, 23.468919], [116.771596, 23.469057], [116.77121, 23.469144], [116.771253, 23.469441], [116.768306, 23.470117], [116.768247, 23.4698], [116.767774, 23.468531], [116.767523, 23.468053], [116.767355, 23.467734], [116.766975, 23.466656], [116.76684, 23.465834], [116.766284, 23.464545], [116.765319, 23.46237], [116.765131, 23.461888], [116.764868, 23.461677], [116.764423, 23.459915], [116.764975, 23.459748], [116.762942, 23.456618], [116.763452, 23.456455], [116.762996, 23.455388], [116.762389, 23.45555], [116.762175, 23.455427], [116.761934, 23.455304], [116.765125, 23.454034], [116.764455, 23.452312], [116.765753, 23.451948], [116.765099, 23.449566], [116.76277, 23.448827], [116.761665, 23.44805]]]}, "properties": {"display_name": "凤翔街道, 澄海区, 汕头市, 广东省, 中国", "type": "administrative", "osm_type": "relation", "osm_id": 12283225, "class": null, "keyword": "subdistrict"}}, {"type": "Feature", "geometry": {"type": "Polygon", "coordinates": [[[116.626062, 23.314974], [116.627929, 23.314422], [116.630074, 23.314126], [116.629896, 23.306702], [116.631463, 23.305224], [116.633973, 23.304948], [116.635561, 23.305973], [116.63496, 23.307746], [116.634596, 23.309914], [116.635432, 23.31151], [116.63745, 23.309815], [116.639617, 23.30751], [116.64129, 23.306406], [116.641183, 23.307983], [116.641398, 23.309086], [116.640947, 23.310821], [116.64187, 23.312101], [116.642835, 23.313422], [116.641977, 23.313973], [116.642556, 23.314722], [116.643458, 23.314683], [116.644938, 23.316417], [116.646676, 23.315313], [116.649015, 23.314348], [116.65129, 23.313028], [116.652277, 23.311313], [116.653049, 23.308909], [116.656708, 23.310525], [116.659165, 23.307451], [116.660345, 23.307845], [116.661353, 23.307569], [116.664808, 23.308003], [116.666439, 23.3068], [116.665259, 23.305184], [116.669915, 23.302623], [116.670709, 23.302662], [116.672533, 23.303371], [116.674378, 23.302465], [116.674185, 23.300553], [116.673649, 23.299588], [116.671696, 23.299726], [116.670151, 23.29537], [116.67148, 23.293916], [116.673119, 23.292731], [116.675713, 23.292355], [116.679127, 23.292341], [116.681828, 23.291561], [116.683421, 23.289763], [116.685606, 23.284927], [116.688352, 23.281359], [116.691525, 23.276818], [116.695396, 23.274711], [116.699718, 23.274197], [116.702342, 23.275157], [116.706595, 23.277157], [116.703463, 23.283484], [116.708698, 23.286677], [116.708784, 23.28922], [116.706123, 23.28991], [116.706638, 23.290974], [116.710973, 23.299724], [116.710071, 23.3161], [116.708784, 23.319096], [116.712282, 23.318849], [116.713129, 23.319844], [116.716037, 23.319533], [116.719286, 23.318451], [116.7205, 23.316877], [116.720606, 23.316514], [116.72135, 23.31441], [116.721866, 23.313853], [116.722806, 23.313909], [116.724887, 23.314342], [116.724946, 23.314355], [116.724976, 23.313505], [116.726463, 23.312641], [116.727115, 23.312348], [116.727237, 23.311791], [116.728208, 23.311554], [116.72839, 23.311665], [116.728967, 23.313546], [116.729589, 23.314146], [116.733397, 23.314466], [116.735415, 23.31487], [116.73581, 23.315205], [116.735779, 23.315664], [116.735825, 23.316347], [116.736176, 23.317107], [116.738966, 23.315806], [116.740618, 23.315806], [116.741197, 23.314072], [116.743665, 23.316851], [116.744738, 23.315038], [116.747806, 23.316595], [116.749738, 23.315826], [116.749609, 23.316811], [116.751433, 23.317777], [116.752763, 23.317008], [116.75612, 23.318072], [116.762742, 23.328397], [116.755303, 23.332309], [116.753598, 23.332322], [116.752072, 23.33197], [116.751188, 23.331241], [116.750395, 23.330623], [116.749157, 23.330553], [116.747656, 23.330807], [116.743763, 23.332495], [116.741928, 23.333861], [116.740333, 23.335836], [116.738738, 23.338402], [116.73813, 23.339034], [116.737256, 23.339945], [116.735325, 23.341231], [116.732745, 23.342078], [116.725449, 23.341323], [116.716002, 23.343932], [116.711682, 23.345125], [116.700894, 23.346802], [116.69907, 23.347085], [116.690789, 23.347598], [116.681733, 23.348159], [116.680346, 23.347916], [116.667694, 23.345701], [116.658047, 23.344011], [116.632113, 23.339721], [116.6334, 23.339229], [116.637799, 23.337672], [116.639816, 23.336234], [116.641511, 23.333811], [116.641941, 23.331249], [116.641232, 23.328195], [116.640524, 23.321713], [116.640095, 23.319624], [116.638808, 23.319013], [116.628358, 23.31854], [116.626062, 23.314974]]]}, "properties": {"display_name": "礐石街道, 濠江区, 汕头市, 广东省, 中国", "type": "administrative", "osm_type": "relation", "osm_id": 8209239, "class": null, "keyword": "subdistrict"}}, {"type": "Feature", "geometry": {"type": "Polygon", "coordinates": [[[116.375707, 23.232686], [116.375981, 23.231407], [116.376503, 23.230721], [116.379562, 23.23143], [116.38073, 23.228962], [116.381547, 23.229171], [116.382169, 23.2286], [116.382641, 23.227503], [116.383014, 23.227571], [116.383387, 23.226452], [116.383014, 23.225286], [116.382318, 23.225492], [116.382193, 23.224966], [116.382616, 23.224738], [116.382666, 23.224166], [116.38294, 23.223664], [116.382666, 23.221972], [116.384158, 23.221607], [116.384307, 23.22051], [116.385178, 23.220418], [116.385352, 23.219984], [116.38565, 23.22003], [116.385799, 23.219687], [116.38667, 23.219893], [116.387018, 23.21923], [116.38764, 23.21987], [116.38948, 23.218613], [116.390698, 23.217904], [116.390823, 23.217493], [116.391171, 23.21747], [116.391974, 23.216455], [116.391992, 23.216396], [116.392489, 23.216305], [116.392862, 23.215939], [116.39316, 23.216259], [116.397836, 23.216053], [116.398209, 23.216739], [116.400944, 23.21683], [116.402088, 23.217105], [116.405794, 23.21843], [116.405893, 23.21811], [116.406291, 23.218293], [116.406465, 23.217722], [116.407932, 23.218224], [116.40828, 23.216053], [116.409872, 23.215436], [116.410146, 23.214751], [116.410046, 23.213288], [116.410767, 23.212991], [116.410842, 23.212579], [116.410419, 23.212488], [116.410444, 23.212054], [116.411712, 23.212122], [116.412036, 23.211368], [116.412782, 23.211162], [116.411115, 23.208214], [116.410245, 23.207711], [116.410121, 23.207002], [116.410544, 23.206911], [116.410817, 23.207231], [116.411041, 23.20698], [116.411265, 23.207345], [116.411489, 23.206911], [116.412632, 23.206934], [116.412757, 23.207231], [116.413801, 23.207414], [116.413851, 23.20778], [116.414199, 23.207711], [116.414473, 23.208099], [116.414771, 23.208168], [116.414771, 23.207848], [116.415094, 23.207757], [116.415244, 23.207414], [116.415666, 23.207414], [116.415741, 23.207665], [116.416089, 23.207665], [116.416189, 23.208008], [116.415915, 23.208168], [116.416064, 23.208465], [116.415642, 23.208922], [116.416338, 23.209128], [116.416835, 23.208785], [116.417134, 23.209631], [116.418899, 23.209768], [116.419098, 23.210454], [116.419446, 23.210682], [116.419894, 23.210568], [116.419969, 23.209974], [116.42069, 23.210385], [116.421187, 23.2089], [116.421983, 23.208625], [116.422878, 23.209562], [116.422754, 23.209882], [116.422804, 23.210134], [116.423276, 23.210202], [116.423475, 23.210568], [116.422182, 23.213356], [116.422381, 23.217013], [116.423997, 23.217196], [116.424097, 23.217836], [116.42437, 23.218087], [116.42442, 23.218362], [116.424718, 23.218522], [116.424694, 23.21907], [116.42442, 23.219161], [116.424296, 23.219756], [116.42534, 23.220007], [116.425912, 23.219938], [116.42631, 23.220098], [116.426434, 23.22131], [116.426783, 23.221447], [116.426857, 23.222315], [116.42733, 23.222315], [116.427504, 23.223102], [116.427131, 23.224176], [116.427479, 23.224404], [116.427131, 23.225204], [116.427827, 23.22557], [116.427554, 23.225867], [116.428424, 23.225776], [116.428648, 23.226278], [116.431632, 23.227581], [116.431284, 23.228541], [116.433398, 23.229318], [116.433, 23.230346], [116.433447, 23.230575], [116.433323, 23.230917], [116.433522, 23.231123], [116.433124, 23.231763], [116.432129, 23.231969], [116.431806, 23.232517], [116.432005, 23.232974], [116.431508, 23.234254], [116.431259, 23.234254], [116.431184, 23.235488], [116.430737, 23.235762], [116.430637, 23.236082], [116.431035, 23.236333], [116.431035, 23.236699], [116.430314, 23.237133], [116.430438, 23.23759], [116.431483, 23.237499], [116.431358, 23.238093], [116.432925, 23.238458], [116.432726, 23.239829], [116.434467, 23.240286], [116.434641, 23.239761], [116.436034, 23.240195], [116.436431, 23.239921], [116.43949, 23.242092], [116.441928, 23.243783], [116.442301, 23.24344], [116.443544, 23.244491], [116.444936, 23.244948], [116.444389, 23.246844], [116.448866, 23.248787], [116.448269, 23.249815], [116.450233, 23.250889], [116.451203, 23.250774], [116.451651, 23.250203], [116.453715, 23.250843], [116.456347, 23.251413], [116.460703, 23.252534], [116.459634, 23.255984], [116.461449, 23.256441], [116.459485, 23.26229], [116.45752, 23.263592], [116.455406, 23.266105], [116.455083, 23.267864], [116.457296, 23.271383], [116.458042, 23.273484], [116.457719, 23.275426], [116.454561, 23.278533], [116.452422, 23.282964], [116.451029, 23.284746], [116.448592, 23.28598], [116.443569, 23.287076], [116.44056, 23.288173], [116.439267, 23.287967], [116.438993, 23.286894], [116.440361, 23.284655], [116.440386, 23.283216], [116.437004, 23.279127], [116.434815, 23.278921], [116.434073, 23.27941], [116.433675, 23.280073], [116.43283, 23.280484], [116.43181, 23.280141], [116.430592, 23.278108], [116.429348, 23.27724], [116.426389, 23.2774], [116.423902, 23.278679], [116.421813, 23.280393], [116.417884, 23.281192], [116.416268, 23.281124], [116.412239, 23.27571], [116.412388, 23.274887], [116.409404, 23.272991], [116.40724, 23.273265], [116.405425, 23.275047], [116.404455, 23.277057], [116.403883, 23.278794], [116.402515, 23.281786], [116.398263, 23.281192], [116.399282, 23.279936], [116.399954, 23.278931], [116.400451, 23.276875], [116.40157, 23.273745], [116.400948, 23.273562], [116.40162, 23.271643], [116.400252, 23.270867], [116.39978, 23.26881], [116.398735, 23.268719], [116.397716, 23.266572], [116.398337, 23.266275], [116.397044, 23.263853], [116.396224, 23.264173], [116.395726, 23.264698], [116.395179, 23.264584], [116.394682, 23.265429], [116.392518, 23.264287], [116.391324, 23.264721], [116.390753, 23.264287], [116.390205, 23.265155], [116.387644, 23.264195], [116.386575, 23.26399], [116.386575, 23.26287], [116.385829, 23.261819], [116.385033, 23.26022], [116.386649, 23.259398], [116.3865, 23.258849], [116.385903, 23.25789], [116.386425, 23.257456], [116.386201, 23.256976], [116.386575, 23.255605], [116.387122, 23.254737], [116.387122, 23.254006], [116.388589, 23.252863], [116.388042, 23.251926], [116.387321, 23.251424], [116.386102, 23.249961], [116.385704, 23.249847], [116.385431, 23.250076], [116.385132, 23.249779], [116.384834, 23.249344], [116.383789, 23.249459], [116.383491, 23.248019], [116.382571, 23.248065], [116.382223, 23.245894], [116.381278, 23.245871], [116.381029, 23.244843], [116.381278, 23.243358], [116.380432, 23.241964], [116.380457, 23.24121], [116.380009, 23.241164], [116.380382, 23.240022], [116.378642, 23.239451], [116.378467, 23.238651], [116.377274, 23.237097], [116.376204, 23.236366], [116.376204, 23.236068], [116.376528, 23.236091], [116.376652, 23.235269], [116.376279, 23.2352], [116.376304, 23.234766], [116.375956, 23.234675], [116.375956, 23.234423], [116.376354, 23.234378], [116.376354, 23.233144], [116.375707, 23.232686]]]}, "properties": {"display_name": "峡山街道, 潮南区, 汕头市, 广东省, 中国", "type": "administrative", "osm_type": "relation", "osm_id": 6834346, "class": null, "keyword": "subdistrict"}}, {"type": "Feature", "geometry": {"type": "Polygon", "coordinates": [[[116.750779, 23.413602], [116.752002, 23.412676], [116.752968, 23.410746], [116.753912, 23.40797], [116.755117, 23.40559], [116.75514, 23.405591], [116.755516, 23.40498], [116.755891, 23.40437], [116.757602, 23.402817], [116.759529, 23.400338], [116.763444, 23.394155], [116.763869, 23.391342], [116.763383, 23.388293], [116.76314, 23.384797], [116.763641, 23.381315], [116.765401, 23.373822], [116.765376, 23.372178], [116.764668, 23.370937], [116.764518, 23.369676], [116.764818, 23.367648], [116.765848, 23.363511], [116.766106, 23.362408], [116.767372, 23.358645], [116.76808, 23.357503], [116.768189, 23.357282], [116.769711, 23.354193], [116.773594, 23.350687], [116.787786, 23.338231], [116.788235, 23.339236], [116.788605, 23.340118], [116.788943, 23.340438], [116.789582, 23.340542], [116.790268, 23.340778], [116.790928, 23.341241], [116.791416, 23.342093], [116.792725, 23.346068], [116.793841, 23.34859], [116.79537, 23.351958], [116.7967, 23.354327], [116.799238, 23.358203], [116.802274, 23.362084], [116.805267, 23.365442], [116.80899, 23.368653], [116.812027, 23.370977], [116.815063, 23.373252], [116.816774, 23.374518], [116.817284, 23.375079], [116.817536, 23.375665], [116.8176, 23.376232], [116.817536, 23.376837], [116.817278, 23.377406], [116.816897, 23.377896], [116.816079, 23.378575], [116.814188, 23.380264], [116.811418, 23.382792], [116.811126, 23.383055], [116.810826, 23.383315], [116.810889, 23.383383], [116.810738, 23.383529], [116.810497, 23.383323], [116.810406, 23.383424], [116.81039, 23.38344], [116.810335, 23.383494], [116.810322, 23.383504], [116.810309, 23.383516], [116.810245, 23.383567], [116.810227, 23.383582], [116.810194, 23.383615], [116.81017, 23.383636], [116.810113, 23.383689], [116.809914, 23.383874], [116.810119, 23.384086], [116.810012, 23.384196], [116.809949, 23.38414], [116.809691, 23.384385], [116.80973, 23.384448], [116.809779, 23.384554], [116.810161, 23.384912], [116.810342, 23.384954], [116.810621, 23.384922], [116.810811, 23.384937], [116.811002, 23.385021], [116.811147, 23.385183], [116.811372, 23.386007], [116.811614, 23.386877], [116.811968, 23.387728], [116.812079, 23.388076], [116.812256, 23.388648], [116.812511, 23.389223], [116.812723, 23.389876], [116.812802, 23.39009], [116.812915, 23.390163], [116.816033, 23.39116], [116.809806, 23.397403], [116.80475, 23.395722], [116.805429, 23.395123], [116.805305, 23.394592], [116.801117, 23.395942], [116.801242, 23.397087], [116.801149, 23.398964], [116.800952, 23.399925], [116.800624, 23.400646], [116.800245, 23.401255], [116.798718, 23.402621], [116.79821, 23.403709], [116.798231, 23.404048], [116.79849, 23.404908], [116.799452, 23.40662], [116.80154, 23.410051], [116.800509, 23.411392], [116.799498, 23.410903], [116.799135, 23.411457], [116.798246, 23.41076], [116.797562, 23.411986], [116.798298, 23.412606], [116.797236, 23.414339], [116.797946, 23.41489], [116.796726, 23.416542], [116.795253, 23.418566], [116.792485, 23.417384], [116.790468, 23.420928], [116.789696, 23.421677], [116.784589, 23.418999], [116.7768, 23.429099], [116.771886, 23.426087], [116.76901, 23.428509], [116.767745, 23.426973], [116.765856, 23.428647], [116.755621, 23.416853], [116.755063, 23.417306], [116.754848, 23.417355], [116.754517, 23.417583], [116.750779, 23.413602]]]}, "properties": {"display_name": "新溪街道, 龙湖区, 汕头市, 广东省, 中国", "type": "administrative", "osm_type": "relation", "osm_id": 8174247, "class": null, "keyword": "subdistrict"}}, {"type": "Feature", "geometry": {"type": "Polygon", "coordinates": [[[116.610593, 23.346428], [116.611686, 23.316654], [116.613975, 23.314754], [116.615575, 23.316331], [116.616501, 23.317967], [116.617162, 23.318459], [116.617952, 23.318558], [116.624618, 23.318854], [116.624817, 23.314118], [116.623012, 23.303757], [116.625419, 23.300303], [116.627224, 23.295744], [116.623915, 23.2916], [116.619553, 23.290356], [116.611129, 23.282342], [116.613084, 23.277368], [116.621658, 23.272808], [116.630233, 23.260647], [116.637603, 23.251664], [116.644866, 23.250894], [116.646432, 23.259981], [116.644759, 23.263786], [116.652762, 23.270942], [116.65301, 23.271761], [116.653084, 23.272006], [116.654372, 23.272361], [116.655359, 23.273169], [116.656646, 23.27313], [116.657054, 23.272558], [116.656968, 23.269877], [116.657912, 23.270252], [116.658127, 23.270548], [116.658685, 23.270212], [116.658942, 23.269188], [116.658406, 23.268912], [116.658363, 23.269286], [116.657934, 23.269365], [116.658041, 23.267847], [116.658749, 23.267374], [116.660981, 23.267512], [116.661946, 23.268458], [116.661753, 23.26903], [116.660208, 23.268537], [116.659822, 23.269542], [116.660745, 23.269917], [116.660551, 23.270607], [116.659908, 23.270488], [116.659071, 23.271592], [116.66141, 23.273189], [116.663341, 23.272696], [116.66362, 23.275298], [116.671924, 23.27926], [116.673147, 23.279319], [116.672031, 23.279851], [116.670572, 23.281428], [116.674649, 23.286592], [116.675786, 23.285705], [116.676087, 23.285351], [116.676108, 23.284838], [116.677396, 23.285153], [116.679005, 23.2806], [116.677245, 23.280167], [116.678018, 23.277525], [116.684438, 23.275497], [116.691525, 23.276818], [116.688352, 23.281359], [116.685606, 23.284927], [116.683421, 23.289763], [116.681828, 23.291561], [116.679127, 23.292341], [116.675713, 23.292355], [116.673119, 23.292731], [116.67148, 23.293916], [116.670151, 23.29537], [116.671696, 23.299726], [116.673649, 23.299588], [116.674185, 23.300553], [116.674378, 23.302465], [116.672533, 23.303371], [116.670709, 23.302662], [116.669915, 23.302623], [116.665259, 23.305184], [116.666439, 23.3068], [116.664808, 23.308003], [116.661353, 23.307569], [116.660345, 23.307845], [116.659165, 23.307451], [116.656708, 23.310525], [116.653049, 23.308909], [116.652277, 23.311313], [116.65129, 23.313028], [116.649015, 23.314348], [116.646676, 23.315313], [116.644938, 23.316417], [116.643458, 23.314683], [116.642556, 23.314722], [116.641977, 23.313973], [116.642835, 23.313422], [116.64187, 23.312101], [116.640947, 23.310821], [116.641398, 23.309086], [116.641183, 23.307983], [116.64129, 23.306406], [116.639617, 23.30751], [116.63745, 23.309815], [116.635432, 23.31151], [116.634596, 23.309914], [116.63496, 23.307746], [116.635561, 23.305973], [116.633973, 23.304948], [116.631463, 23.305224], [116.629896, 23.306702], [116.630074, 23.314126], [116.627929, 23.314422], [116.626062, 23.314974], [116.628358, 23.31854], [116.638808, 23.319013], [116.640095, 23.319624], [116.640524, 23.321713], [116.641232, 23.328195], [116.641941, 23.331249], [116.641511, 23.333811], [116.639816, 23.336234], [116.637799, 23.337672], [116.6334, 23.339229], [116.632113, 23.339721], [116.62999, 23.340366], [116.627834, 23.340757], [116.625329, 23.340913], [116.610593, 23.346428]]]}, "properties": {"display_name": "河浦街道, 濠江区, 汕头市, 广东省, 中国", "type": "administrative", "osm_type": "relation", "osm_id": 8209245, "class": null, "keyword": "subdistrict"}}, {"type": "Feature", "geometry": {"type": "Polygon", "coordinates": [[[116.74092, 23.289456], [116.74107, 23.286302], [116.747422, 23.282242], [116.748988, 23.28236], [116.752357, 23.280133], [116.749417, 23.27968], [116.748988, 23.277906], [116.747357, 23.275678], [116.747572, 23.273944], [116.747937, 23.272189], [116.747722, 23.270317], [116.74916, 23.270139], [116.748816, 23.267596], [116.751692, 23.267182], [116.751735, 23.264659], [116.751606, 23.262057], [116.7524, 23.2591], [116.754717, 23.256222], [116.751981, 23.256087], [116.746436, 23.257087], [116.746465, 23.25705], [116.746475, 23.25701], [116.746483, 23.256958], [116.746499, 23.256823], [116.746504, 23.256756], [116.746502, 23.256685], [116.746488, 23.256634], [116.746466, 23.256585], [116.746443, 23.256559], [116.74639, 23.256531], [116.746383, 23.25651], [116.74638, 23.256471], [116.746384, 23.256411], [116.746396, 23.256343], [116.746401, 23.256297], [116.74641, 23.256285], [116.746425, 23.256281], [116.746538, 23.256274], [116.74655, 23.256268], [116.746572, 23.256198], [116.746584, 23.256183], [116.746599, 23.256162], [116.746619, 23.256087], [116.746641, 23.255985], [116.746665, 23.255855], [116.746697, 23.255668], [116.746746, 23.25535], [116.746798, 23.25499], [116.746859, 23.254551], [116.746925, 23.254183], [116.746998, 23.253734], [116.747088, 23.253247], [116.747149, 23.252918], [116.747183, 23.252717], [116.747214, 23.252513], [116.747243, 23.252286], [116.747257, 23.252165], [116.747254, 23.252119], [116.747252, 23.252099], [116.747239, 23.252067], [116.747214, 23.252048], [116.747183, 23.252033], [116.747144, 23.252021], [116.74712, 23.252001], [116.747105, 23.251981], [116.747081, 23.25194], [116.747051, 23.251893], [116.747013, 23.251829], [116.746992, 23.251791], [116.746988, 23.251735], [116.747009, 23.251707], [116.747083, 23.251683], [116.747126, 23.251665], [116.747191, 23.251643], [116.747247, 23.25161], [116.745176, 23.249559], [116.74464, 23.24366], [116.745629, 23.243659], [116.745608, 23.243589], [116.74562, 23.24354], [116.745632, 23.243446], [116.74562, 23.243344], [116.745583, 23.243325], [116.745593, 23.243278], [116.745586, 23.243232], [116.745621, 23.243213], [116.745624, 23.242926], [116.745632, 23.242641], [116.745673, 23.242604], [116.745678, 23.242544], [116.745765, 23.242428], [116.745752, 23.242321], [116.745762, 23.242221], [116.745736, 23.242193], [116.745736, 23.242142], [116.745709, 23.242094], [116.745728, 23.241996], [116.745657, 23.24157], [116.745484, 23.240725], [116.745271, 23.239536], [116.743915, 23.232179], [116.743351, 23.226368], [116.743548, 23.226093], [116.744127, 23.232144], [116.745505, 23.239449], [116.745745, 23.24074], [116.745988, 23.242025], [116.74604, 23.242025], [116.746084, 23.24212], [116.746102, 23.242191], [116.746151, 23.242288], [116.746189, 23.242341], [116.746281, 23.242409], [116.746425, 23.242394], [116.746613, 23.242206], [116.747023, 23.242155], [116.747034, 23.242002], [116.747004, 23.241832], [116.746996, 23.241686], [116.747046, 23.241614], [116.747163, 23.241733], [116.747262, 23.242115], [116.747417, 23.242098], [116.747484, 23.241987], [116.7476, 23.242083], [116.74786, 23.242115], [116.748199, 23.241979], [116.748359, 23.241875], [116.748566, 23.241708], [116.74848, 23.241627], [116.748443, 23.24156], [116.748575, 23.241501], [116.748658, 23.241485], [116.748706, 23.241425], [116.748577, 23.241328], [116.748619, 23.241228], [116.748709, 23.241212], [116.748755, 23.241275], [116.7488, 23.241233], [116.748791, 23.241113], [116.748708, 23.24105], [116.748478, 23.240895], [116.748362, 23.240662], [116.748357, 23.24032], [116.748427, 23.240174], [116.748426, 23.240103], [116.748551, 23.240033], [116.748513, 23.239971], [116.748649, 23.239871], [116.748642, 23.23977], [116.748608, 23.239669], [116.74873, 23.239573], [116.748757, 23.239493], [116.74883, 23.239447], [116.748846, 23.239351], [116.748932, 23.239344], [116.749009, 23.239353], [116.749066, 23.239303], [116.749031, 23.239211], [116.749115, 23.239161], [116.749146, 23.239061], [116.74907, 23.239043], [116.749066, 23.238958], [116.749136, 23.238945], [116.74917, 23.23876], [116.74918, 23.238613], [116.749271, 23.238565], [116.749384, 23.238471], [116.7495, 23.238458], [116.749619, 23.238492], [116.749603, 23.238427], [116.749628, 23.238343], [116.74968, 23.238322], [116.749644, 23.238256], [116.749487, 23.238164], [116.749413, 23.238049], [116.749607, 23.237992], [116.749711, 23.238058], [116.749756, 23.238053], [116.749802, 23.238097], [116.749856, 23.238148], [116.749908, 23.238242], [116.749978, 23.238331], [116.749991, 23.238416], [116.750192, 23.238483], [116.750569, 23.238435], [116.751064, 23.238317], [116.751134, 23.238299], [116.751102, 23.238236], [116.751179, 23.23819], [116.751273, 23.238159], [116.751338, 23.23812], [116.751405, 23.238173], [116.751619, 23.238104], [116.751659, 23.238049], [116.751705, 23.237956], [116.75176, 23.237977], [116.751769, 23.237955], [116.751752, 23.237894], [116.751796, 23.237903], [116.751804, 23.237786], [116.751921, 23.237806], [116.75197, 23.23787], [116.751979, 23.237768], [116.752023, 23.237681], [116.752146, 23.237792], [116.75231, 23.237657], [116.752653, 23.237502], [116.752897, 23.237385], [116.753106, 23.237206], [116.753221, 23.237057], [116.753149, 23.237045], [116.753082, 23.236986], [116.753152, 23.236745], [116.753153, 23.236477], [116.75335, 23.23632], [116.753458, 23.235999], [116.753686, 23.235806], [116.753868, 23.235813], [116.754238, 23.235634], [116.754578, 23.235072], [116.754756, 23.234985], [116.754665, 23.234876], [116.754209, 23.23479], [116.754284, 23.234652], [116.75452, 23.234669], [116.754429, 23.234583], [116.754447, 23.234433], [116.754753, 23.23429], [116.754702, 23.234028], [116.754555, 23.234021], [116.754482, 23.234159], [116.7543, 23.234169], [116.754469, 23.233937], [116.754284, 23.233898], [116.754316, 23.233634], [116.754531, 23.233568], [116.754496, 23.233474], [116.754737, 23.233068], [116.754512, 23.232924], [116.754684, 23.232762], [116.754906, 23.232811], [116.75497, 23.232735], [116.755166, 23.232528], [116.754994, 23.232417], [116.755228, 23.232313], [116.755241, 23.232091], [116.755443, 23.232126], [116.755526, 23.232022], [116.755644, 23.231989], [116.755722, 23.232], [116.755823, 23.231959], [116.756, 23.231741], [116.756111, 23.231524], [116.755912, 23.231527], [116.75595, 23.231465], [116.756127, 23.231246], [116.755939, 23.230977], [116.755984, 23.230797], [116.756145, 23.230768], [116.75629, 23.23079], [116.756505, 23.230435], [116.756593, 23.230134], [116.756448, 23.230085], [116.756494, 23.230009], [116.75657, 23.23002], [116.756452, 23.229522], [116.756253, 23.229395], [116.755794, 23.229368], [116.755333, 23.229427], [116.755217, 23.229272], [116.755223, 23.22908], [116.755797, 23.229235], [116.756304, 23.22923], [116.756173, 23.228872], [116.755893, 23.229072], [116.75559, 23.22899], [116.75559, 23.22873], [116.755776, 23.228492], [116.755982, 23.228271], [116.755939, 23.228027], [116.756194, 23.22798], [116.756309, 23.22802], [116.756497, 23.227941], [116.756686, 23.227932], [116.756939, 23.228345], [116.756966, 23.228806], [116.75721, 23.228959], [116.757178, 23.229089], [116.757189, 23.22922], [116.757272, 23.229289], [116.757497, 23.229131], [116.757672, 23.229145], [116.757897, 23.229479], [116.758152, 23.22973], [116.758779, 23.229765], [116.759184, 23.22976], [116.75905, 23.22956], [116.759251, 23.22938], [116.759294, 23.229197], [116.759625, 23.229201], [116.759691, 23.22885], [116.759859, 23.228847], [116.759866, 23.228624], [116.759983, 23.22848], [116.760322, 23.228017], [116.760735, 23.228165], [116.761108, 23.228202], [116.761303, 23.22796], [116.761614, 23.227887], [116.761925, 23.227888], [116.76217, 23.228071], [116.762271, 23.228155], [116.762294, 23.228252], [116.762434, 23.228324], [116.762481, 23.228232], [116.762593, 23.228322], [116.762645, 23.228276], [116.762748, 23.228241], [116.762831, 23.2281], [116.762925, 23.228086], [116.763012, 23.228022], [116.763061, 23.228042], [116.763092, 23.228078], [116.763149, 23.228078], [116.763174, 23.228168], [116.763248, 23.22819], [116.763222, 23.228261], [116.763304, 23.228211], [116.763389, 23.227972], [116.763495, 23.22797], [116.763562, 23.227932], [116.763625, 23.227957], [116.763662, 23.227937], [116.763734, 23.22793], [116.763752, 23.227997], [116.763702, 23.22802], [116.763749, 23.228103], [116.763755, 23.228133], [116.763798, 23.228151], [116.763847, 23.228143], [116.763902, 23.22818], [116.763906, 23.228266], [116.763945, 23.228338], [116.763841, 23.22843], [116.763846, 23.228471], [116.763905, 23.228487], [116.763995, 23.228465], [116.764062, 23.228466], [116.764072, 23.228537], [116.764095, 23.228563], [116.764082, 23.228661], [116.764109, 23.228662], [116.764158, 23.228619], [116.764213, 23.228601], [116.764278, 23.228693], [116.764144, 23.228775], [116.764077, 23.228954], [116.764062, 23.229061], [116.764019, 23.22905], [116.764008, 23.229097], [116.764019, 23.229176], [116.764, 23.22927], [116.764139, 23.229445], [116.764149, 23.229516], [116.764183, 23.229518], [116.764176, 23.229565], [116.764215, 23.229616], [116.764303, 23.229563], [116.764382, 23.229586], [116.764487, 23.229738], [116.764597, 23.229765], [116.76461, 23.229809], [116.764651, 23.229829], [116.764664, 23.229802], [116.764714, 23.229809], [116.764667, 23.229846], [116.764761, 23.229921], [116.764836, 23.229982], [116.764867, 23.229991], [116.765243, 23.230134], [116.76527, 23.230111], [116.765308, 23.230118], [116.765328, 23.230144], [116.765379, 23.23015], [116.765469, 23.230148], [116.76562, 23.230203], [116.765788, 23.230239], [116.765982, 23.230162], [116.765925, 23.230147], [116.765947, 23.23011], [116.765929, 23.229842], [116.765886, 23.229734], [116.765957, 23.229703], [116.76615, 23.229691], [116.766193, 23.229629], [116.766055, 23.227539], [116.775694, 23.226778], [116.775788, 23.227484], [116.775825, 23.227482], [116.775834, 23.227493], [116.77586, 23.2278], [116.775992, 23.228023], [116.776731, 23.227752], [116.776789, 23.227649], [116.7781, 23.227399], [116.778584, 23.22707], [116.779081, 23.227008], [116.779725, 23.22725], [116.779996, 23.22714], [116.779805, 23.226172], [116.779801, 23.226161], [116.779797, 23.226159], [116.779785, 23.226157], [116.779771, 23.226159], [116.77797, 23.226459], [116.77794, 23.226467], [116.777922, 23.226474], [116.777907, 23.226485], [116.777714, 23.226709], [116.777703, 23.226723], [116.777685, 23.226739], [116.777665, 23.226745], [116.776743, 23.226894], [116.776732, 23.226895], [116.776726, 23.226891], [116.776721, 23.226886], [116.776676, 23.22665], [116.776668, 23.226645], [116.776658, 23.226644], [116.776634, 23.226647], [116.776231, 23.22671], [116.776223, 23.226709], [116.776218, 23.226705], [116.776217, 23.2267], [116.776208, 23.226616], [116.776208, 23.226612], [116.776211, 23.226609], [116.776216, 23.226607], [116.777551, 23.226381], [116.777569, 23.226369], [116.777575, 23.226357], [116.777574, 23.226274], [116.776844, 23.222267], [116.776506, 23.220384], [116.776494, 23.220363], [116.776474, 23.220355], [116.776442, 23.22036], [116.775508, 23.220386], [116.775503, 23.220386], [116.775498, 23.220383], [116.775494, 23.220371], [116.775492, 23.220325], [116.775488, 23.220319], [116.775482, 23.220318], [116.775447, 23.220312], [116.775445, 23.22031], [116.775442, 23.220306], [116.775444, 23.220269], [116.775414, 23.220263], [116.775377, 23.220247], [116.775359, 23.220233], [116.775344, 23.220219], [116.775327, 23.220204], [116.775322, 23.220186], [116.775324, 23.220171], [116.775372, 23.220078], [116.775409, 23.220044], [116.775471, 23.220023], [116.775756, 23.220017], [116.776103, 23.220033], [116.776532, 23.220042], [116.776656, 23.220035], [116.777583, 23.219899], [116.777641, 23.219829], [116.777653, 23.219747], [116.777585, 23.219294], [116.777543, 23.219041], [116.777469, 23.218209], [116.777462, 23.218157], [116.777325, 23.217547], [116.777209, 23.217029], [116.777146, 23.216908], [116.777072, 23.216878], [116.776919, 23.216844], [116.77623, 23.21679], [116.77474, 23.21649], [116.77024, 23.216002], [116.770272, 23.215762], [116.774951, 23.216359], [116.777431, 23.216602], [116.777568, 23.216647], [116.777702, 23.216672], [116.777836, 23.216679], [116.777922, 23.216587], [116.777953, 23.216611], [116.777995, 23.216533], [116.778098, 23.216562], [116.778107, 23.216619], [116.778164, 23.216596], [116.77815, 23.216676], [116.778443, 23.216568], [116.77857, 23.216501], [116.778578, 23.216421], [116.778623, 23.216348], [116.778672, 23.216343], [116.778713, 23.216298], [116.778791, 23.216294], [116.778845, 23.216298], [116.77885, 23.216342], [116.7789, 23.216356], [116.778947, 23.216331], [116.778962, 23.216292], [116.779133, 23.216292], [116.779164, 23.216324], [116.779243, 23.216276], [116.779283, 23.216224], [116.779303, 23.216226], [116.779285, 23.216294], [116.779371, 23.21629], [116.7794, 23.216384], [116.779506, 23.216358], [116.779548, 23.216302], [116.779757, 23.216302], [116.779827, 23.216226], [116.779907, 23.21623], [116.779919, 23.216125], [116.779999, 23.216127], [116.780056, 23.216181], [116.78013, 23.21605], [116.780154, 23.21596], [116.780127, 23.215861], [116.780147, 23.215771], [116.78024, 23.215803], [116.780292, 23.21588], [116.780332, 23.215779], [116.780396, 23.215742], [116.780418, 23.215686], [116.780507, 23.21565], [116.780528, 23.215608], [116.780576, 23.215566], [116.780624, 23.215569], [116.780626, 23.215612], [116.780733, 23.215599], [116.780744, 23.215542], [116.780785, 23.21553], [116.78085, 23.215474], [116.78124, 23.21538], [116.78137, 23.21513], [116.78166, 23.21487], [116.78194, 23.21461], [116.78222, 23.21435], [116.782371, 23.214175], [116.782893, 23.213767], [116.783601, 23.213312], [116.784237, 23.213014], [116.784665, 23.212672], [116.784628, 23.212373], [116.78488, 23.2123], [116.785273, 23.212296], [116.785363, 23.212446], [116.785502, 23.212582], [116.785682, 23.21259], [116.78575, 23.212643], [116.785946, 23.212637], [116.785996, 23.212583], [116.786095, 23.212593], [116.786224, 23.212575], [116.786326, 23.212553], [116.786421, 23.2126], [116.7865, 23.212546], [116.786652, 23.212601], [116.786672, 23.21256], [116.78671, 23.212522], [116.786823, 23.212527], [116.786731, 23.212377], [116.786725, 23.212281], [116.786859, 23.212338], [116.786925, 23.21224], [116.787055, 23.212147], [116.787184, 23.212043], [116.787361, 23.212065], [116.787425, 23.212058], [116.787499, 23.212121], [116.78753, 23.212031], [116.787628, 23.212004], [116.787559, 23.211946], [116.787533, 23.211872], [116.787742, 23.211665], [116.787854, 23.211751], [116.787921, 23.211864], [116.788039, 23.211823], [116.788139, 23.211615], [116.788281, 23.211798], [116.788317, 23.211856], [116.78832, 23.211942], [116.788387, 23.212009], [116.788462, 23.21189], [116.788561, 23.211857], [116.788607, 23.211733], [116.788726, 23.211711], [116.788813, 23.211658], [116.788875, 23.211586], [116.788962, 23.211609], [116.789033, 23.21155], [116.789276, 23.211622], [116.789437, 23.211622], [116.789501, 23.211556], [116.78966, 23.211644], [116.789743, 23.211635], [116.789801, 23.211666], [116.789796, 23.211925], [116.789855, 23.211965], [116.7899, 23.21185], [116.790034, 23.211826], [116.790065, 23.211729], [116.790107, 23.211717], [116.790184, 23.211842], [116.790319, 23.211901], [116.790445, 23.211872], [116.790562, 23.211868], [116.790818, 23.21199], [116.790877, 23.211985], [116.79093, 23.21202], [116.790974, 23.212142], [116.791088, 23.212153], [116.791174, 23.212228], [116.791355, 23.212242], [116.791481, 23.212345], [116.791579, 23.21239], [116.79169, 23.21257], [116.791634, 23.212806], [116.791618, 23.213038], [116.79194, 23.213109], [116.792132, 23.213419], [116.792036, 23.213583], [116.79228, 23.213627], [116.79239, 23.21385], [116.792912, 23.214035], [116.793262, 23.21431], [116.7932, 23.214546], [116.793217, 23.214636], [116.793184, 23.214724], [116.793361, 23.214862], [116.793428, 23.214724], [116.793581, 23.214731], [116.794071, 23.215203], [116.794034, 23.215557], [116.79406, 23.21592], [116.794375, 23.215387], [116.794474, 23.215456], [116.794402, 23.215779], [116.794601, 23.215779], [116.794485, 23.216109], [116.794576, 23.216296], [116.794922, 23.216026], [116.795099, 23.21607], [116.795349, 23.216072], [116.79573, 23.2163], [116.795721, 23.216188], [116.795893, 23.216094], [116.796027, 23.215939], [116.796191, 23.215821], [116.796639, 23.215942], [116.796832, 23.216088], [116.796895, 23.216219], [116.796988, 23.216242], [116.797033, 23.216172], [116.797146, 23.216234], [116.797205, 23.216351], [116.797217, 23.216914], [116.797123, 23.216992], [116.797113, 23.217139], [116.797006, 23.21731], [116.796998, 23.217482], [116.797103, 23.217631], [116.797231, 23.217744], [116.797168, 23.217827], [116.797087, 23.217889], [116.797128, 23.217952], [116.797097, 23.21801], [116.79695, 23.218062], [116.797044, 23.218293], [116.79698, 23.21849], [116.79701, 23.21853], [116.796981, 23.218598], [116.79691, 23.21846], [116.796761, 23.218451], [116.796825, 23.218577], [116.7969, 23.21862], [116.796837, 23.218782], [116.796944, 23.218824], [116.796928, 23.218914], [116.796733, 23.218863], [116.79669, 23.219072], [116.796775, 23.219304], [116.796946, 23.219406], [116.797194, 23.219457], [116.797278, 23.219575], [116.797334, 23.219701], [116.797235, 23.219754], [116.797187, 23.219784], [116.79724, 23.219863], [116.797135, 23.219942], [116.79705, 23.219939], [116.796816, 23.220194], [116.79681, 23.220508], [116.79661, 23.220583], [116.796476, 23.220725], [116.79642, 23.22081], [116.796354, 23.220916], [116.796549, 23.220981], [116.796507, 23.221095], [116.796557, 23.221175], [116.796392, 23.22143], [116.796311, 23.221549], [116.796102, 23.221547], [116.795952, 23.221596], [116.795699, 23.221652], [116.795418, 23.22168], [116.795111, 23.221765], [116.794954, 23.222089], [116.794899, 23.222566], [116.794976, 23.222718], [116.795052, 23.222808], [116.795011, 23.222947], [116.795048, 23.223014], [116.795004, 23.223155], [116.795051, 23.223324], [116.794992, 23.223456], [116.794878, 23.223544], [116.794952, 23.223789], [116.795031, 23.223875], [116.795253, 23.224447], [116.795506, 23.225056], [116.795815, 23.225493], [116.79613, 23.22622], [116.796458, 23.226558], [116.796652, 23.226983], [116.796472, 23.227002], [116.796604, 23.227221], [116.79682, 23.22737], [116.79711, 23.22763], [116.797527, 23.227716], [116.797575, 23.227611], [116.797564, 23.227386], [116.797698, 23.227315], [116.797864, 23.227371], [116.797811, 23.227472], [116.797824, 23.227566], [116.798033, 23.227643], [116.798226, 23.22755], [116.798342, 23.227667], [116.798496, 23.227835], [116.798641, 23.227901], [116.79877, 23.22789], [116.798943, 23.228055], [116.799192, 23.228094], [116.799352, 23.228048], [116.799446, 23.228207], [116.799479, 23.228346], [116.799568, 23.2284], [116.799621, 23.228622], [116.799586, 23.228763], [116.799692, 23.228889], [116.799873, 23.228794], [116.800076, 23.228965], [116.80017, 23.22892], [116.800148, 23.228745], [116.8003, 23.22871], [116.800339, 23.228803], [116.800466, 23.228808], [116.800488, 23.228747], [116.800626, 23.228733], [116.800686, 23.228717], [116.800749, 23.228818], [116.800802, 23.228877], [116.800922, 23.228953], [116.800976, 23.229073], [116.800942, 23.229198], [116.801067, 23.229291], [116.800947, 23.229375], [116.800976, 23.229439], [116.800917, 23.22951], [116.800815, 23.229599], [116.800685, 23.229688], [116.800691, 23.229754], [116.800791, 23.229766], [116.800721, 23.229872], [116.80058, 23.22983], [116.800581, 23.230002], [116.800439, 23.23002], [116.800327, 23.230101], [116.800173, 23.230194], [116.799881, 23.230283], [116.799649, 23.230329], [116.799554, 23.230444], [116.79947, 23.2306], [116.79947, 23.23085], [116.79974, 23.23214], [116.80001, 23.2324], [116.80017, 23.23394], [116.80099, 23.23407], [116.80155, 23.2342], [116.80169, 23.23472], [116.80197, 23.23549], [116.80224, 23.23575], [116.80252, 23.23651], [116.80266, 23.23704], [116.80321, 23.23717], [116.8035, 23.23742], [116.80461, 23.23743], [116.80489, 23.23717], [116.80627, 23.23691], [116.80656, 23.23691], [116.80684, 23.23691], [116.806927, 23.236953], [116.80712, 23.2373], [116.807231, 23.23743], [116.807344, 23.237398], [116.807765, 23.237279], [116.807915, 23.237499], [116.808133, 23.23762], [116.808022, 23.237832], [116.80809, 23.23807], [116.80795, 23.23833], [116.808341, 23.238584], [116.80837, 23.23859], [116.808176, 23.238695], [116.80809, 23.23884], [116.808027, 23.239054], [116.808001, 23.239209], [116.808069, 23.23937], [116.808011, 23.23954], [116.807943, 23.239717], [116.807848, 23.239935], [116.807834, 23.240088], [116.807709, 23.240064], [116.807653, 23.240111], [116.807543, 23.240071], [116.807418, 23.240133], [116.807445, 23.240173], [116.807377, 23.240189], [116.807311, 23.240217], [116.807208, 23.240167], [116.807121, 23.240163], [116.806954, 23.240242], [116.80695, 23.240301], [116.806873, 23.240312], [116.806816, 23.240273], [116.806704, 23.240259], [116.806661, 23.240265], [116.806596, 23.240254], [116.806446, 23.240175], [116.806309, 23.240183], [116.806119, 23.239935], [116.806124, 23.239812], [116.806115, 23.239759], [116.806059, 23.239844], [116.805997, 23.239811], [116.805988, 23.239738], [116.805859, 23.239818], [116.805808, 23.239759], [116.805947, 23.239649], [116.805835, 23.23954], [116.80567, 23.239471], [116.805446, 23.239503], [116.805223, 23.239559], [116.805053, 23.239628], [116.80489, 23.23974], [116.804788, 23.239807], [116.804889, 23.239955], [116.804854, 23.240026], [116.804802, 23.24013], [116.804751, 23.240227], [116.804711, 23.240322], [116.804709, 23.240384], [116.80464, 23.240434], [116.804527, 23.240455], [116.804541, 23.24052], [116.804539, 23.240586], [116.804477, 23.240623], [116.804418, 23.240608], [116.804411, 23.240642], [116.804463, 23.240682], [116.804473, 23.240723], [116.804408, 23.240778], [116.804401, 23.240839], [116.80446, 23.240878], [116.804359, 23.240983], [116.804308, 23.241015], [116.804258, 23.24101], [116.804304, 23.241074], [116.804273, 23.241104], [116.804207, 23.241166], [116.804101, 23.241202], [116.803992, 23.241212], [116.803996, 23.241164], [116.803958, 23.24115], [116.803914, 23.241192], [116.803776, 23.241186], [116.803681, 23.24117], [116.803588, 23.241188], [116.803761, 23.241219], [116.803781, 23.24127], [116.803513, 23.241352], [116.803394, 23.241391], [116.803332, 23.241457], [116.803237, 23.241536], [116.803189, 23.241636], [116.803193, 23.241658], [116.803159, 23.241679], [116.803096, 23.241763], [116.803072, 23.241808], [116.803064, 23.241857], [116.80311, 23.241871], [116.803085, 23.241924], [116.803016, 23.241955], [116.802979, 23.242026], [116.802969, 23.24212], [116.802916, 23.242135], [116.802852, 23.24209], [116.802805, 23.242145], [116.802772, 23.242142], [116.802739, 23.242162], [116.802687, 23.242167], [116.802707, 23.242105], [116.802684, 23.242103], [116.802578, 23.242163], [116.80253, 23.242131], [116.802565, 23.242067], [116.802548, 23.241991], [116.802633, 23.241895], [116.802674, 23.24194], [116.802617, 23.242025], [116.802659, 23.242025], [116.802695, 23.241949], [116.80277, 23.241891], [116.802904, 23.241727], [116.802963, 23.241642], [116.803036, 23.241572], [116.803067, 23.241473], [116.803052, 23.241383], [116.802883, 23.241318], [116.802785, 23.241308], [116.802716, 23.241281], [116.802679, 23.241174], [116.802629, 23.24107], [116.802403, 23.241091], [116.802175, 23.241139], [116.802063, 23.241269], [116.801895, 23.241424], [116.801861, 23.241548], [116.801809, 23.241599], [116.801815, 23.241649], [116.801901, 23.241707], [116.802077, 23.241765], [116.802282, 23.241872], [116.802294, 23.241914], [116.802247, 23.241954], [116.802175, 23.241918], [116.80194, 23.241813], [116.801803, 23.241778], [116.801715, 23.241859], [116.80168, 23.24193], [116.801696, 23.242042], [116.80179, 23.242106], [116.801872, 23.242143], [116.801937, 23.242197], [116.802043, 23.242251], [116.802085, 23.242317], [116.802167, 23.242336], [116.802143, 23.242415], [116.802199, 23.242408], [116.802219, 23.24244], [116.802151, 23.242492], [116.80212, 23.242545], [116.80207, 23.242639], [116.802013, 23.242635], [116.802082, 23.242694], [116.802057, 23.242734], [116.801983, 23.242684], [116.801955, 23.242718], [116.801873, 23.242766], [116.801813, 23.242824], [116.801704, 23.242812], [116.801656, 23.242829], [116.80163, 23.242867], [116.801548, 23.242877], [116.80152, 23.242838], [116.801477, 23.242857], [116.801491, 23.242928], [116.801452, 23.242963], [116.801393, 23.242905], [116.801459, 23.242789], [116.80155, 23.242748], [116.80152, 23.242728], [116.801547, 23.242671], [116.801487, 23.242673], [116.801425, 23.242667], [116.801386, 23.242722], [116.801328, 23.242751], [116.801298, 23.242806], [116.801244, 23.242788], [116.801192, 23.242789], [116.80121, 23.242817], [116.801277, 23.242826], [116.801339, 23.242841], [116.801335, 23.242895], [116.801312, 23.242905], [116.801315, 23.242932], [116.80127, 23.242959], [116.801192, 23.242941], [116.801146, 23.242956], [116.801084, 23.242886], [116.80105, 23.24298], [116.801062, 23.243032], [116.801051, 23.243086], [116.801008, 23.243085], [116.801007, 23.243031], [116.80096, 23.242948], [116.800906, 23.242933], [116.800862, 23.242957], [116.800838, 23.243029], [116.800788, 23.243048], [116.800697, 23.243091], [116.80069, 23.243143], [116.800671, 23.243176], [116.80065, 23.243181], [116.800623, 23.243133], [116.800578, 23.243154], [116.800544, 23.243225], [116.800423, 23.243264], [116.80034, 23.243355], [116.800276, 23.24341], [116.800274, 23.243454], [116.800219, 23.24348], [116.800174, 23.243519], [116.800162, 23.243556], [116.800116, 23.243604], [116.800107, 23.243654], [116.800055, 23.243703], [116.800032, 23.243783], [116.800075, 23.243814], [116.800044, 23.243844], [116.799985, 23.243827], [116.799963, 23.243887], [116.799924, 23.243851], [116.79986, 23.243891], [116.799832, 23.243951], [116.799742, 23.244011], [116.799743, 23.243941], [116.799703, 23.243962], [116.799654, 23.244062], [116.79964, 23.244124], [116.799586, 23.244134], [116.799601, 23.244163], [116.799498, 23.244238], [116.799454, 23.244199], [116.799415, 23.244238], [116.799352, 23.244209], [116.799267, 23.244193], [116.79921, 23.244207], [116.799157, 23.244248], [116.799032, 23.244233], [116.799012, 23.244291], [116.798949, 23.244259], [116.798894, 23.244278], [116.798825, 23.244318], [116.79875, 23.244322], [116.798692, 23.244243], [116.798606, 23.244189], [116.798514, 23.244142], [116.798461, 23.24413], [116.798397, 23.24414], [116.798347, 23.244154], [116.798319, 23.244132], [116.798351, 23.244101], [116.798389, 23.244112], [116.798428, 23.244079], [116.798359, 23.244041], [116.798279, 23.243903], [116.798186, 23.243869], [116.798024, 23.24373], [116.79807, 23.243714], [116.798103, 23.24366], [116.798154, 23.243697], [116.79817, 23.243664], [116.798114, 23.24359], [116.798043, 23.243607], [116.798012, 23.243549], [116.797972, 23.243526], [116.797941, 23.243525], [116.797933, 23.243483], [116.79797, 23.243479], [116.797997, 23.243512], [116.798027, 23.243488], [116.798017, 23.243437], [116.797953, 23.243385], [116.797899, 23.24334], [116.797976, 23.243249], [116.798266, 23.243019], [116.798622, 23.242838], [116.798783, 23.242499], [116.798912, 23.24216], [116.798954, 23.242183], [116.79861, 23.241692], [116.798265, 23.241276], [116.797932, 23.24088], [116.797245, 23.240395], [116.795724, 23.240247], [116.794161, 23.240513], [116.79347, 23.24076], [116.7929, 23.24076], [116.79235, 23.24088], [116.792089, 23.241304], [116.791979, 23.241453], [116.791905, 23.2416], [116.791789, 23.241632], [116.791634, 23.24156], [116.791465, 23.241671], [116.791497, 23.241743], [116.791443, 23.241787], [116.791408, 23.241706], [116.791349, 23.241809], [116.791025, 23.241802], [116.79082, 23.241752], [116.790818, 23.241639], [116.790627, 23.241523], [116.790564, 23.241382], [116.790014, 23.241024], [116.789708, 23.240755], [116.78938, 23.240503], [116.789044, 23.240447], [116.788356, 23.240697], [116.788265, 23.240579], [116.789103, 23.23994], [116.788201, 23.238843], [116.788695, 23.238631], [116.788716, 23.237717], [116.788415, 23.237315], [116.788317, 23.237209], [116.788009, 23.237269], [116.785866, 23.237815], [116.785213, 23.237981], [116.785112, 23.238007], [116.784961, 23.238045], [116.784049, 23.238292], [116.783645, 23.238422], [116.783064, 23.238464], [116.782503, 23.238841], [116.781976, 23.23918], [116.781825, 23.23933], [116.78037, 23.24061], [116.77897, 23.24228], [116.77883, 23.24241], [116.77869, 23.24254], [116.77855, 23.24267], [116.77827, 23.24318], [116.77813, 23.24331], [116.77799, 23.24344], [116.777586, 23.244097], [116.777484, 23.244301], [116.777349, 23.244426], [116.777246, 23.244585], [116.77716, 23.24473], [116.77702, 23.24485], [116.776987, 23.244985], [116.776741, 23.245441], [116.776633, 23.245642], [116.776499, 23.245875], [116.776407, 23.246005], [116.776342, 23.24616], [116.776261, 23.24627], [116.77618, 23.2464], [116.77604, 23.24653], [116.775701, 23.24729], [116.77548, 23.24781], [116.775286, 23.248197], [116.7752, 23.24859], [116.775044, 23.248794], [116.774813, 23.24934], [116.77464, 23.24987], [116.774481, 23.250361], [116.774285, 23.250895], [116.774202, 23.251174], [116.774096, 23.251474], [116.773875, 23.252195], [116.773666, 23.252916], [116.77352, 23.25347], [116.773482, 23.25373], [116.77268, 23.25656], [116.772578, 23.25708], [116.772535, 23.25734], [116.7724, 23.25811], [116.772185, 23.259144], [116.772115, 23.259661], [116.77212, 23.26017], [116.77212, 23.26042], [116.772051, 23.260935], [116.771987, 23.261941], [116.771933, 23.262318], [116.771965, 23.26272], [116.77183, 23.2648], [116.77183, 23.26531], [116.77183, 23.26583], [116.771736, 23.266525], [116.77169, 23.26686], [116.7714, 23.26892], [116.77154, 23.26918], [116.77182, 23.27021], [116.77182, 23.27072], [116.77182, 23.27098], [116.77196, 23.27227], [116.77251, 23.27227], [116.77265, 23.27252], [116.77294, 23.27278], [116.772899, 23.273425], [116.77251, 23.27368], [116.772211, 23.273684], [116.771762, 23.273663], [116.771916, 23.274866], [116.772925, 23.274828], [116.773028, 23.274516], [116.77307, 23.2742], [116.77335, 23.27393], [116.773484, 23.273801], [116.77404, 23.27511], [116.77432, 23.2769], [116.77445, 23.27819], [116.774807, 23.278889], [116.774838, 23.279374], [116.77505, 23.279691], [116.77517, 23.279751], [116.775255, 23.279844], [116.775165, 23.279911], [116.775307, 23.280029], [116.775452, 23.280214], [116.775288, 23.280426], [116.775232, 23.280413], [116.775031, 23.280124], [116.774959, 23.280333], [116.77487, 23.28051], [116.774524, 23.280886], [116.774728, 23.281024], [116.774697, 23.281062], [116.774446, 23.281079], [116.774361, 23.281125], [116.77431, 23.28128], [116.77431, 23.28154], [116.77431, 23.28205], [116.77417, 23.28218], [116.77403, 23.28231], [116.77389, 23.28244], [116.77361, 23.28244], [116.773571, 23.282277], [116.773054, 23.281941], [116.772734, 23.281923], [116.772065, 23.28257], [116.771529, 23.283123], [116.771525, 23.284204], [116.771489, 23.284874], [116.771631, 23.28602], [116.77179, 23.28668], [116.77193, 23.28771], [116.7726, 23.287969], [116.772646, 23.28827], [116.772497, 23.288542], [116.77276, 23.28861], [116.771896, 23.288702], [116.771615, 23.28937], [116.771593, 23.290063], [116.771468, 23.290314], [116.771355, 23.29059], [116.771703, 23.291089], [116.772189, 23.291459], [116.772601, 23.291379], [116.772605, 23.291638], [116.772668, 23.291898], [116.77262, 23.29235], [116.772579, 23.292602], [116.772178, 23.292916], [116.77178, 23.29338], [116.77164, 23.2935], [116.77108, 23.29376], [116.77053, 23.29402], [116.77039, 23.29415], [116.77025, 23.29427], [116.76969, 23.29453], [116.76955, 23.29466], [116.76955, 23.29492], [116.76969, 23.29517], [116.76886, 23.2953], [116.7687, 23.29543], [116.76843, 23.29594], [116.76829, 23.29608], [116.76815, 23.2962], [116.76801, 23.29633], [116.76787, 23.29646], [116.76787, 23.29672], [116.76787, 23.298], [116.76773, 23.29813], [116.76717, 23.29825], [116.767014, 23.298553], [116.766708, 23.298767], [116.76634, 23.29916], [116.76558, 23.299341], [116.76536, 23.299312], [116.765502, 23.299122], [116.764669, 23.29877], [116.764206, 23.298871], [116.764116, 23.299063], [116.764087, 23.299338], [116.764234, 23.299533], [116.764483, 23.29952], [116.764795, 23.299601], [116.765194, 23.299721], [116.765141, 23.300187], [116.76438, 23.30019], [116.76424, 23.30006], [116.764003, 23.299802], [116.76408, 23.299615], [116.76391, 23.299437], [116.763215, 23.299457], [116.762753, 23.299764], [116.762517, 23.300054], [116.763141, 23.300611], [116.763228, 23.300845], [116.763195, 23.301085], [116.76313, 23.30161], [116.76313, 23.30186], [116.76326, 23.30212], [116.76271, 23.30211], [116.76257, 23.30263], [116.76243, 23.30276], [116.76229, 23.30289], [116.76215, 23.30301], [116.76202, 23.30314], [116.76186, 23.30327], [116.76131, 23.3034], [116.76047, 23.30391], [116.76019, 23.3043], [116.75992, 23.3043], [116.75978, 23.30443], [116.75964, 23.30456], [116.7588, 23.3048], [116.75824, 23.30507], [116.75741, 23.30532], [116.75727, 23.30545], [116.756957, 23.306622], [116.756262, 23.306799], [116.754546, 23.306572], [116.754777, 23.305302], [116.754418, 23.302349], [116.744618, 23.300444], [116.746735, 23.293181], [116.74092, 23.289456]]]}, "properties": {"display_name": "广澳街道, 濠江区, 汕头市, 广东省, 中国", "type": "administrative", "osm_type": "relation", "osm_id": 8209241, "class": null, "keyword": "subdistrict"}}, {"type": "Feature", "geometry": {"type": "Polygon", "coordinates": [[[116.703463, 23.283484], [116.706595, 23.277157], [116.713483, 23.279601], [116.71741, 23.279956], [116.720436, 23.278182], [116.722538, 23.27491], [116.723826, 23.269213], [116.727045, 23.259219], [116.731143, 23.257208], [116.738524, 23.256676], [116.744297, 23.254645], [116.745176, 23.249559], [116.747247, 23.25161], [116.747191, 23.251643], [116.747126, 23.251665], [116.747083, 23.251683], [116.747009, 23.251707], [116.746988, 23.251735], [116.746992, 23.251791], [116.747013, 23.251829], [116.747051, 23.251893], [116.747081, 23.25194], [116.747105, 23.251981], [116.74712, 23.252001], [116.747144, 23.252021], [116.747183, 23.252033], [116.747214, 23.252048], [116.747239, 23.252067], [116.747252, 23.252099], [116.747254, 23.252119], [116.747257, 23.252165], [116.747243, 23.252286], [116.747214, 23.252513], [116.747183, 23.252717], [116.747149, 23.252918], [116.747088, 23.253247], [116.746998, 23.253734], [116.746925, 23.254183], [116.746859, 23.254551], [116.746798, 23.25499], [116.746746, 23.25535], [116.746697, 23.255668], [116.746665, 23.255855], [116.746641, 23.255985], [116.746619, 23.256087], [116.746599, 23.256162], [116.746584, 23.256183], [116.746572, 23.256198], [116.74655, 23.256268], [116.746538, 23.256274], [116.746425, 23.256281], [116.74641, 23.256285], [116.746401, 23.256297], [116.746396, 23.256343], [116.746384, 23.256411], [116.74638, 23.256471], [116.746383, 23.25651], [116.74639, 23.256531], [116.746443, 23.256559], [116.746466, 23.256585], [116.746488, 23.256634], [116.746502, 23.256685], [116.746504, 23.256756], [116.746499, 23.256823], [116.746483, 23.256958], [116.746475, 23.25701], [116.746465, 23.25705], [116.746436, 23.257087], [116.751981, 23.256087], [116.754717, 23.256222], [116.7524, 23.2591], [116.751606, 23.262057], [116.751735, 23.264659], [116.751692, 23.267182], [116.748816, 23.267596], [116.74916, 23.270139], [116.747722, 23.270317], [116.747937, 23.272189], [116.747572, 23.273944], [116.747357, 23.275678], [116.748988, 23.277906], [116.749417, 23.27968], [116.752357, 23.280133], [116.748988, 23.28236], [116.747422, 23.282242], [116.74107, 23.286302], [116.74092, 23.289456], [116.746735, 23.293181], [116.744618, 23.300444], [116.754418, 23.302349], [116.754777, 23.305302], [116.754546, 23.306572], [116.756262, 23.306799], [116.756957, 23.306622], [116.756999, 23.307498], [116.757257, 23.308667], [116.757498, 23.30912], [116.757902, 23.309669], [116.757965, 23.310031], [116.757585, 23.310204], [116.758122, 23.311412], [116.758441, 23.312352], [116.759341, 23.312767], [116.760089, 23.31281], [116.760126, 23.312594], [116.76018, 23.31228], [116.760456, 23.312158], [116.760692, 23.31221], [116.760691, 23.312447], [116.760741, 23.31268], [116.76061, 23.312821], [116.760324, 23.313159], [116.760458, 23.31353], [116.760539, 23.314005], [116.760353, 23.314243], [116.76018, 23.31447], [116.759788, 23.315519], [116.76059, 23.31576], [116.760483, 23.31611], [116.76017, 23.3164], [116.76003, 23.31653], [116.759946, 23.316554], [116.759794, 23.316608], [116.75981, 23.316731], [116.758147, 23.317702], [116.758053, 23.317539], [116.75798, 23.317549], [116.757929, 23.317504], [116.758074, 23.317099], [116.757807, 23.317112], [116.757625, 23.317193], [116.757506, 23.317329], [116.75733, 23.317491], [116.756621, 23.317777], [116.756318, 23.317868], [116.75612, 23.318072], [116.752763, 23.317008], [116.751433, 23.317777], [116.749609, 23.316811], [116.749738, 23.315826], [116.747806, 23.316595], [116.744738, 23.315038], [116.743665, 23.316851], [116.741197, 23.314072], [116.740618, 23.315806], [116.738966, 23.315806], [116.736176, 23.317107], [116.735825, 23.316347], [116.735779, 23.315664], [116.73581, 23.315205], [116.735415, 23.31487], [116.733397, 23.314466], [116.729589, 23.314146], [116.728967, 23.313546], [116.72839, 23.311665], [116.728208, 23.311554], [116.727237, 23.311791], [116.727115, 23.312348], [116.726463, 23.312641], [116.724976, 23.313505], [116.724946, 23.314355], [116.724887, 23.314342], [116.722806, 23.313909], [116.721866, 23.313853], [116.72135, 23.31441], [116.720606, 23.316514], [116.7205, 23.316877], [116.719286, 23.318451], [116.716037, 23.319533], [116.713129, 23.319844], [116.712282, 23.318849], [116.708784, 23.319096], [116.710071, 23.3161], [116.710973, 23.299724], [116.706638, 23.290974], [116.706123, 23.28991], [116.708784, 23.28922], [116.708698, 23.286677], [116.703463, 23.283484]]]}, "properties": {"display_name": "达濠街道, 濠江区, 汕头市, 广东省, 中国", "type": "administrative", "osm_type": "relation", "osm_id": 8209240, "class": null, "keyword": "subdistrict"}}, {"type": "Feature", "geometry": {"type": "Polygon", "coordinates": [[[116.6543, 23.238119], [116.663025, 23.229135], [116.674914, 23.221884], [116.675307, 23.221512], [116.678437, 23.219788], [116.678998, 23.220291], [116.679868, 23.221272], [116.681097, 23.222361], [116.681637, 23.222846], [116.684274, 23.224906], [116.688477, 23.228562], [116.694891, 23.233416], [116.699319, 23.23612], [116.702939, 23.238385], [116.705761, 23.239567], [116.708155, 23.240295], [116.710154, 23.241178], [116.714981, 23.242598], [116.714174, 23.24362], [116.713263, 23.243982], [116.711852, 23.2473], [116.708924, 23.247453], [116.708697, 23.248485], [116.709212, 23.248611], [116.708514, 23.251176], [116.707331, 23.250994], [116.707058, 23.251329], [116.706861, 23.258118], [116.70636, 23.261003], [116.704782, 23.260627], [116.704569, 23.26262], [116.703796, 23.265575], [116.701626, 23.265213], [116.70026, 23.265352], [116.699092, 23.264391], [116.697727, 23.265687], [116.69671, 23.266691], [116.696998, 23.268196], [116.699244, 23.269534], [116.701368, 23.269571], [116.699718, 23.274197], [116.695396, 23.274711], [116.692774, 23.271476], [116.690789, 23.270066], [116.691274, 23.269396], [116.689074, 23.268449], [116.686176, 23.267501], [116.683703, 23.264532], [116.683081, 23.264281], [116.68123, 23.261855], [116.678256, 23.259346], [116.677421, 23.257799], [116.676587, 23.258482], [116.674417, 23.25674], [116.672976, 23.257283], [116.670214, 23.255861], [116.668424, 23.256168], [116.666118, 23.25706], [116.665754, 23.25582], [116.654434, 23.242244], [116.6543, 23.238119]]]}, "properties": {"display_name": "滨海街道, 濠江区, 汕头市, 广东省, 中国", "type": "administrative", "osm_type": "relation", "osm_id": 8209243, "class": null, "keyword": "subdistrict"}}, {"type": "Feature", "geometry": {"type": "Polygon", "coordinates": [[[116.726539, 23.492857], [116.727542, 23.491391], [116.728304, 23.489866], [116.729404, 23.487509], [116.729908, 23.486102], [116.730208, 23.485103], [116.730611, 23.483425], [116.730868, 23.482077], [116.731072, 23.480399], [116.732435, 23.480114], [116.734924, 23.478904], [116.734312, 23.477428], [116.736796, 23.476114], [116.738459, 23.478992], [116.746307, 23.475085], [116.7476, 23.477073], [116.74856, 23.476384], [116.749435, 23.477418], [116.750464, 23.47665], [116.751607, 23.477816], [116.752595, 23.477023], [116.753179, 23.476586], [116.754777, 23.475415], [116.756644, 23.473998], [116.75724, 23.474697], [116.758087, 23.47417], [116.758044, 23.474106], [116.757497, 23.473289], [116.757851, 23.473048], [116.762352, 23.469634], [116.763774, 23.468502], [116.763205, 23.468029], [116.762792, 23.466839], [116.763661, 23.466533], [116.763607, 23.46641], [116.763704, 23.466361], [116.763537, 23.465938], [116.764428, 23.465643], [116.764256, 23.465284], [116.766284, 23.464545], [116.76684, 23.465834], [116.766975, 23.466656], [116.767355, 23.467734], [116.767523, 23.468053], [116.767774, 23.468531], [116.768247, 23.4698], [116.768306, 23.470117], [116.771253, 23.469441], [116.77121, 23.469144], [116.771596, 23.469057], [116.772122, 23.468919], [116.772733, 23.472452], [116.772901, 23.473716], [116.772992, 23.474341], [116.773545, 23.47439], [116.774161, 23.474407], [116.774171, 23.47482], [116.77355, 23.474965], [116.77356, 23.475978], [116.773732, 23.476338], [116.773625, 23.477313], [116.773581, 23.477574], [116.773442, 23.478396], [116.773313, 23.479104], [116.772916, 23.4793], [116.772895, 23.479467], [116.773474, 23.480353], [116.77364, 23.480723], [116.773796, 23.481043], [116.776491, 23.482993], [116.772265, 23.486628], [116.768146, 23.491391], [116.764498, 23.501584], [116.762352, 23.505716], [116.759391, 23.509455], [116.755743, 23.511226], [116.748619, 23.512564], [116.748769, 23.508176], [116.747417, 23.506484], [116.747332, 23.505352], [116.744853, 23.50612], [116.743941, 23.506395], [116.743362, 23.506631], [116.742424, 23.507056], [116.741141, 23.502578], [116.739789, 23.502804], [116.735122, 23.502578], [116.731796, 23.502332], [116.731056, 23.500905], [116.73097, 23.497845], [116.731378, 23.495818], [116.731485, 23.495336], [116.732215, 23.493044], [116.732204, 23.492798], [116.729296, 23.493231], [116.729039, 23.492729], [116.727816, 23.49327], [116.726539, 23.492857]]]}, "properties": {"display_name": "广益街道, 澄海区, 汕头市, 广东省, 中国", "type": "administrative", "osm_type": "relation", "osm_id": 12283224, "class": null, "keyword": "subdistrict"}}, {"type": "Feature", "geometry": {"type": "Polygon", "coordinates": [[[116.719068, 23.384054], [116.720797, 23.378333], [116.721415, 23.376356], [116.722265, 23.373431], [116.727217, 23.374607], [116.747985, 23.374641], [116.748632, 23.371337], [116.75116, 23.371302], [116.75138, 23.370188], [116.751683, 23.370091], [116.752093, 23.370049], [116.753169, 23.370067], [116.753139, 23.369119], [116.754293, 23.369292], [116.765376, 23.372178], [116.765401, 23.373822], [116.763641, 23.381315], [116.76314, 23.384797], [116.763383, 23.388293], [116.763869, 23.391342], [116.763444, 23.394155], [116.759529, 23.400338], [116.757602, 23.402817], [116.748681, 23.399315], [116.743871, 23.398138], [116.742475, 23.397727], [116.7411, 23.397212], [116.738683, 23.396484], [116.734687, 23.394706], [116.732907, 23.393814], [116.73331, 23.393144], [116.730937, 23.392191], [116.732283, 23.389372], [116.727985, 23.387623], [116.722699, 23.38514], [116.719068, 23.384054]]]}, "properties": {"display_name": "新津街道, 龙湖区, 汕头市, 广东省, 中国", "type": "administrative", "osm_type": "relation", "osm_id": 8171790, "class": null, "keyword": "subdistrict"}}, {"type": "Feature", "geometry": {"type": "Polygon", "coordinates": [[[116.69671, 23.266691], [116.697727, 23.265687], [116.699092, 23.264391], [116.70026, 23.265352], [116.701626, 23.265213], [116.703796, 23.265575], [116.704569, 23.26262], [116.704782, 23.260627], [116.70636, 23.261003], [116.706861, 23.258118], [116.707058, 23.251329], [116.707331, 23.250994], [116.708514, 23.251176], [116.709212, 23.248611], [116.708697, 23.248485], [116.708924, 23.247453], [116.711852, 23.2473], [116.713263, 23.243982], [116.714174, 23.24362], [116.714981, 23.242598], [116.715608, 23.24276], [116.717143, 23.243088], [116.717401, 23.24309], [116.717809, 23.242826], [116.717867, 23.242371], [116.717941, 23.242294], [116.718108, 23.242206], [116.718274, 23.242169], [116.718388, 23.242175], [116.71853, 23.242219], [116.718584, 23.242226], [116.718671, 23.2422], [116.718696, 23.242157], [116.718731, 23.242105], [116.718772, 23.242083], [116.71886, 23.242093], [116.718907, 23.24214], [116.7189, 23.242226], [116.71891, 23.242307], [116.718969, 23.242397], [116.719097, 23.242529], [116.719167, 23.242605], [116.719222, 23.242641], [116.719296, 23.242647], [116.719362, 23.242612], [116.719367, 23.242581], [116.719356, 23.242462], [116.719364, 23.242411], [116.719384, 23.242381], [116.719418, 23.242381], [116.719513, 23.242408], [116.719545, 23.242445], [116.719568, 23.242528], [116.719545, 23.242631], [116.719512, 23.242731], [116.719461, 23.242845], [116.719447, 23.242941], [116.719445, 23.243016], [116.719476, 23.243208], [116.71951, 23.243404], [116.719549, 23.243574], [116.719608, 23.243691], [116.719698, 23.243825], [116.719779, 23.243913], [116.719956, 23.244042], [116.720108, 23.24414], [116.720357, 23.244262], [116.72068, 23.244371], [116.720818, 23.244395], [116.720972, 23.244417], [116.721075, 23.244449], [116.721222, 23.24449], [116.721391, 23.244549], [116.721569, 23.244609], [116.72197, 23.244746], [116.722111, 23.2448], [116.722277, 23.24487], [116.722489, 23.244954], [116.722655, 23.24501], [116.72295, 23.245102], [116.723182, 23.245156], [116.72327, 23.245182], [116.723361, 23.24521], [116.723523, 23.245254], [116.723873, 23.245347], [116.724144, 23.245401], [116.724336, 23.245425], [116.72444, 23.245446], [116.724526, 23.24547], [116.724739, 23.245542], [116.724878, 23.245564], [116.725004, 23.245573], [116.725119, 23.245585], [116.725288, 23.245611], [116.725748, 23.245669], [116.725925, 23.245695], [116.726031, 23.245712], [116.726201, 23.245737], [116.72662, 23.245782], [116.726901, 23.245794], [116.727046, 23.245814], [116.727349, 23.245846], [116.727612, 23.245888], [116.72821, 23.245881], [116.72902, 23.246001], [116.729945, 23.246016], [116.731123, 23.246058], [116.732022, 23.246061], [116.732955, 23.246078], [116.733684, 23.246061], [116.734318, 23.245999], [116.73491, 23.245935], [116.73542, 23.245876], [116.735884, 23.245829], [116.736503, 23.245841], [116.737107, 23.245979], [116.737595, 23.246036], [116.738116, 23.245994], [116.738547, 23.245876], [116.738979, 23.245691], [116.739333, 23.245514], [116.739634, 23.24526], [116.739899, 23.24505], [116.740143, 23.244708], [116.740355, 23.244451], [116.74045, 23.244254], [116.740507, 23.244071], [116.740546, 23.24391], [116.740551, 23.243767], [116.74053, 23.243511], [116.740444, 23.243423], [116.740382, 23.243446], [116.739961, 23.243611], [116.73969, 23.243702], [116.739475, 23.24371], [116.739323, 23.24369], [116.73921, 23.243626], [116.739172, 23.243473], [116.739191, 23.243308], [116.739266, 23.243143], [116.739634, 23.242795], [116.739694, 23.242743], [116.739757, 23.242665], [116.739859, 23.242465], [116.739897, 23.242423], [116.739974, 23.242379], [116.74017, 23.242342], [116.740271, 23.242288], [116.740395, 23.242194], [116.740632, 23.241982], [116.740811, 23.241878], [116.740994, 23.241846], [116.741251, 23.241928], [116.741377, 23.242002], [116.741436, 23.242098], [116.741407, 23.242376], [116.741385, 23.242674], [116.741321, 23.242938], [116.741203, 23.243079], [116.741099, 23.243145], [116.741109, 23.24322], [116.741227, 23.243413], [116.741421, 23.243575], [116.741646, 23.243644], [116.741896, 23.243621], [116.742003, 23.24361], [116.742123, 23.243519], [116.74219, 23.243406], [116.742201, 23.243256], [116.742254, 23.243059], [116.742359, 23.242978], [116.742509, 23.242938], [116.74278, 23.24296], [116.743013, 23.243037], [116.743123, 23.243172], [116.743112, 23.243323], [116.74311, 23.243438], [116.743166, 23.243522], [116.743255, 23.243552], [116.743359, 23.243572], [116.743424, 23.24367], [116.74464, 23.24366], [116.745176, 23.249559], [116.744297, 23.254645], [116.738524, 23.256676], [116.731143, 23.257208], [116.727045, 23.259219], [116.723826, 23.269213], [116.722538, 23.27491], [116.720436, 23.278182], [116.71741, 23.279956], [116.713483, 23.279601], [116.706595, 23.277157], [116.702342, 23.275157], [116.699718, 23.274197], [116.701368, 23.269571], [116.699244, 23.269534], [116.696998, 23.268196], [116.69671, 23.266691]]]}, "properties": {"display_name": "马滘街道, 濠江区, 汕头市, 广东省, 中国", "type": "administrative", "osm_type": "relation", "osm_id": 8209242, "class": null, "keyword": "subdistrict"}}, {"type": "Feature", "geometry": {"type": "Polygon", "coordinates": [[[116.644759, 23.263786], [116.646432, 23.259981], [116.644866, 23.250894], [116.649336, 23.25042], [116.654434, 23.242244], [116.665754, 23.25582], [116.666118, 23.25706], [116.668424, 23.256168], [116.670214, 23.255861], [116.672976, 23.257283], [116.674417, 23.25674], [116.676587, 23.258482], [116.677421, 23.257799], [116.678256, 23.259346], [116.68123, 23.261855], [116.683081, 23.264281], [116.683703, 23.264532], [116.686176, 23.267501], [116.689074, 23.268449], [116.691274, 23.269396], [116.690789, 23.270066], [116.692774, 23.271476], [116.695396, 23.274711], [116.691525, 23.276818], [116.684438, 23.275497], [116.678018, 23.277525], [116.677245, 23.280167], [116.679005, 23.2806], [116.677396, 23.285153], [116.676108, 23.284838], [116.676087, 23.285351], [116.675786, 23.285705], [116.674649, 23.286592], [116.670572, 23.281428], [116.672031, 23.279851], [116.673147, 23.279319], [116.671924, 23.27926], [116.66362, 23.275298], [116.663341, 23.272696], [116.66141, 23.273189], [116.659071, 23.271592], [116.659908, 23.270488], [116.660551, 23.270607], [116.660745, 23.269917], [116.659822, 23.269542], [116.660208, 23.268537], [116.661753, 23.26903], [116.661946, 23.268458], [116.660981, 23.267512], [116.658749, 23.267374], [116.658041, 23.267847], [116.657934, 23.269365], [116.658363, 23.269286], [116.658406, 23.268912], [116.658942, 23.269188], [116.658685, 23.270212], [116.658127, 23.270548], [116.657912, 23.270252], [116.656968, 23.269877], [116.657054, 23.272558], [116.656646, 23.27313], [116.655359, 23.273169], [116.654372, 23.272361], [116.653084, 23.272006], [116.65301, 23.271761], [116.652762, 23.270942], [116.644759, 23.263786]]]}, "properties": {"display_name": "玉新街道, 濠江区, 汕头市, 广东省, 中国", "type": "administrative", "osm_type": "relation", "osm_id": 8209244, "class": null, "keyword": "subdistrict"}}, {"type": "Feature", "geometry": {"type": "Polygon", "coordinates": [[[116.719847, 23.359155], [116.721366, 23.359173], [116.72175, 23.359103], [116.722954, 23.358802], [116.724553, 23.358382], [116.726781, 23.357824], [116.727339, 23.35765], [116.728656, 23.357302], [116.729014, 23.357237], [116.730827, 23.356749], [116.731876, 23.356486], [116.732334, 23.356369], [116.733058, 23.356199], [116.733445, 23.3561], [116.7345, 23.355819], [116.735077, 23.355679], [116.735681, 23.355513], [116.736175, 23.355391], [116.737424, 23.355065], [116.738459, 23.354794], [116.739145, 23.354599], [116.740267, 23.354338], [116.741175, 23.354109], [116.741988, 23.353893], [116.742574, 23.353731], [116.743026, 23.353624], [116.743387, 23.353537], [116.744663, 23.353209], [116.745189, 23.353109], [116.745517, 23.353029], [116.746075, 23.353027], [116.746813, 23.353017], [116.74752, 23.352942], [116.747935, 23.35294], [116.748647, 23.352942], [116.749815, 23.352942], [116.750286, 23.352961], [116.751705, 23.352948], [116.752084, 23.352975], [116.752469, 23.353007], [116.753279, 23.352987], [116.75387, 23.353044], [116.754399, 23.353059], [116.754989, 23.353057], [116.755128, 23.352955], [116.755351, 23.352854], [116.755627, 23.352898], [116.756247, 23.35297], [116.757198, 23.352987], [116.757792, 23.352965], [116.759144, 23.352942], [116.759643, 23.3529], [116.760144, 23.352908], [116.760678, 23.35293], [116.760901, 23.353019], [116.761337, 23.353231], [116.761763, 23.353542], [116.76205, 23.353778], [116.762332, 23.354102], [116.762803, 23.354712], [116.763259, 23.355192], [116.763733, 23.355615], [116.763993, 23.355801], [116.764367, 23.35604], [116.764665, 23.356212], [116.764788, 23.356237], [116.765253, 23.35646], [116.765728, 23.356641], [116.766548, 23.356897], [116.766812, 23.357019], [116.767726, 23.357236], [116.768189, 23.357282], [116.76808, 23.357503], [116.767372, 23.358645], [116.766106, 23.362408], [116.765848, 23.363511], [116.764818, 23.367648], [116.764518, 23.369676], [116.764668, 23.370937], [116.765376, 23.372178], [116.754293, 23.369292], [116.753139, 23.369119], [116.753169, 23.370067], [116.752093, 23.370049], [116.751683, 23.370091], [116.75138, 23.370188], [116.75116, 23.371302], [116.748632, 23.371337], [116.747985, 23.374641], [116.727217, 23.374607], [116.722265, 23.373431], [116.722022, 23.373347], [116.722285, 23.372685], [116.722416, 23.372255], [116.722447, 23.371837], [116.72245, 23.371571], [116.72244, 23.371108], [116.721986, 23.368971], [116.721902, 23.368397], [116.721003, 23.364487], [116.719847, 23.359155]]]}, "properties": {"display_name": "珠池街道, 龙湖区, 汕头市, 广东省, 515000, 中国", "type": "administrative", "osm_type": "relation", "osm_id": 8171789, "class": null, "keyword": "subdistrict"}}, {"type": "Feature", "geometry": {"type": "Polygon", "coordinates": [[[116.661545, 23.406198], [116.661825, 23.404535], [116.66261, 23.402804], [116.662909, 23.401295], [116.662629, 23.398741], [116.662105, 23.39622], [116.662946, 23.39454], [116.664833, 23.393632], [116.665692, 23.392449], [116.665505, 23.390734], [116.664936, 23.38913], [116.665635, 23.388881], [116.666301, 23.38864], [116.666622, 23.388475], [116.666993, 23.388251], [116.667312, 23.388005], [116.667736, 23.387586], [116.668371, 23.386902], [116.674862, 23.379595], [116.675077, 23.379365], [116.676594, 23.385163], [116.677572, 23.384837], [116.678247, 23.384633], [116.678898, 23.385715], [116.680459, 23.385203], [116.680058, 23.383864], [116.679515, 23.382052], [116.679635, 23.381999], [116.679781, 23.382048], [116.679877, 23.382013], [116.680902, 23.381757], [116.6819, 23.383904], [116.682747, 23.384515], [116.682991, 23.385057], [116.684191, 23.384223], [116.684616, 23.384783], [116.685811, 23.384067], [116.686734, 23.383614], [116.686883, 23.385158], [116.687183, 23.385927], [116.688235, 23.387089], [116.691453, 23.390673], [116.692397, 23.391796], [116.693084, 23.393529], [116.69297, 23.39567], [116.693313, 23.397659], [116.695073, 23.400258], [116.696644, 23.404629], [116.696847, 23.405748], [116.697707, 23.407161], [116.697381, 23.407262], [116.698087, 23.409153], [116.698256, 23.409687], [116.690981, 23.411878], [116.684059, 23.413963], [116.682257, 23.407032], [116.669038, 23.41028], [116.666005, 23.41103], [116.663525, 23.409215], [116.662236, 23.407947], [116.661545, 23.406198]]]}, "properties": {"display_name": "岐山街道, 金平区, 汕头市, 广东省, 中国", "type": "administrative", "osm_type": "relation", "osm_id": 8169472, "class": null, "keyword": "subdistrict"}}, {"type": "Feature", "geometry": {"type": "Polygon", "coordinates": [[[116.709353, 23.407574], [116.710202, 23.40641], [116.711996, 23.404617], [116.713082, 23.403574], [116.716807, 23.39632], [116.719096, 23.399536], [116.720944, 23.401242], [116.721911, 23.398758], [116.721351, 23.397206], [116.718839, 23.390261], [116.718658, 23.390116], [116.718507, 23.389995], [116.718093, 23.389852], [116.718069, 23.389845], [116.717315, 23.389641], [116.717449, 23.389349], [116.717603, 23.388751], [116.717749, 23.388427], [116.719068, 23.384054], [116.722699, 23.38514], [116.727985, 23.387623], [116.732283, 23.389372], [116.730937, 23.392191], [116.73331, 23.393144], [116.732907, 23.393814], [116.734687, 23.394706], [116.738683, 23.396484], [116.7411, 23.397212], [116.742475, 23.397727], [116.743871, 23.398138], [116.748681, 23.399315], [116.757602, 23.402817], [116.755891, 23.40437], [116.755516, 23.40498], [116.75514, 23.405591], [116.755117, 23.40559], [116.753352, 23.405488], [116.753003, 23.406895], [116.752472, 23.407953], [116.75144, 23.408914], [116.749043, 23.410125], [116.746842, 23.410431], [116.745416, 23.409805], [116.743671, 23.408872], [116.742291, 23.40844], [116.739727, 23.408607], [116.73816, 23.408882], [116.737447, 23.409119], [116.736369, 23.408994], [116.73511, 23.409551], [116.732288, 23.411138], [116.731332, 23.411625], [116.730482, 23.412878], [116.72989, 23.414842], [116.729815, 23.416151], [116.729799, 23.418322], [116.729678, 23.419659], [116.729223, 23.420682], [116.728426, 23.422311], [116.725035, 23.420418], [116.722134, 23.418656], [116.71977, 23.417188], [116.719315, 23.416965], [116.718465, 23.416687], [116.717251, 23.416185], [116.715995, 23.414903], [116.715628, 23.414278], [116.715167, 23.413261], [116.712624, 23.410003], [116.710671, 23.408224], [116.710275, 23.407958], [116.709789, 23.407732], [116.709353, 23.407574]]]}, "properties": {"display_name": "龙祥街道, 龙湖区, 汕头市, 广东省, 中国", "type": "administrative", "osm_type": "relation", "osm_id": 8171791, "class": null, "keyword": "subdistrict"}}, {"type": "Feature", "geometry": {"type": "MultiPolygon", "coordinates": [[[[116.567515, 23.327326], [116.567641, 23.326974], [116.568227, 23.326632], [116.568771, 23.326541], [116.569391, 23.326412], [116.570468, 23.326464], [116.572162, 23.326421], [116.572789, 23.326281], [116.575074, 23.326], [116.576337, 23.32633], [116.577408, 23.326405], [116.578152, 23.326387], [116.579763, 23.326101], [116.580768, 23.325863], [116.58198, 23.325236], [116.582278, 23.325675], [116.58353, 23.325107], [116.584489, 23.324123], [116.588834, 23.324038], [116.590991, 23.323597], [116.593217, 23.323211], [116.593684, 23.323115], [116.593835, 23.323087], [116.594189, 23.323025], [116.594193, 23.323227], [116.594224, 23.323326], [116.594422, 23.323405], [116.594966, 23.323421], [116.595173, 23.323481], [116.595152, 23.323718], [116.595098, 23.323895], [116.594964, 23.324032], [116.594829, 23.324585], [116.59485, 23.324802], [116.594805, 23.325011], [116.594623, 23.325253], [116.59443, 23.32545], [116.59429, 23.32558], [116.593897, 23.325691], [116.593405, 23.325674], [116.593046, 23.325539], [116.592816, 23.325414], [116.59262, 23.32532], [116.592243, 23.325143], [116.591783, 23.325019], [116.59143, 23.325073], [116.59095, 23.3252], [116.590617, 23.325671], [116.590371, 23.326122], [116.589812, 23.326458], [116.58955, 23.3266], [116.58899, 23.32673], [116.58885, 23.3275], [116.58857, 23.32801], [116.58843, 23.32814], [116.58829, 23.32827], [116.587643, 23.329479], [116.58787, 23.32968], [116.587513, 23.329845], [116.587376, 23.330179], [116.587167, 23.330403], [116.586356, 23.330483], [116.58591, 23.33059], [116.585205, 23.330731], [116.58488, 23.330778], [116.584615, 23.331146], [116.58465, 23.33161], [116.58452, 23.33174], [116.58436, 23.33186], [116.58409, 23.33289], [116.583373, 23.333653], [116.58325, 23.33418], [116.58325, 23.33494], [116.58325, 23.33572], [116.58324, 23.33624], [116.58311, 23.33637], [116.58296, 23.33649], [116.58268, 23.33701], [116.58255, 23.33714], [116.58199, 23.33739], [116.58115, 23.33765], [116.58088, 23.33765], [116.58031, 23.33739], [116.57948, 23.33739], [116.57934, 23.33751], [116.57906, 23.33803], [116.57892, 23.33816], [116.57878, 23.33828], [116.57864, 23.33841], [116.5785, 23.33854], [116.57822, 23.33906], [116.57794, 23.33957], [116.5778, 23.3397], [116.57766, 23.33983], [116.57739, 23.34033], [116.57724, 23.34047], [116.5771, 23.3406], [116.57682, 23.34111], [116.5761, 23.341868], [116.575734, 23.341974], [116.574939, 23.342059], [116.573703, 23.342045], [116.573264, 23.341835], [116.572646, 23.341582], [116.571345, 23.340701], [116.570402, 23.339014], [116.56967, 23.337192], [116.569524, 23.336654], [116.570678, 23.335594], [116.572093, 23.334459], [116.57192, 23.331969], [116.571432, 23.33107], [116.568543, 23.328361], [116.567771, 23.327767], [116.567515, 23.327326]]], [[[116.700894, 23.346802], [116.711682, 23.345125], [116.71439, 23.350511], [116.714171, 23.354631], [116.714159, 23.354979], [116.714063, 23.359154], [116.711506, 23.359193], [116.711474, 23.361574], [116.711398, 23.364605], [116.711239, 23.368952], [116.701257, 23.368713], [116.701228, 23.367337], [116.70122, 23.358022], [116.701131, 23.356264], [116.700894, 23.346802]]]]}, "properties": {"display_name": "东方街道, 金平区, 汕头市, 广东省, 中国", "type": "administrative", "osm_type": "relation", "osm_id": 8169462, "class": null, "keyword": "subdistrict"}}, {"type": "Feature", "geometry": {"type": "Polygon", "coordinates": [[[116.704181, 23.384778], [116.707348, 23.380978], [116.708366, 23.379846], [116.708746, 23.379064], [116.709322, 23.376565], [116.709393, 23.376356], [116.710125, 23.373678], [116.70997, 23.373088], [116.711239, 23.368952], [116.711398, 23.364605], [116.711474, 23.361574], [116.711506, 23.359193], [116.714063, 23.359154], [116.714159, 23.354979], [116.714171, 23.354631], [116.71439, 23.350511], [116.711682, 23.345125], [116.716002, 23.343932], [116.718445, 23.353488], [116.718872, 23.355158], [116.719743, 23.358565], [116.719847, 23.359155], [116.721003, 23.364487], [116.721902, 23.368397], [116.721986, 23.368971], [116.72244, 23.371108], [116.72245, 23.371571], [116.722447, 23.371837], [116.722416, 23.372255], [116.722285, 23.372685], [116.722022, 23.373347], [116.722265, 23.373431], [116.721415, 23.376356], [116.720797, 23.378333], [116.719068, 23.384054], [116.717749, 23.388427], [116.717603, 23.388751], [116.717449, 23.389349], [116.717315, 23.389641], [116.717093, 23.390412], [116.716874, 23.390683], [116.713329, 23.392696], [116.712731, 23.391755], [116.710536, 23.391261], [116.710953, 23.389723], [116.708265, 23.389058], [116.708438, 23.388851], [116.710623, 23.386236], [116.704181, 23.384778]]]}, "properties": {"display_name": "金霞街道, 龙湖区, 汕头市, 广东省, 515041, 中国", "type": "administrative", "osm_type": "relation", "osm_id": 8171788, "class": null, "keyword": "subdistrict"}}, {"type": "Feature", "geometry": {"type": "Polygon", "coordinates": [[[116.662556, 23.359547], [116.664948, 23.360184], [116.668295, 23.362213], [116.672372, 23.36439], [116.672824, 23.364457], [116.674004, 23.364644], [116.674937, 23.365304], [116.675751, 23.366004], [116.681179, 23.36756], [116.681916, 23.367673], [116.682096, 23.368298], [116.683763, 23.371676], [116.684968, 23.373694], [116.685338, 23.37456], [116.683431, 23.375094], [116.681523, 23.375826], [116.681358, 23.375428], [116.680304, 23.375928], [116.681348, 23.377888], [116.678713, 23.378441], [116.679635, 23.381999], [116.679515, 23.382052], [116.680058, 23.383864], [116.680459, 23.385203], [116.678898, 23.385715], [116.678247, 23.384633], [116.677572, 23.384837], [116.676594, 23.385163], [116.675077, 23.379365], [116.674862, 23.379595], [116.668371, 23.386902], [116.667736, 23.387586], [116.667312, 23.388005], [116.666993, 23.388251], [116.666622, 23.388475], [116.666301, 23.38864], [116.665635, 23.388881], [116.664936, 23.38913], [116.664615, 23.387436], [116.664486, 23.385998], [116.664003, 23.382857], [116.662834, 23.373799], [116.663334, 23.369329], [116.663763, 23.365212], [116.663508, 23.363035], [116.662824, 23.360148], [116.662556, 23.359547]]]}, "properties": {"display_name": "光华街道, 金平区, 汕头市, 广东省, 中国", "type": "administrative", "osm_type": "relation", "osm_id": 8169470, "class": null, "keyword": "subdistrict"}}, {"type": "Feature", "geometry": {"type": "Polygon", "coordinates": [[[116.657771, 23.352509], [116.658071, 23.350854], [116.658047, 23.344011], [116.667694, 23.345701], [116.680346, 23.347916], [116.680242, 23.35318], [116.680041, 23.355896], [116.678652, 23.355828], [116.67853, 23.357597], [116.67938, 23.359673], [116.679289, 23.361302], [116.679289, 23.362444], [116.680867, 23.362486], [116.681216, 23.362598], [116.681739, 23.363323], [116.681906, 23.363782], [116.682027, 23.365426], [116.681967, 23.366714], [116.681916, 23.367673], [116.681179, 23.36756], [116.675751, 23.366004], [116.674937, 23.365304], [116.674004, 23.364644], [116.672824, 23.364457], [116.672372, 23.36439], [116.668295, 23.362213], [116.664948, 23.360184], [116.662556, 23.359547], [116.662019, 23.359423], [116.660925, 23.358714], [116.660238, 23.357907], [116.659419, 23.356391], [116.658457, 23.355365], [116.657814, 23.354124], [116.657771, 23.352509]]]}, "properties": {"display_name": "小公园街道, 金平区, 汕头市, 广东省, 中国", "type": "administrative", "osm_type": "relation", "osm_id": 8169466, "class": null, "keyword": "subdistrict"}}, {"type": "Feature", "geometry": {"type": "Polygon", "coordinates": [[[116.686733, 23.381877], [116.691351, 23.37997], [116.691696, 23.380493], [116.6922, 23.381313], [116.694836, 23.380532], [116.696376, 23.378983], [116.697108, 23.378275], [116.697232, 23.377237], [116.700133, 23.377286], [116.701215, 23.377199], [116.701208, 23.374728], [116.701257, 23.368713], [116.711239, 23.368952], [116.70997, 23.373088], [116.710125, 23.373678], [116.709393, 23.376356], [116.709322, 23.376565], [116.708746, 23.379064], [116.708366, 23.379846], [116.707348, 23.380978], [116.704181, 23.384778], [116.710623, 23.386236], [116.708438, 23.388851], [116.708265, 23.389058], [116.707257, 23.389767], [116.703931, 23.391855], [116.701656, 23.393292], [116.700873, 23.393647], [116.700551, 23.393844], [116.699545, 23.392899], [116.698663, 23.393341], [116.697344, 23.3915], [116.69641, 23.392239], [116.69597, 23.392583], [116.695884, 23.392721], [116.69596, 23.393391], [116.696099, 23.393863], [116.696818, 23.395163], [116.694972, 23.393981], [116.694264, 23.393194], [116.693084, 23.393529], [116.692397, 23.391796], [116.691453, 23.390673], [116.688235, 23.387089], [116.687183, 23.385927], [116.686883, 23.385158], [116.686734, 23.383614], [116.686733, 23.381877]]]}, "properties": {"display_name": "金东街道, 金平区, 汕头市, 广东省, 中国", "type": "administrative", "osm_type": "relation", "osm_id": 8169473, "class": null, "keyword": "subdistrict"}}, {"type": "Feature", "geometry": {"type": "Polygon", "coordinates": [[[116.69297, 23.39567], [116.693084, 23.393529], [116.694264, 23.393194], [116.694972, 23.393981], [116.696818, 23.395163], [116.696099, 23.393863], [116.69596, 23.393391], [116.695884, 23.392721], [116.69597, 23.392583], [116.69641, 23.392239], [116.697344, 23.3915], [116.698663, 23.393341], [116.699545, 23.392899], [116.700551, 23.393844], [116.700873, 23.393647], [116.701656, 23.393292], [116.703931, 23.391855], [116.707257, 23.389767], [116.708265, 23.389058], [116.710953, 23.389723], [116.710536, 23.391261], [116.712731, 23.391755], [116.713329, 23.392696], [116.716874, 23.390683], [116.717093, 23.390412], [116.717315, 23.389641], [116.718069, 23.389845], [116.718093, 23.389852], [116.718507, 23.389995], [116.718658, 23.390116], [116.718839, 23.390261], [116.721351, 23.397206], [116.721911, 23.398758], [116.720944, 23.401242], [116.719096, 23.399536], [116.716807, 23.39632], [116.713082, 23.403574], [116.711996, 23.404617], [116.710202, 23.40641], [116.709353, 23.407574], [116.709789, 23.407732], [116.710275, 23.407958], [116.710671, 23.408224], [116.709299, 23.410119], [116.701759, 23.404843], [116.701763, 23.406567], [116.697631, 23.405791], [116.696644, 23.404629], [116.695073, 23.400258], [116.693313, 23.397659], [116.69297, 23.39567]]]}, "properties": {"display_name": "广厦街道, 金平区, 汕头市, 广东省, 中国", "type": "administrative", "osm_type": "relation", "osm_id": 8169892, "class": null, "keyword": "subdistrict"}}, {"type": "Feature", "geometry": {"type": "Polygon", "coordinates": [[[116.678713, 23.378441], [116.681348, 23.377888], [116.680304, 23.375928], [116.681358, 23.375428], [116.681523, 23.375826], [116.683431, 23.375094], [116.685338, 23.37456], [116.684968, 23.373694], [116.683763, 23.371676], [116.682096, 23.368298], [116.684069, 23.367595], [116.684396, 23.36755], [116.686516, 23.367753], [116.689381, 23.368765], [116.692516, 23.368896], [116.701257, 23.368713], [116.701208, 23.374728], [116.701215, 23.377199], [116.700133, 23.377286], [116.697232, 23.377237], [116.697108, 23.378275], [116.696376, 23.378983], [116.694836, 23.380532], [116.6922, 23.381313], [116.691696, 23.380493], [116.691351, 23.37997], [116.686733, 23.381877], [116.686734, 23.383614], [116.685811, 23.384067], [116.684616, 23.384783], [116.684191, 23.384223], [116.682991, 23.385057], [116.682747, 23.384515], [116.6819, 23.383904], [116.680902, 23.381757], [116.679877, 23.382013], [116.679781, 23.382048], [116.679635, 23.381999], [116.678713, 23.378441]]]}, "properties": {"display_name": "金砂街道, 金平区, 汕头市, 广东省, 中国", "type": "administrative", "osm_type": "relation", "osm_id": 8169471, "class": null, "keyword": "subdistrict"}}, {"type": "Feature", "geometry": {"type": "Polygon", "coordinates": [[[116.689381, 23.368765], [116.689423, 23.366223], [116.689567, 23.359317], [116.690452, 23.359721], [116.690592, 23.356414], [116.69075, 23.355716], [116.690789, 23.347598], [116.69907, 23.347085], [116.700894, 23.346802], [116.701131, 23.356264], [116.70122, 23.358022], [116.701228, 23.367337], [116.701257, 23.368713], [116.692516, 23.368896], [116.689381, 23.368765]]]}, "properties": {"display_name": "石炮台街道, 金平区, 汕头市, 广东省, 中国", "type": "administrative", "osm_type": "relation", "osm_id": 8169464, "class": null, "keyword": "subdistrict"}}, {"type": "Feature", "geometry": {"type": "Polygon", "coordinates": [[[116.67853, 23.357597], [116.678652, 23.355828], [116.680041, 23.355896], [116.680242, 23.35318], [116.680346, 23.347916], [116.681733, 23.348159], [116.690789, 23.347598], [116.69075, 23.355716], [116.690592, 23.356414], [116.690452, 23.359721], [116.689567, 23.359317], [116.689423, 23.366223], [116.689381, 23.368765], [116.686516, 23.367753], [116.684396, 23.36755], [116.684069, 23.367595], [116.682096, 23.368298], [116.681916, 23.367673], [116.681967, 23.366714], [116.682027, 23.365426], [116.681906, 23.363782], [116.681739, 23.363323], [116.681216, 23.362598], [116.680867, 23.362486], [116.679289, 23.362444], [116.679289, 23.361302], [116.67938, 23.359673], [116.67853, 23.357597]]]}, "properties": {"display_name": "大华街道, 金平区, 汕头市, 广东省, 515031, 中国", "type": "administrative", "osm_type": "relation", "osm_id": 8169465, "class": null, "keyword": "subdistrict"}}, {"type": "Feature", "geometry": {"type": "Polygon", "coordinates": [[[116.753375, 23.481835], [116.754578, 23.480939], [116.755647, 23.482848], [116.754408, 23.483731], [116.753375, 23.481835]]]}, "properties": {"display_name": "中信金城花园一、二期, 广益街道, 澄海区, 汕头市, 广东省, 中国", "type": "residential", "osm_type": "way", "osm_id": 1245422709, "class": null, "keyword": "中心城区"}}, {"type": "Feature", "geometry": {"type": "Polygon", "coordinates": [[[116.805649, 23.474338], [116.805726, 23.473935], [116.806586, 23.473976], [116.806724, 23.473978], [116.80683, 23.473996], [116.807517, 23.474077], [116.807226, 23.475438], [116.807373, 23.475994], [116.806859, 23.476088], [116.806822, 23.475886], [116.806387, 23.475625], [116.806425, 23.475197], [116.806548, 23.475138], [116.806446, 23.474868], [116.806478, 23.474464], [116.805649, 23.474338]]]}, "properties": {"display_name": "南湾老学校片区, 澄海区, 汕头市, 广东省, 中国", "type": "residential", "osm_type": "way", "osm_id": 1186015490, "class": null, "keyword": "老城区"}}, {"type": "Feature", "geometry": {"type": "Polygon", "coordinates": [[[116.754578, 23.48412], [116.754592, 23.48399], [116.755774, 23.483166], [116.755866, 23.483218], [116.75639, 23.484165], [116.755165, 23.48501], [116.755095, 23.48501], [116.754578, 23.48412]]]}, "properties": {"display_name": "中信金城花园三期, 广益街道, 澄海区, 汕头市, 广东省, 中国", "type": "residential", "osm_type": "way", "osm_id": 1245422708, "class": null, "keyword": "中心城区"}}, {"type": "Feature", "geometry": {"type": "Polygon", "coordinates": [[[116.505444, 23.169225], [116.506554, 23.168552], [116.506824, 23.168616], [116.506562, 23.169512], [116.505444, 23.169225]]]}, "properties": {"display_name": "和成中心幼儿园, S237, 潮南区, 汕头市, 广东省, 中国", "type": "kindergarten", "osm_type": "way", "osm_id": 1202304024, "class": null, "keyword": "中心城区"}}, {"type": "Feature", "geometry": {"type": "Polygon", "coordinates": [[[116.714935, 23.36383], [116.715006, 23.36383], [116.715006, 23.36377], [116.714959, 23.36377], [116.714958, 23.363487], [116.714981, 23.363487], [116.714981, 23.363457], [116.714937, 23.363457], [116.714936, 23.363124], [116.715048, 23.363176], [116.715152, 23.363146], [116.715366, 23.363143], [116.715461, 23.363168], [116.715588, 23.363111], [116.715593, 23.363456], [116.715541, 23.363456], [116.715541, 23.36349], [116.715583, 23.36349], [116.715588, 23.363771], [116.715539, 23.363772], [116.715539, 23.363826], [116.715595, 23.363826], [116.715599, 23.364056], [116.71552, 23.364057], [116.715521, 23.364149], [116.714999, 23.364153], [116.714999, 23.364066], [116.714937, 23.364066], [116.714935, 23.36383]]]}, "properties": {"display_name": "林百欣会议展览中心, 96号, 长平东路, 丹苑社区, 金霞街道, 龙湖区, 汕头市, 广东省, 515000, 中国", "type": "arts_centre", "osm_type": "way", "osm_id": 527006748, "class": null, "keyword": "city center"}}, {"type": "Feature", "geometry": {"type": "Polygon", "coordinates": [[[116.724947, 23.579349], [116.725984, 23.579332], [116.725993, 23.580234], [116.724973, 23.580129], [116.724947, 23.579349]], [[116.724973, 23.57947], [116.725427, 23.579484], [116.725431, 23.579378], [116.724977, 23.579364], [116.724973, 23.57947]], [[116.724997, 23.579693], [116.725318, 23.579709], [116.725324, 23.579619], [116.725002, 23.579603], [116.724997, 23.579693]], [[116.725349, 23.580074], [116.725831, 23.580089], [116.725835, 23.579975], [116.725353, 23.579961], [116.725349, 23.580074]], [[116.725415, 23.579787], [116.725798, 23.579804], [116.725804, 23.5797], [116.725421, 23.579683], [116.725415, 23.579787]], [[116.725456, 23.579528], [116.725898, 23.579541], [116.725901, 23.579465], [116.725459, 23.579452], [116.725456, 23.579528]], [[116.725461, 23.579427], [116.725903, 23.579439], [116.725906, 23.579363], [116.725464, 23.579351], [116.725461, 23.579427]], [[116.72585, 23.580133], [116.725971, 23.580134], [116.725976, 23.579688], [116.725854, 23.579687], [116.72585, 23.580133]]]}, "properties": {"display_name": "汕头市澄海区隆都中心卫生院, 中学路, 陇下, 澄海区, 汕头市, 广东省, 中国", "type": "hospital", "osm_type": "relation", "osm_id": 17626387, "class": null, "keyword": "中心城区"}}, {"type": "Feature", "geometry": {"type": "Polygon", "coordinates": [[[116.725391, 23.581385], [116.725422, 23.580972], [116.726001, 23.580852], [116.725994, 23.581401], [116.725391, 23.581385]]]}, "properties": {"display_name": "隆都敬老院, 兴隆街, 陇下, 澄海区, 汕头市, 广东省, 中国", "type": "social_facility", "osm_type": "way", "osm_id": 1191754136, "class": null, "keyword": "老城区"}}, {"type": "Feature", "geometry": {"type": "Polygon", "coordinates": [[[116.802572, 23.474361], [116.802713, 23.473883], [116.803075, 23.47397], [116.802867, 23.474478], [116.802572, 23.474361]]]}, "properties": {"display_name": "莲下敬老院, 红旗中路, 湾头主要居民区, 澄海区, 汕头市, 广东省, 中国", "type": "social_facility", "osm_type": "way", "osm_id": 1169535540, "class": null, "keyword": "老城区"}}]}