{"type": "FeatureCollection", "features": [{"type": "Feature", "geometry": {"type": "Polygon", "coordinates": [[[120.851154, 29.498033], [120.852088, 29.497637], [120.852372, 29.496745], [120.851707, 29.496591], [120.851825, 29.495629], [120.853761, 29.49526], [120.85396, 29.496175], [120.853182, 29.497286], [120.853246, 29.498528], [120.853976, 29.500396], [120.854389, 29.501596], [120.85463, 29.50259], [120.853434, 29.502996], [120.852758, 29.501904], [120.85182, 29.500004], [120.851294, 29.498836], [120.851154, 29.498033]]]}, "properties": {"display_name": "新昌中国茶市, 新蟠线, 新昌县, 绍兴市, 浙江省, 中国", "type": "marketplace", "osm_type": "way", "osm_id": 1385782343, "class": null, "keyword": "市中心"}}, {"type": "Feature", "geometry": {"type": "Polygon", "coordinates": [[[120.443354, 30.096525], [120.443379, 30.096451], [120.443862, 30.095949], [120.44456, 30.095652], [120.444806, 30.095587], [120.444935, 30.095643], [120.445933, 30.095708], [120.446115, 30.095699], [120.446373, 30.095792], [120.447628, 30.095829], [120.448047, 30.096395], [120.447338, 30.096918], [120.446838, 30.097362], [120.445364, 30.099095], [120.445205, 30.099147], [120.445033, 30.099116], [120.444815, 30.098961], [120.443354, 30.096525]]]}, "properties": {"display_name": "粮油市场, 小佐路, 钱清街道, 柯桥区, 绍兴市, 浙江省, 中国", "type": "marketplace", "osm_type": "way", "osm_id": 1318040436, "class": null, "keyword": "中心城区"}}, {"type": "Feature", "geometry": {"type": "Polygon", "coordinates": [[[120.504472, 30.109424], [120.509629, 30.107916], [120.509934, 30.108684], [120.509963, 30.108841], [120.509893, 30.109047], [120.509712, 30.109243], [120.506203, 30.110653], [120.505828, 30.110707], [120.505387, 30.11066], [120.505127, 30.110511], [120.504845, 30.110261], [120.504472, 30.109424]]]}, "properties": {"display_name": "中国轻纺城跨境电商中心, 电商路, 华舍街道, 柯桥区, 绍兴市, 浙江省, 312030, 中国", "type": "marketplace", "osm_type": "way", "osm_id": 1190118310, "class": null, "keyword": "中心城区"}}, {"type": "Feature", "geometry": {"type": "Polygon", "coordinates": [[[120.794528, 29.587681], [120.795578, 29.586917], [120.796322, 29.587277], [120.796727, 29.587556], [120.799592, 29.589673], [120.799645, 29.589739], [120.799624, 29.589809], [120.799586, 29.589869], [120.798513, 29.590779], [120.794528, 29.587681]]]}, "properties": {"display_name": "嵊州市职业教育中心, 工农路, 嵊州市, 绍兴市, 浙江省, 中国", "type": "school", "osm_type": "way", "osm_id": 418927457, "class": null, "keyword": "市中心"}}, {"type": "Feature", "geometry": {"type": "Polygon", "coordinates": [[[120.493358, 30.083849], [120.494194, 30.083591], [120.495458, 30.083202], [120.495589, 30.083272], [120.496349, 30.085195], [120.495665, 30.085508], [120.495475, 30.08571], [120.494297, 30.086077], [120.493358, 30.083849]]]}, "properties": {"display_name": "绍兴市中心医院, 金柯桥大道, 华舍街道, 柯桥区, 绍兴市, 浙江省, 312030, 中国", "type": "hospital", "osm_type": "way", "osm_id": 1320054990, "class": null, "keyword": "市中心"}}, {"type": "Feature", "geometry": {"type": "Polygon", "coordinates": [[[120.78558, 29.572175], [120.787069, 29.570734], [120.788493, 29.571714], [120.786655, 29.57338], [120.786331, 29.573481], [120.785619, 29.573335], [120.78558, 29.572175]]]}, "properties": {"display_name": "嵊州市初级中学新校区, 嵊义线, 嵊州市, 绍兴市, 浙江省, 中国", "type": "school", "osm_type": "way", "osm_id": 1107789548, "class": null, "keyword": "市中心"}}, {"type": "Feature", "geometry": {"type": "Polygon", "coordinates": [[[120.493584, 30.099009], [120.4936, 30.098702], [120.493659, 30.098413], [120.493773, 30.098167], [120.493969, 30.097981], [120.49424, 30.097839], [120.4946, 30.097775], [120.494919, 30.097801], [120.495193, 30.097889], [120.495444, 30.098089], [120.495586, 30.098321], [120.495656, 30.098534], [120.495692, 30.098866], [120.495684, 30.099138], [120.495653, 30.099422], [120.495566, 30.099683], [120.495424, 30.099908], [120.495219, 30.100091], [120.494854, 30.100206], [120.494559, 30.100224], [120.494259, 30.100176], [120.494005, 30.100027], [120.493839, 30.099858], [120.493706, 30.099627], [120.493612, 30.099312], [120.493584, 30.099009]]]}, "properties": {"display_name": "中国轻纺城体育中心, 笛扬路, 华舍街道, 柯桥区, 绍兴市, 浙江省, 312030, 中国", "type": "stadium", "osm_type": "way", "osm_id": 614453182, "class": null, "keyword": "city center"}}, {"type": "Feature", "geometry": {"type": "Polygon", "coordinates": [[[120.404666, 30.081521], [120.404687, 30.080717], [120.404963, 30.07965], [120.405956, 30.079472], [120.406266, 30.079685], [120.407148, 30.080989], [120.4055, 30.081885], [120.405301, 30.081598], [120.405094, 30.081721], [120.405064, 30.081671], [120.404902, 30.081749], [120.404666, 30.081521]]]}, "properties": {"display_name": "绍兴市柯桥区中心粮库, 湖塘街道, 柯桥区, 绍兴市, 浙江省, 中国", "type": "industrial", "osm_type": "way", "osm_id": 1328363275, "class": null, "keyword": "市中心"}}, {"type": "Feature", "geometry": {"type": "Polygon", "coordinates": [[[120.473187, 30.067471], [120.474906, 30.066598], [120.475756, 30.067819], [120.474084, 30.068764], [120.473187, 30.067471]]]}, "properties": {"display_name": "中国轻纺城国际面料采购中心, 轻纺城高架路, 中国轻纺城, 华舍街道, 柯桥区, 绍兴市, 浙江省, 312030, 中国", "type": "marketplace", "osm_type": "way", "osm_id": 828479440, "class": null, "keyword": "中心城区"}}, {"type": "Feature", "geometry": {"type": "Polygon", "coordinates": [[[120.542024, 30.00962], [120.542461, 30.009292], [120.542881, 30.009242], [120.544187, 30.009085], [120.544268, 30.010357], [120.543522, 30.010392], [120.54351, 30.010417], [120.543475, 30.010489], [120.543458, 30.010524], [120.543437, 30.010526], [120.543009, 30.010564], [120.542822, 30.01069], [120.542158, 30.010771], [120.542024, 30.00962]]]}, "properties": {"display_name": "绍兴市社会福利中心, 胜利西路, 北海街道, 越城区, 绍兴市, 浙江省, 312000, 中国", "type": "yes", "osm_type": "way", "osm_id": 240452732, "class": null, "keyword": "市中心"}}, {"type": "Feature", "geometry": {"type": "Polygon", "coordinates": [[[120.474572, 30.058579], [120.47459, 30.058455], [120.474651, 30.05839], [120.47487, 30.058287], [120.474987, 30.058162], [120.47519, 30.057944], [120.475319, 30.057856], [120.475374, 30.057759], [120.475355, 30.057661], [120.475742, 30.057522], [120.476012, 30.057476], [120.476223, 30.0574], [120.476667, 30.057152], [120.476738, 30.057083], [120.476828, 30.056916], [120.47715, 30.056799], [120.477178, 30.056811], [120.477414, 30.056683], [120.477453, 30.056604], [120.477491, 30.056525], [120.477543, 30.05645], [120.477652, 30.05637], [120.477753, 30.056373], [120.477782, 30.056391], [120.477918, 30.056398], [120.478007, 30.056429], [120.478036, 30.056466], [120.478085, 30.056528], [120.478163, 30.056617], [120.478212, 30.056668], [120.478234, 30.056719], [120.478315, 30.056784], [120.478199, 30.056856], [120.478065, 30.056939], [120.477856, 30.05707], [120.47737, 30.057376], [120.477346, 30.057391], [120.477257, 30.05744], [120.476912, 30.057617], [120.476891, 30.05763], [120.476715, 30.057722], [120.476649, 30.057729], [120.476591, 30.05771], [120.47655, 30.05768], [120.476454, 30.05774], [120.476352, 30.057809], [120.476378, 30.057847], [120.476385, 30.057906], [120.476371, 30.057976], [120.476307, 30.058044], [120.476107, 30.058154], [120.475896, 30.058281], [120.475253, 30.058693], [120.475209, 30.058721], [120.475172, 30.058742], [120.47499, 30.058861], [120.474934, 30.058867], [120.474875, 30.058867], [120.474771, 30.058826], [120.474719, 30.05876], [120.474572, 30.058579]]]}, "properties": {"display_name": "轻纺城柯南商业中心, 柯岩街道, 柯桥区, 绍兴市, 浙江省, 中国", "type": "commercial", "osm_type": "way", "osm_id": 1243643114, "class": null, "keyword": "中心城区"}}, {"type": "Feature", "geometry": {"type": "Polygon", "coordinates": [[[120.538192, 30.095399], [120.538656, 30.094157], [120.538755, 30.09414], [120.539986, 30.094383], [120.540056, 30.094449], [120.540061, 30.095594], [120.540007, 30.095822], [120.538924, 30.095592], [120.538894, 30.095675], [120.538262, 30.095522], [120.538192, 30.095399]]]}, "properties": {"display_name": "灵芝街道中心小学城北校区, 钱陶东路, 灵芝街道, 越城区, 绍兴市, 浙江省, 312030, 中国", "type": "school", "osm_type": "way", "osm_id": 893963780, "class": null, "keyword": "中心城区"}}, {"type": "Feature", "geometry": {"type": "Polygon", "coordinates": [[[120.623521, 30.156941], [120.623556, 30.156878], [120.624707, 30.156598], [120.62583, 30.157655], [120.625814, 30.157785], [120.625181, 30.158346], [120.624897, 30.158386], [120.623982, 30.1575], [120.623534, 30.157008], [120.623521, 30.156941]]]}, "properties": {"display_name": "绍兴市中心医院马鞍分院, 镜海大道, 马鞍街道, 柯桥区, 绍兴市, 浙江省, 中国", "type": "hospital", "osm_type": "way", "osm_id": 1252702104, "class": null, "keyword": "市中心"}}, {"type": "Feature", "geometry": {"type": "Polygon", "coordinates": [[[121.028068, 29.836806], [121.028233, 29.836516], [121.028371, 29.836567], [121.028413, 29.836472], [121.028616, 29.836533], [121.028769, 29.836615], [121.029223, 29.836779], [121.029494, 29.836682], [121.029576, 29.836843], [121.029788, 29.836779], [121.029903, 29.836843], [121.029998, 29.83694], [121.030083, 29.837042], [121.030107, 29.837264], [121.030021, 29.837453], [121.029721, 29.838087], [121.02909, 29.837865], [121.028147, 29.837648], [121.028399, 29.837051], [121.028108, 29.83693], [121.028147, 29.836837], [121.028068, 29.836806]]]}, "properties": {"display_name": "下管镇中心小学, X502, 下管镇, 上虞区, 绍兴市, 浙江省, 中国", "type": "school", "osm_type": "way", "osm_id": 561012570, "class": null, "keyword": "中心商圈"}}, {"type": "Feature", "geometry": {"type": "Polygon", "coordinates": [[[120.82791, 29.603373], [120.828897, 29.602967], [120.828975, 29.60312], [120.829494, 29.602955], [120.82985, 29.604034], [120.829434, 29.60422], [120.829528, 29.604422], [120.829391, 29.604455], [120.829194, 29.604097], [120.828842, 29.604228], [120.828992, 29.604608], [120.828546, 29.604746], [120.82791, 29.603373]]]}, "properties": {"display_name": "嵊州市客运中心, 嵊州大道, 剡湖街道, 嵊州市, 绍兴市, 浙江省, 中国", "type": "bus_station", "osm_type": "way", "osm_id": 1217944687, "class": null, "keyword": "市中心"}}, {"type": "Feature", "geometry": {"type": "Polygon", "coordinates": [[[120.486084, 30.108919], [120.486202, 30.108793], [120.486596, 30.108655], [120.487345, 30.108393], [120.487914, 30.109508], [120.486912, 30.109828], [120.486676, 30.109671], [120.486173, 30.109616], [120.486084, 30.108919]]]}, "properties": {"display_name": "绍兴市中心医院华舍院区, 绸缎路, 华舍街道, 柯桥区, 绍兴市, 浙江省, 312030, 中国", "type": "hospital", "osm_type": "way", "osm_id": 1190118305, "class": null, "keyword": "市中心"}}, {"type": "Feature", "geometry": {"type": "Polygon", "coordinates": [[[120.514357, 29.9533], [120.514717, 29.95268], [120.515203, 29.952591], [120.515334, 29.952642], [120.515796, 29.952495], [120.515887, 29.952419], [120.516433, 29.952854], [120.515512, 29.953906], [120.515357, 29.953087], [120.515045, 29.952988], [120.515124, 29.953642], [120.514357, 29.9533]]]}, "properties": {"display_name": "兰亭镇中心小学, +8657584608386, 中心路, 兰亭街道, 柯桥区, 绍兴市, 浙江省, 312044, 中国", "type": "school", "osm_type": "way", "osm_id": 231404809, "class": null, "keyword": "town center"}}, {"type": "Feature", "geometry": {"type": "Polygon", "coordinates": [[[120.336549, 30.130391], [120.337249, 30.129476], [120.338241, 30.130117], [120.337501, 30.130957], [120.336549, 30.130391]]]}, "properties": {"display_name": "绍兴市柯桥区杨汛桥中心幼儿园, 光宇路, 杨汛桥街道, 柯桥区, 绍兴市, 浙江省, 中国", "type": "kindergarten", "osm_type": "way", "osm_id": 1227634757, "class": null, "keyword": "中央区"}}, {"type": "Feature", "geometry": {"type": "Polygon", "coordinates": [[[120.393698, 30.128663], [120.395032, 30.128655], [120.395065, 30.129554], [120.393722, 30.129573], [120.393698, 30.128663]]]}, "properties": {"display_name": "绍兴市中心医院医共体钱清分院, 钱门大道, 钱清街道, 柯桥区, 绍兴市, 浙江省, 中国", "type": "hospital", "osm_type": "way", "osm_id": 1251110331, "class": null, "keyword": "市中心"}}, {"type": "Feature", "geometry": {"type": "Polygon", "coordinates": [[[120.492979, 30.106569], [120.493643, 30.106353], [120.494345, 30.107243], [120.494627, 30.107653], [120.494084, 30.108023], [120.492979, 30.106569]]]}, "properties": {"display_name": "绍兴市柯桥区华舍中心幼儿园, 民生路, 华舍街道, 柯桥区, 绍兴市, 浙江省, 312030, 中国", "type": "kindergarten", "osm_type": "way", "osm_id": 1190118308, "class": null, "keyword": "市中心"}}, {"type": "Feature", "geometry": {"type": "Polygon", "coordinates": [[[120.478425, 30.064706], [120.480222, 30.063762], [120.48054, 30.064214], [120.478742, 30.065159], [120.478425, 30.064706]]]}, "properties": {"display_name": "中国轻纺城·A5（东升路市场D区<老市场>）, 轻纺城高架路, 中国轻纺城, 华舍街道, 柯桥区, 绍兴市, 浙江省, 312030, 中国", "type": "marketplace", "osm_type": "way", "osm_id": 1183595481, "class": null, "keyword": "老城区"}}, {"type": "Feature", "geometry": {"type": "Polygon", "coordinates": [[[120.508816, 30.104514], [120.508963, 30.104268], [120.509202, 30.104218], [120.509224, 30.104571], [120.509219, 30.105239], [120.509283, 30.105527], [120.509374, 30.105652], [120.509455, 30.105944], [120.509503, 30.106148], [120.509487, 30.106422], [120.509567, 30.106692], [120.509583, 30.106893], [120.509393, 30.106951], [120.509291, 30.10693], [120.509237, 30.106877], [120.508816, 30.104514]]]}, "properties": {"display_name": "国际时尚中心滑板公园, 齐贤街道, 柯桥区, 绍兴市, 浙江省, 中国", "type": "park", "osm_type": "way", "osm_id": 1281901518, "class": null, "keyword": "市中心"}}, {"type": "Feature", "geometry": {"type": "Polygon", "coordinates": [[[120.425359, 30.071949], [120.426249, 30.071144], [120.426789, 30.071717], [120.425831, 30.07242], [120.425359, 30.071949]]]}, "properties": {"display_name": "绍兴市柯桥区湖塘街道社区卫生服务中心, 永鉴线, 湖塘社区, 湖塘街道, 柯桥区, 绍兴市, 浙江省, 中国", "type": "hospital", "osm_type": "way", "osm_id": 1252014978, "class": null, "keyword": "市中心"}}, {"type": "Feature", "geometry": {"type": "Polygon", "coordinates": [[[120.490848, 30.076308], [120.491685, 30.075967], [120.492052, 30.076751], [120.491234, 30.077009], [120.490848, 30.076308]]]}, "properties": {"display_name": "绍兴市中心医院柯桥分院, 瓜渚路, 立新社区, 华舍街道, 柯桥区, 绍兴市, 浙江省, 312030, 中国", "type": "hospital", "osm_type": "way", "osm_id": 1251646671, "class": null, "keyword": "市中心"}}, {"type": "Feature", "geometry": {"type": "Polygon", "coordinates": [[[120.818385, 29.576948], [120.818425, 29.576287], [120.81949, 29.576383], [120.8194, 29.57704], [120.818385, 29.576948]]]}, "properties": {"display_name": "嵊州市中心幼儿园, 兴盛街, 嵊州市, 绍兴市, 浙江省, 中国", "type": "kindergarten", "osm_type": "way", "osm_id": 1224722992, "class": null, "keyword": "市中心"}}, {"type": "Feature", "geometry": {"type": "Polygon", "coordinates": [[[120.472803, 30.055576], [120.472913, 30.055327], [120.473234, 30.055233], [120.473491, 30.05524], [120.473658, 30.05564], [120.47396, 30.055949], [120.473679, 30.056173], [120.473499, 30.055998], [120.473452, 30.056035], [120.473014, 30.055641], [120.472947, 30.055635], [120.472874, 30.055657], [120.472803, 30.055576]]]}, "properties": {"display_name": "山阴里儿童成长中心, 春望路, 独山社区, 柯岩街道, 柯桥区, 绍兴市, 浙江省, 312030, 中国", "type": "childcare", "osm_type": "way", "osm_id": 1250851488, "class": null, "keyword": "中心城区"}}, {"type": "Feature", "geometry": {"type": "Polygon", "coordinates": [[[120.816086, 29.591701], [120.816543, 29.591717], [120.816565, 29.591604], [120.816662, 29.591585], [120.816685, 29.592314], [120.816649, 29.592466], [120.816549, 29.592582], [120.816093, 29.592629], [120.816086, 29.591701]]]}, "properties": {"display_name": "嵊州市越剧艺术保护传承中心(嵊州市越剧团), 剡湖街道, 嵊州市, 绍兴市, 浙江省, 中国", "type": "commercial", "osm_type": "way", "osm_id": 1220434417, "class": null, "keyword": "市中心"}}, {"type": "Feature", "geometry": {"type": "Polygon", "coordinates": [[[120.482828, 30.062543], [120.48346, 30.062211], [120.483844, 30.062758], [120.483212, 30.06309], [120.482828, 30.062543]]]}, "properties": {"display_name": "中国轻纺城展示中心, 轻纺城大道, 中国轻纺城, 柯岩街道, 柯桥区, 绍兴市, 浙江省, 312030, 中国", "type": "exhibition_centre", "osm_type": "way", "osm_id": 1183595494, "class": null, "keyword": "中心城区"}}, {"type": "Feature", "geometry": {"type": "Polygon", "coordinates": [[[120.575681, 30.005917], [120.575705, 30.0058], [120.575773, 30.005697], [120.575878, 30.005621], [120.576007, 30.00558], [120.576144, 30.00558], [120.576273, 30.005621], [120.576379, 30.005697], [120.576447, 30.0058], [120.576471, 30.005917], [120.576452, 30.006023], [120.576396, 30.006118], [120.576308, 30.006194], [120.576198, 30.006243], [120.576076, 30.006259], [120.575954, 30.006243], [120.575844, 30.006194], [120.575756, 30.006118], [120.5757, 30.006023], [120.575681, 30.005917]]]}, "properties": {"display_name": "绍兴市会展中心, 胜利西路, 府山街道, 越城区, 绍兴市, 浙江省, 312000, 中国", "type": "museum", "osm_type": "way", "osm_id": 231885844, "class": null, "keyword": "市中心"}}, {"type": "Feature", "geometry": {"type": "Polygon", "coordinates": [[[120.496614, 30.088169], [120.497345, 30.087971], [120.497588, 30.088641], [120.496856, 30.08884], [120.496797, 30.088677], [120.497353, 30.088526], [120.49723, 30.088185], [120.496675, 30.088336], [120.496614, 30.088169]]]}, "properties": {"display_name": "中国轻纺城国贸中心, 湖西路, 华舍街道, 柯桥区, 绍兴市, 浙江省, 312030, 中国", "type": "yes", "osm_type": "way", "osm_id": 1281901484, "class": null, "keyword": "中心城区"}}, {"type": "Feature", "geometry": {"type": "Polygon", "coordinates": [[[120.498208, 30.037374], [120.498378, 30.037253], [120.49844, 30.037208], [120.499161, 30.037966], [120.498929, 30.038131], [120.498208, 30.037374]]]}, "properties": {"display_name": "澄湾农产品集散中心, 镜水南路, 仁让堰社区, 柯岩街道, 柯桥区, 绍兴市, 浙江省, 中国", "type": "marketplace", "osm_type": "way", "osm_id": 1286214170, "class": null, "keyword": "中心城区"}}, {"type": "Feature", "geometry": {"type": "Polygon", "coordinates": [[[120.499154, 30.095174], [120.499239, 30.095151], [120.499218, 30.095092], [120.499408, 30.09504], [120.49943, 30.095101], [120.499733, 30.095018], [120.499711, 30.094956], [120.499903, 30.094904], [120.499925, 30.094966], [120.500026, 30.094939], [120.500099, 30.095139], [120.499997, 30.095167], [120.500019, 30.095229], [120.499843, 30.095277], [120.499821, 30.095217], [120.499504, 30.095303], [120.499526, 30.095364], [120.499331, 30.095417], [120.499308, 30.095353], [120.499227, 30.095375], [120.499154, 30.095174]]]}, "properties": {"display_name": "世贸中心, 钱陶东路, 华舍街道, 柯桥区, 绍兴市, 浙江省, 312030, 中国", "type": "yes", "osm_type": "way", "osm_id": 1189003924, "class": null, "keyword": "市中心"}}, {"type": "Feature", "geometry": {"type": "Polygon", "coordinates": [[[120.490004, 30.077074], [120.490019, 30.076966], [120.490059, 30.076878], [120.490136, 30.076802], [120.490167, 30.076851], [120.49037, 30.076771], [120.490605, 30.077189], [120.490275, 30.077325], [120.490171, 30.077123], [120.490032, 30.077183], [120.490004, 30.077074]]]}, "properties": {"display_name": "绍兴市柯桥区知识产权保护中心, 金柯桥大道辅路, 立新社区, 华舍街道, 柯桥区, 绍兴市, 浙江省, 312030, 中国", "type": "government", "osm_type": "way", "osm_id": 1251646667, "class": null, "keyword": "市中心"}}, {"type": "Feature", "geometry": {"type": "Polygon", "coordinates": [[[120.59904, 30.007124], [120.599076, 30.007007], [120.599175, 30.006921], [120.59931, 30.00689], [120.599445, 30.006921], [120.599544, 30.007007], [120.599581, 30.007124], [120.599544, 30.007241], [120.599445, 30.007327], [120.59931, 30.007358], [120.599175, 30.007327], [120.599076, 30.007241], [120.59904, 30.007124]]]}, "properties": {"display_name": "世茂天际中心, 胜利东路, 迪荡街道, 越城区, 绍兴市, 浙江省, 中国", "type": "yes", "osm_type": "way", "osm_id": 232401672, "class": null, "keyword": "市中心"}}, {"type": "Feature", "geometry": {"type": "Polygon", "coordinates": [[[120.497899, 30.036667], [120.498139, 30.036487], [120.498513, 30.036862], [120.498273, 30.037041], [120.497899, 30.036667]]]}, "properties": {"display_name": "澄湾居商贸中心, 镜水南路, 仁让堰社区, 柯岩街道, 柯桥区, 绍兴市, 浙江省, 中国", "type": "marketplace", "osm_type": "way", "osm_id": 1286214098, "class": null, "keyword": "中心城区"}}, {"type": "Feature", "geometry": {"type": "Polygon", "coordinates": [[[120.509812, 30.066373], [120.510299, 30.06626], [120.510377, 30.066545], [120.510144, 30.06671], [120.509812, 30.066373]]]}, "properties": {"display_name": "中心幼儿园朗诗园区, 双梅路, 红梅社区, 华舍街道, 柯桥区, 绍兴市, 浙江省, 312030, 中国", "type": "kindergarten", "osm_type": "way", "osm_id": 1320054995, "class": null, "keyword": "市中心"}}, {"type": "Feature", "geometry": {"type": "Polygon", "coordinates": [[[120.498197, 30.099829], [120.498306, 30.099794], [120.498558, 30.100373], [120.498449, 30.100408], [120.498197, 30.099829]]]}, "properties": {"display_name": "绍兴市柯桥区行政服务中心, 纺都路, 齐贤街道, 柯桥区, 绍兴市, 浙江省, 312030, 中国", "type": "yes", "osm_type": "way", "osm_id": 402786948, "class": null, "keyword": "市中心"}}, {"type": "Feature", "geometry": {"type": "Polygon", "coordinates": [[[120.494985, 30.08341], [120.495282, 30.083319], [120.495334, 30.083445], [120.495037, 30.083537], [120.494985, 30.08341]]]}, "properties": {"display_name": "绍兴市中心医院立体停车库, 华宇路, 玉兰社区, 华舍街道, 柯桥区, 绍兴市, 浙江省, 312030, 中国", "type": "parking", "osm_type": "way", "osm_id": 1281901537, "class": null, "keyword": "市中心"}}, {"type": "Feature", "geometry": {"type": "Polygon", "coordinates": [[[120.502538, 30.034476], [120.502766, 30.03433], [120.502844, 30.034414], [120.502631, 30.034569], [120.502538, 30.034476]]]}, "properties": {"display_name": "澄湾居党群服务中心, 胜利西路, 柯岩街道, 柯桥区, 绍兴市, 浙江省, 中国", "type": "government", "osm_type": "way", "osm_id": 1286214192, "class": null, "keyword": "中心城区"}}, {"type": "Feature", "geometry": {"type": "Polygon", "coordinates": [[[120.478055, 30.071532], [120.478254, 30.071442], [120.478297, 30.071499], [120.478096, 30.071588], [120.478055, 30.071532]]]}, "properties": {"display_name": "柯桥街道柯福社区居家养老服务中心, 柯福路, 柯亭社区, 华舍街道, 柯桥区, 绍兴市, 浙江省, 312030, 中国", "type": "social_facility", "osm_type": "way", "osm_id": 1272804552, "class": null, "keyword": "中央区"}}, {"type": "Feature", "geometry": {"type": "Polygon", "coordinates": [[[120.498382, 30.036476], [120.498519, 30.036377], [120.49858, 30.03644], [120.498443, 30.036538], [120.498382, 30.036476]]]}, "properties": {"display_name": "澄湾居居家养老服务照料中心, 胜利西路, 柯岩街道, 柯桥区, 绍兴市, 浙江省, 中国", "type": "social_facility", "osm_type": "way", "osm_id": 1286214099, "class": null, "keyword": "中心城区"}}]}