{"type": "FeatureCollection", "features": [{"type": "Feature", "geometry": {"type": "Polygon", "coordinates": [[[114.640287, 38.344208], [114.641358, 38.34015], [114.641813, 38.33821], [114.641899, 38.336393], [114.641172, 38.336225], [114.641557, 38.333397], [114.642371, 38.331006], [114.64447, 38.330868], [114.650339, 38.331127], [114.652479, 38.331426], [114.654278, 38.331524], [114.654578, 38.328864], [114.654578, 38.32745], [114.657319, 38.327546], [114.657576, 38.32465], [114.657748, 38.322259], [114.658883, 38.321878], [114.66036, 38.320815], [114.664685, 38.320049], [114.66749, 38.319859], [114.668581, 38.320025], [114.669737, 38.322111], [114.670528, 38.323152], [114.671599, 38.32315], [114.673568, 38.32318], [114.675196, 38.323059], [114.676694, 38.32282], [114.677882, 38.322684], [114.67771, 38.3259], [114.680557, 38.326166], [114.680578, 38.328001], [114.685459, 38.328194], [114.685545, 38.328598], [114.688606, 38.328827], [114.688542, 38.326571], [114.691989, 38.326683], [114.69291, 38.326765], [114.69306, 38.324644], [114.697022, 38.324839], [114.696893, 38.327029], [114.700812, 38.32719], [114.701144, 38.324716], [114.703339, 38.324687], [114.704324, 38.324635], [114.70501, 38.324685], [114.705545, 38.324616], [114.707805, 38.326583], [114.708982, 38.32781], [114.714659, 38.33275], [114.715462, 38.332345], [114.716406, 38.332748], [114.717134, 38.332242], [114.717863, 38.331601], [114.720348, 38.331599], [114.720777, 38.331666], [114.720949, 38.329915], [114.722791, 38.32988], [114.726007, 38.32991], [114.725321, 38.326982], [114.733553, 38.324821], [114.733767, 38.324854], [114.734239, 38.325898], [114.734453, 38.326874], [114.735181, 38.328759], [114.735782, 38.330711], [114.736897, 38.330508], [114.738184, 38.330508], [114.739643, 38.330473], [114.743759, 38.330034], [114.744531, 38.333165], [114.747331, 38.332642], [114.747265, 38.334123], [114.747185, 38.33526], [114.747286, 38.335544], [114.746835, 38.339869], [114.74651, 38.342072], [114.741865, 38.343119], [114.741136, 38.349244], [114.74105, 38.349648], [114.73972, 38.349615], [114.738476, 38.349548], [114.737704, 38.349616], [114.736889, 38.349819], [114.735988, 38.349751], [114.735689, 38.349785], [114.736417, 38.3514], [114.737618, 38.351702], [114.740663, 38.353182], [114.740856, 38.3533], [114.740813, 38.355084], [114.74152, 38.356954], [114.744095, 38.357088], [114.743879, 38.359022], [114.743901, 38.360655], [114.742909, 38.360775], [114.742136, 38.364511], [114.741771, 38.366698], [114.74113, 38.366735], [114.74055, 38.368871], [114.73892, 38.368771], [114.73877, 38.36867], [114.738213, 38.370639], [114.73832, 38.371093], [114.738727, 38.371278], [114.738533, 38.372893], [114.737612, 38.372826], [114.737076, 38.374005], [114.736776, 38.376057], [114.736346, 38.381188], [114.733087, 38.380904], [114.732429, 38.386708], [114.72707, 38.386342], [114.726856, 38.387755], [114.726512, 38.390749], [114.726298, 38.391355], [114.724889, 38.39145], [114.724931, 38.390979], [114.719081, 38.390649], [114.718955, 38.391775], [114.716352, 38.391627], [114.714653, 38.391553], [114.710614, 38.391314], [114.710668, 38.390204], [114.700254, 38.389709], [114.700384, 38.387253], [114.697685, 38.387122], [114.697728, 38.38756], [114.697642, 38.387829], [114.696872, 38.388134], [114.696656, 38.388099], [114.690232, 38.387976], [114.690147, 38.387135], [114.689804, 38.387001], [114.689804, 38.387909], [114.688391, 38.388047], [114.686378, 38.387983], [114.686556, 38.381729], [114.683302, 38.38155], [114.682039, 38.381536], [114.680604, 38.38127], [114.680522, 38.383089], [114.679238, 38.383547], [114.677097, 38.383483], [114.67699, 38.383786], [114.676732, 38.385972], [114.676753, 38.38762], [114.676826, 38.388425], [114.67627, 38.388392], [114.676013, 38.389469], [114.675584, 38.389369], [114.674386, 38.389271], [114.672374, 38.389073], [114.672374, 38.388703], [114.671774, 38.388636], [114.669119, 38.38817], [114.669076, 38.388574], [114.665694, 38.388109], [114.665438, 38.38774], [114.664666, 38.387707], [114.663639, 38.388315], [114.662954, 38.388182], [114.663211, 38.387239], [114.663725, 38.386431], [114.661755, 38.385426], [114.658673, 38.383413], [114.656531, 38.383619], [114.657079, 38.382095], [114.658514, 38.379956], [114.658964, 38.378592], [114.659178, 38.376574], [114.661662, 38.376669], [114.661854, 38.374869], [114.662946, 38.3749], [114.663353, 38.374815], [114.663482, 38.374731], [114.663568, 38.373015], [114.660913, 38.372835], [114.661147, 38.370464], [114.661254, 38.368865], [114.662025, 38.367333], [114.662004, 38.365432], [114.662518, 38.364085], [114.662841, 38.359368], [114.662263, 38.359032], [114.662088, 38.359161], [114.662067, 38.356688], [114.660462, 38.356657], [114.660515, 38.355092], [114.658384, 38.354995], [114.658567, 38.353867], [114.658556, 38.353396], [114.658385, 38.352833], [114.658385, 38.352597], [114.657955, 38.352528], [114.657847, 38.352041], [114.657408, 38.351999], [114.657194, 38.351916], [114.657055, 38.351815], [114.657002, 38.351689], [114.656862, 38.350679], [114.656884, 38.350318], [114.655825, 38.350395], [114.655857, 38.349546], [114.655472, 38.348948], [114.654315, 38.349093], [114.652837, 38.349155], [114.652784, 38.348137], [114.651489, 38.348265], [114.651422, 38.348203], [114.651347, 38.348085], [114.651176, 38.347434], [114.651079, 38.347152], [114.65078, 38.346521], [114.649731, 38.344949], [114.649709, 38.344545], [114.647012, 38.344365], [114.642535, 38.344238], [114.640287, 38.344208]]]}, "properties": {"display_name": "长寿街道, 新乐市, 石家庄市, 河北省, 050700, 中国", "type": "administrative", "osm_type": "relation", "osm_id": 9810956, "class": null, "keyword": "subdistrict"}}, {"type": "Feature", "geometry": {"type": "Polygon", "coordinates": [[[114.40284, 38.12637], [114.403411, 38.117095], [114.4043, 38.116637], [114.410494, 38.117394], [114.41097, 38.113242], [114.411445, 38.110849], [114.410685, 38.110287], [114.410199, 38.108919], [114.417695, 38.110057], [114.424249, 38.111096], [114.424542, 38.113482], [114.426523, 38.113213], [114.427403, 38.112539], [114.427614, 38.11224], [114.428039, 38.111635], [114.432774, 38.1122], [114.433671, 38.110069], [114.435082, 38.109961], [114.439142, 38.109461], [114.444571, 38.108749], [114.444668, 38.107056], [114.448997, 38.106729], [114.449779, 38.107036], [114.450073, 38.107998], [114.451969, 38.107975], [114.455459, 38.108182], [114.460692, 38.108102], [114.465926, 38.108536], [114.468047, 38.108614], [114.479585, 38.109276], [114.479707, 38.110932], [114.48037, 38.111398], [114.482948, 38.112681], [114.477709, 38.113356], [114.487351, 38.121581], [114.494282, 38.127484], [114.491402, 38.129056], [114.485924, 38.129941], [114.480838, 38.134077], [114.479444, 38.135808], [114.475995, 38.132923], [114.467999, 38.138962], [114.464624, 38.136635], [114.464037, 38.134962], [114.46213, 38.135231], [114.460589, 38.136558], [114.462448, 38.13802], [114.464135, 38.136866], [114.467852, 38.139693], [114.466263, 38.14052], [114.464988, 38.141311], [114.464853, 38.141208], [114.463465, 38.140146], [114.463419, 38.14011], [114.460439, 38.142512], [114.456994, 38.13977], [114.458266, 38.139135], [114.458315, 38.135058], [114.45763, 38.134519], [114.450905, 38.134596], [114.451199, 38.135769], [114.451639, 38.136289], [114.461665, 38.144194], [114.460319, 38.145554], [114.459582, 38.145217], [114.457918, 38.146713], [114.461436, 38.149722], [114.460033, 38.149965], [114.459819, 38.150657], [114.456919, 38.151853], [114.455992, 38.149255], [114.453092, 38.151423], [114.449883, 38.14875], [114.446579, 38.151181], [114.442586, 38.148059], [114.438569, 38.151068], [114.439163, 38.151666], [114.437475, 38.153068], [114.43681, 38.152601], [114.436144, 38.153143], [114.433791, 38.151405], [114.42994, 38.155087], [114.431771, 38.157087], [114.430154, 38.158638], [114.423781, 38.150091], [114.42012, 38.14562], [114.41834, 38.146451], [114.417294, 38.146189], [114.416894, 38.140659], [114.412794, 38.140337], [114.409215, 38.13737], [114.408793, 38.135763], [114.407675, 38.134854], [114.407927, 38.130596], [114.406073, 38.128839], [114.404172, 38.128726], [114.40284, 38.12637]]]}, "properties": {"display_name": "杜北街道, 新华区, 石家庄市, 河北省, 中国", "type": "administrative", "osm_type": "relation", "osm_id": 7640453, "class": null, "keyword": "subdistrict"}}, {"type": "Feature", "geometry": {"type": "MultiPolygon", "coordinates": [[[[114.368214, 38.084402], [114.370659, 38.072664], [114.380441, 38.072044], [114.388052, 38.070626], [114.397067, 38.069197], [114.421342, 38.064764], [114.421615, 38.066507], [114.424094, 38.066216], [114.427025, 38.06717], [114.426444, 38.065142], [114.427084, 38.06482], [114.428134, 38.064287], [114.429172, 38.06376], [114.42944, 38.063627], [114.430431, 38.063099], [114.430724, 38.0664], [114.430706, 38.07062], [114.433905, 38.070647], [114.433992, 38.07187], [114.434026, 38.074791], [114.434087, 38.077236], [114.430899, 38.077301], [114.430061, 38.078716], [114.429081, 38.080759], [114.426404, 38.080132], [114.424647, 38.083927], [114.421909, 38.083139], [114.419681, 38.087015], [114.422664, 38.087964], [114.422113, 38.088881], [114.421255, 38.088913], [114.418884, 38.088286], [114.416677, 38.092081], [114.414634, 38.092178], [114.411855, 38.097099], [114.40926, 38.09697], [114.40924, 38.097131], [114.4102, 38.097902], [114.4102, 38.100475], [114.412264, 38.100572], [114.412284, 38.103466], [114.408116, 38.103514], [114.401209, 38.103193], [114.401189, 38.106602], [114.398471, 38.105749], [114.398515, 38.107443], [114.397412, 38.107304], [114.397412, 38.105765], [114.394282, 38.104956], [114.391983, 38.104726], [114.390565, 38.105534], [114.389, 38.10588], [114.381321, 38.10588], [114.372958, 38.105149], [114.372518, 38.103302], [114.371197, 38.102532], [114.369485, 38.101954], [114.369051, 38.101367], [114.369143, 38.099876], [114.369827, 38.09876], [114.375745, 38.098837], [114.376147, 38.098681], [114.376332, 38.089484], [114.377017, 38.088598], [114.377262, 38.086596], [114.376138, 38.084465], [114.36929, 38.084518], [114.368214, 38.084402]]], [[[114.438786, 38.071118], [114.439415, 38.071113], [114.439436, 38.072616], [114.438807, 38.072622], [114.438786, 38.071118]]]]}, "properties": {"display_name": "大郭街道, 新华区, 石家庄市, 河北省, 中国", "type": "administrative", "osm_type": "relation", "osm_id": 7640768, "class": null, "keyword": "subdistrict"}}, {"type": "Feature", "geometry": {"type": "Polygon", "coordinates": [[[114.425011, 37.993714], [114.42524, 37.991723], [114.42642, 37.991771], [114.426451, 37.993415], [114.428529, 37.993636], [114.431402, 37.993941], [114.431828, 37.99312], [114.445361, 37.993683], [114.445464, 37.991409], [114.45016, 37.990601], [114.453747, 37.990033], [114.454391, 37.989413], [114.454936, 37.983573], [114.456646, 37.983552], [114.457199, 37.980378], [114.453238, 37.978375], [114.451993, 37.978317], [114.452184, 37.976363], [114.455803, 37.973646], [114.458243, 37.973489], [114.462127, 37.973155], [114.462425, 37.971643], [114.464069, 37.971506], [114.466857, 37.971663], [114.46611, 37.972645], [114.470146, 37.973969], [114.468846, 37.97581], [114.476536, 38.003462], [114.475013, 38.003621], [114.474106, 38.00367], [114.473756, 38.003674], [114.473154, 38.003681], [114.472873, 38.003684], [114.471279, 38.003656], [114.471217, 38.011863], [114.471186, 38.023963], [114.467096, 38.024046], [114.466867, 38.017824], [114.464458, 38.017808], [114.464447, 38.018165], [114.459946, 38.018268], [114.460105, 38.024046], [114.455939, 38.024043], [114.453214, 38.024045], [114.453186, 38.018931], [114.43964, 38.003393], [114.439156, 38.0029], [114.43819, 38.002097], [114.425011, 37.993714]]]}, "properties": {"display_name": "新石街道, 桥西区, 石家庄市, 河北省, 中国", "type": "administrative", "osm_type": "relation", "osm_id": 9818258, "class": null, "keyword": "subdistrict"}}, {"type": "Feature", "geometry": {"type": "MultiPolygon", "coordinates": [[[[114.398471, 38.105749], [114.401189, 38.106602], [114.401209, 38.103193], [114.408116, 38.103514], [114.412284, 38.103466], [114.412264, 38.100572], [114.4102, 38.100475], [114.4102, 38.097902], [114.40924, 38.097131], [114.40926, 38.09697], [114.411855, 38.097099], [114.414634, 38.092178], [114.416677, 38.092081], [114.418884, 38.088286], [114.421255, 38.088913], [114.422113, 38.088881], [114.422664, 38.087964], [114.419681, 38.087015], [114.421909, 38.083139], [114.424647, 38.083927], [114.426404, 38.080132], [114.429081, 38.080759], [114.430061, 38.078716], [114.430899, 38.077301], [114.434087, 38.077236], [114.434026, 38.074791], [114.433992, 38.07187], [114.436715, 38.071847], [114.436698, 38.070639], [114.439408, 38.070615], [114.439415, 38.071113], [114.438786, 38.071118], [114.438807, 38.072622], [114.439436, 38.072616], [114.439468, 38.074854], [114.439583, 38.07618], [114.44177, 38.077532], [114.441953, 38.077918], [114.441994, 38.078625], [114.448196, 38.078538], [114.448135, 38.083291], [114.446419, 38.083307], [114.446399, 38.085109], [114.444437, 38.085286], [114.444478, 38.086106], [114.443374, 38.086122], [114.443313, 38.086749], [114.442353, 38.086798], [114.442291, 38.086283], [114.440166, 38.086379], [114.440187, 38.0872], [114.438348, 38.087441], [114.438327, 38.090834], [114.440718, 38.090834], [114.440718, 38.08995], [114.442373, 38.089982], [114.442394, 38.090931], [114.443293, 38.090963], [114.443395, 38.092844], [114.442448, 38.092894], [114.442455, 38.092185], [114.441413, 38.092217], [114.441372, 38.093198], [114.44033, 38.093214], [114.439451, 38.093198], [114.439329, 38.092893], [114.437346, 38.092909], [114.436284, 38.092748], [114.43377, 38.092555], [114.430828, 38.092458], [114.430828, 38.097299], [114.432013, 38.097283], [114.432034, 38.096961], [114.432831, 38.096929], [114.432831, 38.095546], [114.433811, 38.095514], [114.433832, 38.094662], [114.433505, 38.094678], [114.433587, 38.09434], [114.435181, 38.094501], [114.43516, 38.096511], [114.437244, 38.096511], [114.437265, 38.09442], [114.439226, 38.094388], [114.439226, 38.096125], [114.441458, 38.096045], [114.441402, 38.096355], [114.439753, 38.096405], [114.439816, 38.09727], [114.442268, 38.097386], [114.440112, 38.099416], [114.440176, 38.100347], [114.442818, 38.100464], [114.442839, 38.102809], [114.444699, 38.10404], [114.444668, 38.107056], [114.444571, 38.108749], [114.439142, 38.109461], [114.435082, 38.109961], [114.433671, 38.110069], [114.432774, 38.1122], [114.428039, 38.111635], [114.427614, 38.11224], [114.427403, 38.112539], [114.426523, 38.113213], [114.424542, 38.113482], [114.424249, 38.111096], [114.417695, 38.110057], [114.410199, 38.108919], [114.398515, 38.107443], [114.398471, 38.105749]]], [[[114.439422, 38.06674], [114.4416, 38.066767], [114.4416, 38.064085], [114.442759, 38.064181], [114.442828, 38.06561], [114.442309, 38.065664], [114.442344, 38.065923], [114.44326, 38.065923], [114.443312, 38.066822], [114.444488, 38.066862], [114.444505, 38.066699], [114.445595, 38.066699], [114.445612, 38.065746], [114.446148, 38.065705], [114.446235, 38.064562], [114.448016, 38.064548], [114.44805, 38.069109], [114.445266, 38.069054], [114.445266, 38.069871], [114.440788, 38.06983], [114.440753, 38.067298], [114.439439, 38.067285], [114.439422, 38.06674]]], [[[114.445254, 38.091043], [114.448074, 38.091043], [114.448135, 38.091912], [114.445296, 38.094344], [114.445254, 38.091043]]], [[[114.447324, 38.062955], [114.447722, 38.062914], [114.447912, 38.063582], [114.447341, 38.063568], [114.447324, 38.062955]]], [[[114.448058, 38.07156], [114.449025, 38.07156], [114.449066, 38.072204], [114.44806, 38.072223], [114.448058, 38.07156]]], [[[114.449627, 38.081924], [114.449709, 38.08083], [114.452427, 38.08075], [114.453775, 38.080203], [114.453857, 38.078458], [114.455948, 38.078429], [114.455956, 38.079695], [114.455068, 38.079698], [114.455077, 38.081091], [114.456917, 38.081084], [114.456915, 38.080765], [114.458157, 38.080781], [114.458198, 38.081521], [114.457033, 38.081585], [114.457054, 38.085107], [114.455103, 38.085109], [114.455001, 38.083629], [114.452713, 38.083677], [114.45259, 38.085157], [114.450281, 38.085189], [114.45024, 38.084031], [114.449954, 38.08231], [114.449627, 38.081924]]]]}, "properties": {"display_name": "西三庄街道, 新华区, 石家庄市, 河北省, 中国", "type": "administrative", "osm_type": "relation", "osm_id": 7640782, "class": null, "keyword": "subdistrict"}}, {"type": "Feature", "geometry": {"type": "Polygon", "coordinates": [[[114.439753, 38.096405], [114.441402, 38.096355], [114.441458, 38.096045], [114.441474, 38.09426], [114.442434, 38.094276], [114.442448, 38.092894], [114.443395, 38.092844], [114.44409, 38.092877], [114.44409, 38.093874], [114.443599, 38.093938], [114.443599, 38.094308], [114.443088, 38.09434], [114.443088, 38.094678], [114.444192, 38.094662], [114.444914, 38.094678], [114.445296, 38.094344], [114.448135, 38.091912], [114.449852, 38.090497], [114.451834, 38.089113], [114.455022, 38.087441], [114.458128, 38.086074], [114.460364, 38.085284], [114.465718, 38.084657], [114.471909, 38.083901], [114.487441, 38.082042], [114.488475, 38.089976], [114.488697, 38.091353], [114.488568, 38.096217], [114.489059, 38.104022], [114.485693, 38.101874], [114.484258, 38.101704], [114.476554, 38.102357], [114.476864, 38.105319], [114.477251, 38.107832], [114.479374, 38.107652], [114.479585, 38.109276], [114.468047, 38.108614], [114.465926, 38.108536], [114.460692, 38.108102], [114.455459, 38.108182], [114.451969, 38.107975], [114.450073, 38.107998], [114.449779, 38.107036], [114.448997, 38.106729], [114.444668, 38.107056], [114.444699, 38.10404], [114.442839, 38.102809], [114.442818, 38.100464], [114.440176, 38.100347], [114.440112, 38.099416], [114.442268, 38.097386], [114.439816, 38.09727], [114.439753, 38.096405]]]}, "properties": {"display_name": "赵陵铺路街道, 新华区, 石家庄市, 河北省, 中国", "type": "administrative", "osm_type": "relation", "osm_id": 7640769, "class": null, "keyword": "subdistrict"}}, {"type": "Feature", "geometry": {"type": "Polygon", "coordinates": [[[114.389343, 38.023908], [114.391719, 38.021988], [114.395358, 38.020251], [114.398306, 38.019636], [114.403268, 38.020736], [114.405778, 38.013647], [114.411272, 38.013908], [114.413072, 38.011258], [114.419918, 38.011605], [114.421624, 38.010508], [114.42247, 38.004681], [114.418803, 38.003011], [114.42433, 37.99439], [114.425011, 37.993714], [114.43819, 38.002097], [114.439156, 38.0029], [114.43964, 38.003393], [114.453186, 38.018931], [114.453214, 38.024045], [114.453221, 38.026986], [114.446221, 38.026986], [114.437786, 38.026985], [114.437782, 38.02118], [114.434679, 38.021399], [114.431614, 38.021196], [114.430901, 38.021191], [114.422147, 38.020594], [114.422121, 38.023556], [114.413348, 38.023507], [114.394008, 38.023397], [114.392469, 38.023388], [114.389343, 38.023908]]]}, "properties": {"display_name": "振头街道, 桥西区, 石家庄市, 河北省, 中国", "type": "administrative", "osm_type": "relation", "osm_id": 9818262, "class": null, "keyword": "subdistrict"}}, {"type": "Feature", "geometry": {"type": "Polygon", "coordinates": [[[114.370659, 38.072664], [114.370767, 38.071865], [114.375064, 38.062711], [114.375437, 38.061837], [114.385141, 38.060581], [114.391386, 38.059825], [114.392302, 38.059638], [114.393226, 38.059409], [114.395058, 38.058889], [114.398705, 38.057689], [114.401972, 38.056649], [114.402483, 38.056455], [114.402853, 38.056268], [114.404165, 38.055241], [114.406702, 38.053417], [114.407908, 38.052585], [114.408604, 38.052349], [114.415283, 38.050795], [114.418331, 38.050178], [114.421168, 38.049685], [114.421106, 38.047063], [114.422278, 38.047049], [114.422313, 38.046043], [114.423916, 38.046126], [114.423907, 38.04648], [114.426877, 38.046612], [114.426744, 38.048617], [114.428066, 38.048409], [114.428551, 38.048374], [114.42971, 38.048347], [114.429382, 38.049115], [114.428862, 38.050653], [114.428677, 38.051243], [114.428558, 38.051775], [114.428467, 38.052307], [114.428435, 38.05294], [114.428455, 38.05359], [114.428585, 38.054543], [114.42905, 38.056697], [114.43028, 38.0623], [114.430373, 38.062796], [114.430431, 38.063099], [114.42944, 38.063627], [114.429172, 38.06376], [114.428134, 38.064287], [114.427084, 38.06482], [114.426444, 38.065142], [114.427025, 38.06717], [114.424094, 38.066216], [114.421615, 38.066507], [114.421342, 38.064764], [114.397067, 38.069197], [114.388052, 38.070626], [114.380441, 38.072044], [114.370659, 38.072664]]]}, "properties": {"display_name": "留营街道, 桥西区, 石家庄市, 河北省, 中国", "type": "administrative", "osm_type": "relation", "osm_id": 9818253, "class": null, "keyword": "subdistrict"}}, {"type": "Feature", "geometry": {"type": "Polygon", "coordinates": [[[114.468846, 37.97581], [114.47236, 37.976138], [114.475522, 37.975726], [114.475945, 37.976452], [114.47864, 37.976658], [114.479632, 37.975166], [114.484238, 37.973202], [114.483913, 37.975314], [114.491207, 37.976224], [114.488141, 37.991198], [114.487936, 37.993047], [114.487558, 37.994558], [114.486823, 37.998786], [114.486336, 38.001588], [114.486927, 38.00178], [114.487752, 38.002048], [114.487872, 38.002165], [114.502628, 38.016664], [114.50215, 38.016898], [114.498724, 38.017745], [114.498398, 38.01787], [114.49809, 38.018057], [114.497764, 38.018335], [114.496857, 38.019327], [114.496276, 38.01932], [114.496285, 38.01871], [114.490897, 38.01864], [114.490923, 38.018079], [114.488502, 38.018037], [114.488431, 38.018599], [114.486996, 38.018481], [114.48697, 38.020201], [114.482418, 38.020049], [114.481872, 38.020069], [114.480493, 38.020683], [114.476536, 38.003462], [114.468846, 37.97581]]]}, "properties": {"display_name": "汇通街道, 桥西区, 石家庄市, 河北省, 中国", "type": "administrative", "osm_type": "relation", "osm_id": 9818252, "class": null, "keyword": "subdistrict"}}, {"type": "Feature", "geometry": {"type": "Polygon", "coordinates": [[[114.549099, 38.015481], [114.549153, 38.013012], [114.549293, 38.010332], [114.549499, 38.003287], [114.55192, 38.003359], [114.551996, 38.001777], [114.550458, 38.001757], [114.550492, 37.999627], [114.549694, 37.999576], [114.549937, 37.993367], [114.553165, 37.993604], [114.553256, 37.992726], [114.553626, 37.989039], [114.572145, 37.990448], [114.57248, 37.990413], [114.572803, 37.990438], [114.577251, 37.990781], [114.577171, 37.993465], [114.577163, 37.994166], [114.577215, 37.995456], [114.577303, 37.996518], [114.577427, 37.997857], [114.577664, 37.999689], [114.577849, 38.000868], [114.578105, 38.00211], [114.578624, 38.004393], [114.579152, 38.006453], [114.580931, 38.013494], [114.580697, 38.013496], [114.58045, 38.013498], [114.578078, 38.013515], [114.578008, 38.016234], [114.575295, 38.016161], [114.575354, 38.014677], [114.572002, 38.014664], [114.57189, 38.01594], [114.568628, 38.015845], [114.561004, 38.01571], [114.553067, 38.015535], [114.549099, 38.015481]]]}, "properties": {"display_name": "裕强街道, 裕华区, 石家庄市, 河北省, 050031, 中国", "type": "administrative", "osm_type": "relation", "osm_id": 9817980, "class": null, "keyword": "subdistrict"}}, {"type": "Feature", "geometry": {"type": "Polygon", "coordinates": [[[114.389343, 38.023908], [114.392469, 38.023388], [114.394008, 38.023397], [114.413348, 38.023507], [114.413253, 38.025875], [114.414398, 38.025951], [114.41438, 38.026992], [114.414891, 38.027034], [114.414882, 38.028359], [114.413182, 38.02838], [114.413173, 38.028671], [114.41327, 38.02874], [114.413191, 38.030059], [114.412997, 38.030059], [114.413015, 38.031092], [114.412002, 38.031085], [114.41194, 38.033513], [114.431309, 38.033805], [114.43106, 38.036781], [114.430003, 38.046999], [114.429906, 38.047595], [114.42971, 38.048347], [114.428551, 38.048374], [114.428066, 38.048409], [114.426744, 38.048617], [114.426877, 38.046612], [114.423907, 38.04648], [114.423916, 38.046126], [114.422313, 38.046043], [114.422278, 38.047049], [114.421106, 38.047063], [114.421168, 38.049685], [114.418331, 38.050178], [114.415283, 38.050795], [114.408604, 38.052349], [114.407908, 38.052585], [114.407856, 38.048098], [114.407759, 38.046093], [114.407715, 38.044567], [114.405028, 38.044463], [114.405354, 38.039442], [114.397146, 38.039213], [114.395305, 38.039108], [114.392531, 38.038894], [114.392046, 38.038762], [114.391186, 38.038395], [114.392279, 38.033832], [114.389532, 38.027191], [114.389343, 38.023908]]]}, "properties": {"display_name": "苑东街道, 桥西区, 石家庄市, 河北省, 中国", "type": "administrative", "osm_type": "relation", "osm_id": 9818261, "class": null, "keyword": "subdistrict"}}, {"type": "Feature", "geometry": {"type": "Polygon", "coordinates": [[[114.505696, 38.072202], [114.506405, 38.072156], [114.510192, 38.071821], [114.515358, 38.071393], [114.517302, 38.071212], [114.525165, 38.070567], [114.525661, 38.068912], [114.525854, 38.067696], [114.525933, 38.066481], [114.526632, 38.066448], [114.535354, 38.065845], [114.534945, 38.060013], [114.534818, 38.058562], [114.537596, 38.058652], [114.539451, 38.058722], [114.539517, 38.058721], [114.53961, 38.05872], [114.540438, 38.05871], [114.541321, 38.058374], [114.544119, 38.058464], [114.555728, 38.058725], [114.555525, 38.064148], [114.557977, 38.063646], [114.572566, 38.060712], [114.573869, 38.060424], [114.576948, 38.059781], [114.577028, 38.060878], [114.576899, 38.063464], [114.576813, 38.065153], [114.572941, 38.066536], [114.558853, 38.071061], [114.551525, 38.073313], [114.549713, 38.073866], [114.544461, 38.074801], [114.530781, 38.076777], [114.530615, 38.076404], [114.525329, 38.07707], [114.523048, 38.077331], [114.513194, 38.078712], [114.511563, 38.078729], [114.508733, 38.079063], [114.508196, 38.078112], [114.505953, 38.074142], [114.505773, 38.073824], [114.505696, 38.072202]]]}, "properties": {"display_name": "长丰街道, 长安区, 石家庄市, 河北省, 中国", "type": "administrative", "osm_type": "relation", "osm_id": 9818650, "class": null, "keyword": "subdistrict"}}, {"type": "Feature", "geometry": {"type": "Polygon", "coordinates": [[[114.551892, 38.049202], [114.552024, 38.045879], [114.552085, 38.043111], [114.556243, 38.043176], [114.556472, 38.036008], [114.57102, 38.036313], [114.58536, 38.036614], [114.585294, 38.058011], [114.582882, 38.058539], [114.580576, 38.059022], [114.580545, 38.062605], [114.580952, 38.06296], [114.580823, 38.063602], [114.576813, 38.065153], [114.576899, 38.063464], [114.577028, 38.060878], [114.576948, 38.059781], [114.573869, 38.060424], [114.572566, 38.060712], [114.572418, 38.054287], [114.562093, 38.0541], [114.555873, 38.053912], [114.556076, 38.049264], [114.551892, 38.049202]]]}, "properties": {"display_name": "谈固街道, 长安区, 石家庄市, 河北省, 中国", "type": "administrative", "osm_type": "relation", "osm_id": 9818660, "class": null, "keyword": "subdistrict"}}, {"type": "Feature", "geometry": {"type": "Polygon", "coordinates": [[[114.546572, 38.020406], [114.546584, 38.01864], [114.548987, 38.01864], [114.549099, 38.015481], [114.553067, 38.015535], [114.561004, 38.01571], [114.568628, 38.015845], [114.57189, 38.01594], [114.572002, 38.014664], [114.575354, 38.014677], [114.575295, 38.016161], [114.578008, 38.016234], [114.578078, 38.013515], [114.58045, 38.013498], [114.580697, 38.013496], [114.580931, 38.013494], [114.581979, 38.017767], [114.582973, 38.021755], [114.58381, 38.025092], [114.584092, 38.026375], [114.584338, 38.027651], [114.584629, 38.029322], [114.585007, 38.031687], [114.585263, 38.034419], [114.58536, 38.036614], [114.57102, 38.036313], [114.571094, 38.034799], [114.564654, 38.03481], [114.564649, 38.035459], [114.563052, 38.035453], [114.563084, 38.032299], [114.563707, 38.032321], [114.563826, 38.027267], [114.556782, 38.027179], [114.556728, 38.028726], [114.550637, 38.028576], [114.548649, 38.02854], [114.54876, 38.024924], [114.548818, 38.023014], [114.548845, 38.022132], [114.548879, 38.021222], [114.547712, 38.021199], [114.547745, 38.020442], [114.546572, 38.020406]]]}, "properties": {"display_name": "裕东街道, 裕华区, 石家庄市, 河北省, 中国", "type": "administrative", "osm_type": "relation", "osm_id": 9817978, "class": null, "keyword": "subdistrict"}}, {"type": "Feature", "geometry": {"type": "Polygon", "coordinates": [[[114.486336, 38.001588], [114.486823, 37.998786], [114.487558, 37.994558], [114.487936, 37.993047], [114.488141, 37.991198], [114.494914, 37.991805], [114.4956, 37.991853], [114.502741, 37.991985], [114.502679, 37.992533], [114.502221, 37.992998], [114.501843, 37.993359], [114.501578, 37.993837], [114.501314, 37.994504], [114.501006, 37.994705], [114.500945, 37.997022], [114.501174, 37.997022], [114.501578, 37.996974], [114.5026, 37.996953], [114.502697, 37.994823], [114.503516, 37.99483], [114.503524, 37.992054], [114.505408, 37.992075], [114.50628, 37.992255], [114.506667, 37.992269], [114.507469, 37.992276], [114.506877, 38.000604], [114.523531, 38.00087], [114.523362, 38.008331], [114.523661, 38.008987], [114.523079, 38.009142], [114.522341, 38.009339], [114.517659, 38.011536], [114.50713, 38.015525], [114.503911, 38.016413], [114.503101, 38.016538], [114.502628, 38.016664], [114.487872, 38.002165], [114.487752, 38.002048], [114.486927, 38.00178], [114.486336, 38.001588]]]}, "properties": {"display_name": "建通街道, 裕华区, 石家庄市, 河北省, 中国", "type": "administrative", "osm_type": "relation", "osm_id": 9817975, "class": null, "keyword": "subdistrict"}}, {"type": "Feature", "geometry": {"type": "Polygon", "coordinates": [[[114.514502, 38.024656], [114.515424, 38.02471], [114.51562, 38.021393], [114.51638, 38.021099], [114.516439, 38.019543], [114.517402, 38.019567], [114.517555, 38.014785], [114.517659, 38.011536], [114.522341, 38.009339], [114.523079, 38.009142], [114.523661, 38.008987], [114.525084, 38.010445], [114.527648, 38.012742], [114.527689, 38.013201], [114.527624, 38.014991], [114.527656, 38.014992], [114.527774, 38.014994], [114.539844, 38.015272], [114.539783, 38.017035], [114.540924, 38.017047], [114.540978, 38.015305], [114.547722, 38.015451], [114.549099, 38.015481], [114.548987, 38.01864], [114.546584, 38.01864], [114.546572, 38.020406], [114.547745, 38.020442], [114.547712, 38.021199], [114.548879, 38.021222], [114.548845, 38.022132], [114.548818, 38.023014], [114.54876, 38.024924], [114.548649, 38.02854], [114.534776, 38.028255], [114.518116, 38.027911], [114.517135, 38.027893], [114.515603, 38.027856], [114.515655, 38.026295], [114.51453, 38.026309], [114.514502, 38.024656]]]}, "properties": {"display_name": "槐底街道, 裕华区, 石家庄市, 河北省, 中国", "type": "administrative", "osm_type": "relation", "osm_id": 9817973, "class": null, "keyword": "subdistrict"}}, {"type": "Feature", "geometry": {"type": "Polygon", "coordinates": [[[114.487441, 38.082042], [114.495941, 38.080931], [114.493826, 38.07522], [114.492711, 38.07203], [114.492182, 38.071932], [114.49161, 38.069404], [114.494091, 38.06936], [114.49751, 38.069377], [114.501087, 38.068847], [114.501568, 38.068768], [114.505703, 38.068403], [114.505696, 38.072202], [114.505773, 38.073824], [114.505953, 38.074142], [114.508196, 38.078112], [114.508733, 38.079063], [114.511563, 38.078729], [114.513194, 38.078712], [114.513464, 38.079701], [114.513431, 38.080901], [114.517449, 38.081183], [114.518312, 38.081126], [114.518041, 38.083736], [114.517148, 38.083623], [114.517234, 38.082736], [114.516039, 38.082539], [114.516103, 38.083772], [114.511923, 38.083861], [114.511729, 38.081132], [114.510016, 38.081313], [114.511264, 38.08364], [114.50967, 38.083795], [114.510218, 38.086382], [114.50926, 38.086598], [114.502801, 38.087428], [114.502391, 38.08735], [114.502315, 38.088023], [114.509285, 38.087909], [114.50927, 38.087712], [114.513537, 38.087581], [114.515491, 38.087617], [114.515491, 38.087212], [114.517753, 38.087219], [114.517969, 38.086526], [114.517667, 38.086542], [114.517775, 38.086222], [114.51952, 38.086194], [114.519541, 38.086802], [114.523751, 38.086798], [114.522373, 38.088831], [114.52289, 38.089078], [114.522545, 38.089651], [114.520951, 38.092113], [114.519885, 38.092988], [114.5187, 38.093433], [114.516999, 38.093567], [114.516083, 38.09194], [114.515306, 38.091971], [114.515306, 38.092976], [114.512818, 38.092909], [114.512818, 38.092006], [114.509371, 38.092004], [114.503725, 38.092055], [114.503618, 38.089548], [114.502314, 38.089544], [114.502315, 38.088099], [114.502268, 38.088044], [114.502345, 38.087359], [114.500785, 38.087659], [114.500559, 38.087624], [114.499816, 38.086228], [114.498685, 38.084713], [114.498082, 38.083259], [114.497511, 38.083367], [114.49653, 38.081254], [114.495916, 38.081336], [114.497833, 38.086053], [114.494008, 38.086498], [114.494288, 38.087866], [114.496099, 38.087627], [114.497024, 38.090156], [114.494093, 38.090568], [114.488697, 38.091353], [114.488475, 38.089976], [114.487441, 38.082042]]]}, "properties": {"display_name": "胜利北街道, 长安区, 石家庄市, 河北省, 050043, 中国", "type": "administrative", "osm_type": "relation", "osm_id": 9818659, "class": null, "keyword": "subdistrict"}}, {"type": "Feature", "geometry": {"type": "Polygon", "coordinates": [[[114.516874, 38.035202], [114.517135, 38.027893], [114.518116, 38.027911], [114.534776, 38.028255], [114.548649, 38.02854], [114.550637, 38.028576], [114.556728, 38.028726], [114.556782, 38.027179], [114.563826, 38.027267], [114.563707, 38.032321], [114.563084, 38.032299], [114.563052, 38.035453], [114.564649, 38.035459], [114.564654, 38.03481], [114.571094, 38.034799], [114.57102, 38.036313], [114.556472, 38.036008], [114.538992, 38.035641], [114.538979, 38.036279], [114.537771, 38.036279], [114.537679, 38.037579], [114.534183, 38.037528], [114.5342, 38.035541], [114.532615, 38.035508], [114.532495, 38.036577], [114.532292, 38.036729], [114.532283, 38.037587], [114.531563, 38.037601], [114.531618, 38.038945], [114.528408, 38.038865], [114.528427, 38.038139], [114.526909, 38.038088], [114.526999, 38.035391], [114.518318, 38.035229], [114.516874, 38.035202]]]}, "properties": {"display_name": "东苑街道, 裕华区, 石家庄市, 河北省, 中国", "type": "administrative", "osm_type": "relation", "osm_id": 9817971, "class": null, "keyword": "subdistrict"}}, {"type": "Feature", "geometry": {"type": "Polygon", "coordinates": [[[114.534044, 38.048716], [114.539902, 38.048883], [114.540016, 38.045636], [114.542522, 38.045687], [114.552024, 38.045879], [114.551892, 38.049202], [114.556076, 38.049264], [114.555873, 38.053912], [114.562093, 38.0541], [114.572418, 38.054287], [114.572566, 38.060712], [114.557977, 38.063646], [114.555525, 38.064148], [114.555728, 38.058725], [114.544119, 38.058464], [114.541321, 38.058374], [114.540438, 38.05871], [114.53961, 38.05872], [114.539517, 38.058721], [114.539451, 38.058722], [114.537596, 38.058652], [114.534818, 38.058562], [114.534423, 38.055369], [114.534441, 38.053975], [114.534044, 38.048716]]]}, "properties": {"display_name": "跃进街道, 长安区, 石家庄市, 河北省, 中国", "type": "administrative", "osm_type": "relation", "osm_id": 9818664, "class": null, "keyword": "subdistrict"}}, {"type": "Feature", "geometry": {"type": "Polygon", "coordinates": [[[114.41194, 38.033513], [114.412002, 38.031085], [114.413015, 38.031092], [114.412997, 38.030059], [114.413191, 38.030059], [114.41327, 38.02874], [114.413173, 38.028671], [114.413182, 38.02838], [114.414882, 38.028359], [114.414891, 38.027034], [114.41438, 38.026992], [114.414398, 38.025951], [114.413253, 38.025875], [114.413348, 38.023507], [114.422121, 38.023556], [114.422147, 38.020594], [114.430901, 38.021191], [114.431614, 38.021196], [114.434679, 38.021399], [114.437782, 38.02118], [114.437786, 38.026985], [114.446221, 38.026986], [114.44591, 38.034061], [114.439735, 38.033943], [114.439718, 38.035976], [114.43771, 38.035879], [114.437639, 38.036912], [114.433288, 38.036711], [114.433262, 38.036906], [114.43106, 38.036781], [114.431309, 38.033805], [114.41194, 38.033513]]]}, "properties": {"display_name": "西里街道, 桥西区, 石家庄市, 河北省, 中国", "type": "administrative", "osm_type": "relation", "osm_id": 9818257, "class": null, "keyword": "subdistrict"}}, {"type": "Feature", "geometry": {"type": "Polygon", "coordinates": [[[114.523362, 38.008331], [114.523531, 38.00087], [114.549654, 38.001537], [114.549694, 37.999576], [114.550492, 37.999627], [114.550458, 38.001757], [114.551996, 38.001777], [114.55192, 38.003359], [114.549499, 38.003287], [114.549293, 38.010332], [114.549153, 38.013012], [114.549099, 38.015481], [114.547722, 38.015451], [114.540978, 38.015305], [114.540924, 38.017047], [114.539783, 38.017035], [114.539844, 38.015272], [114.527774, 38.014994], [114.527656, 38.014992], [114.527624, 38.014991], [114.527689, 38.013201], [114.527648, 38.012742], [114.525084, 38.010445], [114.523661, 38.008987], [114.523362, 38.008331]]]}, "properties": {"display_name": "裕兴街道, 裕华区, 石家庄市, 河北省, 中国", "type": "administrative", "osm_type": "relation", "osm_id": 9817982, "class": null, "keyword": "subdistrict"}}, {"type": "Feature", "geometry": {"type": "Polygon", "coordinates": [[[114.505696, 38.072202], [114.505703, 38.068403], [114.505755, 38.054029], [114.505755, 38.05397], [114.505749, 38.050064], [114.516359, 38.050154], [114.516218, 38.053081], [114.51502, 38.053081], [114.514809, 38.058138], [114.526224, 38.058308], [114.525933, 38.066481], [114.525854, 38.067696], [114.525661, 38.068912], [114.525165, 38.070567], [114.517302, 38.071212], [114.515358, 38.071393], [114.510192, 38.071821], [114.506405, 38.072156], [114.505696, 38.072202]]]}, "properties": {"display_name": "建北街道, 长安区, 石家庄市, 河北省, 中国", "type": "administrative", "osm_type": "relation", "osm_id": 9818656, "class": null, "keyword": "subdistrict"}}, {"type": "Feature", "geometry": {"type": "Polygon", "coordinates": [[[114.439468, 38.074854], [114.448068, 38.074881], [114.44806, 38.072223], [114.449066, 38.072204], [114.457485, 38.071882], [114.457526, 38.069051], [114.45822, 38.069051], [114.458343, 38.068166], [114.459304, 38.068247], [114.459283, 38.069115], [114.459957, 38.069099], [114.460346, 38.068391], [114.461102, 38.068375], [114.461224, 38.067893], [114.464575, 38.068407], [114.464641, 38.067109], [114.47199, 38.069027], [114.47242, 38.071548], [114.471909, 38.083901], [114.465718, 38.084657], [114.460364, 38.085284], [114.460303, 38.085107], [114.457054, 38.085107], [114.457033, 38.081585], [114.458198, 38.081521], [114.458157, 38.080781], [114.456915, 38.080765], [114.456809, 38.078416], [114.455948, 38.078429], [114.453857, 38.078458], [114.448196, 38.078538], [114.441994, 38.078625], [114.441953, 38.077918], [114.44177, 38.077532], [114.439583, 38.07618], [114.439468, 38.074854]]]}, "properties": {"display_name": "联盟路街道, 新华区, 石家庄市, 河北省, 中国", "type": "administrative", "osm_type": "relation", "osm_id": 7640589, "class": null, "keyword": "subdistrict"}}, {"type": "Feature", "geometry": {"type": "Polygon", "coordinates": [[[114.42971, 38.048347], [114.429906, 38.047595], [114.430003, 38.046999], [114.43106, 38.036781], [114.433262, 38.036906], [114.433288, 38.036711], [114.437639, 38.036912], [114.43771, 38.035879], [114.439718, 38.035976], [114.439735, 38.033943], [114.44591, 38.034061], [114.446221, 38.026986], [114.453221, 38.026986], [114.453258, 38.034172], [114.455578, 38.034231], [114.455473, 38.037415], [114.455393, 38.037803], [114.455129, 38.038164], [114.453315, 38.040585], [114.451369, 38.042367], [114.448445, 38.044843], [114.44671, 38.046674], [114.445866, 38.047747], [114.43348, 38.048187], [114.43041, 38.048315], [114.42971, 38.048347]]]}, "properties": {"display_name": "友谊街道, 桥西区, 石家庄市, 河北省, 中国", "type": "administrative", "osm_type": "relation", "osm_id": 9818260, "class": null, "keyword": "subdistrict"}}, {"type": "Feature", "geometry": {"type": "Polygon", "coordinates": [[[114.471909, 38.083901], [114.47242, 38.071548], [114.47199, 38.069027], [114.49161, 38.069404], [114.492182, 38.071932], [114.492711, 38.07203], [114.493826, 38.07522], [114.495941, 38.080931], [114.487441, 38.082042], [114.471909, 38.083901]]]}, "properties": {"display_name": "石岗大街街道, 新华区, 石家庄市, 河北省, 中国", "type": "administrative", "osm_type": "relation", "osm_id": 7640613, "class": null, "keyword": "subdistrict"}}, {"type": "Feature", "geometry": {"type": "Polygon", "coordinates": [[[114.521678, 38.0532], [114.52204, 38.042494], [114.526762, 38.042514], [114.526909, 38.038088], [114.528427, 38.038139], [114.528408, 38.038865], [114.531618, 38.038945], [114.531563, 38.037601], [114.532283, 38.037587], [114.532292, 38.036729], [114.532495, 38.036577], [114.532615, 38.035508], [114.5342, 38.035541], [114.534183, 38.037528], [114.534051, 38.042777], [114.533943, 38.047038], [114.534044, 38.048716], [114.534441, 38.053975], [114.534423, 38.055369], [114.534818, 38.058562], [114.534945, 38.060013], [114.535354, 38.065845], [114.526632, 38.066448], [114.525933, 38.066481], [114.526224, 38.058308], [114.526401, 38.05333], [114.521678, 38.0532]]]}, "properties": {"display_name": "育才街道, 长安区, 石家庄市, 河北省, 中国", "type": "administrative", "osm_type": "relation", "osm_id": 9818663, "class": null, "keyword": "subdistrict"}}, {"type": "Feature", "geometry": {"type": "Polygon", "coordinates": [[[114.471136, 38.034624], [114.471186, 38.023963], [114.471217, 38.011863], [114.471279, 38.003656], [114.472873, 38.003684], [114.473154, 38.003681], [114.473756, 38.003674], [114.474106, 38.00367], [114.475013, 38.003621], [114.476536, 38.003462], [114.480493, 38.020683], [114.483037, 38.03293], [114.48367, 38.034973], [114.48079, 38.034763], [114.479354, 38.034645], [114.478966, 38.034645], [114.471136, 38.034624]]]}, "properties": {"display_name": "南长街道, 桥西区, 石家庄市, 河北省, 中国", "type": "administrative", "osm_type": "relation", "osm_id": 9818254, "class": null, "keyword": "subdistrict"}}, {"type": "Feature", "geometry": {"type": "Polygon", "coordinates": [[[114.428435, 38.05294], [114.428467, 38.052307], [114.428558, 38.051775], [114.428677, 38.051243], [114.428862, 38.050653], [114.429382, 38.049115], [114.42971, 38.048347], [114.43041, 38.048315], [114.43348, 38.048187], [114.445866, 38.047747], [114.45028, 38.047587], [114.45053, 38.053353], [114.44686, 38.053349], [114.446767, 38.057853], [114.447026, 38.05903], [114.447376, 38.060178], [114.441877, 38.061076], [114.431671, 38.062757], [114.431621, 38.062768], [114.430431, 38.063099], [114.430373, 38.062796], [114.43028, 38.0623], [114.42905, 38.056697], [114.428585, 38.054543], [114.428455, 38.05359], [114.428435, 38.05294]]]}, "properties": {"display_name": "西苑街道, 新华区, 石家庄市, 河北省, 中国", "type": "administrative", "osm_type": "relation", "osm_id": 7640573, "class": null, "keyword": "subdistrict"}}, {"type": "Feature", "geometry": {"type": "Polygon", "coordinates": [[[114.480493, 38.020683], [114.481872, 38.020069], [114.482418, 38.020049], [114.48697, 38.020201], [114.486996, 38.018481], [114.488431, 38.018599], [114.488502, 38.018037], [114.490923, 38.018079], [114.490897, 38.01864], [114.496285, 38.01871], [114.496276, 38.01932], [114.496857, 38.019327], [114.498803, 38.019348], [114.498777, 38.020493], [114.498328, 38.020493], [114.498222, 38.020423], [114.49728, 38.02043], [114.497263, 38.020666], [114.496822, 38.020666], [114.496787, 38.021082], [114.496223, 38.021068], [114.496197, 38.022934], [114.497051, 38.022941], [114.497051, 38.023212], [114.497298, 38.023267], [114.497315, 38.024217], [114.49713, 38.02421], [114.497122, 38.025223], [114.49728, 38.025237], [114.49728, 38.025986], [114.496074, 38.025986], [114.496074, 38.026326], [114.497016, 38.026326], [114.497219, 38.026478], [114.497641, 38.026478], [114.497632, 38.026853], [114.497808, 38.026853], [114.497791, 38.027338], [114.498222, 38.027345], [114.498222, 38.02754], [114.500811, 38.02756], [114.500587, 38.031024], [114.50056, 38.031042], [114.50043, 38.031216], [114.497818, 38.03111], [114.497834, 38.031478], [114.497829, 38.032029], [114.497786, 38.032925], [114.49819, 38.032978], [114.498249, 38.033151], [114.498211, 38.033273], [114.497791, 38.033288], [114.497295, 38.033334], [114.497276, 38.03344], [114.497254, 38.033685], [114.497055, 38.03379], [114.497001, 38.034243], [114.496985, 38.034445], [114.496877, 38.034745], [114.49685, 38.03521], [114.495693, 38.035249], [114.490717, 38.035366], [114.489624, 38.03538], [114.488197, 38.035353], [114.486876, 38.035276], [114.48367, 38.034973], [114.483037, 38.03293], [114.480493, 38.020683]]]}, "properties": {"display_name": "彭后街道, 桥西区, 石家庄市, 河北省, 中国", "type": "administrative", "osm_type": "relation", "osm_id": 9818255, "class": null, "keyword": "subdistrict"}}, {"type": "Feature", "geometry": {"type": "Polygon", "coordinates": [[[114.446767, 38.057853], [114.44686, 38.053349], [114.45053, 38.053353], [114.457162, 38.053277], [114.460072, 38.052768], [114.461917, 38.058402], [114.461819, 38.058864], [114.462357, 38.061212], [114.462797, 38.061443], [114.462552, 38.066564], [114.464641, 38.067109], [114.464575, 38.068407], [114.461224, 38.067893], [114.461102, 38.068375], [114.460346, 38.068391], [114.459957, 38.069099], [114.459283, 38.069115], [114.459304, 38.068247], [114.458343, 38.068166], [114.45822, 38.069051], [114.457526, 38.069051], [114.457485, 38.071882], [114.449066, 38.072204], [114.449025, 38.07156], [114.448058, 38.07156], [114.44805, 38.069109], [114.448016, 38.064548], [114.447912, 38.063582], [114.447722, 38.062914], [114.447376, 38.060178], [114.447026, 38.05903], [114.446767, 38.057853]]]}, "properties": {"display_name": "合作路街道, 新华区, 石家庄市, 河北省, 中国", "type": "administrative", "osm_type": "relation", "osm_id": 7640588, "class": null, "keyword": "subdistrict"}}, {"type": "Feature", "geometry": {"type": "Polygon", "coordinates": [[[114.502628, 38.016664], [114.503101, 38.016538], [114.503911, 38.016413], [114.50713, 38.015525], [114.517659, 38.011536], [114.517555, 38.014785], [114.517402, 38.019567], [114.516439, 38.019543], [114.51638, 38.021099], [114.51562, 38.021393], [114.515424, 38.02471], [114.514502, 38.024656], [114.51453, 38.026309], [114.515655, 38.026295], [114.515603, 38.027856], [114.517135, 38.027893], [114.516874, 38.035202], [114.505821, 38.034959], [114.505874, 38.034079], [114.505883, 38.033921], [114.506209, 38.020221], [114.505471, 38.019499], [114.502628, 38.016664]]]}, "properties": {"display_name": "裕华路街道, 裕华区, 石家庄市, 河北省, 中国", "type": "administrative", "osm_type": "relation", "osm_id": 9817979, "class": null, "keyword": "subdistrict"}}, {"type": "Feature", "geometry": {"type": "Polygon", "coordinates": [[[114.453214, 38.024045], [114.455939, 38.024043], [114.460105, 38.024046], [114.459946, 38.018268], [114.464447, 38.018165], [114.464458, 38.017808], [114.466867, 38.017824], [114.467096, 38.024046], [114.471186, 38.023963], [114.471136, 38.034624], [114.455578, 38.034231], [114.453258, 38.034172], [114.453221, 38.026986], [114.453214, 38.024045]]]}, "properties": {"display_name": "东里街道, 桥西区, 石家庄市, 河北省, 中国", "type": "administrative", "osm_type": "relation", "osm_id": 9818250, "class": null, "keyword": "subdistrict"}}, {"type": "Feature", "geometry": {"type": "Polygon", "coordinates": [[[114.445866, 38.047747], [114.44671, 38.046674], [114.448445, 38.044843], [114.451369, 38.042367], [114.453315, 38.040585], [114.455129, 38.038164], [114.455393, 38.037803], [114.455473, 38.037415], [114.455578, 38.034231], [114.471136, 38.034624], [114.471218, 38.044124], [114.471177, 38.044773], [114.469866, 38.044759], [114.467334, 38.044732], [114.46512, 38.044708], [114.463217, 38.044688], [114.463238, 38.047117], [114.45028, 38.047587], [114.445866, 38.047747]]]}, "properties": {"display_name": "维明街道, 桥西区, 石家庄市, 河北省, 中国", "type": "administrative", "osm_type": "relation", "osm_id": 9818256, "class": null, "keyword": "subdistrict"}}, {"type": "Feature", "geometry": {"type": "Polygon", "coordinates": [[[114.533943, 38.047038], [114.534051, 38.042777], [114.534183, 38.037528], [114.537679, 38.037579], [114.537771, 38.036279], [114.538979, 38.036279], [114.538992, 38.035641], [114.556472, 38.036008], [114.556243, 38.043176], [114.552085, 38.043111], [114.552024, 38.045879], [114.542522, 38.045687], [114.540016, 38.045636], [114.539902, 38.048883], [114.534044, 38.048716], [114.533943, 38.047038]]]}, "properties": {"display_name": "河东街道, 长安区, 石家庄市, 河北省, 中国", "type": "administrative", "osm_type": "relation", "osm_id": 9818654, "class": null, "keyword": "subdistrict"}}, {"type": "Feature", "geometry": {"type": "Polygon", "coordinates": [[[114.485638, 38.042935], [114.48665, 38.042997], [114.487122, 38.043914], [114.487552, 38.045513], [114.495426, 38.04567], [114.495343, 38.047804], [114.494928, 38.058462], [114.501568, 38.068768], [114.501087, 38.068847], [114.49751, 38.069377], [114.494091, 38.06936], [114.49161, 38.069404], [114.489083, 38.058336], [114.48828, 38.053741], [114.486992, 38.046375], [114.485638, 38.042935]]]}, "properties": {"display_name": "阜康街道, 长安区, 石家庄市, 河北省, 中国", "type": "administrative", "osm_type": "relation", "osm_id": 9818651, "class": null, "keyword": "subdistrict"}}, {"type": "Feature", "geometry": {"type": "Polygon", "coordinates": [[[114.514809, 38.058138], [114.51502, 38.053081], [114.516218, 38.053081], [114.516359, 38.050154], [114.516623, 38.042321], [114.518139, 38.042314], [114.518318, 38.035229], [114.526999, 38.035391], [114.526909, 38.038088], [114.526762, 38.042514], [114.52204, 38.042494], [114.521678, 38.0532], [114.526401, 38.05333], [114.526224, 38.058308], [114.514809, 38.058138]]]}, "properties": {"display_name": "广安街道, 长安区, 石家庄市, 河北省, 050021, 中国", "type": "administrative", "osm_type": "relation", "osm_id": 9818653, "class": null, "keyword": "subdistrict"}}, {"type": "Feature", "geometry": {"type": "Polygon", "coordinates": [[[114.459472, 38.050932], [114.467833, 38.050123], [114.471207, 38.050123], [114.472821, 38.056669], [114.471207, 38.056977], [114.471211, 38.057112], [114.47129, 38.060286], [114.471354, 38.062829], [114.47199, 38.062829], [114.472, 38.063755], [114.472618, 38.063747], [114.472638, 38.064548], [114.472488, 38.064535], [114.472501, 38.06528], [114.471389, 38.065293], [114.47199, 38.069027], [114.464641, 38.067109], [114.462552, 38.066564], [114.462797, 38.061443], [114.462357, 38.061212], [114.461819, 38.058864], [114.461917, 38.058402], [114.460072, 38.052768], [114.459472, 38.050932]]]}, "properties": {"display_name": "东焦街道, 新华区, 石家庄市, 河北省, 中国", "type": "administrative", "osm_type": "relation", "osm_id": 7640452, "class": null, "keyword": "subdistrict"}}, {"type": "Feature", "geometry": {"type": "Polygon", "coordinates": [[[114.494928, 38.058462], [114.495343, 38.047804], [114.498972, 38.04779], [114.498937, 38.04992], [114.502012, 38.049955], [114.501994, 38.050225], [114.50269, 38.050239], [114.502708, 38.050447], [114.503104, 38.050461], [114.503087, 38.05026], [114.503395, 38.05026], [114.503404, 38.050093], [114.505749, 38.050064], [114.505755, 38.05397], [114.505755, 38.054029], [114.505703, 38.068403], [114.501568, 38.068768], [114.494928, 38.058462]]]}, "properties": {"display_name": "建安街道, 长安区, 石家庄市, 河北省, 中国", "type": "administrative", "osm_type": "relation", "osm_id": 9818655, "class": null, "keyword": "subdistrict"}}, {"type": "Feature", "geometry": {"type": "Polygon", "coordinates": [[[114.505749, 38.050064], [114.505775, 38.04401], [114.50578, 38.042947], [114.505823, 38.037863], [114.505821, 38.034959], [114.516874, 38.035202], [114.518318, 38.035229], [114.518139, 38.042314], [114.516623, 38.042321], [114.516359, 38.050154], [114.505749, 38.050064]]]}, "properties": {"display_name": "青园街道, 长安区, 石家庄市, 河北省, 050000, 中国", "type": "administrative", "osm_type": "relation", "osm_id": 9818658, "class": null, "keyword": "subdistrict"}}, {"type": "Feature", "geometry": {"type": "Polygon", "coordinates": [[[114.430431, 38.063099], [114.431621, 38.062768], [114.431671, 38.062757], [114.441877, 38.061076], [114.447376, 38.060178], [114.447722, 38.062914], [114.447324, 38.062955], [114.447341, 38.063568], [114.447912, 38.063582], [114.448016, 38.064548], [114.446235, 38.064562], [114.446148, 38.065705], [114.445612, 38.065746], [114.445595, 38.066699], [114.444505, 38.066699], [114.444488, 38.066862], [114.443312, 38.066822], [114.44326, 38.065923], [114.442344, 38.065923], [114.442309, 38.065664], [114.442828, 38.06561], [114.442759, 38.064181], [114.4416, 38.064085], [114.4416, 38.066767], [114.439422, 38.06674], [114.439439, 38.067285], [114.440753, 38.067298], [114.440788, 38.06983], [114.445266, 38.069871], [114.445266, 38.069054], [114.44805, 38.069109], [114.448058, 38.07156], [114.44806, 38.072223], [114.448068, 38.074881], [114.439468, 38.074854], [114.439436, 38.072616], [114.439415, 38.071113], [114.439408, 38.070615], [114.436698, 38.070639], [114.436715, 38.071847], [114.433992, 38.07187], [114.433905, 38.070647], [114.430706, 38.07062], [114.430724, 38.0664], [114.430431, 38.063099]]]}, "properties": {"display_name": "北苑街道, 新华区, 石家庄市, 河北省, 中国", "type": "administrative", "osm_type": "relation", "osm_id": 7640451, "class": null, "keyword": "subdistrict"}}, {"type": "Feature", "geometry": {"type": "MultiPolygon", "coordinates": [[[[114.430828, 38.092458], [114.43377, 38.092555], [114.436284, 38.092748], [114.437346, 38.092909], [114.439329, 38.092893], [114.439451, 38.093198], [114.44033, 38.093214], [114.441372, 38.093198], [114.441413, 38.092217], [114.442455, 38.092185], [114.442448, 38.092894], [114.442434, 38.094276], [114.441474, 38.09426], [114.441458, 38.096045], [114.439226, 38.096125], [114.439226, 38.094388], [114.437265, 38.09442], [114.437244, 38.096511], [114.43516, 38.096511], [114.435181, 38.094501], [114.433587, 38.09434], [114.433505, 38.094678], [114.433832, 38.094662], [114.433811, 38.095514], [114.432831, 38.095546], [114.432831, 38.096929], [114.432034, 38.096961], [114.432013, 38.097283], [114.430828, 38.097299], [114.430828, 38.092458]]], [[[114.438327, 38.090834], [114.438348, 38.087441], [114.440187, 38.0872], [114.440166, 38.086379], [114.442291, 38.086283], [114.442353, 38.086798], [114.443313, 38.086749], [114.443374, 38.086122], [114.444478, 38.086106], [114.444437, 38.085286], [114.446399, 38.085109], [114.446419, 38.083307], [114.448135, 38.083291], [114.448196, 38.078538], [114.453857, 38.078458], [114.453775, 38.080203], [114.452427, 38.08075], [114.449709, 38.08083], [114.449627, 38.081924], [114.449954, 38.08231], [114.45024, 38.084031], [114.450281, 38.085189], [114.45259, 38.085157], [114.452713, 38.083677], [114.455001, 38.083629], [114.455103, 38.085109], [114.457054, 38.085107], [114.460303, 38.085107], [114.460364, 38.085284], [114.458128, 38.086074], [114.455022, 38.087441], [114.451834, 38.089113], [114.449852, 38.090497], [114.448135, 38.091912], [114.448074, 38.091043], [114.445254, 38.091043], [114.445296, 38.094344], [114.444914, 38.094678], [114.444192, 38.094662], [114.443088, 38.094678], [114.443088, 38.09434], [114.443599, 38.094308], [114.443599, 38.093938], [114.44409, 38.093874], [114.44409, 38.092877], [114.443395, 38.092844], [114.443293, 38.090963], [114.442394, 38.090931], [114.442373, 38.089982], [114.440718, 38.08995], [114.440718, 38.090834], [114.438327, 38.090834]]], [[[114.455068, 38.079698], [114.455956, 38.079695], [114.455948, 38.078429], [114.456809, 38.078416], [114.456915, 38.080765], [114.456917, 38.081084], [114.455077, 38.081091], [114.455068, 38.079698]]]]}, "properties": {"display_name": "天苑街道, 新华区, 石家庄市, 河北省, 中国", "type": "administrative", "osm_type": "relation", "osm_id": 7640626, "class": null, "keyword": "subdistrict"}}, {"type": "Feature", "geometry": {"type": "Polygon", "coordinates": [[[114.471177, 38.044773], [114.471218, 38.044124], [114.473583, 38.044123], [114.478138, 38.044204], [114.478089, 38.042649], [114.485638, 38.042935], [114.486992, 38.046375], [114.48828, 38.053741], [114.487149, 38.053798], [114.479633, 38.055298], [114.479085, 38.054024], [114.478824, 38.050181], [114.474935, 38.050099], [114.471207, 38.050123], [114.471177, 38.044773]]]}, "properties": {"display_name": "新华路街道, 新华区, 石家庄市, 河北省, 中国", "type": "administrative", "osm_type": "relation", "osm_id": 7640549, "class": null, "keyword": "subdistrict"}}, {"type": "Feature", "geometry": {"type": "Polygon", "coordinates": [[[114.471136, 38.034624], [114.478966, 38.034645], [114.479354, 38.034645], [114.48079, 38.034763], [114.48367, 38.034973], [114.483902, 38.035725], [114.485638, 38.042935], [114.478089, 38.042649], [114.478138, 38.044204], [114.473583, 38.044123], [114.471218, 38.044124], [114.471136, 38.034624]]]}, "properties": {"display_name": "中山街道, 桥西区, 石家庄市, 河北省, 中国", "type": "administrative", "osm_type": "relation", "osm_id": 9818263, "class": null, "keyword": "subdistrict"}}, {"type": "Feature", "geometry": {"type": "Polygon", "coordinates": [[[114.496074, 38.025986], [114.49728, 38.025986], [114.49728, 38.025237], [114.497122, 38.025223], [114.49713, 38.02421], [114.497315, 38.024217], [114.497298, 38.023267], [114.497051, 38.023212], [114.497051, 38.022941], [114.496197, 38.022934], [114.496223, 38.021068], [114.496787, 38.021082], [114.496822, 38.020666], [114.497263, 38.020666], [114.49728, 38.02043], [114.498222, 38.020423], [114.498328, 38.020493], [114.498777, 38.020493], [114.498803, 38.019348], [114.496857, 38.019327], [114.497764, 38.018335], [114.49809, 38.018057], [114.498398, 38.01787], [114.498724, 38.017745], [114.50215, 38.016898], [114.502628, 38.016664], [114.505471, 38.019499], [114.506209, 38.020221], [114.505883, 38.033921], [114.50497, 38.033884], [114.50497, 38.033449], [114.504593, 38.033444], [114.504626, 38.032937], [114.50378, 38.032951], [114.503796, 38.032621], [114.503161, 38.032627], [114.503134, 38.032454], [114.501981, 38.032439], [114.501949, 38.031687], [114.501325, 38.031682], [114.501363, 38.031027], [114.500587, 38.031024], [114.500811, 38.02756], [114.498222, 38.02754], [114.498222, 38.027345], [114.497791, 38.027338], [114.497808, 38.026853], [114.497632, 38.026853], [114.497641, 38.026478], [114.497219, 38.026478], [114.497016, 38.026326], [114.496074, 38.026326], [114.496074, 38.025986]]]}, "properties": {"display_name": "东风街道, 桥西区, 石家庄市, 河北省, 050011, 中国", "type": "administrative", "osm_type": "relation", "osm_id": 9818248, "class": null, "keyword": "subdistrict"}}, {"type": "Feature", "geometry": {"type": "Polygon", "coordinates": [[[114.45028, 38.047587], [114.463238, 38.047117], [114.463217, 38.044688], [114.46512, 38.044708], [114.467334, 38.044732], [114.469866, 38.044759], [114.471177, 38.044773], [114.471207, 38.050123], [114.467833, 38.050123], [114.459472, 38.050932], [114.460072, 38.052768], [114.457162, 38.053277], [114.45053, 38.053353], [114.45028, 38.047587]]]}, "properties": {"display_name": "革新街街道, 新华区, 石家庄市, 河北省, 050051, 中国", "type": "administrative", "osm_type": "relation", "osm_id": 7640455, "class": null, "keyword": "subdistrict"}}, {"type": "Feature", "geometry": {"type": "Polygon", "coordinates": [[[114.495693, 38.035249], [114.49685, 38.03521], [114.496877, 38.034745], [114.496985, 38.034445], [114.497001, 38.034243], [114.497055, 38.03379], [114.497254, 38.033685], [114.497276, 38.03344], [114.497295, 38.033334], [114.497791, 38.033288], [114.498211, 38.033273], [114.498249, 38.033151], [114.49819, 38.032978], [114.497786, 38.032925], [114.497829, 38.032029], [114.497834, 38.031478], [114.497818, 38.03111], [114.50043, 38.031216], [114.50056, 38.031042], [114.500587, 38.031024], [114.501363, 38.031027], [114.501325, 38.031682], [114.501949, 38.031687], [114.501981, 38.032439], [114.503134, 38.032454], [114.503161, 38.032627], [114.503796, 38.032621], [114.50378, 38.032951], [114.504626, 38.032937], [114.504593, 38.033444], [114.50497, 38.033449], [114.50497, 38.033884], [114.505883, 38.033921], [114.505874, 38.034079], [114.505821, 38.034959], [114.505823, 38.037863], [114.50578, 38.042947], [114.500158, 38.042705], [114.496725, 38.042805], [114.496106, 38.042818], [114.496126, 38.042368], [114.496105, 38.041735], [114.496105, 38.041532], [114.496126, 38.041312], [114.496299, 38.04083], [114.496396, 38.040578], [114.49632, 38.040307], [114.496342, 38.03969], [114.496644, 38.039547], [114.496634, 38.039192], [114.496827, 38.039176], [114.496871, 38.038002], [114.496192, 38.037703], [114.496149, 38.037103], [114.496117, 38.036638], [114.495944, 38.035716], [114.495794, 38.035353], [114.495693, 38.035249]]]}, "properties": {"display_name": "休门街道, 桥西区, 石家庄市, 河北省, 中国", "type": "administrative", "osm_type": "relation", "osm_id": 9818259, "class": null, "keyword": "subdistrict"}}, {"type": "Feature", "geometry": {"type": "Polygon", "coordinates": [[[114.48665, 38.042997], [114.487599, 38.042999], [114.496106, 38.042818], [114.496725, 38.042805], [114.500158, 38.042705], [114.50578, 38.042947], [114.505775, 38.04401], [114.505749, 38.050064], [114.503404, 38.050093], [114.503395, 38.05026], [114.503087, 38.05026], [114.503104, 38.050461], [114.502708, 38.050447], [114.50269, 38.050239], [114.501994, 38.050225], [114.502012, 38.049955], [114.498937, 38.04992], [114.498972, 38.04779], [114.495343, 38.047804], [114.495426, 38.04567], [114.487552, 38.045513], [114.487122, 38.043914], [114.48665, 38.042997]]]}, "properties": {"display_name": "中山东路街道, 长安区, 石家庄市, 河北省, 中国", "type": "administrative", "osm_type": "relation", "osm_id": 9818665, "class": null, "keyword": "subdistrict"}}, {"type": "Feature", "geometry": {"type": "Polygon", "coordinates": [[[114.48367, 38.034973], [114.486876, 38.035276], [114.488197, 38.035353], [114.489624, 38.03538], [114.490717, 38.035366], [114.495693, 38.035249], [114.495794, 38.035353], [114.495944, 38.035716], [114.496117, 38.036638], [114.496149, 38.037103], [114.496192, 38.037703], [114.496871, 38.038002], [114.496827, 38.039176], [114.496634, 38.039192], [114.496644, 38.039547], [114.496342, 38.03969], [114.49632, 38.040307], [114.496396, 38.040578], [114.496299, 38.04083], [114.496126, 38.041312], [114.496105, 38.041532], [114.496105, 38.041735], [114.496126, 38.042368], [114.496106, 38.042818], [114.487599, 38.042999], [114.48665, 38.042997], [114.485638, 38.042935], [114.483902, 38.035725], [114.48367, 38.034973]]]}, "properties": {"display_name": "东华街道, 桥西区, 石家庄市, 河北省, 中国", "type": "administrative", "osm_type": "relation", "osm_id": 9818249, "class": null, "keyword": "subdistrict"}}, {"type": "Feature", "geometry": {"type": "Polygon", "coordinates": [[[114.596277, 38.119551], [114.596435, 38.119463], [114.602307, 38.118661], [114.606553, 38.117991], [114.607471, 38.117856], [114.607664, 38.118], [114.607696, 38.120135], [114.607905, 38.121418], [114.608018, 38.12203], [114.608314, 38.122706], [114.608143, 38.122844], [114.605975, 38.122925], [114.604987, 38.123047], [114.603716, 38.123439], [114.602715, 38.124037], [114.600637, 38.12568], [114.600434, 38.125673], [114.597197, 38.122834], [114.596953, 38.122523], [114.596277, 38.119551]]]}, "properties": {"display_name": "石家庄国际会展中心, 正定县, 石家庄市, 河北省, 中国", "type": "commercial", "osm_type": "way", "osm_id": 1028325022, "class": null, "keyword": "市中心"}}, {"type": "Feature", "geometry": {"type": "Polygon", "coordinates": [[[114.51315, 37.927177], [114.513862, 37.91691], [114.514237, 37.917016], [114.514993, 37.917169], [114.515884, 37.917266], [114.523796, 37.917837], [114.523706, 37.921287], [114.523678, 37.922331], [114.520417, 37.922285], [114.520379, 37.923042], [114.515911, 37.922979], [114.514387, 37.922941], [114.514291, 37.923085], [114.514108, 37.923884], [114.513865, 37.927218], [114.51315, 37.927177]]]}, "properties": {"display_name": "中车石家庄车辆有限公司, 栾城区, 石家庄市, 河北省, 中国", "type": "industrial", "osm_type": "way", "osm_id": 576059820, "class": null, "keyword": "district"}}, {"type": "Feature", "geometry": {"type": "Polygon", "coordinates": [[[114.510106, 37.95024], [114.510478, 37.950235], [114.510779, 37.950232], [114.510757, 37.948145], [114.511042, 37.94815], [114.511043, 37.947845], [114.513323, 37.947787], [114.513336, 37.949197], [114.513126, 37.949196], [114.51314, 37.950235], [114.51793, 37.950204], [114.517931, 37.950251], [114.51796, 37.953288], [114.510125, 37.953316], [114.510106, 37.95024]]]}, "properties": {"display_name": "河北华电石家庄裕华热电有限公司, 栾城区, 石家庄市, 河北省, 中国", "type": "industrial", "osm_type": "way", "osm_id": 575742442, "class": null, "keyword": "district"}}, {"type": "Feature", "geometry": {"type": "Polygon", "coordinates": [[[114.316256, 38.049003], [114.319107, 38.048979], [114.319206, 38.050671], [114.320761, 38.050663], [114.320681, 38.054921], [114.320155, 38.055876], [114.31626, 38.054761], [114.316256, 38.049003]]]}, "properties": {"display_name": "河北华电石家庄鹿华热电有限公司, 鹿泉区, 石家庄市, 河北省, 中国", "type": "industrial", "osm_type": "way", "osm_id": 466975496, "class": null, "keyword": "district"}}, {"type": "Feature", "geometry": {"type": "Polygon", "coordinates": [[[114.672402, 37.964602], [114.672404, 37.961948], [114.673474, 37.961946], [114.67349, 37.961235], [114.673502, 37.96063], [114.678265, 37.960574], [114.678297, 37.964594], [114.672402, 37.964602]]]}, "properties": {"display_name": "石家庄东华金龙化工有限公司, 藁城区, 石家庄市, 河北省, 中国", "type": "industrial", "osm_type": "way", "osm_id": 1274499858, "class": null, "keyword": "district"}}, {"type": "Feature", "geometry": {"type": "Polygon", "coordinates": [[[114.422824, 38.063767], [114.422846, 38.063343], [114.422987, 38.062736], [114.423127, 38.062312], [114.424124, 38.060775], [114.426733, 38.060834], [114.426712, 38.061293], [114.429442, 38.061357], [114.429769, 38.061364], [114.429988, 38.062553], [114.428395, 38.063109], [114.42772, 38.063271], [114.427015, 38.06341], [114.422838, 38.064111], [114.422824, 38.063767]]]}, "properties": {"display_name": "桥西蔬菜中心批发市场, 留营街道, 桥西区, 石家庄市, 河北省, 中国", "type": "brownfield", "osm_type": "way", "osm_id": 1185098946, "class": null, "keyword": "市中心"}}, {"type": "Feature", "geometry": {"type": "Polygon", "coordinates": [[[114.519492, 38.064878], [114.519523, 38.063973], [114.520867, 38.064002], [114.520894, 38.063199], [114.522611, 38.063236], [114.5227, 38.060648], [114.52584, 38.060715], [114.525767, 38.06282], [114.524786, 38.062799], [114.52476, 38.063546], [114.524171, 38.063533], [114.522273, 38.064937], [114.519492, 38.064878]]]}, "properties": {"display_name": "河北华电石家庄热电有限公司, 建北街道, 长安区, 石家庄市, 河北省, 中国", "type": "industrial", "osm_type": "way", "osm_id": 1058233366, "class": null, "keyword": "district"}}, {"type": "Feature", "geometry": {"type": "Polygon", "coordinates": [[[114.36984, 38.071942], [114.377608, 38.070678], [114.37896, 38.070526], [114.378978, 38.070565], [114.37937, 38.07051], [114.380355, 38.070514], [114.381039, 38.070528], [114.382016, 38.070682], [114.384102, 38.070752], [114.3841, 38.070854], [114.38283, 38.071058], [114.382825, 38.071038], [114.381191, 38.071303], [114.378723, 38.071732], [114.378402, 38.071796], [114.377184, 38.072187], [114.376161, 38.072449], [114.375823, 38.072499], [114.375787, 38.072305], [114.375247, 38.072344], [114.37524, 38.072312], [114.37522, 38.072297], [114.375138, 38.072297], [114.375119, 38.072307], [114.375083, 38.072327], [114.374454, 38.072232], [114.374104, 38.072215], [114.373742, 38.072157], [114.37343, 38.072088], [114.373253, 38.072043], [114.372773, 38.071971], [114.372233, 38.071893], [114.371839, 38.071873], [114.371325, 38.071907], [114.370426, 38.071978], [114.369867, 38.072046], [114.36984, 38.071942]]]}, "properties": {"display_name": "石家庄电力机务段南新城整备车间, 留营街道, 桥西区, 石家庄市, 河北省, 中国", "type": "railway", "osm_type": "way", "osm_id": 1055161029, "class": null, "keyword": "district"}}, {"type": "Feature", "geometry": {"type": "Polygon", "coordinates": [[[114.091394, 38.131655], [114.091723, 38.13131], [114.092067, 38.130949], [114.092425, 38.130574], [114.094185, 38.130574], [114.094848, 38.131362], [114.095486, 38.132121], [114.095946, 38.132667], [114.096203, 38.133781], [114.093853, 38.133895], [114.093412, 38.133916], [114.09294, 38.133849], [114.092983, 38.133207], [114.092549, 38.133004], [114.091608, 38.132567], [114.091394, 38.131655]]]}, "properties": {"display_name": "四微街道, 井陉矿区, 石家庄市, 河北省, 中国", "type": "administrative", "osm_type": "relation", "osm_id": 9814886, "class": null, "keyword": "subdistrict"}}, {"type": "Feature", "geometry": {"type": "Polygon", "coordinates": [[[114.475369, 38.009193], [114.475649, 38.009151], [114.480605, 38.008407], [114.48103, 38.010251], [114.475806, 38.011003], [114.475369, 38.009193]]]}, "properties": {"display_name": "石家庄, 新石南路, 南长街道, 桥西区, 石家庄市, 河北省, 050011, 中国", "type": "train_station", "osm_type": "way", "osm_id": 233215159, "class": null, "keyword": "district"}}, {"type": "Feature", "geometry": {"type": "Polygon", "coordinates": [[[114.460348, 38.142664], [114.463465, 38.140146], [114.464853, 38.141208], [114.461891, 38.143627], [114.461544, 38.143649], [114.460348, 38.142664]]]}, "properties": {"display_name": "石家庄市公安交通管理局机动车驾驶人考试中心学府路考试分场(友谊北大街), 正定县, 石家庄市, 河北省, 中国", "type": "industrial", "osm_type": "way", "osm_id": 1054823400, "class": null, "keyword": "市中心"}}, {"type": "Feature", "geometry": {"type": "Polygon", "coordinates": [[[114.668645, 38.356874], [114.67103, 38.356887], [114.670964, 38.359319], [114.668646, 38.359296], [114.668645, 38.356874]]]}, "properties": {"display_name": "新乐市中医医院, 育才街, 长寿街道, 新乐市, 石家庄市, 河北省, 050700, 中国", "type": "hospital", "osm_type": "way", "osm_id": 611322276, "class": null, "keyword": "市中心"}}, {"type": "Feature", "geometry": {"type": "Polygon", "coordinates": [[[114.528547, 37.768359], [114.528675, 37.766114], [114.530376, 37.766116], [114.530373, 37.766239], [114.530733, 37.766266], [114.530588, 37.767403], [114.530861, 37.767431], [114.530703, 37.768493], [114.528547, 37.768359]]]}, "properties": {"display_name": "元氏县职教中心, 育元街, 元氏县, 石家庄市, 河北省, 中国", "type": "school", "osm_type": "way", "osm_id": 563920842, "class": null, "keyword": "市中心"}}, {"type": "Feature", "geometry": {"type": "Polygon", "coordinates": [[[114.512979, 38.068348], [114.51701, 38.068167], [114.517064, 38.068908], [114.515139, 38.068994], [114.515199, 38.069801], [114.513081, 38.069887], [114.512979, 38.068348]]]}, "properties": {"display_name": "石家庄常山纺织集团供销公司, 建北街道, 长安区, 石家庄市, 河北省, 中国", "type": "industrial", "osm_type": "way", "osm_id": 1326460948, "class": null, "keyword": "district"}}, {"type": "Feature", "geometry": {"type": "Polygon", "coordinates": [[[115.019848, 38.029574], [115.022077, 38.029564], [115.022082, 38.030151], [115.022978, 38.030147], [115.022985, 38.031028], [115.019937, 38.031042], [115.019848, 38.029574]]]}, "properties": {"display_name": "晋州市职教中心, 魏征街, 晋州市, 石家庄市, 河北省, 中国", "type": "school", "osm_type": "relation", "osm_id": 8271520, "class": null, "keyword": "市中心"}}, {"type": "Feature", "geometry": {"type": "Polygon", "coordinates": [[[115.244801, 37.917467], [115.24707, 37.916987], [115.247615, 37.918637], [115.247277, 37.918658], [115.244813, 37.918837], [115.244801, 37.917467]]]}, "properties": {"display_name": "辛集市育才中学, 工业路, 辛集市, 石家庄市, 河北省, 中国", "type": "school", "osm_type": "way", "osm_id": 785440252, "class": null, "keyword": "市中心"}}, {"type": "Feature", "geometry": {"type": "Polygon", "coordinates": [[[114.681832, 38.35852], [114.681859, 38.357956], [114.68493, 38.358047], [114.684861, 38.359487], [114.683246, 38.359439], [114.683254, 38.359292], [114.682927, 38.359283], [114.682962, 38.358553], [114.681832, 38.35852]]]}, "properties": {"display_name": "新乐市职业技术教育中心, 鲜虞街, 长寿街道, 新乐市, 石家庄市, 河北省, 050700, 中国", "type": "school", "osm_type": "way", "osm_id": 669066268, "class": null, "keyword": "市中心"}}, {"type": "Feature", "geometry": {"type": "Polygon", "coordinates": [[[114.536713, 38.035391], [114.536756, 38.034537], [114.536847, 38.032694], [114.537878, 38.032672], [114.537743, 38.035411], [114.536713, 38.035391]]]}, "properties": {"display_name": "河北电视中心宿舍, 东苑街道, 裕华区, 石家庄市, 河北省, 中国", "type": "residential", "osm_type": "way", "osm_id": 1185647780, "class": null, "keyword": "市中心"}}, {"type": "Feature", "geometry": {"type": "Polygon", "coordinates": [[[114.791096, 38.464537], [114.791127, 38.463017], [114.79191, 38.463019], [114.792876, 38.462939], [114.792963, 38.464475], [114.791096, 38.464537]]]}, "properties": {"display_name": "河北省新乐市大岳中学, G107, 新乐市, 石家庄市, 河北省, 050701, 中国", "type": "school", "osm_type": "way", "osm_id": 611322233, "class": null, "keyword": "市中心"}}, {"type": "Feature", "geometry": {"type": "Polygon", "coordinates": [[[115.246021, 37.960988], [115.246099, 37.958664], [115.247124, 37.958668], [115.247081, 37.959733], [115.246956, 37.959732], [115.246916, 37.960997], [115.246021, 37.960988]]]}, "properties": {"display_name": "辛集市东明中学, 工业路, 辛集市, 石家庄市, 河北省, 中国", "type": "school", "osm_type": "way", "osm_id": 785439837, "class": null, "keyword": "市中心"}}, {"type": "Feature", "geometry": {"type": "Polygon", "coordinates": [[[114.519318, 37.973706], [114.519348, 37.972674], [114.521416, 37.972784], [114.521389, 37.973752], [114.519318, 37.973706]]]}, "properties": {"display_name": "实验中心, 铁狮子路, 裕翔街道, 裕华区, 石家庄市, 河北省, 050024, 中国", "type": "school", "osm_type": "way", "osm_id": 1101610994, "class": null, "keyword": "市中心"}}, {"type": "Feature", "geometry": {"type": "Polygon", "coordinates": [[[115.205174, 37.937718], [115.206452, 37.937715], [115.206443, 37.938836], [115.205827, 37.93885], [115.205659, 37.938854], [115.205658, 37.938792], [115.205187, 37.938794], [115.205174, 37.937718]]]}, "properties": {"display_name": "辛集市中医院, 安定大街, 抬头村, 辛集市, 石家庄市, 河北省, 中国", "type": "hospital", "osm_type": "way", "osm_id": 785440035, "class": null, "keyword": "市中心"}}, {"type": "Feature", "geometry": {"type": "Polygon", "coordinates": [[[114.448927, 38.013721], [114.450209, 38.013715], [114.450207, 38.01429], [114.449403, 38.01431], [114.448927, 38.013721]]]}, "properties": {"display_name": "全国针灸临床研究中心(石家庄分中心), 石铜路, 红旗街道, 新石街道, 桥西区, 石家庄市, 河北省, 050051, 中国", "type": "hospital", "osm_type": "way", "osm_id": 1422763923, "class": null, "keyword": "市中心"}}, {"type": "Feature", "geometry": {"type": "Polygon", "coordinates": [[[114.518744, 38.04108], [114.518778, 38.040241], [114.519469, 38.040258], [114.519436, 38.041097], [114.518744, 38.04108]]]}, "properties": {"display_name": "石家庄国际博览中心, 东大街, 广安街道, 长安区, 石家庄市, 河北省, 050021, 中国", "type": "museum", "osm_type": "way", "osm_id": 467191599, "class": null, "keyword": "市中心"}}, {"type": "Feature", "geometry": {"type": "Polygon", "coordinates": [[[114.511785, 37.995779], [114.511792, 37.995092], [114.512534, 37.995096], [114.512532, 37.995243], [114.512588, 37.995243], [114.512582, 37.995784], [114.511785, 37.995779]]]}, "properties": {"display_name": "师生活动中心, 栗水清苑西大街, 裕翔街道, 裕华区, 石家庄市, 河北省, 050024, 中国", "type": "community_centre", "osm_type": "way", "osm_id": 727205085, "class": null, "keyword": "市中心"}}, {"type": "Feature", "geometry": {"type": "Polygon", "coordinates": [[[114.49916, 38.042252], [114.49917, 38.042057], [114.499266, 38.042061], [114.499279, 38.041704], [114.499199, 38.041703], [114.499204, 38.041575], [114.499307, 38.041507], [114.499984, 38.041517], [114.499979, 38.041728], [114.499887, 38.041727], [114.499883, 38.041866], [114.499872, 38.041939], [114.499835, 38.042043], [114.499747, 38.042142], [114.499647, 38.042201], [114.49958, 38.04222], [114.499578, 38.042265], [114.49916, 38.042252]]]}, "properties": {"display_name": "滨江商务大厦, 北人字街, 休门街道, 桥西区, 石家庄市, 河北省, 050011, 中国", "type": "commercial", "osm_type": "relation", "osm_id": 13043728, "class": null, "keyword": "business district"}}, {"type": "Feature", "geometry": {"type": "Polygon", "coordinates": [[[114.477209, 38.040843], [114.477223, 38.040559], [114.477239, 38.04024], [114.477241, 38.040191], [114.477896, 38.040212], [114.477863, 38.040863], [114.477209, 38.040843]]]}, "properties": {"display_name": "庄家金融大厦, 自强路, 中山街道, 桥西区, 石家庄市, 河北省, 050051, 中国", "type": "commercial", "osm_type": "way", "osm_id": 592173952, "class": null, "keyword": "financial district"}}, {"type": "Feature", "geometry": {"type": "Polygon", "coordinates": [[[114.525734, 38.022619], [114.525744, 38.02214], [114.526382, 38.022148], [114.526462, 38.022159], [114.526534, 38.022188], [114.52659, 38.022235], [114.526625, 38.022292], [114.526635, 38.022355], [114.526629, 38.02263], [114.526236, 38.022627], [114.52578, 38.022619], [114.525734, 38.022619]]]}, "properties": {"display_name": "石家庄广电中心, 槐安东路辅路, 槐底街道, 裕华区, 石家庄市, 河北省, 050011, 中国", "type": "yes", "osm_type": "way", "osm_id": 593900344, "class": null, "keyword": "市中心"}}, {"type": "Feature", "geometry": {"type": "Polygon", "coordinates": [[[114.497283, 38.041951], [114.497322, 38.04195], [114.497319, 38.041845], [114.498123, 38.041829], [114.498132, 38.042326], [114.497293, 38.04234], [114.497283, 38.041951]]]}, "properties": {"display_name": "东方新世界中心, 中山西路, 休门街道, 桥西区, 石家庄市, 河北省, 050011, 中国", "type": "commercial", "osm_type": "way", "osm_id": 969548016, "class": null, "keyword": "市中心"}}, {"type": "Feature", "geometry": {"type": "Polygon", "coordinates": [[[114.523164, 38.065759], [114.523573, 38.065755], [114.523572, 38.065721], [114.523872, 38.065718], [114.52388, 38.066165], [114.523171, 38.066173], [114.523164, 38.065759]]]}, "properties": {"display_name": "石家庄市花园实业有限公司, 建北街道, 长安区, 石家庄市, 河北省, 中国", "type": "industrial", "osm_type": "way", "osm_id": 1348155711, "class": null, "keyword": "district"}}, {"type": "Feature", "geometry": {"type": "Polygon", "coordinates": [[[114.516736, 38.051788], [114.516749, 38.051263], [114.517025, 38.051267], [114.51703, 38.051086], [114.517278, 38.05109], [114.517269, 38.051437], [114.517123, 38.051435], [114.517114, 38.051794], [114.516736, 38.051788]]]}, "properties": {"display_name": "安桥商务, 广安大街, 广安街道, 长安区, 石家庄市, 河北省, 050021, 中国", "type": "commercial", "osm_type": "way", "osm_id": 467191608, "class": null, "keyword": "business district"}}, {"type": "Feature", "geometry": {"type": "Polygon", "coordinates": [[[114.517163, 38.042859], [114.517335, 38.042734], [114.51744, 38.042823], [114.517581, 38.042821], [114.51758, 38.042765], [114.517839, 38.042763], [114.517843, 38.04299], [114.517788, 38.04299], [114.517789, 38.043074], [114.517578, 38.043218], [114.517477, 38.043218], [114.517477, 38.04326], [114.517188, 38.043262], [114.517186, 38.043058], [114.517273, 38.043058], [114.517271, 38.042946], [114.517163, 38.042859]]]}, "properties": {"display_name": "世界贸易中心酒店, 中山东路, 广安街道, 长安区, 石家庄市, 河北省, 050021, 中国", "type": "commercial", "osm_type": "relation", "osm_id": 12889745, "class": null, "keyword": "市中心"}}, {"type": "Feature", "geometry": {"type": "Polygon", "coordinates": [[[114.4895, 38.020498], [114.48958, 38.020498], [114.48958, 38.020456], [114.490084, 38.020454], [114.490085, 38.020499], [114.490155, 38.020498], [114.490156, 38.020706], [114.489501, 38.020709], [114.4895, 38.020498]]]}, "properties": {"display_name": "中石化河北石油经营调度中心, 槐安东路, 彭后街道, 桥西区, 石家庄市, 河北省, 050011, 中国", "type": "commercial", "osm_type": "way", "osm_id": 965172280, "class": null, "keyword": "市中心"}}, {"type": "Feature", "geometry": {"type": "Polygon", "coordinates": [[[114.498281, 38.04176], [114.498285, 38.041537], [114.49891, 38.041544], [114.498906, 38.041767], [114.498281, 38.04176]]]}, "properties": {"display_name": "时代中心, 北人字街, 休门街道, 桥西区, 石家庄市, 河北省, 050011, 中国", "type": "yes", "osm_type": "way", "osm_id": 969545465, "class": null, "keyword": "市中心"}}]}