{"type": "FeatureCollection", "features": [{"type": "Feature", "geometry": {"type": "Polygon", "coordinates": [[[21.478563, 41.988197], [21.482361, 41.986439], [21.483502, 41.987802], [21.481362, 41.988792], [21.481053, 41.988424], [21.479395, 41.989191], [21.478563, 41.988197]]]}, "properties": {"display_name": "Тренинг Центар Петар Милошевски, АСНОМ, Ново Лисиче, Аеродром, Скопје, Општина Аеродром, Град Скопје, 1001, Северна Македонија", "type": "sports_centre", "osm_type": "way", "osm_id": 187548126, "class": null, "keyword": "centre-ville"}}, {"type": "Feature", "geometry": {"type": "Polygon", "coordinates": [[[21.43883, 41.999471], [21.438905, 41.999091], [21.439752, 41.999182], [21.439928, 41.999198], [21.439917, 41.999262], [21.439853, 41.999863], [21.439518, 41.999817], [21.439533, 41.999657], [21.438952, 41.999589], [21.438979, 41.999489], [21.43883, 41.999471]]]}, "properties": {"display_name": "ТЦ Мавровка, Крсте Мисирков, Саат Кула, Чаир, Скопје, Општина Чаир, Град Скопје, 1000, Северна Македонија", "type": "mall", "osm_type": "way", "osm_id": 35541307, "class": null, "keyword": "centre-ville"}}, {"type": "Feature", "geometry": {"type": "Polygon", "coordinates": [[[21.431157, 41.993225], [21.431681, 41.9931], [21.43167, 41.993074], [21.431785, 41.993046], [21.431826, 41.993141], [21.431901, 41.993123], [21.431919, 41.993165], [21.432053, 41.993133], [21.432096, 41.993232], [21.432165, 41.993215], [21.432186, 41.993263], [21.432314, 41.993233], [21.432361, 41.99334], [21.432422, 41.993325], [21.432442, 41.99337], [21.432465, 41.993434], [21.432421, 41.993445], [21.432485, 41.993594], [21.432421, 41.993609], [21.432443, 41.993659], [21.432167, 41.993726], [21.432124, 41.993627], [21.432068, 41.993641], [21.432078, 41.99368], [21.431939, 41.993714], [21.431857, 41.993537], [21.431795, 41.993394], [21.431431, 41.993481], [21.431384, 41.993371], [21.43129, 41.993394], [21.431322, 41.993466], [21.431266, 41.993479], [21.431157, 41.993225]]]}, "properties": {"display_name": "Дом на АРМ, Луј Пастер, Ново Маало, Центар, Скопје, Општина Центар, Град Скопје, 1000, Северна Македонија", "type": "theatre", "osm_type": "way", "osm_id": 32688908, "class": null, "keyword": "centre-ville"}}, {"type": "Feature", "geometry": {"type": "Polygon", "coordinates": [[[21.390309, 41.999594], [21.390626, 41.99955], [21.390722, 41.999936], [21.390406, 41.99998], [21.390309, 41.999594]]]}, "properties": {"display_name": "Спортски центар „Форца“, Лондонска, Тафталиџе 1, Карпош, Скопје, Општина Карпош, Град Скопје, 1000, Северна Македонија", "type": "pitch", "osm_type": "way", "osm_id": 176705498, "class": null, "keyword": "centre-ville"}}, {"type": "Feature", "geometry": {"type": "Polygon", "coordinates": [[[21.390817, 41.999217], [21.391162, 41.999165], [21.391246, 41.99947], [21.390901, 41.999522], [21.390817, 41.999217]]]}, "properties": {"display_name": "Спортски центар „Форца“, Лондонска, Тафталиџе 1, Карпош, Скопје, Општина Карпош, Град Скопје, 1020, Северна Македонија", "type": "pitch", "osm_type": "way", "osm_id": 32675036, "class": null, "keyword": "centre-ville"}}, {"type": "Feature", "geometry": {"type": "Polygon", "coordinates": [[[21.389494, 41.999875], [21.389976, 41.999807], [21.39003, 42.000021], [21.389548, 42.000088], [21.389494, 41.999875]]]}, "properties": {"display_name": "Спортски центар „Форца“, Московска, Тафталиџе 2, Карпош, Скопје, Општина Карпош, Град Скопје, 1020, Северна Македонија", "type": "pitch", "osm_type": "way", "osm_id": 176705496, "class": null, "keyword": "centre-ville"}}, {"type": "Feature", "geometry": {"type": "Polygon", "coordinates": [[[21.429547, 41.997087], [21.429746, 41.996926], [21.429878, 41.997015], [21.429679, 41.997177], [21.429547, 41.997087]]]}, "properties": {"display_name": "Ibis Skopje City Center, 55, Орце Николов, Дебар Маало, Центар, Скопје, Општина Центар, Град Скопје, 1000, Северна Македонија", "type": "hotel", "osm_type": "way", "osm_id": 613902029, "class": null, "keyword": "city center"}}]}