{"type": "FeatureCollection", "features": [{"type": "Feature", "geometry": {"type": "Polygon", "coordinates": [[[16.500937, 43.51347], [16.503588, 43.512863], [16.503993, 43.512771], [16.504103, 43.512745], [16.504194, 43.512963], [16.504405, 43.513436], [16.504301, 43.513461], [16.504125, 43.513502], [16.504148, 43.513554], [16.501275, 43.514231], [16.500937, 43.51347]]]}, "properties": {"display_name": "City Center One Split, 207, Vukovarska ulica, Brnik, Gradski kotar Mejaši, Split, Grad Split, Splitsko-dalmatinska županija, 21000, Hrvatska", "type": "mall", "osm_type": "way", "osm_id": 88799210, "class": null, "keyword": "city center"}}]}