{"type": "FeatureCollection", "features": [{"type": "Feature", "geometry": {"type": "Polygon", "coordinates": [[[-52.720054, 47.558012], [-52.719926, 47.558006], [-52.719832, 47.557998], [-52.719174, 47.557938], [-52.718463, 47.55787], [-52.717753, 47.557808], [-52.717622, 47.557798], [-52.717536, 47.55779], [-52.71744, 47.557782], [-52.716899, 47.557734], [-52.716774, 47.557726], [-52.716327, 47.557662], [-52.715873, 47.55759], [-52.7157, 47.557564], [-52.715558, 47.557541], [-52.715427, 47.557518], [-52.715305, 47.5575], [-52.715182, 47.557489], [-52.715074, 47.557484], [-52.714863, 47.557473], [-52.714679, 47.557461], [-52.714486, 47.557446], [-52.71437, 47.557439], [-52.714216, 47.557437], [-52.71409, 47.557435], [-52.71282, 47.557413], [-52.71229, 47.557396], [-52.712116, 47.55739], [-52.712063, 47.557386], [-52.711895, 47.557371], [-52.71183, 47.557507], [-52.711781, 47.557626], [-52.711745, 47.557714], [-52.711721, 47.557849], [-52.711719, 47.558003], [-52.711715, 47.558334], [-52.711692, 47.558732], [-52.711693, 47.55889], [-52.711701, 47.558936], [-52.711709, 47.559], [-52.711707, 47.559057], [-52.711704, 47.559156], [-52.711571, 47.559152], [-52.711168, 47.559145], [-52.711015, 47.559146], [-52.710853, 47.559154], [-52.710724, 47.559172], [-52.710584, 47.559204], [-52.710492, 47.559238], [-52.710405, 47.559282], [-52.710327, 47.559337], [-52.710144, 47.559193], [-52.710101, 47.559326], [-52.709687, 47.5598], [-52.709218, 47.560316], [-52.709075, 47.560479], [-52.70829, 47.561167], [-52.707361, 47.56212], [-52.707013, 47.562449], [-52.706415, 47.563031], [-52.703469, 47.565872], [-52.703519, 47.565956], [-52.703274, 47.565962], [-52.703149, 47.565855], [-52.702053, 47.566519], [-52.702109, 47.566553], [-52.702183, 47.566609], [-52.70225, 47.566569], [-52.702463, 47.566688], [-52.702415, 47.566751], [-52.702473, 47.566772], [-52.702522, 47.566796], [-52.702423, 47.566902], [-52.7024, 47.566949], [-52.702449, 47.567001], [-52.70237, 47.56698], [-52.702345, 47.567005], [-52.702287, 47.567066], [-52.702524, 47.567183], [-52.70238, 47.567343], [-52.702132, 47.567202], [-52.700562, 47.568445], [-52.699449, 47.569002], [-52.69759, 47.569732], [-52.697728, 47.569895], [-52.697216, 47.569991], [-52.697381, 47.570166], [-52.69699, 47.57024], [-52.697218, 47.570606], [-52.697353, 47.570811], [-52.697397, 47.570889], [-52.697445, 47.570967], [-52.697802, 47.571555], [-52.697818, 47.571579], [-52.69786, 47.571643], [-52.69801, 47.571607], [-52.698101, 47.571577], [-52.698347, 47.571473], [-52.698644, 47.571345], [-52.698995, 47.571191], [-52.69928, 47.571068], [-52.699584, 47.570933], [-52.699691, 47.570899], [-52.699825, 47.570906], [-52.700269, 47.570652], [-52.700325, 47.570618], [-52.700458, 47.570562], [-52.700514, 47.570613], [-52.700573, 47.570659], [-52.700873, 47.570888], [-52.701077, 47.571043], [-52.701185, 47.571116], [-52.701253, 47.571131], [-52.701323, 47.571168], [-52.701374, 47.571191], [-52.701426, 47.57121], [-52.701513, 47.571232], [-52.701545, 47.571236], [-52.701569, 47.571238], [-52.701726, 47.571235], [-52.701923, 47.571261], [-52.701973, 47.571264], [-52.702179, 47.571274], [-52.702406, 47.571284], [-52.702635, 47.571296], [-52.702846, 47.571309], [-52.703095, 47.571322], [-52.703509, 47.571336], [-52.703769, 47.571342], [-52.704182, 47.571338], [-52.704338, 47.571322], [-52.704566, 47.571287], [-52.704803, 47.571256], [-52.704916, 47.571245], [-52.705017, 47.571234], [-52.705173, 47.571214], [-52.70529, 47.571195], [-52.705396, 47.57117], [-52.705488, 47.571143], [-52.70557, 47.571106], [-52.705645, 47.571064], [-52.705742, 47.570999], [-52.705836, 47.570932], [-52.705863, 47.570915], [-52.705919, 47.570876], [-52.706004, 47.570822], [-52.706085, 47.570773], [-52.706247, 47.570677], [-52.706362, 47.570603], [-52.706668, 47.570418], [-52.706762, 47.570361], [-52.70685, 47.570303], [-52.706957, 47.570222], [-52.707049, 47.570133], [-52.707091, 47.570088], [-52.707151, 47.570024], [-52.707213, 47.569955], [-52.707328, 47.569816], [-52.707662, 47.569417], [-52.707687, 47.56939], [-52.707751, 47.569333], [-52.707825, 47.569264], [-52.707898, 47.569187], [-52.708133, 47.568922], [-52.708165, 47.568887], [-52.708215, 47.56883], [-52.708132, 47.568793], [-52.708061, 47.568767], [-52.707815, 47.568685], [-52.707714, 47.568621], [-52.70774, 47.568594], [-52.707785, 47.568543], [-52.70784, 47.56847], [-52.707898, 47.568445], [-52.707917, 47.568419], [-52.707966, 47.568357], [-52.70801, 47.568301], [-52.708248, 47.568006], [-52.70835, 47.56788], [-52.708265, 47.567842], [-52.708186, 47.567804], [-52.708093, 47.567752], [-52.708012, 47.567705], [-52.707951, 47.567661], [-52.707902, 47.567607], [-52.707771, 47.567403], [-52.707744, 47.56736], [-52.707704, 47.567299], [-52.707933, 47.567087], [-52.707982, 47.567042], [-52.708359, 47.566688], [-52.708588, 47.566472], [-52.708765, 47.566301], [-52.708793, 47.566274], [-52.708853, 47.566214], [-52.708477, 47.566067], [-52.708106, 47.5659], [-52.707999, 47.565861], [-52.707533, 47.565621], [-52.707333, 47.565513], [-52.707148, 47.565407], [-52.70711, 47.565371], [-52.707065, 47.565345], [-52.706985, 47.565299], [-52.707079, 47.565205], [-52.707175, 47.565107], [-52.707291, 47.564992], [-52.70739, 47.564888], [-52.707489, 47.56479], [-52.707583, 47.564687], [-52.707693, 47.564566], [-52.707771, 47.564599], [-52.707816, 47.564617], [-52.708052, 47.56472], [-52.708328, 47.564872], [-52.708457, 47.564952], [-52.708553, 47.56502], [-52.708584, 47.565047], [-52.708664, 47.565047], [-52.70872, 47.565084], [-52.708769, 47.565104], [-52.708817, 47.565113], [-52.708861, 47.565119], [-52.708895, 47.565117], [-52.708926, 47.565115], [-52.709, 47.565101], [-52.709045, 47.565074], [-52.709094, 47.565042], [-52.709167, 47.565043], [-52.709193, 47.565023], [-52.70933, 47.564908], [-52.70942, 47.564928], [-52.70967, 47.565008], [-52.709752, 47.565035], [-52.709859, 47.565021], [-52.709898, 47.565016], [-52.710035, 47.564998], [-52.710701, 47.564916], [-52.710966, 47.564878], [-52.711307, 47.564826], [-52.71159, 47.564787], [-52.711885, 47.564742], [-52.71202, 47.564719], [-52.712116, 47.5647], [-52.712219, 47.564675], [-52.712325, 47.564649], [-52.712417, 47.564625], [-52.71254, 47.564597], [-52.712736, 47.564552], [-52.71302, 47.564494], [-52.713347, 47.564439], [-52.713534, 47.564409], [-52.713713, 47.564382], [-52.713902, 47.564358], [-52.714619, 47.564293], [-52.71479, 47.564194], [-52.71483, 47.56417], [-52.714861, 47.564143], [-52.714895, 47.564109], [-52.715212, 47.563734], [-52.7153, 47.5636], [-52.71537, 47.563512], [-52.715457, 47.563392], [-52.715926, 47.562849], [-52.716043, 47.562723], [-52.716326, 47.562375], [-52.716575, 47.562087], [-52.717191, 47.561378], [-52.717248, 47.561305], [-52.717284, 47.561257], [-52.717354, 47.561183], [-52.717627, 47.560833], [-52.71831, 47.560049], [-52.718481, 47.559855], [-52.718631, 47.559684], [-52.718736, 47.559565], [-52.718809, 47.559481], [-52.718926, 47.559349], [-52.719076, 47.559165], [-52.719242, 47.558982], [-52.719355, 47.558825], [-52.719393, 47.558781], [-52.71948, 47.558683], [-52.719597, 47.558559], [-52.71962, 47.558534], [-52.719699, 47.558441], [-52.719768, 47.558363], [-52.719928, 47.558188], [-52.720054, 47.558012]]]}, "properties": {"display_name": "Downtown, St. John's, Newfoundland, Newfoundland and Labrador, Canada", "type": "administrative", "osm_type": "relation", "osm_id": 10782541, "class": null, "keyword": "downtown"}}, {"type": "Feature", "geometry": {"type": "Polygon", "coordinates": [[[-52.722841, 47.569249], [-52.722809, 47.569203], [-52.72279, 47.569175], [-52.72272, 47.569072], [-52.722648, 47.568967], [-52.722111, 47.568196], [-52.722075, 47.568155], [-52.722006, 47.56809], [-52.721896, 47.56807], [-52.72183, 47.568063], [-52.721198, 47.567988], [-52.721056, 47.567969], [-52.720849, 47.567939], [-52.7207, 47.56792], [-52.720559, 47.567896], [-52.720467, 47.567879], [-52.720277, 47.567833], [-52.720034, 47.567766], [-52.719861, 47.567717], [-52.71966, 47.567645], [-52.719481, 47.567568], [-52.719266, 47.567483], [-52.719132, 47.567427], [-52.719046, 47.567387], [-52.718992, 47.56736], [-52.718779, 47.567265], [-52.718672, 47.567202], [-52.718637, 47.56716], [-52.718485, 47.56709], [-52.718373, 47.567039], [-52.718338, 47.567022], [-52.718185, 47.566964], [-52.718072, 47.566921], [-52.718051, 47.566913], [-52.717963, 47.566883], [-52.717874, 47.566851], [-52.71786, 47.566848], [-52.717736, 47.566818], [-52.717701, 47.566812], [-52.717569, 47.566791], [-52.71747, 47.566774], [-52.717451, 47.566771], [-52.717329, 47.566747], [-52.717225, 47.566726], [-52.717209, 47.566723], [-52.717199, 47.566721], [-52.717087, 47.566694], [-52.716964, 47.566688], [-52.716788, 47.566655], [-52.716518, 47.566601], [-52.716215, 47.566529], [-52.715994, 47.566475], [-52.71593, 47.566459], [-52.715866, 47.566435], [-52.715831, 47.566414], [-52.715805, 47.566389], [-52.715784, 47.566352], [-52.715749, 47.56629], [-52.715716, 47.566232], [-52.715697, 47.566199], [-52.715394, 47.565664], [-52.715046, 47.565049], [-52.714656, 47.564362], [-52.714619, 47.564293], [-52.713902, 47.564358], [-52.713713, 47.564382], [-52.713534, 47.564409], [-52.713347, 47.564439], [-52.71302, 47.564494], [-52.712736, 47.564552], [-52.71254, 47.564597], [-52.712417, 47.564625], [-52.712325, 47.564649], [-52.712219, 47.564675], [-52.712116, 47.5647], [-52.71202, 47.564719], [-52.711885, 47.564742], [-52.71159, 47.564787], [-52.711307, 47.564826], [-52.710966, 47.564878], [-52.710701, 47.564916], [-52.710035, 47.564998], [-52.709898, 47.565016], [-52.709859, 47.565021], [-52.709752, 47.565035], [-52.70967, 47.565008], [-52.70942, 47.564928], [-52.70933, 47.564908], [-52.709193, 47.565023], [-52.709167, 47.565043], [-52.709094, 47.565042], [-52.709045, 47.565074], [-52.709, 47.565101], [-52.708926, 47.565115], [-52.708895, 47.565117], [-52.708861, 47.565119], [-52.708817, 47.565113], [-52.708769, 47.565104], [-52.70872, 47.565084], [-52.708664, 47.565047], [-52.708584, 47.565047], [-52.708553, 47.56502], [-52.708457, 47.564952], [-52.708328, 47.564872], [-52.708052, 47.56472], [-52.707816, 47.564617], [-52.707771, 47.564599], [-52.707693, 47.564566], [-52.707583, 47.564687], [-52.707489, 47.56479], [-52.70739, 47.564888], [-52.707291, 47.564992], [-52.707175, 47.565107], [-52.707079, 47.565205], [-52.706985, 47.565299], [-52.707065, 47.565345], [-52.70711, 47.565371], [-52.707148, 47.565407], [-52.707333, 47.565513], [-52.707533, 47.565621], [-52.707999, 47.565861], [-52.708106, 47.5659], [-52.708477, 47.566067], [-52.708853, 47.566214], [-52.708793, 47.566274], [-52.708765, 47.566301], [-52.708588, 47.566472], [-52.708359, 47.566688], [-52.707982, 47.567042], [-52.707933, 47.567087], [-52.707704, 47.567299], [-52.707744, 47.56736], [-52.707771, 47.567403], [-52.707902, 47.567607], [-52.707951, 47.567661], [-52.708012, 47.567705], [-52.708093, 47.567752], [-52.708186, 47.567804], [-52.708265, 47.567842], [-52.70835, 47.56788], [-52.708248, 47.568006], [-52.70801, 47.568301], [-52.707966, 47.568357], [-52.707917, 47.568419], [-52.707898, 47.568445], [-52.70784, 47.56847], [-52.707785, 47.568543], [-52.70774, 47.568594], [-52.707714, 47.568621], [-52.707815, 47.568685], [-52.708061, 47.568767], [-52.708132, 47.568793], [-52.708215, 47.56883], [-52.70826, 47.568762], [-52.708331, 47.568682], [-52.708525, 47.568466], [-52.708597, 47.56848], [-52.708664, 47.568492], [-52.708747, 47.56851], [-52.708875, 47.568529], [-52.709029, 47.568542], [-52.709203, 47.568556], [-52.709349, 47.568565], [-52.709526, 47.568577], [-52.709648, 47.568583], [-52.709768, 47.568587], [-52.709852, 47.568585], [-52.710191, 47.568597], [-52.710462, 47.568607], [-52.710517, 47.568609], [-52.710632, 47.568613], [-52.71077, 47.568621], [-52.710944, 47.568624], [-52.711219, 47.568639], [-52.711451, 47.568651], [-52.711791, 47.568678], [-52.71194, 47.568701], [-52.712034, 47.568715], [-52.712108, 47.568663], [-52.712772, 47.568106], [-52.712844, 47.568049], [-52.713334, 47.56767], [-52.713365, 47.567647], [-52.713413, 47.567609], [-52.713763, 47.567919], [-52.714083, 47.568185], [-52.714183, 47.568247], [-52.71431, 47.568319], [-52.714479, 47.56841], [-52.714597, 47.568485], [-52.714679, 47.568542], [-52.714764, 47.568596], [-52.714882, 47.568671], [-52.7151, 47.568821], [-52.715278, 47.568952], [-52.715381, 47.569038], [-52.715569, 47.569213], [-52.715638, 47.569267], [-52.71571, 47.569327], [-52.715825, 47.569415], [-52.715975, 47.569522], [-52.716195, 47.569668], [-52.716375, 47.569792], [-52.71649, 47.569861], [-52.716624, 47.569921], [-52.716749, 47.569969], [-52.716829, 47.569995], [-52.716906, 47.570016], [-52.71697, 47.57003], [-52.717017, 47.57004], [-52.717131, 47.570059], [-52.717225, 47.570067], [-52.71729, 47.570071], [-52.717361, 47.57007], [-52.717447, 47.57007], [-52.717492, 47.570069], [-52.717524, 47.570069], [-52.717557, 47.570069], [-52.717688, 47.570065], [-52.71783, 47.570059], [-52.71806, 47.570048], [-52.71812, 47.570045], [-52.718283, 47.570037], [-52.718417, 47.57003], [-52.718527, 47.570027], [-52.71863, 47.570021], [-52.718712, 47.570018], [-52.718835, 47.570015], [-52.718873, 47.570014], [-52.718967, 47.570011], [-52.719084, 47.570006], [-52.71922, 47.57], [-52.719268, 47.569998], [-52.719329, 47.569993], [-52.71945, 47.569986], [-52.719502, 47.569984], [-52.719538, 47.569983], [-52.719612, 47.569982], [-52.71971, 47.569984], [-52.719794, 47.569989], [-52.719859, 47.569993], [-52.720006, 47.570008], [-52.720795, 47.570076], [-52.720988, 47.570091], [-52.721116, 47.570037], [-52.72114, 47.570027], [-52.721246, 47.569981], [-52.72138, 47.569929], [-52.721572, 47.569858], [-52.721863, 47.569744], [-52.722004, 47.569684], [-52.722162, 47.569608], [-52.722241, 47.56957], [-52.722302, 47.56954], [-52.722417, 47.569476], [-52.72275, 47.569305], [-52.722841, 47.569249]]]}, "properties": {"display_name": "Ecclesiastical District, St. John's, Newfoundland, Newfoundland and Labrador, Canada", "type": "administrative", "osm_type": "relation", "osm_id": 10782427, "class": null, "keyword": "district"}}, {"type": "Feature", "geometry": {"type": "Polygon", "coordinates": [[[-52.728722, 47.577535], [-52.728553, 47.577378], [-52.728359, 47.577143], [-52.728157, 47.576766], [-52.728093, 47.576628], [-52.728005, 47.576479], [-52.727849, 47.576221], [-52.727754, 47.576083], [-52.727545, 47.575809], [-52.727361, 47.575568], [-52.727294, 47.57547], [-52.727114, 47.575229], [-52.726957, 47.575024], [-52.72684, 47.574857], [-52.726724, 47.574685], [-52.726636, 47.574551], [-52.726551, 47.574437], [-52.72645, 47.574333], [-52.72634, 47.574232], [-52.726196, 47.574111], [-52.726015, 47.573969], [-52.725812, 47.573775], [-52.725741, 47.573708], [-52.725654, 47.57378], [-52.725344, 47.57405], [-52.725199, 47.574201], [-52.725105, 47.574297], [-52.724997, 47.574374], [-52.724891, 47.574449], [-52.724764, 47.574524], [-52.724622, 47.574611], [-52.724307, 47.574806], [-52.724151, 47.574895], [-52.723939, 47.575034], [-52.723557, 47.57529], [-52.723487, 47.575344], [-52.723439, 47.575381], [-52.723235, 47.575549], [-52.723094, 47.575667], [-52.72279, 47.575935], [-52.72255, 47.576159], [-52.722037, 47.576643], [-52.721444, 47.57722], [-52.72137, 47.577281], [-52.721304, 47.577335], [-52.721098, 47.577522], [-52.720643, 47.57793], [-52.720366, 47.578142], [-52.720172, 47.578275], [-52.720019, 47.578365], [-52.719799, 47.578477], [-52.719641, 47.578556], [-52.71956, 47.578596], [-52.719481, 47.578635], [-52.719581, 47.578679], [-52.719715, 47.578721], [-52.720096, 47.578868], [-52.720246, 47.578949], [-52.720323, 47.579025], [-52.72042, 47.579145], [-52.720664, 47.579319], [-52.720741, 47.579401], [-52.720886, 47.579595], [-52.721111, 47.579848], [-52.721272, 47.580011], [-52.721366, 47.580105], [-52.721479, 47.580172], [-52.721637, 47.580246], [-52.721817, 47.580356], [-52.721999, 47.580505], [-52.722171, 47.580642], [-52.722465, 47.580704], [-52.722774, 47.580707], [-52.723573, 47.580707], [-52.723823, 47.580722], [-52.724182, 47.580698], [-52.724303, 47.580655], [-52.724421, 47.580599], [-52.724512, 47.580548], [-52.724625, 47.580534], [-52.724732, 47.580541], [-52.72481, 47.580566], [-52.724874, 47.580621], [-52.724955, 47.580646], [-52.72503, 47.580646], [-52.725161, 47.580635], [-52.725279, 47.580608], [-52.725307, 47.580597], [-52.725386, 47.580566], [-52.725521, 47.580481], [-52.725673, 47.580359], [-52.725802, 47.580224], [-52.725893, 47.580089], [-52.72595, 47.579987], [-52.725964, 47.579909], [-52.725968, 47.57985], [-52.72599, 47.579797], [-52.726051, 47.579707], [-52.726178, 47.579561], [-52.726328, 47.579307], [-52.726408, 47.579233], [-52.726524, 47.579168], [-52.726653, 47.579144], [-52.726822, 47.579138], [-52.727017, 47.57913], [-52.727022, 47.579123], [-52.727224, 47.578851], [-52.727357, 47.578722], [-52.727646, 47.578453], [-52.727821, 47.5783], [-52.728119, 47.578037], [-52.728722, 47.577535]]]}, "properties": {"display_name": "Churchill Park neighbourhood, Churchill Park, St. John's, Newfoundland, Newfoundland and Labrador, Canada", "type": "administrative", "osm_type": "relation", "osm_id": 10794334, "class": null, "keyword": "neighbourhood"}}, {"type": "Feature", "geometry": {"type": "Polygon", "coordinates": [[[-52.750924, 47.559114], [-52.750782, 47.558954], [-52.750591, 47.55903], [-52.750634, 47.55908], [-52.750531, 47.559121], [-52.750629, 47.559233], [-52.750924, 47.559114]]]}, "properties": {"display_name": "City Tire & Auto Centre, 41, Kenmount Road, St. John's, Newfoundland, Newfoundland and Labrador, A1B 1W4, Canada", "type": "car_repair", "osm_type": "way", "osm_id": 349858214, "class": null, "keyword": "city centre"}}]}