{"type": "FeatureCollection", "features": [{"type": "Feature", "geometry": {"type": "Polygon", "coordinates": [[[112.699597, -7.30857], [112.699896, -7.308644], [112.699751, -7.310038], [112.700087, -7.310034], [112.700181, -7.310173], [112.700288, -7.310173], [112.700335, -7.310469], [112.70041, -7.310464], [112.70041, -7.310654], [112.701119, -7.310525], [112.701138, -7.310474], [112.701736, -7.310474], [112.702198, -7.31027], [112.702488, -7.310363], [112.702506, -7.310483], [112.702474, -7.310798], [112.702726, -7.310928], [112.702899, -7.310613], [112.703142, -7.310339], [112.703352, -7.310187], [112.704216, -7.309881], [112.706527, -7.309376], [112.706424, -7.309181], [112.706275, -7.30863], [112.70599, -7.308454], [112.704967, -7.308084], [112.702759, -7.307454], [112.701993, -7.307208], [112.70111, -7.306814], [112.700512, -7.306434], [112.700111, -7.306092], [112.700079, -7.306419], [112.700031, -7.306898], [112.699765, -7.307495], [112.699751, -7.307764], [112.699765, -7.308097], [112.699695, -7.308153], [112.699655, -7.308325], [112.699597, -7.30857]]]}, "properties": {"display_name": "Puncak CBD, Jajar Tunggal, Wiyung, Surabaya, Jawa Timur, Jawa, Indonesia", "type": "construction", "osm_type": "way", "osm_id": 637956919, "class": null, "keyword": "CBD"}}, {"type": "Feature", "geometry": {"type": "Polygon", "coordinates": [[[112.745242, -7.289079], [112.74552, -7.289316], [112.74572, -7.289074], [112.745441, -7.288852], [112.745242, -7.289079]]]}, "properties": {"display_name": "Midtown Residence, Jalan Bung Tomo, RW 02, Ngagel, Wonokromo, Surabaya, Jawa Timur, Jawa, 60246, Indonesia", "type": "hotel", "osm_type": "way", "osm_id": 692628752, "class": null, "keyword": "midtown"}}, {"type": "Feature", "geometry": {"type": "Polygon", "coordinates": [[[112.740644, -7.267709], [112.740656, -7.267711], [112.740652, -7.267735], [112.740706, -7.267743], [112.740704, -7.267754], [112.740976, -7.267796], [112.740975, -7.267804], [112.741046, -7.267815], [112.741048, -7.267807], [112.741095, -7.267814], [112.741111, -7.26771], [112.740993, -7.267692], [112.74099, -7.267709], [112.740719, -7.267667], [112.740722, -7.26765], [112.740654, -7.26764], [112.740644, -7.267709]]]}, "properties": {"display_name": "Midtown Hotel, Jalan Jenderal Basuki Rachmat, RW 03, Embong Kaliasin, Genteng, Surabaya, Jawa Timur, Jawa, 68485, Indonesia", "type": "hotel", "osm_type": "way", "osm_id": 184586726, "class": null, "keyword": "midtown"}}]}