{"type": "FeatureCollection", "features": [{"type": "Feature", "geometry": {"type": "Polygon", "coordinates": [[[20.150436, 46.253862], [20.151162, 46.253571], [20.1515, 46.254013], [20.15085, 46.254354], [20.150436, 46.253862]], [[20.1507, 46.25387], [20.150962, 46.254182], [20.151139, 46.254091], [20.150905, 46.253784], [20.1507, 46.25387]], [[20.151023, 46.25373], [20.15109, 46.253818], [20.15116, 46.253793], [20.151094, 46.253705], [20.151023, 46.25373]], [[20.15117, 46.253914], [20.151255, 46.254023], [20.151323, 46.253994], [20.151239, 46.253891], [20.15117, 46.253914]]]}, "properties": {"display_name": "Szegedi Járásbíróság, Vörösmarty utca, Belváros, Szeged, Szegedi járás, Csongrád-Csanád vármegye, Dél-Alföld, Alföld és Észak, 6720, Magyarország", "type": "courthouse", "osm_type": "relation", "osm_id": 5960426, "class": null, "keyword": "district"}}, {"type": "Feature", "geometry": {"type": "Polygon", "coordinates": [[[20.152378, 46.252696], [20.152612, 46.25262], [20.152708, 46.252762], [20.152719, 46.252778], [20.15273, 46.252794], [20.152839, 46.252954], [20.152576, 46.253039], [20.152516, 46.25295], [20.152544, 46.252941], [20.152431, 46.252774], [20.152407, 46.25274], [20.152392, 46.252718], [20.152378, 46.252696]]]}, "properties": {"display_name": "Várkert Downtown, Huszár Mátyás rakpart, Belváros, Szeged, Szegedi járás, Csongrád-Csanád vármegye, Dél-Alföld, Alföld és Észak, 6720, Magyarország", "type": "biergarten", "osm_type": "relation", "osm_id": 17642133, "class": null, "keyword": "downtown"}}]}