{"type": "FeatureCollection", "features": [{"type": "Feature", "geometry": {"type": "Polygon", "coordinates": [[[116.720819, 36.287705], [116.721322, 36.286902], [116.721395, 36.286411], [116.721868, 36.286003], [116.722267, 36.285379], [116.723263, 36.284458], [116.723304, 36.283862], [116.725674, 36.283826], [116.726614, 36.281053], [116.72691, 36.281368], [116.727833, 36.281377], [116.730021, 36.280897], [116.73214, 36.282125], [116.731713, 36.28006], [116.733696, 36.279127], [116.733671, 36.278408], [116.734724, 36.276621], [116.737108, 36.276397], [116.739274, 36.277122], [116.740483, 36.274272], [116.73905, 36.27414], [116.73744, 36.273379], [116.738763, 36.269263], [116.738098, 36.269416], [116.736765, 36.26882], [116.737272, 36.267969], [116.738573, 36.267921], [116.738593, 36.266928], [116.7372, 36.265858], [116.736165, 36.26586], [116.734753, 36.265085], [116.734547, 36.265377], [116.734158, 36.26458], [116.734876, 36.264485], [116.734431, 36.263839], [116.732475, 36.262495], [116.728854, 36.262213], [116.729397, 36.261984], [116.729397, 36.261253], [116.727612, 36.261243], [116.727632, 36.259056], [116.727863, 36.258604], [116.728927, 36.258516], [116.728821, 36.257528], [116.729059, 36.25697], [116.729267, 36.257362], [116.72944, 36.256345], [116.729274, 36.255826], [116.728763, 36.255801], [116.729372, 36.255539], [116.729447, 36.253949], [116.730233, 36.252776], [116.731414, 36.251462], [116.732833, 36.251389], [116.732678, 36.250495], [116.731665, 36.250549], [116.731572, 36.249789], [116.732067, 36.249777], [116.732492, 36.249044], [116.732327, 36.247718], [116.731857, 36.247719], [116.73141, 36.246239], [116.732715, 36.246129], [116.732146, 36.245945], [116.7321, 36.244904], [116.732726, 36.244851], [116.732607, 36.243789], [116.734139, 36.243726], [116.73376, 36.239401], [116.734117, 36.238643], [116.732384, 36.238838], [116.732316, 36.238353], [116.733675, 36.23825], [116.734206, 36.237426], [116.733605, 36.236852], [116.733315, 36.234619], [116.734431, 36.234485], [116.734274, 36.233327], [116.7348, 36.233056], [116.736377, 36.233004], [116.736293, 36.232539], [116.736628, 36.233756], [116.737123, 36.232885], [116.737886, 36.233214], [116.738278, 36.232875], [116.739547, 36.233383], [116.739341, 36.231908], [116.73984, 36.231492], [116.740966, 36.232249], [116.741164, 36.230975], [116.745091, 36.231343], [116.744945, 36.230458], [116.747295, 36.230253], [116.747519, 36.228882], [116.749656, 36.228752], [116.74963, 36.225333], [116.748091, 36.225339], [116.747213, 36.219244], [116.745428, 36.219511], [116.745008, 36.218789], [116.74516, 36.217182], [116.746825, 36.216775], [116.746568, 36.215934], [116.745945, 36.216011], [116.745596, 36.214759], [116.745247, 36.214803], [116.743838, 36.210806], [116.742384, 36.209738], [116.742175, 36.20954], [116.741915, 36.209293], [116.745323, 36.208807], [116.744847, 36.207492], [116.745643, 36.207465], [116.745449, 36.206867], [116.746178, 36.206882], [116.746357, 36.207366], [116.746912, 36.207283], [116.748359, 36.208177], [116.748321, 36.207455], [116.747573, 36.207019], [116.747891, 36.206493], [116.750017, 36.206006], [116.749953, 36.204769], [116.752575, 36.204442], [116.754853, 36.204928], [116.756677, 36.206341], [116.756112, 36.206959], [116.756195, 36.207641], [116.756684, 36.207621], [116.757218, 36.212262], [116.761507, 36.211935], [116.761466, 36.211006], [116.764809, 36.210492], [116.768055, 36.211654], [116.77018, 36.21175], [116.773281, 36.211254], [116.777891, 36.209443], [116.781124, 36.209325], [116.785971, 36.209607], [116.785949, 36.212487], [116.786653, 36.212423], [116.786661, 36.212037], [116.78762, 36.212052], [116.787805, 36.210889], [116.788537, 36.210994], [116.788992, 36.210368], [116.789766, 36.210572], [116.790484, 36.211347], [116.790712, 36.212598], [116.790799, 36.212966], [116.790244, 36.215756], [116.790676, 36.215921], [116.79067, 36.218021], [116.789943, 36.218123], [116.78998, 36.218623], [116.790705, 36.218658], [116.790971, 36.221341], [116.797184, 36.220795], [116.798278, 36.223833], [116.799794, 36.225144], [116.799427, 36.225213], [116.799858, 36.226875], [116.799235, 36.226936], [116.799447, 36.228572], [116.797863, 36.22881], [116.798024, 36.229551], [116.79736, 36.23106], [116.797853, 36.239525], [116.798508, 36.242144], [116.802156, 36.241847], [116.802525, 36.243928], [116.802138, 36.243897], [116.802245, 36.244725], [116.80428, 36.244867], [116.804391, 36.24566], [116.805006, 36.245633], [116.805098, 36.246235], [116.806223, 36.246188], [116.805801, 36.246647], [116.806707, 36.25029], [116.806138, 36.250415], [116.806383, 36.251382], [116.807205, 36.252398], [116.808008, 36.252268], [116.808107, 36.252783], [116.808654, 36.252726], [116.808768, 36.252339], [116.809171, 36.252798], [116.80986, 36.253749], [116.809943, 36.254377], [116.809491, 36.254865], [116.809892, 36.255852], [116.810636, 36.255952], [116.811476, 36.2554], [116.811071, 36.256028], [116.812041, 36.256228], [116.812021, 36.255804], [116.813011, 36.255626], [116.813062, 36.256213], [116.813807, 36.256174], [116.813078, 36.256422], [116.813607, 36.256947], [116.813266, 36.25779], [116.813944, 36.257741], [116.813898, 36.258313], [116.815885, 36.2592], [116.817382, 36.26084], [116.817, 36.2618], [116.818012, 36.262852], [116.818182, 36.264405], [116.824307, 36.265918], [116.824376, 36.267781], [116.824787, 36.26812], [116.825214, 36.268105], [116.825394, 36.267275], [116.826898, 36.268083], [116.828759, 36.268113], [116.828358, 36.268642], [116.8292, 36.2696], [116.829244, 36.26987], [116.828685, 36.26996], [116.829283, 36.270144], [116.829514, 36.271238], [116.83, 36.271157], [116.829847, 36.270542], [116.830208, 36.270489], [116.830308, 36.270965], [116.831321, 36.270753], [116.831354, 36.271157], [116.832001, 36.271073], [116.832017, 36.272017], [116.832482, 36.272491], [116.833236, 36.272599], [116.833125, 36.271863], [116.833476, 36.272312], [116.833912, 36.272031], [116.833978, 36.272949], [116.834992, 36.273504], [116.835048, 36.27442], [116.83578, 36.274253], [116.835994, 36.27468], [116.836725, 36.274266], [116.837244, 36.2747], [116.83764, 36.274323], [116.839247, 36.275501], [116.839586, 36.27659], [116.84094, 36.275589], [116.841541, 36.276694], [116.840718, 36.278107], [116.840895, 36.279671], [116.838844, 36.282081], [116.838471, 36.28313], [116.838864, 36.286094], [116.839757, 36.286556], [116.84187, 36.288901], [116.843358, 36.289455], [116.845351, 36.289], [116.847254, 36.287968], [116.847387, 36.288171], [116.850749, 36.285921], [116.852807, 36.286985], [116.853116, 36.287207], [116.852096, 36.2884], [116.850192, 36.289484], [116.850398, 36.289965], [116.850625, 36.292134], [116.850049, 36.293728], [116.848964, 36.295175], [116.848771, 36.297049], [116.848367, 36.297216], [116.847843, 36.296673], [116.846627, 36.296993], [116.846789, 36.297171], [116.8469, 36.297905], [116.848136, 36.298165], [116.848553, 36.298563], [116.849069, 36.298684], [116.849481, 36.299153], [116.850022, 36.299596], [116.850282, 36.300768], [116.850257, 36.301623], [116.849513, 36.301823], [116.849205, 36.301481], [116.848044, 36.301452], [116.846453, 36.301967], [116.845812, 36.302427], [116.845236, 36.302418], [116.842512, 36.302542], [116.84258, 36.301983], [116.842229, 36.301723], [116.842061, 36.30128], [116.841246, 36.300826], [116.841336, 36.300678], [116.841354, 36.300414], [116.840291, 36.300105], [116.840137, 36.299242], [116.839359, 36.298335], [116.838345, 36.29752], [116.837548, 36.297544], [116.83743, 36.297274], [116.836275, 36.297538], [116.836154, 36.297205], [116.834755, 36.29724], [116.833928, 36.296906], [116.83205, 36.297176], [116.830037, 36.296546], [116.83006, 36.296493], [116.829876, 36.296276], [116.827424, 36.295517], [116.825101, 36.294523], [116.822862, 36.29511], [116.822108, 36.2957], [116.821169, 36.295192], [116.817954, 36.295995], [116.816882, 36.295427], [116.815548, 36.29587], [116.813595, 36.297192], [116.813091, 36.297235], [116.812526, 36.297641], [116.811905, 36.297903], [116.810737, 36.296453], [116.810924, 36.295909], [116.810787, 36.295747], [116.809486, 36.296153], [116.80948, 36.295935], [116.810484, 36.295559], [116.81079, 36.295215], [116.809285, 36.295736], [116.809135, 36.295327], [116.809174, 36.294514], [116.808258, 36.294616], [116.808345, 36.295215], [116.808123, 36.29537], [116.807727, 36.294987], [116.806912, 36.295179], [116.806784, 36.295794], [116.806927, 36.295958], [116.806922, 36.296143], [116.807334, 36.296811], [116.808445, 36.297153], [116.808635, 36.298059], [116.808197, 36.298115], [116.807567, 36.297476], [116.807188, 36.297125], [116.80633, 36.297402], [116.805439, 36.298256], [116.80553, 36.298468], [116.803702, 36.299691], [116.803431, 36.300954], [116.803095, 36.301164], [116.80273, 36.301611], [116.802219, 36.302461], [116.801874, 36.303418], [116.802903, 36.304156], [116.802761, 36.306196], [116.802461, 36.306217], [116.802387, 36.306388], [116.801914, 36.306334], [116.801237, 36.306934], [116.801076, 36.30829], [116.801322, 36.308503], [116.801109, 36.308665], [116.800999, 36.308953], [116.800888, 36.309254], [116.800574, 36.308821], [116.800418, 36.308765], [116.800028, 36.308517], [116.799086, 36.308506], [116.798958, 36.30797], [116.798778, 36.30819], [116.798573, 36.308084], [116.798523, 36.308485], [116.799, 36.309236], [116.798967, 36.309617], [116.798764, 36.309387], [116.798251, 36.30936], [116.798052, 36.309858], [116.797682, 36.309912], [116.797677, 36.310235], [116.797514, 36.310449], [116.797655, 36.310555], [116.79746, 36.310837], [116.796918, 36.310796], [116.796415, 36.310986], [116.795486, 36.310408], [116.794779, 36.310615], [116.794969, 36.310786], [116.794939, 36.311187], [116.793932, 36.311382], [116.793597, 36.311144], [116.793882, 36.310249], [116.793063, 36.31006], [116.792203, 36.310752], [116.791793, 36.310263], [116.791114, 36.309496], [116.790631, 36.30969], [116.790694, 36.310799], [116.789644, 36.311085], [116.789625, 36.311237], [116.788, 36.311327], [116.787523, 36.3104], [116.787131, 36.310407], [116.787096, 36.310852], [116.786688, 36.310841], [116.786686, 36.311064], [116.786769, 36.311072], [116.787, 36.311492], [116.785891, 36.311953], [116.784991, 36.312134], [116.783744, 36.312994], [116.782126, 36.313405], [116.78003, 36.313142], [116.778104, 36.313891], [116.77772, 36.313676], [116.777411, 36.313343], [116.777323, 36.313371], [116.776974, 36.313156], [116.776447, 36.313123], [116.776105, 36.31398], [116.775437, 36.314427], [116.775451, 36.315785], [116.775024, 36.317427], [116.774143, 36.31777], [116.773663, 36.317629], [116.77226, 36.317687], [116.770996, 36.317543], [116.770698, 36.316384], [116.771156, 36.315587], [116.769641, 36.315456], [116.769498, 36.314931], [116.768729, 36.313939], [116.768028, 36.313989], [116.767156, 36.313518], [116.76729, 36.312733], [116.76566, 36.312969], [116.764692, 36.312337], [116.7644, 36.312283], [116.764297, 36.312017], [116.76448, 36.311826], [116.764024, 36.311227], [116.76233, 36.311244], [116.762185, 36.311641], [116.760938, 36.311515], [116.760376, 36.311846], [116.76005, 36.311879], [116.759626, 36.311504], [116.75899, 36.311992], [116.758528, 36.311863], [116.758354, 36.311233], [116.757161, 36.311182], [116.756752, 36.311002], [116.756369, 36.311447], [116.756095, 36.311093], [116.753921, 36.310582], [116.75406, 36.310229], [116.754476, 36.310301], [116.754461, 36.309928], [116.753373, 36.309477], [116.752968, 36.309857], [116.752595, 36.309777], [116.752999, 36.308867], [116.753639, 36.309229], [116.754105, 36.308536], [116.754477, 36.308532], [116.754447, 36.308337], [116.753046, 36.308298], [116.753032, 36.307963], [116.754713, 36.307572], [116.754601, 36.307361], [116.753131, 36.307718], [116.752983, 36.307495], [116.753375, 36.307286], [116.753337, 36.307015], [116.75251, 36.306014], [116.75223, 36.306393], [116.751801, 36.306298], [116.751826, 36.305815], [116.752371, 36.305892], [116.752833, 36.305129], [116.753158, 36.305146], [116.753004, 36.305608], [116.753408, 36.305649], [116.753685, 36.305035], [116.753061, 36.304771], [116.753604, 36.303978], [116.753182, 36.303806], [116.752792, 36.303986], [116.751958, 36.304456], [116.751584, 36.304534], [116.751314, 36.30498], [116.750729, 36.304756], [116.750156, 36.305192], [116.749419, 36.305926], [116.749287, 36.305055], [116.749824, 36.30491], [116.749881, 36.304207], [116.749008, 36.303589], [116.746524, 36.303484], [116.744614, 36.304198], [116.74428, 36.304115], [116.741957, 36.303853], [116.742383, 36.30315], [116.742358, 36.303136], [116.742084, 36.303031], [116.742169, 36.302882], [116.742077, 36.302626], [116.74157, 36.30277], [116.741534, 36.302485], [116.740763, 36.302439], [116.739637, 36.303916], [116.73914, 36.303845], [116.737939, 36.302823], [116.737233, 36.302058], [116.736544, 36.301772], [116.735413, 36.300157], [116.733276, 36.298765], [116.732546, 36.29861], [116.732097, 36.298389], [116.730988, 36.297453], [116.729856, 36.297417], [116.728328, 36.296276], [116.726991, 36.295619], [116.72586, 36.295861], [116.725715, 36.295678], [116.725389, 36.29562], [116.723898, 36.294725], [116.723873, 36.294382], [116.724493, 36.294152], [116.724697, 36.293783], [116.724839, 36.292733], [116.724256, 36.292378], [116.723704, 36.291734], [116.722355, 36.29098], [116.721395, 36.289899], [116.720819, 36.287705]]]}, "properties": {"display_name": "老城街道, 肥城市, 泰安市, 山东省, 271600, 中国", "type": "administrative", "osm_type": "relation", "osm_id": 13294111, "class": null, "keyword": "老城"}}, {"type": "Feature", "geometry": {"type": "Polygon", "coordinates": [[[117.106002, 36.021832], [117.106459, 36.021555], [117.106426, 36.019561], [117.109595, 36.019571], [117.109584, 36.020778], [117.109479, 36.020792], [117.109515, 36.022164], [117.109628, 36.022189], [117.10961, 36.023227], [117.108603, 36.023184], [117.107967, 36.023584], [117.108674, 36.02404], [117.109036, 36.024445], [117.110915, 36.025558], [117.116011, 36.025594], [117.115973, 36.026296], [117.110444, 36.026289], [117.108514, 36.025055], [117.107922, 36.024795], [117.107372, 36.024132], [117.106864, 36.022999], [117.1065, 36.022453], [117.106033, 36.022034], [117.106002, 36.021832]]]}, "properties": {"display_name": "泰安驾驶员考试中心, 满庄镇, 岱岳区, 泰安市, 山东省, 271000, 中国", "type": "commercial", "osm_type": "way", "osm_id": 518384597, "class": null, "keyword": "市中心"}}, {"type": "Feature", "geometry": {"type": "Polygon", "coordinates": [[[117.083848, 36.057667], [117.083969, 36.057616], [117.090768, 36.057647], [117.090704, 36.058206], [117.088854, 36.060281], [117.085218, 36.060415], [117.085058, 36.060886], [117.08468, 36.060985], [117.083848, 36.057667]]]}, "properties": {"display_name": "新城实验中学, 泰安-曲阜公路, 满庄镇, 岱岳区, 泰安市, 山东省, 271000, 中国", "type": "school", "osm_type": "way", "osm_id": 1056190077, "class": null, "keyword": "市中心"}}, {"type": "Feature", "geometry": {"type": "Polygon", "coordinates": [[[117.061972, 36.206425], [117.061981, 36.201883], [117.062056, 36.201864], [117.062209, 36.201827], [117.062169, 36.201664], [117.062335, 36.201647], [117.062411, 36.201639], [117.062411, 36.201614], [117.062501, 36.201615], [117.062506, 36.201548], [117.06274, 36.201545], [117.062739, 36.201454], [117.062966, 36.201443], [117.062963, 36.2015], [117.063501, 36.201487], [117.0635, 36.201447], [117.063852, 36.201433], [117.064865, 36.201419], [117.064886, 36.201928], [117.064932, 36.20198], [117.064995, 36.202763], [117.065068, 36.203158], [117.065074, 36.203914], [117.06525, 36.203913], [117.065256, 36.203949], [117.065299, 36.203972], [117.065271, 36.206026], [117.065298, 36.206114], [117.065316, 36.20611], [117.065339, 36.206112], [117.065706, 36.206228], [117.065744, 36.206259], [117.065892, 36.206478], [117.061972, 36.206425]]]}, "properties": {"display_name": "泰安市体育中心, 迎宾大道, 粥店街道, 岱岳区, 泰安市, 山东省, 271000, 中国", "type": "sports_centre", "osm_type": "way", "osm_id": 337982763, "class": null, "keyword": "市中心"}}, {"type": "Feature", "geometry": {"type": "Polygon", "coordinates": [[[117.093013, 36.102586], [117.093902, 36.102038], [117.094966, 36.102361], [117.095187, 36.103279], [117.096089, 36.103279], [117.096715, 36.103903], [117.097266, 36.103769], [117.097842, 36.103622], [117.098714, 36.103481], [117.099895, 36.106051], [117.096943, 36.106043], [117.096601, 36.105956], [117.094149, 36.104456], [117.093013, 36.102586]]]}, "properties": {"display_name": "泰安市中心医院高新区院区, 长城路, 北集坡街道, 岱岳区, 泰安市, 山东省, 271000, 中国", "type": "hospital", "osm_type": "way", "osm_id": 1038083451, "class": null, "keyword": "市中心"}}, {"type": "Feature", "geometry": {"type": "Polygon", "coordinates": [[[117.780545, 35.913795], [117.781075, 35.913485], [117.781869, 35.913246], [117.782591, 35.913135], [117.783613, 35.913047], [117.783657, 35.913649], [117.783763, 35.914351], [117.784072, 35.915035], [117.784185, 35.915397], [117.782085, 35.91578], [117.780884, 35.915965], [117.780545, 35.913795]]]}, "properties": {"display_name": "新泰市青云中学, 潥阳路, 平阳社区, 青云街道, 新泰市, 泰安市, 山东省, 271200, 中国", "type": "school", "osm_type": "way", "osm_id": 968976690, "class": null, "keyword": "市中心"}}, {"type": "Feature", "geometry": {"type": "Polygon", "coordinates": [[[117.733075, 35.914512], [117.736083, 35.913953], [117.736823, 35.916104], [117.734334, 35.916613], [117.734138, 35.916653], [117.734068, 35.916431], [117.733768, 35.916403], [117.733075, 35.914512]]]}, "properties": {"display_name": "新泰市新甫中学, 府前大街, 新甫街道, 新泰市, 泰安市, 山东省, 271200, 中国", "type": "school", "osm_type": "way", "osm_id": 974281258, "class": null, "keyword": "市中心"}}, {"type": "Feature", "geometry": {"type": "Polygon", "coordinates": [[[117.442578, 35.916652], [117.444316, 35.916602], [117.444445, 35.919776], [117.442744, 35.919796], [117.442578, 35.916652]]]}, "properties": {"display_name": "新泰市宫里镇初级中学, 日照 - 凤县, 宫里镇, 新泰市, 泰安市, 山东省, 271200, 中国", "type": "school", "osm_type": "way", "osm_id": 1093495964, "class": null, "keyword": "市中心"}}, {"type": "Feature", "geometry": {"type": "Polygon", "coordinates": [[[117.77183, 35.822825], [117.77432, 35.822364], [117.774942, 35.824365], [117.772404, 35.824843], [117.77183, 35.822825]]]}, "properties": {"display_name": "新泰市汶南镇初级中学, 日照 - 凤县, 汶南镇, 新泰市, 泰安市, 山东省, 271200, 中国", "type": "school", "osm_type": "way", "osm_id": 1089785938, "class": null, "keyword": "市中心"}}, {"type": "Feature", "geometry": {"type": "Polygon", "coordinates": [[[117.670918, 35.94612], [117.673562, 35.945376], [117.674166, 35.94679], [117.67435, 35.947218], [117.672744, 35.947653], [117.672633, 35.947452], [117.671511, 35.947619], [117.670918, 35.94612]]]}, "properties": {"display_name": "新泰市翟镇初级中学, 府前街, 翟镇, 新泰市, 泰安市, 山东省, 271200, 中国", "type": "school", "osm_type": "way", "osm_id": 971953228, "class": null, "keyword": "市中心"}}, {"type": "Feature", "geometry": {"type": "Polygon", "coordinates": [[[117.769329, 35.88658], [117.772227, 35.885789], [117.772706, 35.887393], [117.769567, 35.888115], [117.769329, 35.88658]]]}, "properties": {"display_name": "新泰市龙池中学, 龙池路, 青云街道, 新泰市, 泰安市, 山东省, 271200, 中国", "type": "school", "osm_type": "way", "osm_id": 1080926109, "class": null, "keyword": "市中心"}}, {"type": "Feature", "geometry": {"type": "Polygon", "coordinates": [[[117.633625, 35.983614], [117.63436, 35.983331], [117.633631, 35.982089], [117.634568, 35.981729], [117.636132, 35.984396], [117.634461, 35.985038], [117.633625, 35.983614]]]}, "properties": {"display_name": "新泰市泉沟初级中学, 莲花山路, 泉沟镇, 新泰市, 泰安市, 山东省, 271200, 中国", "type": "school", "osm_type": "way", "osm_id": 1003884236, "class": null, "keyword": "市中心"}}, {"type": "Feature", "geometry": {"type": "Polygon", "coordinates": [[[117.677218, 35.865093], [117.679788, 35.864117], [117.680738, 35.866236], [117.680017, 35.866476], [117.679576, 35.865675], [117.678038, 35.866231], [117.677218, 35.865093]]]}, "properties": {"display_name": "新泰市汶城中学, 和平街, 八一街北区, 新汶街道, 新泰市, 泰安市, 山东省, 271200, 中国", "type": "school", "osm_type": "way", "osm_id": 1085517005, "class": null, "keyword": "市中心"}}, {"type": "Feature", "geometry": {"type": "Polygon", "coordinates": [[[117.758187, 35.918816], [117.75886, 35.918772], [117.758858, 35.918665], [117.759695, 35.918621], [117.75967, 35.91846], [117.760626, 35.918402], [117.760745, 35.919276], [117.759908, 35.919327], [117.759977, 35.920088], [117.76035, 35.920067], [117.760421, 35.920955], [117.7592, 35.921077], [117.758902, 35.920547], [117.758816, 35.919664], [117.758348, 35.919704], [117.758187, 35.918816]]]}, "properties": {"display_name": "新泰市实验中学, 金斗路, 青云街道, 新泰市, 泰安市, 山东省, 271200, 中国", "type": "school", "osm_type": "way", "osm_id": 1003884240, "class": null, "keyword": "市中心"}}, {"type": "Feature", "geometry": {"type": "Polygon", "coordinates": [[[116.924062, 35.784264], [116.926455, 35.784943], [116.926667, 35.786242], [116.924454, 35.78654], [116.924062, 35.784264]]]}, "properties": {"display_name": "葛石镇中心小学, 宁南路, 葛石镇, 宁阳县, 泰安市, 山东省, 271400, 中国", "type": "school", "osm_type": "way", "osm_id": 1318267010, "class": null, "keyword": "市中心"}}, {"type": "Feature", "geometry": {"type": "Polygon", "coordinates": [[[117.54439, 35.991108], [117.545837, 35.990715], [117.546292, 35.99389], [117.545583, 35.993936], [117.545469, 35.993165], [117.544679, 35.993177], [117.544408, 35.991241], [117.54439, 35.991108]]]}, "properties": {"display_name": "新泰市羊祜中学, 羊祜大街, 羊流镇, 新泰市, 泰安市, 山东省, 271200, 中国", "type": "school", "osm_type": "way", "osm_id": 1084408989, "class": null, "keyword": "市中心"}}, {"type": "Feature", "geometry": {"type": "Polygon", "coordinates": [[[117.527538, 35.999881], [117.528931, 35.999964], [117.528883, 36.001392], [117.528845, 36.002505], [117.527552, 36.002563], [117.527538, 35.999881]]]}, "properties": {"display_name": "新泰市羊流初级中学, 泰新路, 羊流镇, 新泰市, 泰安市, 山东省, 271200, 中国", "type": "school", "osm_type": "way", "osm_id": 1084408987, "class": null, "keyword": "市中心"}}, {"type": "Feature", "geometry": {"type": "Polygon", "coordinates": [[[117.308166, 35.873305], [117.309075, 35.873178], [117.309387, 35.873135], [117.309263, 35.872228], [117.309234, 35.872023], [117.310007, 35.871971], [117.310075, 35.871967], [117.310243, 35.871954], [117.310491, 35.872983], [117.310615, 35.872955], [117.310908, 35.874086], [117.310066, 35.873992], [117.309242, 35.874181], [117.309128, 35.873709], [117.308286, 35.873826], [117.308199, 35.873449], [117.308166, 35.873305]]]}, "properties": {"display_name": "新师中学, 会馆大街, 楼德镇, 新泰市, 泰安市, 山东省, 271200, 中国", "type": "school", "osm_type": "way", "osm_id": 936412644, "class": null, "keyword": "市中心"}}, {"type": "Feature", "geometry": {"type": "Polygon", "coordinates": [[[117.679346, 35.863108], [117.680537, 35.862765], [117.681559, 35.865098], [117.680368, 35.86544], [117.679788, 35.864117], [117.679346, 35.863108]]]}, "properties": {"display_name": "新泰市新汶中学, 新矿路, 新汶街道, 新泰市, 泰安市, 山东省, 271200, 中国", "type": "school", "osm_type": "way", "osm_id": 1085517004, "class": null, "keyword": "市中心"}}, {"type": "Feature", "geometry": {"type": "Polygon", "coordinates": [[[117.752839, 35.8957], [117.754191, 35.89541], [117.754825, 35.897112], [117.75337, 35.897426], [117.752839, 35.8957]]]}, "properties": {"display_name": "新泰市金斗中学, 二中路, 城阳社区, 青云街道, 新泰市, 泰安市, 山东省, 271200, 中国", "type": "school", "osm_type": "way", "osm_id": 997453289, "class": null, "keyword": "市中心"}}, {"type": "Feature", "geometry": {"type": "Polygon", "coordinates": [[[117.686994, 35.856643], [117.688652, 35.856133], [117.68933, 35.857252], [117.687598, 35.857805], [117.686994, 35.856643]]]}, "properties": {"display_name": "新泰市新汶街道初级中学, 新矿路, 新汶街道, 新泰市, 泰安市, 山东省, 271200, 中国", "type": "school", "osm_type": "way", "osm_id": 1088380618, "class": null, "keyword": "市中心"}}, {"type": "Feature", "geometry": {"type": "Polygon", "coordinates": [[[117.771728, 35.901374], [117.772856, 35.901189], [117.773312, 35.902981], [117.772159, 35.903106], [117.771728, 35.901374]]]}, "properties": {"display_name": "新泰市中医院, 青云路, 田园社区, 青云街道, 新泰市, 泰安市, 山东省, 271200, 中国", "type": "hospital", "osm_type": "way", "osm_id": 1089430670, "class": null, "keyword": "市中心"}}, {"type": "Feature", "geometry": {"type": "Polygon", "coordinates": [[[117.124177, 36.190544], [117.124569, 36.189243], [117.125825, 36.189402], [117.125631, 36.190834], [117.125454, 36.190873], [117.125432, 36.191008], [117.125177, 36.191013], [117.125244, 36.190525], [117.124825, 36.19048], [117.124805, 36.190592], [117.124177, 36.190544]]]}, "properties": {"display_name": "老县衙大院, 岱庙街道, 泰山区, 泰安市, 山东省, 271000, 中国", "type": "retail", "osm_type": "way", "osm_id": 394183903, "class": null, "keyword": "old town"}}, {"type": "Feature", "geometry": {"type": "Polygon", "coordinates": [[[117.527222, 35.998247], [117.528136, 35.99797], [117.528317, 35.999173], [117.527653, 35.999209], [117.527398, 35.998886], [117.527222, 35.998247]]]}, "properties": {"display_name": "新泰市羊流镇中心小学, 泰新路, 羊流镇, 新泰市, 泰安市, 山东省, 271200, 中国", "type": "school", "osm_type": "way", "osm_id": 1084408988, "class": null, "keyword": "市中心"}}, {"type": "Feature", "geometry": {"type": "Polygon", "coordinates": [[[117.591801, 35.956305], [117.592666, 35.956166], [117.592805, 35.956885], [117.591963, 35.956979], [117.591801, 35.956305]]]}, "properties": {"display_name": "新泰市市场监督行政执法大队西张庄中队, 正阳东路, 西张庄镇, 新泰市, 泰安市, 山东省, 271200, 中国", "type": "government", "osm_type": "way", "osm_id": 1116856124, "class": null, "keyword": "市中心"}}, {"type": "Feature", "geometry": {"type": "Polygon", "coordinates": [[[117.145081, 36.168715], [117.145206, 36.168717], [117.145204, 36.168663], [117.145083, 36.168663], [117.145083, 36.168573], [117.145423, 36.168573], [117.145424, 36.168588], [117.145492, 36.168588], [117.145493, 36.168575], [117.145739, 36.168573], [117.14572, 36.1685], [117.145768, 36.1685], [117.145768, 36.168483], [117.145804, 36.168482], [117.145823, 36.16854], [117.145781, 36.16854], [117.145789, 36.168571], [117.146012, 36.168574], [117.146013, 36.168658], [117.145912, 36.16866], [117.145912, 36.168712], [117.146014, 36.168713], [117.146013, 36.168825], [117.145727, 36.168828], [117.145738, 36.169016], [117.145661, 36.169016], [117.145648, 36.168829], [117.145501, 36.16883], [117.145507, 36.169061], [117.145345, 36.169061], [117.145337, 36.168832], [117.145204, 36.168833], [117.145204, 36.16882], [117.14515, 36.16882], [117.14515, 36.168831], [117.145133, 36.168831], [117.145133, 36.168846], [117.145152, 36.168846], [117.145165, 36.169222], [117.145246, 36.169221], [117.145246, 36.169151], [117.145357, 36.169151], [117.145357, 36.169201], [117.145434, 36.169201], [117.145433, 36.169123], [117.145573, 36.169123], [117.145573, 36.1692], [117.145634, 36.1692], [117.145634, 36.169125], [117.145764, 36.169124], [117.145764, 36.1692], [117.145836, 36.1692], [117.145836, 36.169123], [117.145971, 36.169123], [117.145971, 36.169208], [117.146041, 36.169207], [117.146073, 36.169306], [117.146057, 36.169309], [117.14609, 36.169413], [117.14601, 36.16943], [117.14597, 36.169305], [117.145843, 36.169305], [117.145843, 36.1694], [117.145771, 36.1694], [117.145771, 36.169305], [117.145645, 36.169305], [117.145645, 36.169402], [117.145573, 36.169402], [117.145573, 36.169307], [117.145438, 36.169307], [117.145439, 36.169403], [117.14538, 36.169403], [117.14538, 36.169306], [117.145356, 36.169306], [117.145357, 36.169401], [117.145256, 36.169401], [117.145255, 36.169303], [117.145217, 36.169303], [117.145217, 36.169405], [117.145125, 36.169405], [117.145124, 36.169307], [117.145098, 36.169307], [117.145098, 36.169222], [117.145143, 36.169222], [117.145142, 36.169206], [117.145113, 36.169205], [117.145094, 36.16885], [117.14512, 36.16885], [117.14512, 36.168831], [117.145087, 36.168831], [117.145081, 36.168715]]]}, "properties": {"display_name": "经济管理学院（商学院）, 温泉路, 上高镇, 泰山区, 泰安市, 山东省, 271000, 中国", "type": "university", "osm_type": "relation", "osm_id": 12873940, "class": null, "keyword": "business district"}}, {"type": "Feature", "geometry": {"type": "Polygon", "coordinates": [[[117.201925, 36.304438], [117.202038, 36.303789], [117.202738, 36.303828], [117.20264, 36.304484], [117.201925, 36.304438]]]}, "properties": {"display_name": "黄前镇中心小学宋家庄教学点, S103, 黄前镇, 岱岳区, 泰安市, 山东省, 271000, 中国", "type": "school", "osm_type": "way", "osm_id": 690221537, "class": null, "keyword": "中心商圈"}}, {"type": "Feature", "geometry": {"type": "Polygon", "coordinates": [[[117.188526, 36.305582], [117.188557, 36.305456], [117.188805, 36.305495], [117.188842, 36.305343], [117.188968, 36.305363], [117.188908, 36.305607], [117.188526, 36.305582]]]}, "properties": {"display_name": "中国移动通信黄前营业厅, S103, 黄前镇, 岱岳区, 泰安市, 山东省, 271000, 中国", "type": "telecommunication", "osm_type": "way", "osm_id": 690221530, "class": null, "keyword": "中心商圈"}}]}