{"type": "FeatureCollection", "features": [{"type": "Feature", "geometry": {"type": "Polygon", "coordinates": [[[120.702372, 24.182333], [120.702663, 24.182349], [120.702714, 24.182352], [120.703087, 24.182372], [120.703468, 24.182372], [120.707923, 24.182365], [120.70808, 24.182385], [120.708078, 24.182433], [120.708716, 24.182491], [120.709623, 24.182614], [120.709668, 24.18262], [120.709906, 24.182762], [120.709965, 24.183], [120.710119, 24.183505], [120.710104, 24.183742], [120.710058, 24.184003], [120.70988, 24.184537], [120.709327, 24.186068], [120.708794, 24.187847], [120.708435, 24.189185], [120.70831, 24.190287], [120.708237, 24.191286], [120.708274, 24.191565], [120.708372, 24.191781], [120.708533, 24.192019], [120.708741, 24.192239], [120.709037, 24.192389], [120.709358, 24.192466], [120.709642, 24.192482], [120.709939, 24.192417], [120.710256, 24.192266], [120.710466, 24.19211], [120.710599, 24.191922], [120.71065, 24.191855], [120.710673, 24.192062], [120.710655, 24.192633], [120.710731, 24.193192], [120.710316, 24.193481], [120.709788, 24.193593], [120.709469, 24.194058], [120.709242, 24.19429], [120.709108, 24.194477], [120.70886, 24.194768], [120.70874, 24.195052], [120.708591, 24.195297], [120.708228, 24.196088], [120.708267, 24.196394], [120.708513, 24.196976], [120.708443, 24.19704], [120.708244, 24.197053], [120.708089, 24.197131], [120.7076, 24.197092], [120.70748, 24.197292], [120.707494, 24.19777], [120.707013, 24.198074], [120.706878, 24.198093], [120.706649, 24.198258], [120.706236, 24.197943], [120.705879, 24.19781], [120.705797, 24.197558], [120.705351, 24.197439], [120.705286, 24.197363], [120.705326, 24.196939], [120.705446, 24.196737], [120.705643, 24.196557], [120.705936, 24.196373], [120.705988, 24.196265], [120.705914, 24.195939], [120.705797, 24.195815], [120.70536, 24.195501], [120.705113, 24.19527], [120.705039, 24.195029], [120.705144, 24.194826], [120.7056, 24.194843], [120.705748, 24.194635], [120.705563, 24.194264], [120.705421, 24.193607], [120.705261, 24.193286], [120.704885, 24.192763], [120.704682, 24.192466], [120.704651, 24.192274], [120.704774, 24.19219], [120.705397, 24.192044], [120.705495, 24.191909], [120.705508, 24.191785], [120.705243, 24.19047], [120.705083, 24.190279], [120.704645, 24.189936], [120.704306, 24.189728], [120.704356, 24.189604], [120.704654, 24.189417], [120.704958, 24.189074], [120.704831, 24.188874], [120.704531, 24.188699], [120.7044, 24.188676], [120.703565, 24.188669], [120.703473, 24.188644], [120.703413, 24.188518], [120.703335, 24.188037], [120.703384, 24.187933], [120.703466, 24.187908], [120.703692, 24.187904], [120.703869, 24.187869], [120.704089, 24.18784], [120.704191, 24.187733], [120.704255, 24.187575], [120.704081, 24.186601], [120.703894, 24.186505], [120.70365, 24.18675], [120.703626, 24.186891], [120.702951, 24.186935], [120.702902, 24.186577], [120.703444, 24.186538], [120.703413, 24.186285], [120.703567, 24.186279], [120.703746, 24.186285], [120.703383, 24.185861], [120.702919, 24.185877], [120.702804, 24.185881], [120.702748, 24.185284], [120.702372, 24.182333]]]}, "properties": {"display_name": "臺中市捷運文心北屯線機廠及車站區段徵收, 舊社里, 北屯區, 臺中市, 406, 臺灣", "type": "residential", "osm_type": "way", "osm_id": 343357878, "class": null, "keyword": "市中心"}}, {"type": "Feature", "geometry": {"type": "Polygon", "coordinates": [[[120.592289, 24.153624], [120.593365, 24.1534], [120.592914, 24.151762], [120.592969, 24.151539], [120.59308, 24.151401], [120.593618, 24.151149], [120.594646, 24.150781], [120.595766, 24.150295], [120.596101, 24.150159], [120.596541, 24.149901], [120.596876, 24.149678], [120.59722, 24.149484], [120.597332, 24.149361], [120.597486, 24.149218], [120.597727, 24.148909], [120.597975, 24.148595], [120.598232, 24.148215], [120.598456, 24.147893], [120.598838, 24.14713], [120.599453, 24.146084], [120.600001, 24.145095], [120.600438, 24.144305], [120.600771, 24.14372], [120.601045, 24.143358], [120.601397, 24.143073], [120.601144, 24.142861], [120.601013, 24.142815], [120.60059, 24.142624], [120.60059, 24.142515], [120.600523, 24.141901], [120.601509, 24.14199], [120.601632, 24.141987], [120.602191, 24.141828], [120.602404, 24.141782], [120.60248, 24.141796], [120.602684, 24.141838], [120.60285, 24.141849], [120.603089, 24.141889], [120.603214, 24.141937], [120.603281, 24.141937], [120.603389, 24.141923], [120.603547, 24.141926], [120.603643, 24.141899], [120.603777, 24.141846], [120.603952, 24.141817], [120.604141, 24.141806], [120.604296, 24.141777], [120.604447, 24.141758], [120.60464, 24.141769], [120.604488, 24.142466], [120.604325, 24.142873], [120.604424, 24.142955], [120.60457, 24.143115], [120.604695, 24.143293], [120.604905, 24.143684], [120.605138, 24.144091], [120.605398, 24.14453], [120.605572, 24.144833], [120.605762, 24.145134], [120.60601, 24.145493], [120.60624, 24.145775], [120.606636, 24.146264], [120.606753, 24.146474], [120.606791, 24.146586], [120.606864, 24.146786], [120.606916, 24.147046], [120.606928, 24.147192], [120.606922, 24.147301], [120.606898, 24.147507], [120.606821, 24.147748], [120.606596, 24.14827], [120.606462, 24.148475], [120.606311, 24.148653], [120.606089, 24.148847], [120.605865, 24.148993], [120.605608, 24.149105], [120.60532, 24.149193], [120.604305, 24.149461], [120.603195, 24.149757], [120.602107, 24.150049], [120.600638, 24.150446], [120.599487, 24.150749], [120.598983, 24.150882], [120.598406, 24.15107], [120.598169, 24.151187], [120.597919, 24.151363], [120.597633, 24.151637], [120.59726, 24.152132], [120.596869, 24.152603], [120.596327, 24.15314], [120.595686, 24.153717], [120.595319, 24.15394], [120.594638, 24.154165], [120.594124, 24.154339], [120.593879, 24.154288], [120.593752, 24.154266], [120.593633, 24.154165], [120.593325, 24.154252], [120.592653, 24.154353], [120.59255, 24.154216], [120.592479, 24.153826], [120.592289, 24.153624]]]}, "properties": {"display_name": "臺中市精密機械科技創新園區, 南屯區, 臺中市, 臺灣", "type": "industrial", "osm_type": "way", "osm_id": 275400481, "class": null, "keyword": "市中心"}}, {"type": "Feature", "geometry": {"type": "Polygon", "coordinates": [[[120.623734, 24.135556], [120.624231, 24.134143], [120.624269, 24.134035], [120.625295, 24.132602], [120.62612, 24.131551], [120.627405, 24.130136], [120.631781, 24.125885], [120.63411, 24.129723], [120.634214, 24.129946], [120.633447, 24.132312], [120.631295, 24.13351], [120.63047, 24.134009], [120.628912, 24.136125], [120.628773, 24.136509], [120.623734, 24.135556]]]}, "properties": {"display_name": "高鐵新市鎮自辦重劃區 (單元五), 南屯區, 田心, 臺中市, 408004, 臺灣", "type": "quarter", "osm_type": "way", "osm_id": 340940429, "class": null, "keyword": "市中心"}}, {"type": "Feature", "geometry": {"type": "Polygon", "coordinates": [[[120.704727, 24.162941], [120.705049, 24.162886], [120.70632, 24.162844], [120.70648, 24.162934], [120.706578, 24.162948], [120.706821, 24.162849], [120.707307, 24.162501], [120.708477, 24.161568], [120.708967, 24.161185], [120.709148, 24.160903], [120.709363, 24.160774], [120.709728, 24.160891], [120.709854, 24.160995], [120.710064, 24.161222], [120.711474, 24.161232], [120.711604, 24.161208], [120.7134, 24.160785], [120.713781, 24.16214], [120.7141, 24.163003], [120.714337, 24.163379], [120.714822, 24.164023], [120.712701, 24.164402], [120.711354, 24.164489], [120.705823, 24.164586], [120.705748, 24.16457], [120.705163, 24.163805], [120.704889, 24.163377], [120.704727, 24.162941]]]}, "properties": {"display_name": "新興自辦市地重劃區, 北屯區, 臺中市, 406, 臺灣", "type": "construction", "osm_type": "way", "osm_id": 1307219325, "class": null, "keyword": "市中心"}}, {"type": "Feature", "geometry": {"type": "Polygon", "coordinates": [[[120.708078, 24.182433], [120.70808, 24.182385], [120.709459, 24.182402], [120.710548, 24.182447], [120.710627, 24.182447], [120.710693, 24.182446], [120.710718, 24.182454], [120.710744, 24.18248], [120.710761, 24.182515], [120.710778, 24.182562], [120.71083, 24.182802], [120.710908, 24.18321], [120.711026, 24.183732], [120.711039, 24.184345], [120.711018, 24.184827], [120.710956, 24.185098], [120.710848, 24.185403], [120.710599, 24.18582], [120.710441, 24.186103], [120.710278, 24.18655], [120.710189, 24.187053], [120.710198, 24.187538], [120.710248, 24.187805], [120.710361, 24.188211], [120.710499, 24.188482], [120.711129, 24.189278], [120.711251, 24.189523], [120.711333, 24.18977], [120.711371, 24.190021], [120.711345, 24.190339], [120.711267, 24.190604], [120.710976, 24.191133], [120.71076, 24.191616], [120.71065, 24.191855], [120.710599, 24.191922], [120.710466, 24.19211], [120.710256, 24.192266], [120.709939, 24.192417], [120.709642, 24.192482], [120.709358, 24.192466], [120.709037, 24.192389], [120.708741, 24.192239], [120.708533, 24.192019], [120.708372, 24.191781], [120.708274, 24.191565], [120.708237, 24.191286], [120.70831, 24.190287], [120.708435, 24.189185], [120.708794, 24.187847], [120.709327, 24.186068], [120.70988, 24.184537], [120.710058, 24.184003], [120.710104, 24.183742], [120.710119, 24.183505], [120.709965, 24.183], [120.709906, 24.182762], [120.709668, 24.18262], [120.709623, 24.182614], [120.708716, 24.182491], [120.708078, 24.182433]]]}, "properties": {"display_name": "臺中捷運北屯機廠, 北屯區, 臺中市, 406, 臺灣", "type": "railway", "osm_type": "way", "osm_id": 343357875, "class": null, "keyword": "中心城区"}}, {"type": "Feature", "geometry": {"type": "Polygon", "coordinates": [[[120.610928, 24.113671], [120.61163, 24.112809], [120.611778, 24.112746], [120.611939, 24.112467], [120.611821, 24.111573], [120.611703, 24.11063], [120.613497, 24.11043], [120.613382, 24.110719], [120.614541, 24.111568], [120.614712, 24.113595], [120.61453, 24.113612], [120.614575, 24.113884], [120.614074, 24.113928], [120.613843, 24.114087], [120.612859, 24.115199], [120.610928, 24.113671]]]}, "properties": {"display_name": "D-ONE 第一大天地, 烏日區, 烏日高鐵特區, 臺中市, 414, 臺灣", "type": "construction", "osm_type": "way", "osm_id": 781699866, "class": null, "keyword": "市中心"}}, {"type": "Feature", "geometry": {"type": "Polygon", "coordinates": [[[120.652029, 24.184587], [120.652055, 24.182142], [120.652047, 24.181057], [120.652043, 24.18044], [120.65211, 24.180377], [120.655018, 24.180381], [120.65501, 24.180539], [120.654996, 24.180694], [120.654975, 24.180845], [120.654928, 24.181108], [120.654824, 24.181548], [120.654685, 24.181927], [120.654646, 24.182018], [120.654577, 24.182175], [120.654389, 24.18252], [120.654153, 24.182879], [120.653915, 24.183198], [120.653534, 24.183596], [120.653139, 24.183934], [120.652761, 24.184206], [120.652337, 24.184441], [120.652029, 24.184587]]]}, "properties": {"display_name": "臺中超巨蛋 BOT 基地, 西屯區, 水湳經貿園區, 臺中市, 臺灣", "type": "brownfield", "osm_type": "way", "osm_id": 1391518117, "class": null, "keyword": "市中心"}}, {"type": "Feature", "geometry": {"type": "Polygon", "coordinates": [[[120.720393, 24.236473], [120.720539, 24.233771], [120.720928, 24.233364], [120.7229, 24.233378], [120.72357, 24.233492], [120.72417, 24.23376], [120.724632, 24.234139], [120.724661, 24.234342], [120.724184, 24.234513], [120.723272, 24.235049], [120.720859, 24.23517], [120.720903, 24.236469], [120.720393, 24.236473]]]}, "properties": {"display_name": "臺中市豐原水資源回收中心, 豐原區, 臺中市, 臺灣", "type": "industrial", "osm_type": "way", "osm_id": 694224022, "class": null, "keyword": "市中心"}}, {"type": "Feature", "geometry": {"type": "Polygon", "coordinates": [[[120.608637, 24.146459], [120.610896, 24.145929], [120.6117, 24.148702], [120.609538, 24.149258], [120.608637, 24.146459]]]}, "properties": {"display_name": "國立臺中科技大學南屯校區中護健康學院新建工程, 南屯區, 臺中市, 臺灣", "type": "construction", "osm_type": "way", "osm_id": 916919866, "class": null, "keyword": "中心城区"}}, {"type": "Feature", "geometry": {"type": "Polygon", "coordinates": [[[120.620475, 24.109613], [120.620563, 24.109577], [120.623408, 24.109302], [120.623422, 24.10953], [120.624725, 24.109407], [120.625078, 24.109372], [120.625424, 24.109346], [120.625585, 24.110423], [120.625233, 24.110448], [120.624089, 24.110565], [120.624065, 24.11041], [120.623266, 24.110511], [120.623278, 24.110645], [120.622283, 24.11074], [120.620935, 24.110877], [120.620592, 24.110921], [120.620582, 24.110796], [120.620771, 24.1107], [120.620517, 24.110382], [120.620753, 24.110321], [120.620475, 24.109613]]]}, "properties": {"display_name": "臺鐵工務養護總隊暨中區訓練中心籌備處, 225, 烏日區, 烏日高鐵特區, 臺中市, 414, 臺灣", "type": "railway", "osm_type": "way", "osm_id": 146337726, "class": null, "keyword": "中央区"}}, {"type": "Feature", "geometry": {"type": "MultiPolygon", "coordinates": [[[[120.720465, 24.076497], [120.720902, 24.076375], [120.721102, 24.076336], [120.721541, 24.076476], [120.721787, 24.076497], [120.722084, 24.076511], [120.722145, 24.076677], [120.72221, 24.076755], [120.722314, 24.076811], [120.72237, 24.076887], [120.722456, 24.077049], [120.722569, 24.076995], [120.722708, 24.077108], [120.722858, 24.077099], [120.723124, 24.076989], [120.723294, 24.077108], [120.722439, 24.077417], [120.721698, 24.07769], [120.720734, 24.078026], [120.720465, 24.076497]]], [[[120.720774, 24.078119], [120.722495, 24.077497], [120.723742, 24.077051], [120.724224, 24.077136], [120.724257, 24.077168], [120.723974, 24.077593], [120.723736, 24.077772], [120.723663, 24.077848], [120.723522, 24.078046], [120.723353, 24.078278], [120.72316, 24.078529], [120.722878, 24.078579], [120.72253, 24.078603], [120.721769, 24.078657], [120.72149, 24.07874], [120.721251, 24.078643], [120.721008, 24.078611], [120.720875, 24.078596], [120.720774, 24.078119]]]]}, "properties": {"display_name": "國立中興大學葡萄試驗中心, 305之5, 霧峰區, 臺中市, 413, 臺灣", "type": "farmyard", "osm_type": "relation", "osm_id": 14240478, "class": null, "keyword": "市中心"}}, {"type": "Feature", "geometry": {"type": "Polygon", "coordinates": [[[120.652029, 24.178236], [120.652071, 24.178198], [120.654532, 24.178196], [120.654663, 24.17848], [120.654762, 24.178752], [120.65488, 24.179094], [120.654961, 24.179493], [120.655003, 24.179839], [120.653893, 24.179845], [120.653736, 24.179837], [120.652107, 24.179833], [120.652039, 24.179772], [120.652029, 24.178236]]]}, "properties": {"display_name": "臺中超巨蛋 BOT 基地, 水湳經貿園區, 西屯區, 水湳經貿園區, 臺中市, 臺灣", "type": "brownfield", "osm_type": "way", "osm_id": 1391518516, "class": null, "keyword": "市中心"}}, {"type": "Feature", "geometry": {"type": "Polygon", "coordinates": [[[120.696613, 24.179433], [120.696666, 24.17856], [120.698252, 24.178607], [120.698387, 24.178733], [120.698632, 24.179104], [120.699072, 24.180141], [120.699178, 24.180804], [120.699151, 24.180852], [120.698663, 24.181039], [120.698504, 24.180822], [120.698416, 24.180745], [120.698031, 24.180582], [120.697263, 24.180187], [120.697197, 24.180134], [120.696971, 24.179949], [120.69695, 24.179932], [120.696802, 24.179749], [120.69662, 24.179525], [120.696613, 24.179433]]]}, "properties": {"display_name": "北新國中, 180, 柳陽東街, 舊社里, 北屯區, 臺中市, 40649, 臺灣", "type": "school", "osm_type": "way", "osm_id": 331796776, "class": null, "keyword": "市中心"}}, {"type": "Feature", "geometry": {"type": "Polygon", "coordinates": [[[120.68537, 24.157074], [120.685497, 24.156776], [120.686907, 24.156586], [120.687118, 24.157101], [120.687857, 24.158895], [120.685692, 24.158934], [120.685738, 24.157393], [120.685731, 24.157313], [120.685695, 24.157261], [120.68537, 24.157074]]]}, "properties": {"display_name": "新民高中, 111, 健行路, 金龍里, 北區, 臺中市, 40459, 臺灣", "type": "school", "osm_type": "way", "osm_id": 312688699, "class": null, "keyword": "市中心"}}, {"type": "Feature", "geometry": {"type": "Polygon", "coordinates": [[[120.666937, 24.122148], [120.666968, 24.121071], [120.668788, 24.121082], [120.669581, 24.121087], [120.669828, 24.121106], [120.669832, 24.122174], [120.669763, 24.122249], [120.667024, 24.122246], [120.666937, 24.122148]]]}, "properties": {"display_name": "信義國小, 325, 五權南路, 平和里, 南區, 樹王, 臺中市, 40246, 臺灣", "type": "school", "osm_type": "way", "osm_id": 240137754, "class": null, "keyword": "市中心"}}, {"type": "Feature", "geometry": {"type": "Polygon", "coordinates": [[[120.703008, 24.165605], [120.703265, 24.165461], [120.703045, 24.165091], [120.703268, 24.164974], [120.704529, 24.164984], [120.70524, 24.166386], [120.705384, 24.166748], [120.705467, 24.167377], [120.705301, 24.167509], [120.705162, 24.167331], [120.704944, 24.167353], [120.704724, 24.166513], [120.703933, 24.166183], [120.703193, 24.165801], [120.703008, 24.165605]]]}, "properties": {"display_name": "新興自辦市地重劃區, 三和里, 北屯區, 臺中市, 406, 臺灣", "type": "construction", "osm_type": "way", "osm_id": 1307219327, "class": null, "keyword": "市中心"}}, {"type": "Feature", "geometry": {"type": "Polygon", "coordinates": [[[120.470141, 24.221596], [120.471611, 24.221078], [120.472271, 24.222609], [120.47079, 24.223123], [120.470141, 24.221596]]]}, "properties": {"display_name": "西門子歌美颯台中機艙廠, 龍井區, 臺中市, 臺灣", "type": "industrial", "osm_type": "way", "osm_id": 1110023566, "class": null, "keyword": "district"}}, {"type": "Feature", "geometry": {"type": "Polygon", "coordinates": [[[120.722546, 24.248537], [120.722702, 24.248481], [120.722699, 24.248355], [120.723765, 24.247507], [120.723831, 24.247512], [120.724784, 24.248797], [120.724768, 24.248836], [120.723533, 24.24966], [120.72345, 24.249567], [120.722546, 24.248537]]]}, "properties": {"display_name": "南陽國小, 440, 南陽路, 中陽里, 豐原區, 臺中市, 42087, 臺灣", "type": "school", "osm_type": "way", "osm_id": 375212970, "class": null, "keyword": "中央区"}}, {"type": "Feature", "geometry": {"type": "Polygon", "coordinates": [[[120.707469, 24.157262], [120.707475, 24.157212], [120.707493, 24.15716], [120.707513, 24.157125], [120.707551, 24.157067], [120.707606, 24.157001], [120.708462, 24.157063], [120.708496, 24.15738], [120.70937, 24.157223], [120.709608, 24.157323], [120.709827, 24.157353], [120.709987, 24.157443], [120.710118, 24.157497], [120.710144, 24.157566], [120.710187, 24.157609], [120.710236, 24.158146], [120.708755, 24.158198], [120.707955, 24.158223], [120.707512, 24.157479], [120.707491, 24.157419], [120.707475, 24.157359], [120.707471, 24.15731], [120.707469, 24.157262]]]}, "properties": {"display_name": "新光國中, 139, 樹德九街, 新興里, 太平區, 臺中市, 41171, 臺灣", "type": "school", "osm_type": "way", "osm_id": 224841119, "class": null, "keyword": "市中心"}}, {"type": "Feature", "geometry": {"type": "Polygon", "coordinates": [[[120.685209, 24.198762], [120.68521, 24.197987], [120.686343, 24.197995], [120.686441, 24.200717], [120.685249, 24.200713], [120.685249, 24.200655], [120.685369, 24.200605], [120.685469, 24.200547], [120.68558, 24.200472], [120.685673, 24.200379], [120.685748, 24.200271], [120.685808, 24.200147], [120.685861, 24.199997], [120.685891, 24.199854], [120.685902, 24.199686], [120.685881, 24.199544], [120.685852, 24.199428], [120.685788, 24.199292], [120.685709, 24.199187], [120.685597, 24.199083], [120.685464, 24.198985], [120.685338, 24.198888], [120.685209, 24.198762]]]}, "properties": {"display_name": "漢神洲際購物中心興建工程, 四民里, 北屯區, 臺中市, 406, 臺灣", "type": "construction", "osm_type": "way", "osm_id": 1038988550, "class": null, "keyword": "中心城区"}}, {"type": "Feature", "geometry": {"type": "Polygon", "coordinates": [[[120.728393, 24.166536], [120.728411, 24.166275], [120.728457, 24.165871], [120.728524, 24.165577], [120.729205, 24.165572], [120.729498, 24.165836], [120.729862, 24.165831], [120.730144, 24.165572], [120.730764, 24.165569], [120.730831, 24.165568], [120.730839, 24.166539], [120.730782, 24.166588], [120.728453, 24.166588], [120.728393, 24.166536]]]}, "properties": {"display_name": "臺中市網球中心 二期工程預定地, 廍子里, 北屯區, 臺中市, 406, 臺灣", "type": "construction", "osm_type": "way", "osm_id": 699058284, "class": null, "keyword": "市中心"}}, {"type": "Feature", "geometry": {"type": "Polygon", "coordinates": [[[120.705896, 24.161146], [120.705899, 24.160235], [120.705998, 24.160207], [120.705926, 24.160012], [120.705946, 24.159621], [120.70602, 24.159571], [120.707269, 24.159492], [120.70735, 24.159633], [120.707251, 24.159729], [120.707288, 24.161136], [120.705896, 24.161146]]]}, "properties": {"display_name": "新光國小, 200, 新興路, 新興里, 太平區, 臺中市, 41157, 臺灣", "type": "school", "osm_type": "way", "osm_id": 443427577, "class": null, "keyword": "市中心"}}, {"type": "Feature", "geometry": {"type": "Polygon", "coordinates": [[[120.830191, 24.243653], [120.830321, 24.243168], [120.8305, 24.242735], [120.830645, 24.242497], [120.831984, 24.242732], [120.831905, 24.243319], [120.831823, 24.243933], [120.830866, 24.243792], [120.830191, 24.243653]]]}, "properties": {"display_name": "新盛國小, 342, 新盛街, 新盛里, 東勢區, 東勢角, 臺中市, 423311, 臺灣", "type": "school", "osm_type": "way", "osm_id": 321094610, "class": null, "keyword": "市中心"}}, {"type": "Feature", "geometry": {"type": "Polygon", "coordinates": [[[120.6959, 24.10434], [120.696437, 24.104363], [120.69691, 24.104364], [120.697451, 24.10436], [120.698349, 24.104376], [120.698418, 24.104374], [120.698386, 24.105408], [120.698347, 24.105592], [120.697821, 24.105294], [120.69772, 24.105248], [120.696077, 24.104826], [120.69604, 24.104801], [120.6959, 24.10434]]]}, "properties": {"display_name": "立新國中, 236, 甲堤路, 立仁里, 大里區, 大突寮, 臺中市, 41248, 臺灣", "type": "assembly_point", "osm_type": "relation", "osm_id": 9431488, "class": null, "keyword": "市中心"}}, {"type": "Feature", "geometry": {"type": "Polygon", "coordinates": [[[120.6862, 24.138185], [120.686779, 24.138185], [120.686792, 24.138492], [120.687555, 24.138525], [120.6876, 24.13896], [120.687144, 24.138953], [120.687147, 24.139464], [120.687358, 24.139463], [120.687359, 24.139613], [120.687291, 24.139614], [120.687292, 24.139728], [120.686964, 24.13973], [120.686966, 24.140073], [120.686213, 24.140078], [120.6862, 24.138185]]]}, "properties": {"display_name": "大臺中轉運中心興建工程, 干城里, 東區, 臺中市, 401, 臺灣", "type": "construction", "osm_type": "relation", "osm_id": 17207057, "class": null, "keyword": "中心城区"}}, {"type": "Feature", "geometry": {"type": "Polygon", "coordinates": [[[120.646942, 24.145032], [120.648001, 24.145023], [120.648011, 24.146698], [120.646952, 24.146694], [120.646942, 24.145032]]]}, "properties": {"display_name": "大新國小, 280, 文心路一段, 文心里, 南屯區, 田心, 臺中市, 40866, 臺灣", "type": "school", "osm_type": "way", "osm_id": 297490316, "class": null, "keyword": "市中心"}}, {"type": "Feature", "geometry": {"type": "Polygon", "coordinates": [[[120.719533, 24.154485], [120.720889, 24.153808], [120.721596, 24.154788], [120.720058, 24.155272], [120.719533, 24.154485]]]}, "properties": {"display_name": "新平國小, 9, 樹孝路336巷, 新城里, 太平區, 臺中市, 41169, 臺灣", "type": "school", "osm_type": "way", "osm_id": 342678249, "class": null, "keyword": "市中心"}}, {"type": "Feature", "geometry": {"type": "Polygon", "coordinates": [[[120.698347, 24.105592], [120.698386, 24.105408], [120.698418, 24.104374], [120.698607, 24.104397], [120.698927, 24.104493], [120.699484, 24.104672], [120.69989, 24.104782], [120.699799, 24.105292], [120.699723, 24.105516], [120.699699, 24.10557], [120.699593, 24.105704], [120.699561, 24.105758], [120.69946, 24.105833], [120.699422, 24.10582], [120.698347, 24.105592]]]}, "properties": {"display_name": "立新國小, 338, 立信街, 立仁里, 大里區, 大突寮, 臺中市, 41247, 臺灣", "type": "assembly_point", "osm_type": "relation", "osm_id": 9431487, "class": null, "keyword": "市中心"}}, {"type": "Feature", "geometry": {"type": "Polygon", "coordinates": [[[120.630644, 24.173189], [120.6318, 24.172389], [120.631826, 24.172383], [120.632643, 24.172489], [120.632799, 24.172625], [120.632835, 24.172754], [120.632841, 24.172794], [120.632945, 24.172809], [120.632985, 24.172807], [120.633054, 24.172817], [120.633095, 24.172859], [120.633185, 24.173196], [120.633059, 24.173236], [120.632914, 24.173268], [120.632728, 24.173298], [120.632519, 24.173312], [120.632354, 24.173315], [120.631622, 24.17329], [120.630925, 24.173249], [120.630744, 24.173213], [120.630644, 24.173189]]]}, "properties": {"display_name": "高公局中區工程處, 55, 臺灣大道四段5巷, 潮洋里, 西屯區, 臺中七期, 臺中市, 40755, 臺灣", "type": "government", "osm_type": "relation", "osm_id": 5120881, "class": null, "keyword": "central area"}}, {"type": "Feature", "geometry": {"type": "Polygon", "coordinates": [[[120.681785, 24.172783], [120.683395, 24.172561], [120.683449, 24.173496], [120.683407, 24.173546], [120.681916, 24.173735], [120.681785, 24.172783]]]}, "properties": {"display_name": "文心國小, 575, 文心路四段, 平和里, 北屯區, 臺中市, 40666, 臺灣", "type": "school", "osm_type": "way", "osm_id": 257056698, "class": null, "keyword": "市中心"}}, {"type": "Feature", "geometry": {"type": "Polygon", "coordinates": [[[120.549463, 24.271463], [120.549463, 24.271417], [120.549465, 24.271397], [120.54947, 24.271376], [120.549473, 24.271366], [120.549483, 24.271349], [120.549497, 24.271333], [120.549508, 24.271324], [120.549525, 24.271317], [120.549545, 24.271314], [120.549565, 24.271313], [120.549745, 24.271337], [120.549904, 24.271349], [120.549965, 24.271352], [120.550111, 24.271356], [120.550196, 24.271358], [120.550233, 24.271359], [120.55024, 24.271368], [120.550278, 24.27142], [120.550365, 24.271535], [120.551134, 24.272563], [120.551104, 24.272572], [120.551024, 24.272599], [120.550535, 24.272784], [120.550481, 24.272804], [120.550086, 24.272953], [120.55005, 24.272872], [120.549946, 24.27263], [120.549869, 24.272449], [120.549833, 24.272367], [120.549777, 24.272235], [120.549712, 24.272083], [120.549648, 24.271935], [120.549582, 24.271783], [120.54954, 24.271688], [120.549505, 24.27161], [120.549473, 24.271527], [120.549466, 24.271498], [120.549463, 24.271463]]]}, "properties": {"display_name": "清水國民暨兒童運動中心建築工程, 中社里, 清水區, 台中港市鎮中心, 臺中市, 臺灣", "type": "construction", "osm_type": "way", "osm_id": 1075782632, "class": null, "keyword": "中心城区"}}, {"type": "Feature", "geometry": {"type": "Polygon", "coordinates": [[[120.520004, 24.292604], [120.520183, 24.292543], [120.520133, 24.292489], [120.520967, 24.292205], [120.521858, 24.293158], [120.521597, 24.293361], [120.521333, 24.293451], [120.521106, 24.293497], [120.52089, 24.293568], [120.520004, 24.292604]]]}, "properties": {"display_name": "梧棲漁港魚貨直銷中心, 30, 清水區, 臺中市, 43650, 臺灣", "type": "retail", "osm_type": "way", "osm_id": 733215352, "class": null, "keyword": "市中心"}}, {"type": "Feature", "geometry": {"type": "Polygon", "coordinates": [[[120.667566, 24.138875], [120.668505, 24.138061], [120.669213, 24.138722], [120.669213, 24.138752], [120.669213, 24.138769], [120.669213, 24.13879], [120.668289, 24.139568], [120.667566, 24.138875]]]}, "properties": {"display_name": "忠信國小, 155, 林森路, 公民里, 西區, 臺中市, 40345, 臺灣", "type": "school", "osm_type": "way", "osm_id": 240137759, "class": null, "keyword": "市中心"}}, {"type": "Feature", "geometry": {"type": "Polygon", "coordinates": [[[120.721362, 24.147086], [120.721375, 24.1466], [120.722254, 24.146389], [120.722593, 24.147645], [120.722562, 24.147684], [120.721925, 24.147889], [120.721876, 24.147877], [120.721577, 24.147411], [120.721362, 24.147086]]]}, "properties": {"display_name": "太平區聯合行政中心興建工程, 中山里, 太平區, 臺中市, 411, 臺灣", "type": "construction", "osm_type": "way", "osm_id": 1111207007, "class": null, "keyword": "中心城区"}}, {"type": "Feature", "geometry": {"type": "Polygon", "coordinates": [[[120.685076, 24.182382], [120.68604, 24.182361], [120.686072, 24.183556], [120.685108, 24.183578], [120.685076, 24.182382]]]}, "properties": {"display_name": "北屯國民暨兒童運動中心建築工程, 仁和里, 北屯區, 臺中市, 406, 臺灣", "type": "construction", "osm_type": "way", "osm_id": 1075777012, "class": null, "keyword": "中心城区"}}, {"type": "Feature", "geometry": {"type": "Polygon", "coordinates": [[[120.662278, 24.194004], [120.662299, 24.193934], [120.662318, 24.19392], [120.662802, 24.194164], [120.663094, 24.194396], [120.66329, 24.194588], [120.663608, 24.194929], [120.663177, 24.195399], [120.663095, 24.195407], [120.662475, 24.194937], [120.662331, 24.194794], [120.66228, 24.194634], [120.662278, 24.194004]]]}, "properties": {"display_name": "新興國小, 20, 新興路, 同榮里, 北屯區, 水湳經貿園區, 臺中市, 40682, 臺灣", "type": "school", "osm_type": "way", "osm_id": 340060626, "class": null, "keyword": "市中心"}}, {"type": "Feature", "geometry": {"type": "Polygon", "coordinates": [[[120.641183, 24.15808], [120.641738, 24.157773], [120.641811, 24.15778], [120.64246, 24.158756], [120.642437, 24.158884], [120.641803, 24.159235], [120.6415, 24.158778], [120.641607, 24.158718], [120.641183, 24.15808]]]}, "properties": {"display_name": "豐邑建設商場商辦建地, 惠來里, 西屯區, 臺中七期, 臺中市, 臺灣", "type": "brownfield", "osm_type": "way", "osm_id": 853853440, "class": null, "keyword": "市中心"}}, {"type": "Feature", "geometry": {"type": "Polygon", "coordinates": [[[120.629309, 24.168199], [120.629415, 24.168199], [120.629654, 24.168188], [120.629832, 24.168188], [120.630043, 24.168178], [120.630177, 24.168092], [120.630522, 24.168031], [120.6307, 24.168021], [120.630761, 24.168143], [120.630794, 24.168422], [120.630772, 24.168645], [120.6307, 24.168823], [120.630622, 24.168782], [120.630438, 24.168767], [120.630093, 24.168762], [120.629804, 24.168747], [120.629434, 24.168771], [120.629342, 24.168777], [120.629315, 24.16865], [120.629315, 24.168523], [120.629309, 24.168422], [120.629309, 24.168325], [120.629309, 24.168199]]]}, "properties": {"display_name": "高仕高爾夫球中心, 龍潭里, 西屯區, 臺中七期, 臺中市, 臺灣", "type": "grass", "osm_type": "way", "osm_id": 100955723, "class": null, "keyword": "市中心"}}, {"type": "Feature", "geometry": {"type": "Polygon", "coordinates": [[[120.616197, 24.176188], [120.616212, 24.176184], [120.616765, 24.176017], [120.617325, 24.177329], [120.616674, 24.17751], [120.616383, 24.176702], [120.616197, 24.176188]]]}, "properties": {"display_name": "台中世界貿易中心, 60, 天保街, 福和里, 西屯區, 臺中市, 407017, 臺灣", "type": "commercial", "osm_type": "way", "osm_id": 614318376, "class": null, "keyword": "市中心"}}, {"type": "Feature", "geometry": {"type": "Polygon", "coordinates": [[[120.686145, 24.141464], [120.686163, 24.140318], [120.686228, 24.140265], [120.686783, 24.140258], [120.68682, 24.141457], [120.686145, 24.141464]]]}, "properties": {"display_name": "干城轉運中心, 干城里, 東區, 臺中市, 401, 臺灣", "type": "construction", "osm_type": "way", "osm_id": 339737493, "class": null, "keyword": "中心城区"}}, {"type": "Feature", "geometry": {"type": "Polygon", "coordinates": [[[120.734679, 24.156915], [120.734685, 24.156884], [120.734703, 24.156858], [120.734737, 24.156833], [120.734766, 24.156818], [120.734805, 24.156817], [120.734843, 24.156825], [120.734883, 24.156846], [120.734908, 24.156873], [120.734932, 24.15692], [120.735076, 24.156886], [120.735213, 24.156871], [120.735212, 24.156844], [120.735331, 24.15684], [120.735527, 24.156858], [120.73568, 24.156891], [120.735758, 24.15691], [120.735726, 24.157002], [120.73589, 24.157072], [120.735928, 24.157026], [120.736063, 24.157116], [120.73604, 24.157145], [120.736122, 24.157216], [120.736103, 24.157228], [120.736175, 24.157305], [120.736102, 24.157363], [120.736146, 24.157428], [120.736108, 24.157457], [120.736089, 24.157435], [120.736, 24.15749], [120.735958, 24.157435], [120.735846, 24.157342], [120.73582, 24.157371], [120.735769, 24.157338], [120.735791, 24.1573], [120.7357, 24.157259], [120.735669, 24.15731], [120.735644, 24.157416], [120.735669, 24.157443], [120.735615, 24.157509], [120.735568, 24.157543], [120.735583, 24.157586], [120.735481, 24.157612], [120.735463, 24.157534], [120.735404, 24.157537], [120.735347, 24.157524], [120.735283, 24.157496], [120.735239, 24.157458], [120.735212, 24.157413], [120.735191, 24.157353], [120.735152, 24.157128], [120.735031, 24.157159], [120.734935, 24.157199], [120.734849, 24.157245], [120.734746, 24.157108], [120.734766, 24.157082], [120.734681, 24.156955], [120.734679, 24.156915]]]}, "properties": {"display_name": "臺中市屯區藝文中心, 201, 大興路, 光華里, 太平區, 臺中市, 411, 臺灣", "type": "arts_centre", "osm_type": "way", "osm_id": 244567975, "class": null, "keyword": "市中心"}}, {"type": "Feature", "geometry": {"type": "Polygon", "coordinates": [[[120.687121, 24.135828], [120.687396, 24.135292], [120.687749, 24.135442], [120.68779, 24.135362], [120.688106, 24.135497], [120.688067, 24.135574], [120.6882, 24.135631], [120.68805, 24.135925], [120.688003, 24.135905], [120.687981, 24.135949], [120.687951, 24.135937], [120.687927, 24.135986], [120.687994, 24.136014], [120.687921, 24.136156], [120.687882, 24.136139], [120.687821, 24.136258], [120.687834, 24.136286], [120.687827, 24.136312], [120.687806, 24.136327], [120.687782, 24.136336], [120.687757, 24.13633], [120.687737, 24.136318], [120.687728, 24.136293], [120.687642, 24.136257], [120.687465, 24.136233], [120.687359, 24.136188], [120.687467, 24.135976], [120.687121, 24.135828]], [[120.687519, 24.136151], [120.687737, 24.136243], [120.68789, 24.13595], [120.687821, 24.135916], [120.687636, 24.135928], [120.687588, 24.136005], [120.687519, 24.136151]]]}, "properties": {"display_name": "大魯閣新時代, 186, 復興路四段, 新庄里, 東區, 臺中市, 40144, 臺灣", "type": "mall", "osm_type": "relation", "osm_id": 11523334, "class": null, "keyword": "市中心"}}, {"type": "Feature", "geometry": {"type": "Polygon", "coordinates": [[[120.704735, 24.24804], [120.704736, 24.247552], [120.705084, 24.247577], [120.705435, 24.247747], [120.70582, 24.247809], [120.705786, 24.248185], [120.704735, 24.24804]]]}, "properties": {"display_name": "豐原國民暨兒童運動中心建築工程, 社皮里, 豐原區, 臺中市, 臺灣", "type": "construction", "osm_type": "way", "osm_id": 1075782630, "class": null, "keyword": "中心城区"}}, {"type": "Feature", "geometry": {"type": "Polygon", "coordinates": [[[120.730051, 24.252899], [120.730186, 24.252698], [120.73051, 24.252637], [120.730437, 24.252335], [120.73085, 24.252245], [120.730893, 24.252419], [120.730922, 24.252412], [120.730972, 24.252631], [120.730841, 24.252657], [120.730883, 24.252866], [120.730637, 24.252912], [120.730641, 24.252939], [120.730583, 24.252949], [120.730474, 24.253125], [120.730401, 24.253141], [120.730316, 24.253086], [120.730294, 24.253114], [120.730113, 24.253147], [120.730051, 24.252899]]]}, "properties": {"display_name": "葫蘆墩文化中心, 782, 圓環東路, 南村里, 豐原區, 臺中市, 42048, 臺灣", "type": "arts_centre", "osm_type": "way", "osm_id": 287023797, "class": null, "keyword": "市中心"}}, {"type": "Feature", "geometry": {"type": "Polygon", "coordinates": [[[120.665257, 24.141143], [120.665645, 24.140777], [120.665924, 24.141029], [120.665875, 24.141071], [120.666067, 24.14125], [120.665947, 24.141344], [120.666067, 24.14146], [120.665972, 24.14154], [120.665888, 24.141453], [120.665668, 24.141645], [120.665334, 24.14132], [120.665385, 24.141276], [120.665257, 24.141143]]]}, "properties": {"display_name": "大墩文化中心, 600, 英才路, 安龍里, 西區, 臺中市, 40359, 臺灣", "type": "arts_centre", "osm_type": "way", "osm_id": 240137755, "class": null, "keyword": "市中心"}}, {"type": "Feature", "geometry": {"type": "Polygon", "coordinates": [[[120.63743, 24.164217], [120.638089, 24.163879], [120.638279, 24.164187], [120.637884, 24.16439], [120.638079, 24.164706], [120.637815, 24.164841], [120.63743, 24.164217]]]}, "properties": {"display_name": "老虎城購物中心, 120, 河南路三段, 潮洋里, 西屯區, 臺中七期, 臺中市, 40757, 臺灣", "type": "mall", "osm_type": "way", "osm_id": 150999799, "class": null, "keyword": "中心城区"}}, {"type": "Feature", "geometry": {"type": "Polygon", "coordinates": [[[120.657971, 24.19139], [120.658254, 24.190569], [120.658409, 24.190614], [120.658307, 24.190907], [120.658644, 24.191003], [120.658461, 24.191531], [120.657971, 24.19139]]]}, "properties": {"display_name": "西屯區中央公園好宅, 港尾里, 西屯區, 水湳經貿園區, 臺中市, 臺灣", "type": "construction", "osm_type": "way", "osm_id": 1293823485, "class": null, "keyword": "中央区"}}, {"type": "Feature", "geometry": {"type": "Polygon", "coordinates": [[[120.699652, 24.060468], [120.699945, 24.06035], [120.700145, 24.060555], [120.700294, 24.060879], [120.700305, 24.060981], [120.699815, 24.061096], [120.699677, 24.060606], [120.699703, 24.060583], [120.699652, 24.060468]]]}, "properties": {"display_name": "霧峰聯合行政中心（施工中）, 本堂里, 霧峰區, 臺中市, 413, 臺灣", "type": "construction", "osm_type": "way", "osm_id": 222421338, "class": null, "keyword": "市中心"}}, {"type": "Feature", "geometry": {"type": "Polygon", "coordinates": [[[120.666211, 24.162784], [120.666212, 24.162719], [120.666294, 24.162359], [120.666575, 24.16243], [120.666801, 24.162425], [120.666807, 24.162485], [120.666951, 24.162461], [120.66694, 24.162791], [120.666301, 24.162788], [120.666211, 24.162784]]]}, "properties": {"display_name": "亞昕丰山, 健行里, 北區, 臺中市, 404, 臺灣", "type": "construction", "osm_type": "way", "osm_id": 1208981651, "class": null, "keyword": "市中心"}}, {"type": "Feature", "geometry": {"type": "Polygon", "coordinates": [[[120.727791, 24.148937], [120.72858, 24.148927], [120.728585, 24.149241], [120.727796, 24.149251], [120.727791, 24.148937]]]}, "properties": {"display_name": "太平國民暨兒童運動中心建築工程, 坪林里, 太平區, 臺中市, 411, 臺灣", "type": "construction", "osm_type": "way", "osm_id": 1075782631, "class": null, "keyword": "中心城区"}}, {"type": "Feature", "geometry": {"type": "Polygon", "coordinates": [[[120.642958, 24.158915], [120.643415, 24.15866], [120.643618, 24.158967], [120.643145, 24.15921], [120.642958, 24.158915]]]}, "properties": {"display_name": "中華郵政惠國段大樓新建工程, 惠來里, 西屯區, 臺中七期, 臺中市, 臺灣", "type": "construction", "osm_type": "way", "osm_id": 1114838854, "class": null, "keyword": "中心城区"}}, {"type": "Feature", "geometry": {"type": "Polygon", "coordinates": [[[120.651567, 24.166486], [120.65202, 24.166261], [120.652252, 24.166508], [120.651633, 24.1667], [120.651567, 24.166486]]]}, "properties": {"display_name": "親家建設都更基地, 何安里, 西屯區, 臺中七期, 臺中市, 臺灣", "type": "brownfield", "osm_type": "way", "osm_id": 1377977282, "class": null, "keyword": "市中心"}}, {"type": "Feature", "geometry": {"type": "Polygon", "coordinates": [[[120.533461, 24.260137], [120.533643, 24.260069], [120.533732, 24.260067], [120.533815, 24.260087], [120.533893, 24.260129], [120.533944, 24.260185], [120.53401, 24.260335], [120.533614, 24.260481], [120.533461, 24.260137]]]}, "properties": {"display_name": "台中港酒店, 388, 大智路二段, 頂寮里, 梧棲區, 台中港市鎮中心, 臺中市, 435711, 臺灣", "type": "hotel", "osm_type": "way", "osm_id": 526927354, "class": null, "keyword": "中心商務區"}}, {"type": "Feature", "geometry": {"type": "Polygon", "coordinates": [[[120.53679, 24.262247], [120.536794, 24.262246], [120.536792, 24.262241], [120.536881, 24.262209], [120.536855, 24.262148], [120.537085, 24.262066], [120.537118, 24.262055], [120.537146, 24.262121], [120.537151, 24.262119], [120.537197, 24.262228], [120.537152, 24.262322], [120.536869, 24.262423], [120.536866, 24.262416], [120.536862, 24.262418], [120.53679, 24.262247]]]}, "properties": {"display_name": "臺中港郵局, 129, 四維路, 頂寮里, 梧棲區, 台中港市鎮中心, 臺中市, 435711, 臺灣", "type": "post_office", "osm_type": "way", "osm_id": 643546404, "class": null, "keyword": "中心商務區"}}, {"type": "Feature", "geometry": {"type": "Polygon", "coordinates": [[[120.688799, 24.13532], [120.688832, 24.135244], [120.689006, 24.135306], [120.688973, 24.135382], [120.688799, 24.13532]]]}, "properties": {"display_name": "品信中城滙, 新庄里, 東區, 臺中市, 401, 臺灣", "type": "construction", "osm_type": "way", "osm_id": 867391110, "class": null, "keyword": "中心城区"}}]}