{"type": "FeatureCollection", "features": [{"type": "Feature", "geometry": {"type": "Polygon", "coordinates": [[[120.234338, 22.993901], [120.234343, 22.993864], [120.234371, 22.993839], [120.235857, 22.99386], [120.235884, 22.992751], [120.235848, 22.991594], [120.234429, 22.991556], [120.234424, 22.991424], [120.234635, 22.991425], [120.234698, 22.991095], [120.234971, 22.991094], [120.238566, 22.991095], [120.239688, 22.991091], [120.239723, 22.992699], [120.239797, 22.993146], [120.239675, 22.993805], [120.239656, 22.994738], [120.239724, 22.996723], [120.239695, 22.996804], [120.239659, 22.996766], [120.238851, 22.996764], [120.238812, 22.998317], [120.234821, 22.998284], [120.234338, 22.993901]]]}, "properties": {"display_name": "東臺南副都心, 後甲里, 東區, 臺南市, 701, 臺灣", "type": "greenfield", "osm_type": "relation", "osm_id": 7081168, "class": null, "keyword": "市中心"}}, {"type": "Feature", "geometry": {"type": "Polygon", "coordinates": [[[120.159747, 23.062639], [120.159747, 23.062554], [120.16144, 23.062445], [120.161394, 23.061796], [120.161288, 23.060272], [120.161422, 23.060213], [120.162834, 23.060896], [120.162603, 23.061729], [120.162691, 23.062364], [120.164048, 23.062276], [120.164204, 23.06228], [120.164595, 23.062523], [120.164973, 23.064231], [120.166168, 23.069256], [120.165551, 23.069107], [120.165323, 23.069015], [120.165182, 23.06892], [120.160004, 23.064155], [120.159867, 23.063288], [120.159747, 23.062639]]]}, "properties": {"display_name": "中信金融管理學院, 600, 台江大道三段, 淵東里, 安南區, 臺南市, 709301, 臺灣", "type": "university", "osm_type": "way", "osm_id": 119430578, "class": null, "keyword": "financial district"}}, {"type": "Feature", "geometry": {"type": "Polygon", "coordinates": [[[120.2972, 23.117115], [120.297833, 23.114828], [120.298731, 23.111983], [120.301536, 23.112178], [120.301141, 23.114007], [120.300319, 23.118047], [120.2972, 23.117115]]]}, "properties": {"display_name": "亞蔬-世界蔬菜中心, 坐駕里, 善化區, 臺南市, 741, 臺灣", "type": "plant_nursery", "osm_type": "way", "osm_id": 141460475, "class": null, "keyword": "市中心"}}, {"type": "Feature", "geometry": {"type": "Polygon", "coordinates": [[[120.248987, 22.977711], [120.248999, 22.977554], [120.249035, 22.977427], [120.249031, 22.977345], [120.249062, 22.977236], [120.249071, 22.977167], [120.24915, 22.976961], [120.249305, 22.976587], [120.249482, 22.976905], [120.249684, 22.977065], [120.249846, 22.977169], [120.251244, 22.977966], [120.251913, 22.978352], [120.251905, 22.978512], [120.252417, 22.981501], [120.252758, 22.981459], [120.253007, 22.981428], [120.253039, 22.98222], [120.252284, 22.982324], [120.252005, 22.982354], [120.251533, 22.9824], [120.251075, 22.982445], [120.250744, 22.982477], [120.250386, 22.982516], [120.249659, 22.982601], [120.249472, 22.982623], [120.249348, 22.982637], [120.249228, 22.982648], [120.249255, 22.982317], [120.249288, 22.981946], [120.249288, 22.981672], [120.249313, 22.98109], [120.249321, 22.980527], [120.249268, 22.980159], [120.24927, 22.979937], [120.249184, 22.979062], [120.249076, 22.978387], [120.249041, 22.978107], [120.249018, 22.977998], [120.249023, 22.977876], [120.248987, 22.977711]]]}, "properties": {"display_name": "一甲里13鄰, 一甲里, 仁德區, 臺南市, 717, 臺灣", "type": "administrative", "osm_type": "relation", "osm_id": 9977982, "class": null, "keyword": "neighborhood"}}, {"type": "Feature", "geometry": {"type": "Polygon", "coordinates": [[[120.26523, 23.194883], [120.265526, 23.193614], [120.266352, 23.193203], [120.266754, 23.192539], [120.267438, 23.192103], [120.268163, 23.191425], [120.268491, 23.191374], [120.269631, 23.19051], [120.269721, 23.190562], [120.271335, 23.19077], [120.271186, 23.192207], [120.271066, 23.193407], [120.27036, 23.193381], [120.268985, 23.193893], [120.265378, 23.19516], [120.26523, 23.194883]]]}, "properties": {"display_name": "曾文市政願景園區, 168, 南勢, 南勢里, 麻豆區, 臺南市, 721, 臺灣", "type": "government", "osm_type": "way", "osm_id": 136471139, "class": null, "keyword": "中心城区"}}, {"type": "Feature", "geometry": {"type": "Polygon", "coordinates": [[[120.251905, 22.978512], [120.251913, 22.978352], [120.253538, 22.979209], [120.254687, 22.97992], [120.256189, 22.980016], [120.257391, 22.981696], [120.257333, 22.981744], [120.25725, 22.981814], [120.257069, 22.981825], [120.256767, 22.981842], [120.25649, 22.981856], [120.25511, 22.98193], [120.254628, 22.981999], [120.254235, 22.982053], [120.253698, 22.982127], [120.253039, 22.98222], [120.253007, 22.981428], [120.252758, 22.981459], [120.252417, 22.981501], [120.251905, 22.978512]]]}, "properties": {"display_name": "一甲里12鄰, 一甲里, 仁德區, 臺南市, 717, 臺灣", "type": "administrative", "osm_type": "relation", "osm_id": 9977981, "class": null, "keyword": "neighborhood"}}, {"type": "Feature", "geometry": {"type": "Polygon", "coordinates": [[[120.291034, 22.924336], [120.29194, 22.92253], [120.294781, 22.923743], [120.293938, 22.925583], [120.292752, 22.925094], [120.291034, 22.924336]]]}, "properties": {"display_name": "中央研究院南部院區, 100, 歸仁十三路一段, 沙崙里, 歸仁區, 臺南市, 711010, 臺灣", "type": "research_institute", "osm_type": "way", "osm_id": 694437445, "class": null, "keyword": "中央区"}}, {"type": "Feature", "geometry": {"type": "Polygon", "coordinates": [[[120.315012, 23.268303], [120.315405, 23.268291], [120.315624, 23.268303], [120.317378, 23.268269], [120.317416, 23.269059], [120.31689, 23.269324], [120.31674, 23.269513], [120.316453, 23.269817], [120.316029, 23.270122], [120.315834, 23.270125], [120.315736, 23.269862], [120.315528, 23.269827], [120.315485, 23.269356], [120.31548, 23.268931], [120.315034, 23.268921], [120.315052, 23.268619], [120.315028, 23.26853], [120.315041, 23.268416], [120.315012, 23.268303]]]}, "properties": {"display_name": "新榮中學, 132, 柳營, 中埕里, 柳營區, 臺南市, 736, 臺灣", "type": "school", "osm_type": "way", "osm_id": 151226211, "class": null, "keyword": "市中心"}}, {"type": "Feature", "geometry": {"type": "Polygon", "coordinates": [[[120.298871, 23.084134], [120.300269, 23.082923], [120.300493, 23.083146], [120.301072, 23.083684], [120.301408, 23.083991], [120.299992, 23.085165], [120.298871, 23.084134]]]}, "properties": {"display_name": "新市國中, 76, 民族路, 頂港仔墘, 港墘里, 新市區, 臺南市, 744, 臺灣", "type": "school", "osm_type": "way", "osm_id": 147236340, "class": null, "keyword": "市中心"}}, {"type": "Feature", "geometry": {"type": "Polygon", "coordinates": [[[120.269875, 23.291511], [120.270642, 23.290444], [120.271401, 23.290952], [120.272129, 23.29144], [120.27192, 23.291715], [120.27171, 23.291887], [120.271575, 23.292034], [120.271198, 23.292447], [120.2705, 23.291987], [120.269875, 23.291511]]]}, "properties": {"display_name": "太子國中, 140之21, 太北里, 太子宮, 臺南市, 730, 臺灣", "type": "assembly_point", "osm_type": "way", "osm_id": 200892823, "class": null, "keyword": "市中心"}}, {"type": "Feature", "geometry": {"type": "Polygon", "coordinates": [[[120.1845, 22.99231], [120.184596, 22.992298], [120.184581, 22.992199], [120.184706, 22.992183], [120.184769, 22.992174], [120.184826, 22.992166], [120.184824, 22.992104], [120.18484, 22.992038], [120.184874, 22.991978], [120.184927, 22.991925], [120.185004, 22.991882], [120.185002, 22.991841], [120.184986, 22.991732], [120.185128, 22.991712], [120.185142, 22.991824], [120.185145, 22.991864], [120.185201, 22.991875], [120.185279, 22.991909], [120.185363, 22.991991], [120.185406, 22.992089], [120.185457, 22.992082], [120.185521, 22.992073], [120.185662, 22.992054], [120.18568, 22.992158], [120.185769, 22.992147], [120.185776, 22.992192], [120.185788, 22.992265], [120.185696, 22.992276], [120.185713, 22.992373], [120.185565, 22.992393], [120.185508, 22.992401], [120.185455, 22.992408], [120.185404, 22.992415], [120.185298, 22.992429], [120.185314, 22.99253], [120.185174, 22.992549], [120.185055, 22.992565], [120.185038, 22.992462], [120.184933, 22.992476], [120.184877, 22.992484], [120.184819, 22.992491], [120.184759, 22.992499], [120.184631, 22.992516], [120.184618, 22.992424], [120.184518, 22.992436], [120.184506, 22.992356], [120.1845, 22.99231]]]}, "properties": {"display_name": "台南市政府永華市政中心, 6, 永華路二段, 建平里, 安平區, 臺南市, 70801, 臺灣", "type": "townhall", "osm_type": "way", "osm_id": 205717615, "class": null, "keyword": "city center"}}, {"type": "Feature", "geometry": {"type": "Polygon", "coordinates": [[[120.314738, 23.308545], [120.314745, 23.308175], [120.315595, 23.308192], [120.315618, 23.308223], [120.315617, 23.308257], [120.315593, 23.308282], [120.315532, 23.308281], [120.315532, 23.30842], [120.315928, 23.308409], [120.315932, 23.308711], [120.315534, 23.30871], [120.315534, 23.308671], [120.315277, 23.308667], [120.315279, 23.308553], [120.314738, 23.308545]]]}, "properties": {"display_name": "臺南市立新營文化中心, 中正路, 民權里, 新營區, 臺南市, 730, 臺灣", "type": "arts_centre", "osm_type": "way", "osm_id": 310635296, "class": null, "keyword": "市中心"}}, {"type": "Feature", "geometry": {"type": "Polygon", "coordinates": [[[120.29941, 23.067151], [120.299451, 23.066888], [120.29952, 23.066896], [120.299536, 23.066736], [120.299664, 23.066749], [120.299681, 23.066681], [120.299731, 23.066688], [120.299818, 23.066664], [120.299902, 23.066675], [120.299974, 23.066717], [120.30005, 23.066717], [120.300038, 23.066791], [120.300112, 23.066802], [120.300035, 23.067378], [120.299954, 23.067372], [120.299947, 23.067411], [120.299608, 23.067372], [120.299602, 23.067333], [120.299469, 23.067314], [120.299486, 23.067158], [120.29941, 23.067151]]]}, "properties": {"display_name": "臺南市新市全民運動中心, 49, 中華路, 移民寮, 永就里, 新市區, 臺南市, 744, 臺灣", "type": "sports_centre", "osm_type": "way", "osm_id": 833832458, "class": null, "keyword": "city center"}}, {"type": "Feature", "geometry": {"type": "Polygon", "coordinates": [[[120.27721, 22.936825], [120.277244, 22.935924], [120.277668, 22.935938], [120.277633, 22.936839], [120.27721, 22.936825]]]}, "properties": {"display_name": "國家地震工程研究中心台南實驗室, 中正南路一段2005巷, 六甲里, 歸仁區, 臺南市, 711, 臺灣", "type": "yes", "osm_type": "way", "osm_id": 519465325, "class": null, "keyword": "中心城区"}}, {"type": "Feature", "geometry": {"type": "Polygon", "coordinates": [[[120.230678, 23.057569], [120.230836, 23.057405], [120.231108, 23.057294], [120.231138, 23.057287], [120.231164, 23.057287], [120.231183, 23.057291], [120.231197, 23.057301], [120.231212, 23.057318], [120.231311, 23.057466], [120.231599, 23.057732], [120.231243, 23.058055], [120.230678, 23.057569]]]}, "properties": {"display_name": "台南捐血中心新作業場興建工程, 東和里, 安南區, 臺南市, 709, 臺灣", "type": "construction", "osm_type": "way", "osm_id": 1133803931, "class": null, "keyword": "中心城区"}}, {"type": "Feature", "geometry": {"type": "Polygon", "coordinates": [[[120.282487, 23.0963], [120.282535, 23.096067], [120.283024, 23.096141], [120.283087, 23.096101], [120.283127, 23.095993], [120.283696, 23.096085], [120.283623, 23.096443], [120.283475, 23.096418], [120.283526, 23.096177], [120.283429, 23.096166], [120.283328, 23.096225], [120.283288, 23.096424], [120.282487, 23.0963]]]}, "properties": {"display_name": "育成中心, 12, 南科二路, 南科台南園區, 豐華里, 新市區, 臺南市, 741, 臺灣", "type": "yes", "osm_type": "way", "osm_id": 545592366, "class": null, "keyword": "中心城区"}}, {"type": "Feature", "geometry": {"type": "Polygon", "coordinates": [[[120.173862, 22.972557], [120.17404, 22.972261], [120.174086, 22.972276], [120.174138, 22.972185], [120.17437, 22.97231], [120.174192, 22.972606], [120.174243, 22.972756], [120.174554, 22.972925], [120.174426, 22.973123], [120.174003, 22.97291], [120.173894, 22.972576], [120.173862, 22.972557]]]}, "properties": {"display_name": "安平港旅客服務中心, 新信路, 彰南里, 南區, 下鯤鯓, 臺南市, 702, 臺灣", "type": "yes", "osm_type": "way", "osm_id": 114425495, "class": null, "keyword": "中心商圈"}}, {"type": "Feature", "geometry": {"type": "Polygon", "coordinates": [[[120.203013, 23.000158], [120.203295, 23.000064], [120.203354, 23.000127], [120.203493, 23.000376], [120.203524, 23.000365], [120.203674, 23.000615], [120.203577, 23.000672], [120.203429, 23.000739], [120.203359, 23.00076], [120.203311, 23.000671], [120.203287, 23.000668], [120.203236, 23.000589], [120.203216, 23.000594], [120.203166, 23.000489], [120.203013, 23.000158]]]}, "properties": {"display_name": "成功養護中心, 11, 成功路238巷, 北華里, 北區, 臺南市, 704, 臺灣", "type": "social_facility", "osm_type": "way", "osm_id": 243758149, "class": null, "keyword": "中心城区"}}, {"type": "Feature", "geometry": {"type": "Polygon", "coordinates": [[[120.198543, 22.979978], [120.198571, 22.97996], [120.199382, 22.979948], [120.199389, 22.980174], [120.199349, 22.980227], [120.198714, 22.980241], [120.198543, 22.979978]]]}, "properties": {"display_name": "大成里活動中心, 西門路一段352巷, 大成里, 南區, 鹽埕, 臺南市, 702, 臺灣", "type": "community_centre", "osm_type": "way", "osm_id": 308682324, "class": null, "keyword": "中心城区"}}, {"type": "Feature", "geometry": {"type": "Polygon", "coordinates": [[[120.222104, 22.994547], [120.222284, 22.994533], [120.222355, 22.994527], [120.222426, 22.994522], [120.222421, 22.994465], [120.222528, 22.994457], [120.222568, 22.994882], [120.222138, 22.994916], [120.222104, 22.994547]]]}, "properties": {"display_name": "微奈米中心, 長榮路三段86巷, 大學里, 東區, 臺南市, 701, 臺灣", "type": "research", "osm_type": "way", "osm_id": 251630476, "class": null, "keyword": "中心城区"}}, {"type": "Feature", "geometry": {"type": "Polygon", "coordinates": [[[120.183014, 23.22945], [120.183089, 23.228962], [120.183169, 23.228972], [120.183171, 23.22896], [120.183249, 23.22897], [120.183331, 23.228981], [120.183328, 23.228999], [120.18339, 23.229007], [120.183316, 23.229489], [120.183014, 23.22945]]]}, "properties": {"display_name": "東陽國小活動中心, 260, 華宗路, 慈福里, 學甲區, 臺南市, 726, 臺灣", "type": "assembly_point", "osm_type": "way", "osm_id": 796867280, "class": null, "keyword": "中央区"}}, {"type": "Feature", "geometry": {"type": "Polygon", "coordinates": [[[120.227593, 22.968226], [120.227935, 22.968236], [120.227927, 22.968667], [120.227595, 22.968668], [120.227596, 22.968479], [120.227593, 22.968226]]]}, "properties": {"display_name": "崇文暨崇成里聯合活動中心, 691, 崇德路, 崇文里, 東區, 臺南市, 701, 臺灣", "type": "community_centre", "osm_type": "way", "osm_id": 227913934, "class": null, "keyword": "中心城区"}}, {"type": "Feature", "geometry": {"type": "Polygon", "coordinates": [[[120.262498, 22.970498], [120.262838, 22.970465], [120.262897, 22.970906], [120.262693, 22.970925], [120.262555, 22.970881], [120.262498, 22.970498]]]}, "properties": {"display_name": "HYUNDAI-仁德展示中心, 林頂街, 林仔頂, 仁義里, 仁德區, 臺南市, 717, 臺灣", "type": "car", "osm_type": "way", "osm_id": 560124038, "class": null, "keyword": "市中心"}}, {"type": "Feature", "geometry": {"type": "Polygon", "coordinates": [[[120.199945, 22.974696], [120.200388, 22.974694], [120.200389, 22.974925], [120.199946, 22.97492], [120.199945, 22.974696]]]}, "properties": {"display_name": "明德里活動中心新建工程, 大成路一段193巷, 警察新村, 明德里, 南區, 鹽埕, 臺南市, 702, 臺灣", "type": "construction", "osm_type": "way", "osm_id": 1191463226, "class": null, "keyword": "中心城区"}}, {"type": "Feature", "geometry": {"type": "Polygon", "coordinates": [[[120.204483, 22.993281], [120.204949, 22.993279], [120.204949, 22.993308], [120.20495, 22.993364], [120.20499, 22.993364], [120.204991, 22.993555], [120.204964, 22.993572], [120.204812, 22.993573], [120.204812, 22.99354], [120.204766, 22.99354], [120.204766, 22.993486], [120.204739, 22.993486], [120.204739, 22.993379], [120.204483, 22.99338], [120.204483, 22.993281]]]}, "properties": {"display_name": "中央氣象局南區氣象中心, 民生路一段22巷, 赤嵌里, 中西區, 臺南市, 700, 臺灣", "type": "government", "osm_type": "way", "osm_id": 203997458, "class": null, "keyword": "中央区"}}, {"type": "Feature", "geometry": {"type": "Polygon", "coordinates": [[[120.215482, 22.983385], [120.215672, 22.983363], [120.21585, 22.983372], [120.215812, 22.983625], [120.2155, 22.983638], [120.215482, 22.983385]]]}, "properties": {"display_name": "泉南里活動中心新建工程, 府連路344巷, 泉南里, 東區, 臺南市, 701, 臺灣", "type": "construction", "osm_type": "way", "osm_id": 1382504138, "class": null, "keyword": "中心城区"}}, {"type": "Feature", "geometry": {"type": "Polygon", "coordinates": [[[120.206468, 22.996737], [120.206505, 22.996722], [120.206472, 22.996654], [120.206738, 22.996541], [120.206731, 22.996527], [120.20678, 22.996506], [120.206788, 22.996523], [120.206834, 22.996504], [120.206877, 22.99659], [120.206785, 22.996629], [120.206846, 22.996751], [120.206861, 22.996744], [120.206873, 22.996768], [120.206783, 22.996806], [120.206772, 22.996783], [120.206578, 22.996864], [120.206546, 22.9968], [120.206508, 22.996817], [120.206468, 22.996737]]]}, "properties": {"display_name": "中央健保局南區業務組, 96, 公園路, 赤嵌里, 中西區, 臺南市, 700, 臺灣", "type": "government", "osm_type": "way", "osm_id": 203984823, "class": null, "keyword": "中央区"}}, {"type": "Feature", "geometry": {"type": "Polygon", "coordinates": [[[120.197897, 22.992512], [120.198127, 22.992458], [120.198213, 22.992767], [120.197984, 22.992821], [120.197897, 22.992512]]]}, "properties": {"display_name": "臺灣中小企業銀行, 185, 中正路, 府前里, 中西區, 臺南市, 700, 臺灣", "type": "bank", "osm_type": "way", "osm_id": 230128557, "class": null, "keyword": "business district"}}, {"type": "Feature", "geometry": {"type": "Polygon", "coordinates": [[[120.095531, 23.056988], [120.095548, 23.056685], [120.095764, 23.056695], [120.095747, 23.056998], [120.095531, 23.056988]]]}, "properties": {"display_name": "臺南市安南區城西里活動中心, 城西街三段, 港西, 城西里, 安南區, 臺南市, 709, 臺灣", "type": "yes", "osm_type": "way", "osm_id": 816074930, "class": null, "keyword": "中心城区"}}, {"type": "Feature", "geometry": {"type": "Polygon", "coordinates": [[[120.225655, 23.023166], [120.225671, 23.023129], [120.225812, 23.022807], [120.225891, 23.022836], [120.225883, 23.022855], [120.225925, 23.02287], [120.225956, 23.022882], [120.225808, 23.023222], [120.225655, 23.023166]]]}, "properties": {"display_name": "聯合創新育成中心, 1, 南台街, 尚頂里, 永康區, 臺南市, 71005, 臺灣", "type": "office", "osm_type": "way", "osm_id": 198133560, "class": null, "keyword": "中心城区"}}, {"type": "Feature", "geometry": {"type": "Polygon", "coordinates": [[[120.316978, 23.138768], [120.316993, 23.138765], [120.317002, 23.138743], [120.317385, 23.138692], [120.317465, 23.138798], [120.317174, 23.138865], [120.317177, 23.138875], [120.317095, 23.138893], [120.317089, 23.13887], [120.31701, 23.138888], [120.316978, 23.138768]]]}, "properties": {"display_name": "臺南市善化區牛庄活動中心, 南127-1, 牛庄, 牛庄里, 善化區, 臺南市, 741, 臺灣", "type": "yes", "osm_type": "way", "osm_id": 754149160, "class": null, "keyword": "city center"}}, {"type": "Feature", "geometry": {"type": "Polygon", "coordinates": [[[120.194287, 23.009946], [120.194504, 23.00994], [120.194511, 23.010164], [120.194294, 23.01017], [120.194287, 23.009946]]]}, "properties": {"display_name": "臺南市北區文元文成里聯合活動中心, 370, 和緯路三段, 元美里, 北區, 文元寮, 臺南市, 704, 臺灣", "type": "community_centre", "osm_type": "way", "osm_id": 497986978, "class": null, "keyword": "中心城区"}}, {"type": "Feature", "geometry": {"type": "Polygon", "coordinates": [[[120.226681, 22.95903], [120.226911, 22.958985], [120.226965, 22.959208], [120.226709, 22.959201], [120.226681, 22.95903]]]}, "properties": {"display_name": "成功里活動中心, 245, 保華路, 南勢園, 成功里, 仁德區, 臺南市, 717, 臺灣", "type": "events_venue", "osm_type": "way", "osm_id": 1085390826, "class": null, "keyword": "中心城区"}}, {"type": "Feature", "geometry": {"type": "Polygon", "coordinates": [[[120.158739, 23.001382], [120.1589, 23.00123], [120.159044, 23.001359], [120.158882, 23.001511], [120.158739, 23.001382]]]}, "properties": {"display_name": "王城西社區活動中心, 3, 安北路233巷, 王城里, 安平區, 臺南市, 708, 臺灣", "type": "community_centre", "osm_type": "way", "osm_id": 303943804, "class": null, "keyword": "中心城区"}}, {"type": "Feature", "geometry": {"type": "Polygon", "coordinates": [[[120.334047, 23.058851], [120.33439, 23.05881], [120.334407, 23.058931], [120.334064, 23.058972], [120.334047, 23.058851]]]}, "properties": {"display_name": "創新育成中心, 桃花心木大道, 𦰡拔里, 新化區, 臺南市, 712, 臺灣", "type": "research", "osm_type": "way", "osm_id": 1358489325, "class": null, "keyword": "中心城区"}}, {"type": "Feature", "geometry": {"type": "Polygon", "coordinates": [[[120.141828, 23.144838], [120.142207, 23.144842], [120.142203, 23.144937], [120.14183, 23.144937], [120.141828, 23.144838]]]}, "properties": {"display_name": "大埕里漁民活動中心, 176, 三合仔, 大埕里, 七股區, 臺南市, 724, 臺灣", "type": "yes", "osm_type": "way", "osm_id": 799618714, "class": null, "keyword": "中心城区"}}, {"type": "Feature", "geometry": {"type": "Polygon", "coordinates": [[[120.142895, 23.178555], [120.143129, 23.178498], [120.143169, 23.178638], [120.142935, 23.178695], [120.142895, 23.178555]]]}, "properties": {"display_name": "城內里活動中心, 南26-2, 水師寮, 後港里, 七股區, 臺南市, 724, 臺灣", "type": "yes", "osm_type": "way", "osm_id": 799594103, "class": null, "keyword": "中心城区"}}, {"type": "Feature", "geometry": {"type": "Polygon", "coordinates": [[[120.127056, 23.060613], [120.127176, 23.060397], [120.127291, 23.060451], [120.127249, 23.060526], [120.127266, 23.060534], [120.127188, 23.060675], [120.127056, 23.060613]]]}, "properties": {"display_name": "臺南市安南區城南里活動中心, 城西街一段61巷140弄, 城南里, 安南區, 臺南市, 709, 臺灣", "type": "yes", "osm_type": "way", "osm_id": 816097697, "class": null, "keyword": "中心城区"}}, {"type": "Feature", "geometry": {"type": "Polygon", "coordinates": [[[120.187033, 22.967813], [120.187091, 22.967798], [120.187076, 22.967749], [120.187126, 22.967735], [120.187138, 22.967775], [120.187242, 22.967747], [120.187282, 22.967872], [120.18707, 22.967929], [120.187033, 22.967813]]]}, "properties": {"display_name": "鹽埕老人會, 新和東路96巷, 新興國宅社區, 開南里, 南區, 鹽埕, 臺南市, 702, 臺灣", "type": "community_centre", "osm_type": "way", "osm_id": 664671411, "class": null, "keyword": "老城区"}}, {"type": "Feature", "geometry": {"type": "Polygon", "coordinates": [[[120.128035, 23.066416], [120.128035, 23.066282], [120.128136, 23.066285], [120.128136, 23.066308], [120.128293, 23.066318], [120.128288, 23.066418], [120.128035, 23.066416]]]}, "properties": {"display_name": "臺南市安南區城東里活動中心, 73, 城安路, 城東里, 安南區, 臺南市, 709, 臺灣", "type": "yes", "osm_type": "way", "osm_id": 816082253, "class": null, "keyword": "中心城区"}}, {"type": "Feature", "geometry": {"type": "Polygon", "coordinates": [[[120.21495, 22.996091], [120.215309, 22.996064], [120.215317, 22.996145], [120.214957, 22.996171], [120.214955, 22.996151], [120.21495, 22.996091]]]}, "properties": {"display_name": "成大里活動中心, 88, 育樂街, 成大里, 東區, 臺南市, 701, 臺灣", "type": "community_centre", "osm_type": "way", "osm_id": 902369483, "class": null, "keyword": "中心城区"}}, {"type": "Feature", "geometry": {"type": "Polygon", "coordinates": [[[120.130361, 23.060345], [120.1304, 23.060234], [120.130624, 23.060302], [120.130584, 23.060412], [120.130361, 23.060345]]]}, "properties": {"display_name": "城中社區活動中心, 城西街一段61巷73弄, 城中里, 安南區, 臺南市, 709, 臺灣", "type": "community_centre", "osm_type": "way", "osm_id": 1370285399, "class": null, "keyword": "中心城区"}}, {"type": "Feature", "geometry": {"type": "Polygon", "coordinates": [[[120.2556, 22.970527], [120.255853, 22.97051], [120.255861, 22.970611], [120.255605, 22.97063], [120.2556, 22.970527]]]}, "properties": {"display_name": "鍾厝廟前點心城, 中清路, 鐘厝, 仁義里, 仁德區, 臺南市, 717, 臺灣", "type": "food_court", "osm_type": "way", "osm_id": 560120234, "class": null, "keyword": "中心城区"}}, {"type": "Feature", "geometry": {"type": "Polygon", "coordinates": [[[120.210779, 22.990699], [120.210915, 22.990685], [120.210936, 22.990851], [120.210899, 22.990855], [120.210906, 22.99091], [120.210811, 22.990921], [120.210799, 22.990822], [120.210824, 22.99082], [120.210815, 22.990746], [120.210786, 22.99075], [120.210779, 22.990699]]]}, "properties": {"display_name": "臺南市中西區城隍里活動中心, 20號, 青年路226巷, 城隍里, 中西區, 臺南市, 700, 臺灣", "type": "community_centre", "osm_type": "way", "osm_id": 279040753, "class": null, "keyword": "中心城区"}}, {"type": "Feature", "geometry": {"type": "Polygon", "coordinates": [[[120.130922, 23.060784], [120.130981, 23.060521], [120.131065, 23.060537], [120.131007, 23.0608], [120.130922, 23.060784]]]}, "properties": {"display_name": "城北社區活動中心, 安中路六段507巷, 城北里, 安南區, 臺南市, 709, 臺灣", "type": "community_centre", "osm_type": "way", "osm_id": 1370285400, "class": null, "keyword": "中心城区"}}, {"type": "Feature", "geometry": {"type": "Polygon", "coordinates": [[[120.386206, 23.026238], [120.386319, 23.026235], [120.386323, 23.026406], [120.386211, 23.026409], [120.386206, 23.026238]]]}, "properties": {"display_name": "澄山里活動中心, 澄山產業道路, 過嶺, 澄山里, 左鎮區, 臺南市, 713, 臺灣", "type": "community_centre", "osm_type": "way", "osm_id": 1164856174, "class": null, "keyword": "中心城区"}}]}