{"type": "FeatureCollection", "features": [{"type": "Feature", "geometry": {"type": "Polygon", "coordinates": [[[24.749447, 59.417406], [24.749461, 59.41737], [24.750101, 59.417281], [24.750134, 59.417308], [24.750377, 59.417258], [24.750468, 59.417254], [24.751636, 59.417133], [24.751721, 59.417055], [24.752473, 59.417022], [24.752479, 59.417063], [24.752547, 59.417105], [24.752618, 59.417124], [24.752232, 59.417478], [24.752202, 59.417471], [24.752165, 59.417499], [24.752163, 59.417532], [24.751968, 59.417715], [24.75194, 59.417756], [24.751695, 59.417981], [24.751676, 59.418001], [24.751427, 59.418242], [24.75139, 59.418242], [24.751335, 59.418223], [24.751251, 59.418228], [24.750276, 59.41813], [24.750215, 59.418129], [24.750169, 59.41812], [24.750114, 59.418089], [24.749651, 59.417659], [24.749545, 59.417548], [24.749447, 59.417406]]]}, "properties": {"display_name": "Ringi büroode ärikvartal, Kesklinna linnaosa, Tallinn, Harju maakond, Eesti", "type": "commercial", "osm_type": "way", "osm_id": 1245853205, "class": null, "keyword": "business district"}}]}