{"type": "FeatureCollection", "features": [{"type": "Feature", "geometry": {"type": "Polygon", "coordinates": [[[118.139229, 39.568532], [118.139468, 39.567782], [118.14135, 39.566586], [118.144074, 39.566039], [118.144105, 39.565683], [118.144747, 39.5658], [118.145809, 39.566162], [118.146748, 39.566657], [118.148102, 39.567467], [118.149559, 39.568731], [118.153526, 39.573262], [118.161555, 39.582678], [118.16458, 39.585592], [118.166017, 39.587023], [118.165256, 39.58755], [118.164324, 39.586792], [118.162811, 39.587681], [118.162873, 39.58912], [118.162795, 39.589263], [118.161804, 39.589947], [118.161216, 39.590374], [118.161118, 39.590531], [118.161678, 39.591003], [118.161987, 39.591328], [118.162524, 39.591812], [118.162659, 39.591933], [118.162693, 39.592039], [118.162678, 39.592146], [118.162632, 39.592287], [118.1625, 39.592729], [118.162474, 39.593008], [118.162425, 39.593204], [118.16237, 39.593309], [118.162292, 39.593426], [118.16219, 39.593527], [118.162043, 39.593644], [118.161937, 39.593761], [118.161708, 39.594022], [118.161184, 39.593767], [118.160683, 39.593469], [118.160524, 39.593527], [118.160665, 39.593608], [118.161574, 39.594089], [118.162182, 39.594344], [118.162241, 39.594653], [118.161852, 39.596193], [118.161723, 39.597479], [118.161677, 39.597935], [118.16167, 39.598211], [118.161664, 39.59835], [118.161398, 39.598351], [118.161391, 39.598776], [118.16161, 39.598775], [118.161829, 39.598774], [118.161829, 39.598266], [118.162456, 39.59848], [118.163056, 39.598733], [118.163879, 39.599116], [118.164414, 39.599407], [118.164912, 39.599724], [118.165363, 39.600076], [118.166069, 39.600905], [118.167393, 39.602473], [118.16812, 39.603282], [118.168385, 39.603462], [118.168633, 39.60359], [118.16902, 39.603709], [118.169293, 39.603752], [118.171453, 39.603744], [118.171756, 39.603748], [118.171811, 39.603831], [118.171807, 39.604195], [118.171805, 39.604409], [118.171802, 39.604627], [118.171797, 39.605063], [118.171794, 39.605209], [118.17167, 39.607059], [118.171546, 39.60846], [118.17153, 39.608636], [118.17151, 39.608733], [118.17129, 39.610882], [118.171166, 39.610963], [118.170865, 39.610958], [118.166244, 39.610943], [118.162528, 39.610945], [118.160633, 39.610916], [118.160458, 39.610794], [118.160496, 39.610292], [118.160455, 39.609675], [118.160179, 39.608955], [118.160018, 39.608644], [118.159792, 39.608295], [118.159414, 39.607901], [118.158558, 39.607208], [118.157965, 39.606785], [118.157024, 39.605976], [118.157203, 39.605843], [118.157206, 39.605841], [118.158189, 39.605111], [118.156574, 39.60385], [118.155061, 39.602626], [118.154249, 39.60323], [118.153798, 39.603555], [118.154422, 39.604121], [118.15488, 39.604552], [118.154935, 39.604626], [118.15496, 39.604649], [118.15503, 39.604714], [118.155098, 39.604772], [118.155119, 39.60479], [118.154166, 39.60552], [118.153945, 39.605738], [118.153778, 39.60592], [118.153684, 39.606087], [118.153626, 39.606254], [118.153581, 39.606455], [118.153563, 39.606737], [118.153553, 39.607776], [118.153657, 39.608075], [118.153963, 39.608523], [118.154999, 39.609383], [118.154658, 39.609703], [118.154423, 39.609922], [118.154229, 39.610104], [118.153465, 39.610837], [118.151916, 39.612467], [118.151721, 39.612651], [118.1516, 39.612669], [118.151462, 39.612644], [118.151298, 39.612465], [118.149891, 39.610824], [118.149137, 39.610019], [118.149047, 39.609928], [118.148511, 39.609365], [118.147898, 39.608724], [118.148046, 39.608606], [118.148404, 39.60832], [118.148517, 39.608191], [118.148616, 39.60805], [118.148671, 39.607897], [118.148689, 39.60777], [118.148671, 39.606392], [118.148617, 39.606234], [118.148528, 39.606072], [118.148451, 39.605978], [118.148359, 39.605881], [118.147583, 39.605313], [118.148196, 39.604778], [118.148222, 39.604755], [118.148289, 39.604693], [118.148366, 39.604631], [118.148385, 39.604611], [118.14848, 39.604525], [118.148955, 39.604104], [118.149025, 39.604044], [118.149286, 39.603821], [118.150104, 39.603122], [118.150113, 39.602907], [118.149721, 39.602888], [118.149473, 39.602847], [118.14914, 39.602787], [118.148745, 39.602679], [118.148465, 39.602564], [118.14813, 39.602393], [118.147786, 39.60215], [118.147513, 39.601933], [118.147115, 39.60147], [118.14633, 39.600618], [118.146232, 39.600526], [118.145703, 39.600029], [118.145196, 39.599639], [118.14471, 39.599264], [118.14429, 39.59901], [118.143792, 39.59872], [118.143055, 39.59834], [118.142476, 39.598098], [118.141951, 39.597833], [118.141786, 39.597751], [118.141283, 39.597453], [118.141242, 39.597417], [118.140938, 39.597206], [118.140626, 39.596959], [118.140553, 39.596884], [118.140395, 39.59673], [118.140373, 39.596717], [118.140479, 39.59664], [118.140583, 39.596533], [118.14065, 39.596431], [118.140706, 39.596321], [118.140738, 39.596216], [118.140749, 39.596133], [118.140747, 39.596016], [118.140726, 39.595927], [118.140647, 39.595726], [118.140602, 39.595658], [118.14056, 39.595611], [118.140373, 39.595418], [118.140337, 39.595367], [118.140298, 39.595285], [118.140273, 39.595206], [118.140249, 39.595104], [118.140232, 39.594991], [118.140226, 39.594837], [118.140295, 39.59391], [118.140305, 39.593847], [118.140477, 39.593418], [118.140614, 39.593274], [118.140923, 39.593002], [118.141226, 39.592818], [118.141475, 39.592604], [118.141729, 39.592354], [118.141925, 39.592068], [118.142109, 39.591674], [118.142171, 39.591419], [118.142173, 39.59129], [118.142133, 39.590278], [118.142129, 39.59012], [118.142146, 39.589924], [118.142145, 39.589744], [118.14219, 39.58946], [118.142294, 39.589019], [118.142375, 39.588715], [118.142514, 39.588375], [118.142695, 39.588001], [118.14287, 39.587612], [118.142539, 39.587429], [118.142237, 39.58727], [118.139937, 39.587305], [118.139694, 39.585659], [118.139642, 39.585037], [118.139641, 39.584356], [118.139669, 39.583883], [118.13979, 39.58314], [118.139938, 39.582658], [118.140127, 39.582587], [118.14089, 39.582744], [118.140977, 39.582403], [118.141135, 39.581862], [118.141344, 39.581363], [118.141174, 39.580357], [118.141186, 39.579517], [118.141127, 39.579109], [118.140255, 39.576112], [118.139816, 39.575532], [118.139781, 39.575467], [118.139691, 39.5751], [118.139566, 39.574483], [118.139229, 39.568532]]]}, "properties": {"display_name": "唐山南湖旅游景区, 路南区, 唐山市, 河北省, 063000, 中国", "type": "park", "osm_type": "way", "osm_id": 414174251, "class": null, "keyword": "中央区"}}, {"type": "Feature", "geometry": {"type": "Polygon", "coordinates": [[[117.981539, 39.716315], [117.981622, 39.71622], [117.990665, 39.715768], [117.990787, 39.715836], [117.990873, 39.716957], [117.995956, 39.716709], [117.997989, 39.716606], [118.000746, 39.716468], [118.000654, 39.715384], [118.000709, 39.715314], [118.002375, 39.715226], [118.002439, 39.715275], [118.002548, 39.716377], [118.006496, 39.716171], [118.011888, 39.71589], [118.011799, 39.714731], [118.021287, 39.714259], [118.021306, 39.714264], [118.021331, 39.714282], [118.021334, 39.714292], [118.021445, 39.715589], [118.021468, 39.7156], [118.023091, 39.715521], [118.023302, 39.718099], [118.02153, 39.718172], [118.021664, 39.71958], [118.021804, 39.721164], [118.021848, 39.721666], [118.021989, 39.723256], [118.003232, 39.724192], [118.002916, 39.720523], [117.994739, 39.720949], [117.994828, 39.721903], [117.994938, 39.72307], [117.99505, 39.724371], [117.995091, 39.724847], [117.993775, 39.724913], [117.993653, 39.724919], [117.99343, 39.72493], [117.993308, 39.724936], [117.992986, 39.724953], [117.993002, 39.725106], [117.990345, 39.725243], [117.98869, 39.725329], [117.988666, 39.725033], [117.988592, 39.724131], [117.988562, 39.723763], [117.990089, 39.72368], [117.989963, 39.722117], [117.989884, 39.721145], [117.988508, 39.721213], [117.985598, 39.723471], [117.98473, 39.723509], [117.984666, 39.722704], [117.983906, 39.722749], [117.983704, 39.720095], [117.981865, 39.720167], [117.981539, 39.716315]]]}, "properties": {"display_name": "唐山三女河机场, 机场路, 丰润区, 唐山市, 河北省, 中国", "type": "aerodrome", "osm_type": "way", "osm_id": 344501355, "class": null, "keyword": "district"}}, {"type": "Feature", "geometry": {"type": "Polygon", "coordinates": [[[118.401024, 39.684275], [118.402038, 39.682636], [118.40184, 39.682587], [118.401984, 39.682415], [118.4022, 39.6822], [118.402394, 39.682053], [118.402406, 39.681868], [118.402532, 39.681608], [118.402564, 39.681464], [118.402547, 39.68131], [118.402574, 39.681199], [118.402811, 39.680791], [118.402881, 39.680603], [118.403093, 39.680267], [118.403194, 39.680106], [118.403305, 39.679972], [118.403681, 39.679179], [118.404605, 39.677331], [118.405992, 39.67772], [118.406247, 39.677249], [118.406862, 39.67728], [118.407052, 39.677425], [118.406958, 39.677601], [118.407619, 39.67778], [118.407962, 39.676873], [118.408428, 39.67702], [118.408984, 39.677472], [118.412295, 39.678967], [118.412499, 39.679067], [118.412583, 39.679124], [118.412627, 39.679258], [118.412774, 39.680682], [118.415354, 39.680406], [118.415463, 39.68043], [118.416586, 39.680321], [118.416798, 39.683352], [118.416865, 39.685242], [118.415335, 39.68515], [118.415335, 39.6851], [118.413196, 39.68465], [118.412072, 39.684541], [118.411308, 39.684456], [118.410184, 39.684459], [118.408718, 39.68455], [118.408694, 39.684757], [118.407557, 39.684702], [118.407566, 39.684605], [118.404951, 39.68461], [118.404194, 39.684561], [118.401197, 39.684325], [118.401024, 39.684275]]]}, "properties": {"display_name": "唐山市冀东报废汽车回收拆解中心, 古冶区, 唐山市, 河北省, 063100, 中国", "type": "industrial", "osm_type": "way", "osm_id": 330679108, "class": null, "keyword": "市中心"}}, {"type": "Feature", "geometry": {"type": "Polygon", "coordinates": [[[118.515724, 38.936638], [118.518777, 38.934176], [118.523804, 38.937721], [118.524058, 38.938067], [118.524472, 38.938338], [118.52467, 38.938563], [118.52512, 38.939095], [118.530494, 38.942887], [118.531947, 38.943829], [118.531351, 38.944351], [118.515724, 38.936638]]]}, "properties": {"display_name": "五矿矿石中心, 曹妃甸区, 唐山市, 河北省, 中国", "type": "industrial", "osm_type": "way", "osm_id": 1084147377, "class": null, "keyword": "市中心"}}, {"type": "Feature", "geometry": {"type": "Polygon", "coordinates": [[[118.569539, 39.196723], [118.569752, 39.196627], [118.575003, 39.196671], [118.575157, 39.196751], [118.575128, 39.200722], [118.574962, 39.200841], [118.569753, 39.200844], [118.569565, 39.200706], [118.569539, 39.196723]]]}, "properties": {"display_name": "曹妃甸大学城商业中心, 八里滩养殖场, 曹妃甸区, 唐山市, 河北省, 中国", "type": "retail", "osm_type": "way", "osm_id": 592782101, "class": null, "keyword": "中心城区"}}, {"type": "Feature", "geometry": {"type": "Polygon", "coordinates": [[[118.099631, 39.625536], [118.099633, 39.625095], [118.099633, 39.625039], [118.102973, 39.624995], [118.102979, 39.625191], [118.102985, 39.625408], [118.10399, 39.625381], [118.10398, 39.625659], [118.104773, 39.626154], [118.105915, 39.626154], [118.106206, 39.626185], [118.106219, 39.626568], [118.106304, 39.626659], [118.106495, 39.626656], [118.106538, 39.629115], [118.106488, 39.629562], [118.106184, 39.630361], [118.105798, 39.630406], [118.100827, 39.627484], [118.100406, 39.626958], [118.099995, 39.626547], [118.099724, 39.626008], [118.099631, 39.625536]]]}, "properties": {"display_name": "唐山新城中央商务区, 路北区, 唐山市, 河北省, 063000, 中国", "type": "construction", "osm_type": "way", "osm_id": 870411782, "class": null, "keyword": "CBD"}}, {"type": "Feature", "geometry": {"type": "Polygon", "coordinates": [[[118.689534, 39.720934], [118.690703, 39.717625], [118.694659, 39.717678], [118.694742, 39.717731], [118.694704, 39.720859], [118.694572, 39.720991], [118.689534, 39.720934]]]}, "properties": {"display_name": "滦州市职业技术教育中心, 新高线, 滦城街道, 滦州市, 唐山市, 河北省, 中国", "type": "school", "osm_type": "way", "osm_id": 928813954, "class": null, "keyword": "市中心"}}, {"type": "Feature", "geometry": {"type": "Polygon", "coordinates": [[[118.672241, 39.80167], [118.673217, 39.798727], [118.676446, 39.798719], [118.676425, 39.801068], [118.675009, 39.801125], [118.674998, 39.802354], [118.673228, 39.80209], [118.673282, 39.801818], [118.672241, 39.80167]]]}, "properties": {"display_name": "滦州驾驶员考试中心, 榛贡公路, 滦城街道, 滦州市, 唐山市, 河北省, 中国", "type": "driver_training", "osm_type": "way", "osm_id": 1011010770, "class": null, "keyword": "市中心"}}, {"type": "Feature", "geometry": {"type": "Polygon", "coordinates": [[[118.121771, 39.569056], [118.127096, 39.567723], [118.128009, 39.569454], [118.122552, 39.570302], [118.122416, 39.570238], [118.121771, 39.569056]]]}, "properties": {"display_name": "唐山市新会展中心, 丰南区, 唐山市, 河北省, 中国", "type": "construction", "osm_type": "way", "osm_id": 931637192, "class": null, "keyword": "市中心"}}, {"type": "Feature", "geometry": {"type": "Polygon", "coordinates": [[[118.695046, 39.731718], [118.695078, 39.730138], [118.697536, 39.730163], [118.697661, 39.7303], [118.700011, 39.730309], [118.699986, 39.732005], [118.695224, 39.731949], [118.695046, 39.731718]]]}, "properties": {"display_name": "滦州市公共文化服务中心, 滦城街道, 滦州市, 唐山市, 河北省, 中国", "type": "construction", "osm_type": "way", "osm_id": 1050519930, "class": null, "keyword": "市中心"}}, {"type": "Feature", "geometry": {"type": "Polygon", "coordinates": [[[118.4175, 39.063713], [118.418509, 39.062561], [118.422228, 39.064524], [118.422745, 39.063933], [118.423435, 39.064297], [118.421907, 39.066041], [118.4175, 39.063713]]]}, "properties": {"display_name": "城建重工（唐山曹妃甸）新能源汽车科技有限公司, 曹妃甸工业区 新兴产业园区, 曹妃甸区, 唐山市, 河北省, 中国", "type": "industrial", "osm_type": "way", "osm_id": 994110057, "class": null, "keyword": "中心城区"}}, {"type": "Feature", "geometry": {"type": "Polygon", "coordinates": [[[118.293337, 39.737075], [118.293788, 39.736964], [118.296009, 39.736579], [118.29638, 39.737746], [118.296801, 39.737614], [118.29754, 39.737476], [118.297941, 39.738769], [118.296887, 39.738988], [118.296953, 39.73929], [118.297008, 39.739538], [118.29643, 39.739672], [118.296285, 39.739704], [118.296155, 39.739641], [118.296094, 39.738958], [118.295992, 39.73901], [118.29545, 39.739267], [118.294974, 39.73901], [118.294909, 39.738855], [118.294287, 39.738514], [118.293791, 39.738121], [118.293337, 39.737075]]]}, "properties": {"display_name": "唐山市陡河水库事务中心, 双桥镇, 开平区, 唐山市, 河北省, 063000, 中国", "type": "commercial", "osm_type": "way", "osm_id": 1032461494, "class": null, "keyword": "市中心"}}, {"type": "Feature", "geometry": {"type": "Polygon", "coordinates": [[[118.170003, 39.834091], [118.170028, 39.833995], [118.170105, 39.833952], [118.173769, 39.83391], [118.173957, 39.83403], [118.174004, 39.835797], [118.172357, 39.835798], [118.172353, 39.836321], [118.172201, 39.836377], [118.170003, 39.834091]]]}, "properties": {"display_name": "鑫诚文体中心, 林荫路, 太平路街道, 丰润区, 唐山市, 河北省, 中国", "type": "sports_centre", "osm_type": "way", "osm_id": 455182771, "class": null, "keyword": "中心城区"}}, {"type": "Feature", "geometry": {"type": "Polygon", "coordinates": [[[117.883495, 40.073452], [117.886001, 40.073206], [117.886034, 40.073551], [117.886549, 40.073506], [117.886697, 40.075169], [117.883643, 40.075418], [117.883495, 40.073452]]]}, "properties": {"display_name": "遵化市东新庄镇中学, 遵宝线, 遵化市, 唐山市, 河北省, 中国", "type": "school", "osm_type": "way", "osm_id": 1136473577, "class": null, "keyword": "市中心"}}, {"type": "Feature", "geometry": {"type": "Polygon", "coordinates": [[[118.642736, 39.987528], [118.64275, 39.987502], [118.643455, 39.986117], [118.644149, 39.986096], [118.646163, 39.986721], [118.646306, 39.98684], [118.646318, 39.987018], [118.645207, 39.989058], [118.644821, 39.988951], [118.645203, 39.988292], [118.642736, 39.987528]]]}, "properties": {"display_name": "迁安市协和源国际颐养中心, 迁安市, 唐山市, 河北省, 中国", "type": "construction", "osm_type": "way", "osm_id": 1327560870, "class": null, "keyword": "市中心"}}, {"type": "Feature", "geometry": {"type": "Polygon", "coordinates": [[[118.148199, 39.686206], [118.148208, 39.685099], [118.148216, 39.68411], [118.149065, 39.684114], [118.150537, 39.684111], [118.150519, 39.686204], [118.149047, 39.68621], [118.148199, 39.686206]]]}, "properties": {"display_name": "中信重工开诚智能装备有限公司, 路北区, 唐山市, 河北省, 063000, 中国", "type": "industrial", "osm_type": "way", "osm_id": 896367650, "class": null, "keyword": "中心城区"}}, {"type": "Feature", "geometry": {"type": "Polygon", "coordinates": [[[118.535112, 39.171427], [118.535665, 39.16997], [118.536116, 39.170112], [118.538733, 39.17107], [118.538021, 39.171835], [118.537806, 39.172164], [118.537749, 39.172292], [118.536634, 39.171932], [118.536126, 39.171762], [118.535112, 39.171427]]]}, "properties": {"display_name": "水气跨介质研究实验中心, 曹妃甸区, 唐山市, 河北省, 中国", "type": "construction", "osm_type": "way", "osm_id": 1382200854, "class": null, "keyword": "市中心"}}, {"type": "Feature", "geometry": {"type": "Polygon", "coordinates": [[[118.17481, 39.688591], [118.174816, 39.68671], [118.175775, 39.686712], [118.176687, 39.686714], [118.176681, 39.688579], [118.176515, 39.688655], [118.174946, 39.688661], [118.17481, 39.688591]]]}, "properties": {"display_name": "中信重工开诚智能装备有限公司, 唐山高新技术产业开发区, 路北区, 唐山市, 河北省, 063000, 中国", "type": "industrial", "osm_type": "way", "osm_id": 587874375, "class": null, "keyword": "中心城区"}}, {"type": "Feature", "geometry": {"type": "Polygon", "coordinates": [[[118.145548, 39.625912], [118.145566, 39.624723], [118.145565, 39.624417], [118.147961, 39.62442], [118.147961, 39.624882], [118.147961, 39.625911], [118.145548, 39.625912]]]}, "properties": {"display_name": "振华, 大里街道, 路北区, 唐山市, 河北省, 063000, 中国", "type": "retail", "osm_type": "way", "osm_id": 895526298, "class": null, "keyword": "中心城区"}}, {"type": "Feature", "geometry": {"type": "Polygon", "coordinates": [[[118.443142, 39.075572], [118.443968, 39.074556], [118.446356, 39.075726], [118.44553, 39.076742], [118.443142, 39.075572]]]}, "properties": {"display_name": "CBD领秀城, 曹妃甸区, 唐山市, 河北省, 中国", "type": "residential", "osm_type": "way", "osm_id": 991605116, "class": null, "keyword": "CBD"}}, {"type": "Feature", "geometry": {"type": "Polygon", "coordinates": [[[118.103083, 39.560279], [118.104151, 39.560036], [118.104567, 39.559881], [118.104818, 39.559771], [118.104984, 39.559671], [118.105168, 39.559543], [118.105323, 39.559433], [118.105472, 39.559291], [118.105663, 39.560445], [118.105846, 39.561549], [118.104531, 39.561696], [118.104481, 39.561391], [118.104399, 39.561179], [118.104274, 39.561023], [118.104159, 39.560916], [118.104011, 39.560822], [118.103841, 39.56075], [118.103636, 39.560702], [118.103439, 39.560679], [118.103273, 39.560694], [118.103083, 39.560279]]]}, "properties": {"display_name": "诚誉购物中心, 青年路街道, 丰南区, 唐山市, 河北省, 中国", "type": "retail", "osm_type": "way", "osm_id": 957138335, "class": null, "keyword": "中心城区"}}, {"type": "Feature", "geometry": {"type": "Polygon", "coordinates": [[[118.158832, 39.693912], [118.158848, 39.691982], [118.160279, 39.692101], [118.160268, 39.693424], [118.160337, 39.693432], [118.160326, 39.693914], [118.160244, 39.694313], [118.158833, 39.694307], [118.158832, 39.693912]]]}, "properties": {"display_name": "聚民惠物流唐山市运营中心, 路北区, 唐山市, 河北省, 063000, 中国", "type": "industrial", "osm_type": "way", "osm_id": 1285231369, "class": null, "keyword": "市中心"}}, {"type": "Feature", "geometry": {"type": "Polygon", "coordinates": [[[118.168389, 39.68858], [118.168615, 39.687503], [118.170962, 39.687514], [118.170976, 39.688501], [118.170863, 39.688597], [118.169291, 39.688602], [118.168418, 39.688601], [118.168389, 39.68858]]]}, "properties": {"display_name": "中国联通唐山市高新技术开发区分公司, 路北区, 唐山市, 河北省, 063000, 中国", "type": "commercial", "osm_type": "way", "osm_id": 871667493, "class": null, "keyword": "市中心"}}, {"type": "Feature", "geometry": {"type": "Polygon", "coordinates": [[[118.171817, 39.622716], [118.171817, 39.622579], [118.171817, 39.622541], [118.171817, 39.622219], [118.171818, 39.622022], [118.171818, 39.621536], [118.172451, 39.621536], [118.173975, 39.621537], [118.174028, 39.621566], [118.17404, 39.621607], [118.17403, 39.622637], [118.174003, 39.622687], [118.173934, 39.622718], [118.172458, 39.622717], [118.171817, 39.622716]]]}, "properties": {"display_name": "新世界中心 （原26号小区）, 广场街道, 路南区, 唐山市, 河北省, 063000, 中国", "type": "residential", "osm_type": "way", "osm_id": 437189649, "class": null, "keyword": "市中心"}}, {"type": "Feature", "geometry": {"type": "Polygon", "coordinates": [[[118.169292, 39.671022], [118.169299, 39.670053], [118.170929, 39.670061], [118.171094, 39.670178], [118.171106, 39.671686], [118.170887, 39.671682], [118.170907, 39.671598], [118.170086, 39.6716], [118.170091, 39.671025], [118.169292, 39.671022]]]}, "properties": {"display_name": "时代中心, 唐山高新技术产业开发区, 路北区, 唐山市, 河北省, 063000, 中国", "type": "retail", "osm_type": "way", "osm_id": 873409050, "class": null, "keyword": "市中心"}}, {"type": "Feature", "geometry": {"type": "Polygon", "coordinates": [[[118.733842, 40.032134], [118.734726, 40.030083], [118.735637, 40.030664], [118.734898, 40.032389], [118.733842, 40.032134]]]}, "properties": {"display_name": "迁安市高新技术创业服务中心, 迁安市, 唐山市, 河北省, 中国", "type": "commercial", "osm_type": "way", "osm_id": 1238093011, "class": null, "keyword": "市中心"}}, {"type": "Feature", "geometry": {"type": "Polygon", "coordinates": [[[118.145594, 39.624635], [118.146062, 39.624643], [118.146322, 39.624682], [118.146468, 39.624696], [118.146633, 39.624701], [118.146943, 39.624678], [118.147083, 39.62467], [118.147776, 39.624667], [118.147785, 39.625348], [118.147729, 39.625348], [118.147733, 39.625634], [118.145628, 39.625637], [118.145635, 39.62495], [118.145599, 39.624949], [118.145594, 39.624635]]]}, "properties": {"display_name": "振华诚成购物中心, 新华西道辅路, 大里街道, 路北区, 唐山市, 河北省, 063000, 中国", "type": "mall", "osm_type": "way", "osm_id": 585002853, "class": null, "keyword": "中心城区"}}, {"type": "Feature", "geometry": {"type": "Polygon", "coordinates": [[[119.028271, 39.245686], [119.028644, 39.244879], [119.030843, 39.245488], [119.03047, 39.246295], [119.028271, 39.245686]]]}, "properties": {"display_name": "天一国际检验鉴定有色华北地矿测试中心, 乐亭县, 唐山市, 河北省, 中国", "type": "industrial", "osm_type": "way", "osm_id": 1092325947, "class": null, "keyword": "市中心"}}, {"type": "Feature", "geometry": {"type": "Polygon", "coordinates": [[[118.687024, 40.001], [118.688035, 40.000953], [118.688305, 40.002509], [118.687865, 40.002544], [118.687203, 40.002594], [118.687024, 40.001]]]}, "properties": {"display_name": "迁安市青少年校外活动中心, 迁安市, 唐山市, 河北省, 中国", "type": "commercial", "osm_type": "way", "osm_id": 1327560867, "class": null, "keyword": "市中心"}}, {"type": "Feature", "geometry": {"type": "Polygon", "coordinates": [[[118.183868, 39.681798], [118.183875, 39.679841], [118.18473, 39.679842], [118.184725, 39.680987], [118.18472, 39.681796], [118.183868, 39.681798]]]}, "properties": {"display_name": "常记家居展示中心, 河北路街道, 路北区, 唐山市, 河北省, 063000, 中国", "type": "commercial", "osm_type": "way", "osm_id": 449022297, "class": null, "keyword": "市中心"}}, {"type": "Feature", "geometry": {"type": "Polygon", "coordinates": [[[118.154168, 39.759481], [118.154946, 39.757445], [118.155722, 39.759414], [118.155725, 39.759458], [118.154408, 39.759528], [118.154168, 39.759481]]]}, "properties": {"display_name": "唐山碧桂园凤凰城营销中心, 丰润区, 唐山市, 河北省, 中国", "type": "commercial", "osm_type": "way", "osm_id": 974977220, "class": null, "keyword": "中心城区"}}, {"type": "Feature", "geometry": {"type": "Polygon", "coordinates": [[[118.165967, 39.705789], [118.165968, 39.705577], [118.166565, 39.705578], [118.166568, 39.704878], [118.167711, 39.704881], [118.167706, 39.706095], [118.166609, 39.706092], [118.16661, 39.70579], [118.165967, 39.705789]]]}, "properties": {"display_name": "万科未来城营销中心, 路北区, 唐山市, 河北省, 063000, 中国", "type": "commercial", "osm_type": "way", "osm_id": 1273121839, "class": null, "keyword": "中心城区"}}, {"type": "Feature", "geometry": {"type": "Polygon", "coordinates": [[[118.171713, 39.627112], [118.171716, 39.626068], [118.171786, 39.625997], [118.173058, 39.625999], [118.173055, 39.627114], [118.171713, 39.627112]]]}, "properties": {"display_name": "中国联通唐山市分公司城市支局管理中心, 文化路, 路北区, 唐山市, 河北省, 063000, 中国", "type": "commercial", "osm_type": "way", "osm_id": 596441186, "class": null, "keyword": "中心城区"}}, {"type": "Feature", "geometry": {"type": "Polygon", "coordinates": [[[118.881717, 39.429897], [118.88192, 39.428367], [118.882854, 39.428452], [118.882778, 39.429279], [118.882715, 39.429973], [118.881717, 39.429897]]]}, "properties": {"display_name": "乐亭县广播电视中心, 乐安街道, 乐亭县, 唐山市, 河北省, 中国", "type": "commercial", "osm_type": "way", "osm_id": 1052389491, "class": null, "keyword": "市中心"}}, {"type": "Feature", "geometry": {"type": "Polygon", "coordinates": [[[118.054844, 39.615194], [118.056267, 39.615147], [118.056317, 39.61627], [118.055814, 39.616278], [118.055798, 39.616176], [118.055029, 39.616242], [118.054844, 39.615194]]]}, "properties": {"display_name": "中国石油冀东油田勘探开发研究院实验中心, 韩城镇, 丰润区, 唐山市, 河北省, 中国", "type": "industrial", "osm_type": "way", "osm_id": 975524542, "class": null, "keyword": "市中心"}}, {"type": "Feature", "geometry": {"type": "Polygon", "coordinates": [[[118.166923, 39.685383], [118.167194, 39.684134], [118.16779, 39.684179], [118.16829, 39.684194], [118.167992, 39.685528], [118.166923, 39.685383]]]}, "properties": {"display_name": "中国联通唐山市高新区综合楼, 唐山高新技术产业开发区, 路北区, 唐山市, 河北省, 063000, 中国", "type": "commercial", "osm_type": "way", "osm_id": 1324992315, "class": null, "keyword": "市中心"}}, {"type": "Feature", "geometry": {"type": "Polygon", "coordinates": [[[118.165814, 39.625376], [118.166768, 39.625369], [118.166769, 39.626531], [118.16677, 39.62686], [118.165814, 39.626855], [118.165814, 39.625376]]]}, "properties": {"display_name": "国家外汇管理局唐山市中心支局, 文化路, 路北区, 唐山市, 河北省, 063000, 中国", "type": "commercial", "osm_type": "way", "osm_id": 934653626, "class": null, "keyword": "市中心"}}, {"type": "Feature", "geometry": {"type": "Polygon", "coordinates": [[[118.101579, 39.653909], [118.103027, 39.653913], [118.103027, 39.654872], [118.101581, 39.654871], [118.101579, 39.653909]]]}, "properties": {"display_name": "唐山市特种设备监督检验中心, 路北区, 唐山市, 河北省, 063000, 中国", "type": "commercial", "osm_type": "way", "osm_id": 1018746765, "class": null, "keyword": "市中心"}}, {"type": "Feature", "geometry": {"type": "Polygon", "coordinates": [[[118.068144, 39.629525], [118.068157, 39.629443], [118.069166, 39.629173], [118.069538, 39.629423], [118.069553, 39.629517], [118.069649, 39.629514], [118.069767, 39.629596], [118.069922, 39.629863], [118.070044, 39.630198], [118.070055, 39.630428], [118.069609, 39.630494], [118.069442, 39.630315], [118.069203, 39.630127], [118.068908, 39.630025], [118.068144, 39.629525]]]}, "properties": {"display_name": "唐山爱姆驾驶员从业资格审批中心, 韩城镇, 丰润区, 唐山市, 河北省, 中国", "type": "commercial", "osm_type": "way", "osm_id": 1211983210, "class": null, "keyword": "市中心"}}, {"type": "Feature", "geometry": {"type": "Polygon", "coordinates": [[[118.046092, 39.637493], [118.046096, 39.637414], [118.046972, 39.637758], [118.047039, 39.637637], [118.047112, 39.63766], [118.047112, 39.637791], [118.047364, 39.637859], [118.047391, 39.638915], [118.046669, 39.638915], [118.046659, 39.638416], [118.046754, 39.638254], [118.04616, 39.638235], [118.046108, 39.637974], [118.046092, 39.637493]]]}, "properties": {"display_name": "韩城中心小学, 兴盛道, 韩城镇, 丰润区, 唐山市, 河北省, 中国", "type": "school", "osm_type": "way", "osm_id": 1122456499, "class": null, "keyword": "中心城区"}}, {"type": "Feature", "geometry": {"type": "Polygon", "coordinates": [[[118.023993, 39.848186], [118.025263, 39.847967], [118.025397, 39.848318], [118.024891, 39.849199], [118.024421, 39.849257], [118.024304, 39.848738], [118.024177, 39.84875], [118.023993, 39.848186]]]}, "properties": {"display_name": "唐山市丰润区鑫兴起重设备有限公司, 丰润区, 唐山市, 河北省, 中国", "type": "industrial", "osm_type": "way", "osm_id": 1060376499, "class": null, "keyword": "市中心"}}, {"type": "Feature", "geometry": {"type": "Polygon", "coordinates": [[[118.724189, 40.024913], [118.724259, 40.024306], [118.725202, 40.024334], [118.725426, 40.024513], [118.725401, 40.025364], [118.724723, 40.025349], [118.724189, 40.024913]]]}, "properties": {"display_name": "万嘉云商迁安市电子商务服务中心, 迁安市, 唐山市, 河北省, 中国", "type": "commercial", "osm_type": "way", "osm_id": 1019906993, "class": null, "keyword": "市中心"}}, {"type": "Feature", "geometry": {"type": "Polygon", "coordinates": [[[118.269712, 39.628358], [118.270765, 39.628547], [118.270872, 39.628652], [118.270826, 39.62941], [118.269714, 39.629408], [118.269712, 39.628358]]]}, "properties": {"display_name": "唐山保时捷中心, 越河镇, 开平区, 唐山市, 河北省, 063000, 中国", "type": "retail", "osm_type": "way", "osm_id": 972996201, "class": null, "keyword": "市中心"}}, {"type": "Feature", "geometry": {"type": "Polygon", "coordinates": [[[117.949161, 40.200722], [117.949162, 40.200656], [117.94918, 40.199778], [117.950292, 40.199816], [117.950242, 40.200736], [117.949161, 40.200722]]]}, "properties": {"display_name": "中国联合网络通信有限公司遵化市分公司, 文化路街道, 遵化市, 唐山市, 河北省, 中国", "type": "commercial", "osm_type": "way", "osm_id": 1065868630, "class": null, "keyword": "市中心"}}, {"type": "Feature", "geometry": {"type": "Polygon", "coordinates": [[[118.169565, 39.670179], [118.169578, 39.670165], [118.169598, 39.67016], [118.170269, 39.670165], [118.170319, 39.670202], [118.170674, 39.670199], [118.170875, 39.670345], [118.170865, 39.671273], [118.17086, 39.671289], [118.170844, 39.671307], [118.170822, 39.671317], [118.170791, 39.67132], [118.170323, 39.671319], [118.170329, 39.670825], [118.170392, 39.670823], [118.17039, 39.670594], [118.169572, 39.670591], [118.169565, 39.670179]]]}, "properties": {"display_name": "AG回城电竞商业中心, 龙富西道, 东方花苑社区, 高新区街道, 路北区, 唐山市, 河北省, 063000, 中国", "type": "mall", "osm_type": "way", "osm_id": 584344136, "class": null, "keyword": "中心城区"}}, {"type": "Feature", "geometry": {"type": "Polygon", "coordinates": [[[117.872657, 40.224345], [117.874262, 40.224446], [117.874232, 40.224948], [117.872734, 40.224887], [117.872657, 40.224345]]]}, "properties": {"display_name": "石人沟铁矿职工活动中心, 遵化市, 唐山市, 河北省, 中国", "type": "commercial", "osm_type": "way", "osm_id": 1175978749, "class": null, "keyword": "市中心"}}, {"type": "Feature", "geometry": {"type": "Polygon", "coordinates": [[[117.949018, 40.190713], [117.949119, 40.190295], [117.950793, 40.190311], [117.950919, 40.190412], [117.950902, 40.190708], [117.949018, 40.190713]]]}, "properties": {"display_name": "天津市引滦工程黎河管理中心, 华明路街道, 遵化市, 唐山市, 河北省, 中国", "type": "commercial", "osm_type": "way", "osm_id": 1233758315, "class": null, "keyword": "市中心"}}, {"type": "Feature", "geometry": {"type": "Polygon", "coordinates": [[[118.451096, 39.08255], [118.451543, 39.081992], [118.452384, 39.082399], [118.451937, 39.082957], [118.451096, 39.08255]]]}, "properties": {"display_name": "曹妃甸工业区发展规划展示中心, 曹妃甸区, 唐山市, 河北省, 中国", "type": "commercial", "osm_type": "way", "osm_id": 1127470107, "class": null, "keyword": "市中心"}}, {"type": "Feature", "geometry": {"type": "Polygon", "coordinates": [[[118.123743, 39.618436], [118.123757, 39.617484], [118.124754, 39.617764], [118.123887, 39.618675], [118.123908, 39.618439], [118.123743, 39.618436]]]}, "properties": {"display_name": "唐山市路北区创业服务中心, 光明街道, 路北区, 唐山市, 河北省, 063000, 中国", "type": "commercial", "osm_type": "way", "osm_id": 988041070, "class": null, "keyword": "市中心"}}, {"type": "Feature", "geometry": {"type": "Polygon", "coordinates": [[[117.874259, 40.225904], [117.874354, 40.225215], [117.874892, 40.225311], [117.87506, 40.225341], [117.875057, 40.225431], [117.875083, 40.225658], [117.875251, 40.225857], [117.875343, 40.22606], [117.874259, 40.225904]]]}, "properties": {"display_name": "石人沟铁矿设备保障中心材料库, 遵化市, 唐山市, 河北省, 中国", "type": "industrial", "osm_type": "way", "osm_id": 1175978747, "class": null, "keyword": "市中心"}}, {"type": "Feature", "geometry": {"type": "Polygon", "coordinates": [[[118.569628, 39.196078], [118.569641, 39.195328], [118.570425, 39.195336], [118.570365, 39.195755], [118.570258, 39.195887], [118.570243, 39.195969], [118.570133, 39.196179], [118.569757, 39.196176], [118.569628, 39.196078]]]}, "properties": {"display_name": "京冀曹妃甸协同发展示范区产城融合展示中心, 中海路, 八里滩养殖场, 曹妃甸区, 唐山市, 河北省, 063210, 中国", "type": "government", "osm_type": "way", "osm_id": 895912824, "class": null, "keyword": "中心城区"}}, {"type": "Feature", "geometry": {"type": "Polygon", "coordinates": [[[118.233674, 39.64309], [118.23408, 39.64284], [118.234899, 39.643625], [118.234721, 39.643692], [118.234374, 39.643745], [118.233674, 39.64309]]]}, "properties": {"display_name": "唐山市畜牧水产品质量监测中心, 税务庄街道, 开平区, 唐山市, 河北省, 063000, 中国", "type": "commercial", "osm_type": "way", "osm_id": 1355845693, "class": null, "keyword": "市中心"}}, {"type": "Feature", "geometry": {"type": "Polygon", "coordinates": [[[117.874354, 40.225215], [117.874439, 40.224408], [117.874953, 40.224464], [117.874892, 40.225311], [117.874354, 40.225215]]]}, "properties": {"display_name": "石人沟铁矿设备保障中心备件库, 遵化市, 唐山市, 河北省, 中国", "type": "industrial", "osm_type": "way", "osm_id": 1175978746, "class": null, "keyword": "市中心"}}, {"type": "Feature", "geometry": {"type": "Polygon", "coordinates": [[[118.152775, 39.761642], [118.153001, 39.761042], [118.153584, 39.761059], [118.153277, 39.761769], [118.152775, 39.761642]]]}, "properties": {"display_name": "宏亚兴汽车一站式维修服务中心, 丰润区, 唐山市, 河北省, 中国", "type": "commercial", "osm_type": "way", "osm_id": 974977232, "class": null, "keyword": "市中心"}}, {"type": "Feature", "geometry": {"type": "Polygon", "coordinates": [[[118.253687, 39.631227], [118.254541, 39.630973], [118.254678, 39.631331], [118.253879, 39.631588], [118.253687, 39.631227]]]}, "properties": {"display_name": "唐山环耀腾势中心, 越河镇, 开平区, 唐山市, 河北省, 063000, 中国", "type": "retail", "osm_type": "way", "osm_id": 972996181, "class": null, "keyword": "市中心"}}, {"type": "Feature", "geometry": {"type": "Polygon", "coordinates": [[[118.15586, 39.694615], [118.156766, 39.694619], [118.156707, 39.694688], [118.156708, 39.694937], [118.156186, 39.69493], [118.156193, 39.695132], [118.155931, 39.695131], [118.155933, 39.694679], [118.15586, 39.694615]]]}, "properties": {"display_name": "中化石油鑫城加油站, 大庆西道, 丰润区, 唐山市, 河北省, 中国", "type": "fuel", "osm_type": "way", "osm_id": 1126639993, "class": null, "keyword": "中心城区"}}, {"type": "Feature", "geometry": {"type": "Polygon", "coordinates": [[[118.107709, 39.616976], [118.107714, 39.616333], [118.108172, 39.616335], [118.108167, 39.61649], [118.108167, 39.616978], [118.107709, 39.616976]]]}, "properties": {"display_name": "唐山精益测试中心, 路北区, 唐山市, 河北省, 063000, 中国", "type": "commercial", "osm_type": "way", "osm_id": 1002659696, "class": null, "keyword": "市中心"}}, {"type": "Feature", "geometry": {"type": "Polygon", "coordinates": [[[118.692922, 39.745711], [118.692928, 39.745272], [118.693589, 39.745275], [118.693585, 39.745716], [118.692922, 39.745711]]]}, "properties": {"display_name": "滦州市就业服务中心, 滦河街道, 滦州市, 唐山市, 河北省, 中国", "type": "commercial", "osm_type": "way", "osm_id": 1078712525, "class": null, "keyword": "市中心"}}, {"type": "Feature", "geometry": {"type": "Polygon", "coordinates": [[[118.177901, 39.631383], [118.177902, 39.630798], [118.178379, 39.630799], [118.178378, 39.631383], [118.177901, 39.631383]]]}, "properties": {"display_name": "唐山市群众工作中心, 文化路, 路北区, 唐山市, 河北省, 063000, 中国", "type": "commercial", "osm_type": "way", "osm_id": 995462416, "class": null, "keyword": "市中心"}}, {"type": "Feature", "geometry": {"type": "Polygon", "coordinates": [[[118.456858, 39.056661], [118.45728, 39.056136], [118.45764, 39.056311], [118.457218, 39.056836], [118.456858, 39.056661]]]}, "properties": {"display_name": "唐山百货大楼曹妃甸购物中心, 中山路, 曹妃甸临港商务区, 曹妃甸区, 唐山市, 河北省, 中国", "type": "mall", "osm_type": "way", "osm_id": 589453038, "class": null, "keyword": "中心商務區"}}, {"type": "Feature", "geometry": {"type": "Polygon", "coordinates": [[[118.879611, 39.423793], [118.879739, 39.423214], [118.880133, 39.423261], [118.880072, 39.423841], [118.879611, 39.423793]]]}, "properties": {"display_name": "唐山市住房公积金(乐亭分中心), 乐安街道, 乐亭县, 唐山市, 河北省, 中国", "type": "commercial", "osm_type": "way", "osm_id": 1212159640, "class": null, "keyword": "市中心"}}, {"type": "Feature", "geometry": {"type": "Polygon", "coordinates": [[[118.164918, 39.631686], [118.164922, 39.631296], [118.165549, 39.631298], [118.165547, 39.631688], [118.164918, 39.631686]]]}, "properties": {"display_name": "唐山市住房和城乡建设局房管资产管理中心, 文化路, 路北区, 唐山市, 河北省, 063000, 中国", "type": "commercial", "osm_type": "way", "osm_id": 995462453, "class": null, "keyword": "中心城区"}}, {"type": "Feature", "geometry": {"type": "Polygon", "coordinates": [[[118.17612, 39.6368], [118.176125, 39.636529], [118.177035, 39.636532], [118.177028, 39.636784], [118.17612, 39.6368]]]}, "properties": {"display_name": "唐山市数字贸易综合服务中心, 文化路, 路北区, 唐山市, 河北省, 063000, 中国", "type": "commercial", "osm_type": "way", "osm_id": 1330571885, "class": null, "keyword": "市中心"}}, {"type": "Feature", "geometry": {"type": "Polygon", "coordinates": [[[118.705547, 39.747893], [118.705551, 39.747714], [118.705557, 39.747423], [118.706032, 39.747429], [118.706022, 39.747899], [118.705547, 39.747893]]]}, "properties": {"display_name": "唐山市住房公积金滦州分中心, 滦河街道, 滦州市, 唐山市, 河北省, 中国", "type": "commercial", "osm_type": "way", "osm_id": 1078712569, "class": null, "keyword": "市中心"}}, {"type": "Feature", "geometry": {"type": "Polygon", "coordinates": [[[118.171704, 39.630406], [118.171706, 39.630111], [118.171739, 39.630065], [118.172342, 39.630068], [118.17234, 39.63041], [118.171704, 39.630406]]]}, "properties": {"display_name": "路北区新时代文明实践中心, 文化路, 路北区, 唐山市, 河北省, 063000, 中国", "type": "commercial", "osm_type": "way", "osm_id": 1330571887, "class": null, "keyword": "市中心"}}, {"type": "Feature", "geometry": {"type": "Polygon", "coordinates": [[[118.161112, 39.631512], [118.161115, 39.631507], [118.16112, 39.6315], [118.161127, 39.631494], [118.161136, 39.631489], [118.161149, 39.631485], [118.161158, 39.631482], [118.161197, 39.631482], [118.161518, 39.631481], [118.161534, 39.631485], [118.161548, 39.631492], [118.161557, 39.631503], [118.161564, 39.631517], [118.161559, 39.631903], [118.161548, 39.631914], [118.161535, 39.631923], [118.16152, 39.631929], [118.161167, 39.631932], [118.161158, 39.63193], [118.161147, 39.631926], [118.161138, 39.631921], [118.161129, 39.631915], [118.161122, 39.631909], [118.161118, 39.631903], [118.161115, 39.631896], [118.161112, 39.631512]]]}, "properties": {"display_name": "凤城国贸中心, 北新西道, 山西南里社区, 文化路, 路北区, 唐山市, 河北省, 063000, 中国", "type": "commercial", "osm_type": "way", "osm_id": 1055253712, "class": null, "keyword": "中心城区"}}, {"type": "Feature", "geometry": {"type": "Polygon", "coordinates": [[[118.17188, 39.622341], [118.171914, 39.622317], [118.172369, 39.622318], [118.172405, 39.62234], [118.172408, 39.622624], [118.172371, 39.62265], [118.171912, 39.622651], [118.17188, 39.622627], [118.17188, 39.622341]]]}, "properties": {"display_name": "新世界金融大厦, 建设南路, 广场街道, 路南区, 唐山市, 河北省, 063000, 中国", "type": "commercial", "osm_type": "way", "osm_id": 593760288, "class": null, "keyword": "financial district"}}, {"type": "Feature", "geometry": {"type": "Polygon", "coordinates": [[[118.45082, 39.743781], [118.450838, 39.743423], [118.451242, 39.743432], [118.451224, 39.743802], [118.45082, 39.743781]]]}, "properties": {"display_name": "唐山市古冶区市场建设服务中心, 唐家庄街道, 古冶区, 唐山市, 河北省, 063100, 中国", "type": "commercial", "osm_type": "way", "osm_id": 400533412, "class": null, "keyword": "市中心"}}, {"type": "Feature", "geometry": {"type": "Polygon", "coordinates": [[[118.363481, 39.571671], [118.363484, 39.571244], [118.363818, 39.571242], [118.363821, 39.571669], [118.363481, 39.571671]]]}, "properties": {"display_name": "金狮购物中心, 钱家营矿区街道, 丰南区, 唐山市, 河北省, 中国", "type": "retail", "osm_type": "way", "osm_id": 993403277, "class": null, "keyword": "市中心"}}, {"type": "Feature", "geometry": {"type": "Polygon", "coordinates": [[[118.439916, 39.734962], [118.439968, 39.734627], [118.440287, 39.73464], [118.440377, 39.734636], [118.44036, 39.734972], [118.439916, 39.734962]]]}, "properties": {"display_name": "唐山市住房公积金古冶分中心, 京华街道, 古冶区, 唐山市, 河北省, 063100, 中国", "type": "commercial", "osm_type": "way", "osm_id": 1235966645, "class": null, "keyword": "市中心"}}, {"type": "Feature", "geometry": {"type": "Polygon", "coordinates": [[[118.162624, 39.83088], [118.162944, 39.830741], [118.163091, 39.830941], [118.16277, 39.83108], [118.162624, 39.83088]]]}, "properties": {"display_name": "太平路街道办事处社区卫生服务中心, 太平路街道, 丰润区, 唐山市, 河北省, 中国", "type": "commercial", "osm_type": "way", "osm_id": 1324028583, "class": null, "keyword": "市中心"}}]}