{"type": "FeatureCollection", "features": [{"type": "Feature", "geometry": {"type": "Polygon", "coordinates": [[[-95.917864, 36.097849], [-95.917384, 36.097403], [-95.917293, 36.097317], [-95.917252, 36.097279], [-95.91721, 36.097253], [-95.917156, 36.097228], [-95.917098, 36.097209], [-95.917036, 36.097196], [-95.916967, 36.097194], [-95.916087, 36.097197], [-95.916088, 36.097215], [-95.916087, 36.097233], [-95.916083, 36.097251], [-95.916076, 36.097268], [-95.916066, 36.097285], [-95.916054, 36.0973], [-95.91604, 36.097314], [-95.916023, 36.097326], [-95.916005, 36.097337], [-95.915985, 36.097346], [-95.915964, 36.097352], [-95.915943, 36.097357], [-95.91592, 36.097359], [-95.915898, 36.097359], [-95.915875, 36.097357], [-95.915854, 36.097352], [-95.915833, 36.097346], [-95.915813, 36.097337], [-95.915795, 36.097326], [-95.915778, 36.097314], [-95.915764, 36.0973], [-95.915752, 36.097285], [-95.915742, 36.097268], [-95.915735, 36.097251], [-95.915731, 36.097233], [-95.91573, 36.097215], [-95.915731, 36.097197], [-95.913437, 36.097205], [-95.913397, 36.097236], [-95.913421, 36.10075], [-95.913528, 36.100847], [-95.913579, 36.100893], [-95.916945, 36.098486], [-95.917027, 36.098434], [-95.917864, 36.097849]]]}, "properties": {"display_name": "Midtown Village Shopping Center, Tulsa, Tulsa County, Oklahoma, United States", "type": "retail", "osm_type": "relation", "osm_id": 19281720, "class": null, "keyword": "midtown"}}, {"type": "Feature", "geometry": {"type": "Polygon", "coordinates": [[[-95.991085, 36.164108], [-95.991055, 36.164036], [-95.990389, 36.162857], [-95.989678, 36.163108], [-95.989547, 36.16327], [-95.989451, 36.163293], [-95.989317, 36.163252], [-95.989145, 36.162939], [-95.98916, 36.162227], [-95.988891, 36.162051], [-95.988844, 36.162067], [-95.988183, 36.161817], [-95.987364, 36.161504], [-95.987247, 36.161269], [-95.986745, 36.16111], [-95.986736, 36.161973], [-95.986729, 36.162254], [-95.986715, 36.162374], [-95.98671, 36.162417], [-95.986676, 36.162532], [-95.986647, 36.162626], [-95.986601, 36.162713], [-95.98652, 36.162888], [-95.986493, 36.162992], [-95.986482, 36.163088], [-95.986494, 36.163219], [-95.986517, 36.16332], [-95.986549, 36.163401], [-95.986597, 36.163496], [-95.98666, 36.163585], [-95.986729, 36.163667], [-95.986852, 36.163777], [-95.987128, 36.164021], [-95.987332, 36.164201], [-95.987352, 36.164208], [-95.987376, 36.164205], [-95.987413, 36.164186], [-95.987471, 36.164151], [-95.987635, 36.164071], [-95.987765, 36.164015], [-95.987983, 36.163954], [-95.988021, 36.163998], [-95.988318, 36.16395], [-95.988491, 36.163944], [-95.988663, 36.163953], [-95.988893, 36.163977], [-95.989209, 36.164062], [-95.989403, 36.164119], [-95.989595, 36.164161], [-95.989801, 36.164185], [-95.99056, 36.164187], [-95.991, 36.16419], [-95.99104, 36.164182], [-95.991066, 36.164159], [-95.991081, 36.164134], [-95.991085, 36.164108]]]}, "properties": {"display_name": "Oklahoma State University - Tulsa, 700, North Greenwood Avenue East, Greenwood District, Tulsa, Tulsa County, Oklahoma, 74106, United States", "type": "university", "osm_type": "way", "osm_id": 188991775, "class": null, "keyword": "district"}}, {"type": "Feature", "geometry": {"type": "Polygon", "coordinates": [[[-95.893409, 36.133553], [-95.891043, 36.133553], [-95.891073, 36.135164], [-95.891151, 36.135165], [-95.89116, 36.135545], [-95.891885, 36.135547], [-95.892231, 36.135405], [-95.892541, 36.135306], [-95.893123, 36.135172], [-95.893269, 36.135182], [-95.893397, 36.134805], [-95.893409, 36.133553]]]}, "properties": {"display_name": "Midtown Park, Tulsa, Tulsa County, Oklahoma, United States", "type": "residential", "osm_type": "way", "osm_id": 1240050365, "class": null, "keyword": "midtown"}}, {"type": "Feature", "geometry": {"type": "Polygon", "coordinates": [[[-96.028011, 36.100984], [-96.027852, 36.100696], [-96.027487, 36.100376], [-96.027716, 36.100047], [-96.027538, 36.09986], [-96.027365, 36.099975], [-96.027061, 36.10014], [-96.026625, 36.10048], [-96.026208, 36.100888], [-96.025609, 36.101366], [-96.025514, 36.101509], [-96.024676, 36.102277], [-96.025363, 36.102924], [-96.026871, 36.101813], [-96.027034, 36.101677], [-96.02739, 36.101417], [-96.028011, 36.100984]]]}, "properties": {"display_name": "Crystal City Shopping Center, Tulsa, Tulsa County, Oklahoma, United States", "type": "retail", "osm_type": "way", "osm_id": 374025297, "class": null, "keyword": "city center"}}, {"type": "Feature", "geometry": {"type": "Polygon", "coordinates": [[[-95.9799, 36.080087], [-95.97905, 36.079827], [-95.978947, 36.0798], [-95.978849, 36.079786], [-95.978228, 36.080656], [-95.978028, 36.080684], [-95.978013, 36.082418], [-95.97909, 36.082422], [-95.979114, 36.081221], [-95.9799, 36.080087]]]}, "properties": {"display_name": "Riverwood South Condominium Neighborhood, Tulsa, Tulsa County, Oklahoma, United States", "type": "residential", "osm_type": "way", "osm_id": 498956667, "class": null, "keyword": "neighborhood"}}, {"type": "Feature", "geometry": {"type": "Polygon", "coordinates": [[[-95.993587, 36.146024], [-95.993458, 36.146031], [-95.993416, 36.146016], [-95.99246, 36.14604], [-95.992406, 36.146051], [-95.99241, 36.146159], [-95.992419, 36.147681], [-95.992445, 36.147709], [-95.993031, 36.147715], [-95.993346, 36.147744], [-95.99357, 36.147753], [-95.993587, 36.146024]]]}, "properties": {"display_name": "Renaissance Uptown, Tulsa, Tulsa County, Oklahoma, United States", "type": "residential", "osm_type": "way", "osm_id": 1239944971, "class": null, "keyword": "uptown"}}, {"type": "Feature", "geometry": {"type": "Polygon", "coordinates": [[[-95.975565, 36.129858], [-95.974372, 36.129854], [-95.97434, 36.129835], [-95.972637, 36.129853], [-95.972641, 36.130142], [-95.972646, 36.130435], [-95.973449, 36.130426], [-95.973461, 36.130457], [-95.973468, 36.130477], [-95.973474, 36.130493], [-95.973498, 36.130513], [-95.973522, 36.130522], [-95.9736, 36.130519], [-95.973637, 36.1305], [-95.973664, 36.130476], [-95.973664, 36.13045], [-95.973664, 36.130424], [-95.975562, 36.13043], [-95.975565, 36.129858]]]}, "properties": {"display_name": "Tulsa Rose Garden, South Peoria Avenue East, Maple Ridge, Tulsa, Tulsa County, Oklahoma, 74113, United States", "type": "garden", "osm_type": "way", "osm_id": 251207324, "class": null, "keyword": "district"}}, {"type": "Feature", "geometry": {"type": "Polygon", "coordinates": [[[-95.956865, 36.088639], [-95.956854, 36.087959], [-95.955743, 36.087966], [-95.955758, 36.089651], [-95.956311, 36.089652], [-95.956309, 36.088856], [-95.956855, 36.088856], [-95.956865, 36.088639]]]}, "properties": {"display_name": "The Heights @ Midtown, Tulsa, Tulsa County, Oklahoma, United States", "type": "residential", "osm_type": "way", "osm_id": 580288097, "class": null, "keyword": "midtown"}}, {"type": "Feature", "geometry": {"type": "Polygon", "coordinates": [[[-95.996515, 36.14714], [-95.996398, 36.14714], [-95.996398, 36.147079], [-95.996275, 36.147079], [-95.996275, 36.147006], [-95.996027, 36.147003], [-95.995267, 36.146997], [-95.995256, 36.14774], [-95.995984, 36.147745], [-95.996023, 36.147717], [-95.996022, 36.147745], [-95.996085, 36.147745], [-95.996114, 36.147717], [-95.996178, 36.147717], [-95.996218, 36.147718], [-95.996514, 36.14749], [-95.996515, 36.147454], [-95.996515, 36.14714]]]}, "properties": {"display_name": "DoubleTree by Hilton Hotel Tulsa Downtown, 616, West 7th Street, Oil Capital Historic District, Tulsa, Tulsa County, Oklahoma, 74127, United States", "type": "hotel", "osm_type": "way", "osm_id": 109335282, "class": null, "keyword": "district"}}, {"type": "Feature", "geometry": {"type": "Polygon", "coordinates": [[[-95.940166, 36.114272], [-95.940162, 36.113448], [-95.939134, 36.113453], [-95.939136, 36.114261], [-95.940166, 36.114272]]]}, "properties": {"display_name": "Midtown Medical Park, Tulsa, Tulsa County, Oklahoma, United States", "type": "commercial", "osm_type": "way", "osm_id": 1009483306, "class": null, "keyword": "midtown"}}, {"type": "Feature", "geometry": {"type": "Polygon", "coordinates": [[[-95.981685, 36.167817], [-95.981672, 36.167788], [-95.981644, 36.16777], [-95.980738, 36.167763], [-95.980707, 36.168069], [-95.980701, 36.168273], [-95.980693, 36.168617], [-95.981538, 36.168617], [-95.981682, 36.16842], [-95.981685, 36.167817]]]}, "properties": {"display_name": "Midtown Industrial Center, Tulsa, Tulsa County, Oklahoma, United States", "type": "industrial", "osm_type": "way", "osm_id": 499877560, "class": null, "keyword": "midtown"}}, {"type": "Feature", "geometry": {"type": "Polygon", "coordinates": [[[-95.924576, 36.132009], [-95.924406, 36.13201], [-95.924406, 36.13188], [-95.924345, 36.13188], [-95.924345, 36.131645], [-95.924182, 36.131646], [-95.924182, 36.132099], [-95.924256, 36.1321], [-95.924256, 36.13221], [-95.923833, 36.132216], [-95.92383, 36.132266], [-95.923769, 36.132247], [-95.92377, 36.132267], [-95.92363, 36.132216], [-95.922849, 36.132218], [-95.922849, 36.132273], [-95.922786, 36.1323], [-95.922789, 36.132506], [-95.922849, 36.132479], [-95.922849, 36.132515], [-95.92339, 36.132516], [-95.923523, 36.132532], [-95.923584, 36.132502], [-95.923583, 36.132559], [-95.923643, 36.132532], [-95.923643, 36.132665], [-95.924576, 36.132665], [-95.924576, 36.132009]]]}, "properties": {"display_name": "Walmart Neighborhood Market, East 22nd Street, Mayo Meadow, Tulsa, Tulsa County, Oklahoma, 74114, United States", "type": "parking", "osm_type": "way", "osm_id": 321408651, "class": null, "keyword": "neighborhood"}}, {"type": "Feature", "geometry": {"type": "Polygon", "coordinates": [[[-95.98658, 36.147812], [-95.986278, 36.14724], [-95.985835, 36.147395], [-95.986136, 36.147964], [-95.986074, 36.147985], [-95.985777, 36.147415], [-95.98543, 36.147537], [-95.985422, 36.147536], [-95.985377, 36.147551], [-95.985366, 36.147572], [-95.985356, 36.147594], [-95.985729, 36.1483], [-95.985746, 36.148293], [-95.985762, 36.148317], [-95.986436, 36.148085], [-95.986421, 36.148055], [-95.986412, 36.148058], [-95.986328, 36.147899], [-95.98658, 36.147812]]]}, "properties": {"display_name": "Tulsa Community College, East 10th Street, Gunboat Park District, Tulsa, Tulsa County, Oklahoma, 74119, United States", "type": "university", "osm_type": "way", "osm_id": 715682307, "class": null, "keyword": "district"}}, {"type": "Feature", "geometry": {"type": "Polygon", "coordinates": [[[-95.995856, 36.149115], [-95.995648, 36.148724], [-95.9954, 36.148808], [-95.995353, 36.148718], [-95.994443, 36.149026], [-95.994693, 36.149509], [-95.99561, 36.1492], [-95.995856, 36.149115]]]}, "properties": {"display_name": "Tulsa Police Department, 600, West 6th Street, Oil Capital Historic District, Tulsa, Tulsa County, Oklahoma, 74103, United States", "type": "police", "osm_type": "way", "osm_id": 191525403, "class": null, "keyword": "district"}}, {"type": "Feature", "geometry": {"type": "Polygon", "coordinates": [[[-95.991713, 36.154019], [-95.991641, 36.153884], [-95.991524, 36.153925], [-95.99127, 36.153452], [-95.990965, 36.153559], [-95.990977, 36.153582], [-95.990596, 36.153716], [-95.990913, 36.154304], [-95.991011, 36.15427], [-95.991038, 36.154319], [-95.991087, 36.154409], [-95.991264, 36.154347], [-95.991302, 36.154334], [-95.991257, 36.154251], [-95.991225, 36.15419], [-95.991405, 36.154127], [-95.991483, 36.15427], [-95.99166, 36.154208], [-95.991583, 36.154064], [-95.991713, 36.154019]]]}, "properties": {"display_name": "Hyatt Regency Tulsa, 100, East 2nd Street South, Blue Dome District, Tulsa, Tulsa County, Oklahoma, 74103, United States", "type": "hotel", "osm_type": "way", "osm_id": 316001561, "class": null, "keyword": "district"}}, {"type": "Feature", "geometry": {"type": "Polygon", "coordinates": [[[-95.992087, 36.152932], [-95.991786, 36.15236], [-95.991507, 36.152463], [-95.991404, 36.152272], [-95.991325, 36.152298], [-95.991342, 36.15233], [-95.991329, 36.152335], [-95.991381, 36.152435], [-95.991351, 36.152445], [-95.991381, 36.152502], [-95.991317, 36.152524], [-95.99129, 36.152533], [-95.991258, 36.152473], [-95.990824, 36.15262], [-95.990864, 36.152696], [-95.991069, 36.153094], [-95.991421, 36.152968], [-95.991379, 36.152884], [-95.991491, 36.152842], [-95.991519, 36.152831], [-95.991653, 36.153081], [-95.991894, 36.152998], [-95.992087, 36.152932]]]}, "properties": {"display_name": "Tulsa World, 315, South Boulder Avenue, Deco District, Tulsa, Tulsa County, Oklahoma, 74103, United States", "type": "office", "osm_type": "way", "osm_id": 191525377, "class": null, "keyword": "district"}}, {"type": "Feature", "geometry": {"type": "Polygon", "coordinates": [[[-95.989906, 36.156758], [-95.989679, 36.156334], [-95.989655, 36.156288], [-95.989483, 36.156348], [-95.988728, 36.15661], [-95.988954, 36.15703], [-95.988979, 36.157081], [-95.989906, 36.156758]]]}, "properties": {"display_name": "Tulsa City Hall Parking Garage, South Cincinnati Avenue, Deco District, Tulsa, Tulsa County, Oklahoma, 74119, United States", "type": "parking", "osm_type": "way", "osm_id": 98082803, "class": null, "keyword": "district"}}, {"type": "Feature", "geometry": {"type": "Polygon", "coordinates": [[[-95.994434, 36.14971], [-95.994353, 36.149559], [-95.994254, 36.149369], [-95.993944, 36.149471], [-95.993911, 36.14941], [-95.994224, 36.149302], [-95.994099, 36.149064], [-95.993406, 36.149306], [-95.993527, 36.149534], [-95.993465, 36.149554], [-95.993512, 36.149638], [-95.993575, 36.149615], [-95.993752, 36.149947], [-95.994434, 36.14971]]]}, "properties": {"display_name": "Tulsa County Courthouse, West 6th Street, Oil Capital Historic District, Tulsa, Tulsa County, Oklahoma, 74103, United States", "type": "courthouse", "osm_type": "way", "osm_id": 250492417, "class": null, "keyword": "district"}}, {"type": "Feature", "geometry": {"type": "Polygon", "coordinates": [[[-95.903652, 36.045175], [-95.903652, 36.044702], [-95.903652, 36.044543], [-95.903537, 36.044543], [-95.903537, 36.044702], [-95.902707, 36.044702], [-95.902707, 36.045175], [-95.902892, 36.045175], [-95.902892, 36.04522], [-95.90291, 36.04522], [-95.90291, 36.045231], [-95.903067, 36.045231], [-95.903067, 36.04522], [-95.903389, 36.045219], [-95.903389, 36.045228], [-95.903515, 36.045228], [-95.903515, 36.045219], [-95.903553, 36.045219], [-95.903553, 36.045175], [-95.903652, 36.045175]]]}, "properties": {"display_name": "Walmart Neighborhood Market, 6606, South Sheridan Road, Pleasant Valley, Tulsa, Tulsa County, Oklahoma, 74133, United States", "type": "supermarket", "osm_type": "way", "osm_id": 1112262728, "class": null, "keyword": "neighborhood"}}, {"type": "Feature", "geometry": {"type": "Polygon", "coordinates": [[[-95.977193, 36.153412], [-95.977188, 36.15291], [-95.976211, 36.152918], [-95.976217, 36.153419], [-95.977193, 36.153412]]]}, "properties": {"display_name": "Indian Health Care Resource Center of Tulsa, 550, South Peoria Avenue East, Pearl District, Tulsa, Tulsa County, Oklahoma, 74120, United States", "type": "clinic", "osm_type": "way", "osm_id": 251645281, "class": null, "keyword": "district"}}, {"type": "Feature", "geometry": {"type": "Polygon", "coordinates": [[[-95.989964, 36.154631], [-95.989746, 36.154226], [-95.98969, 36.154245], [-95.989643, 36.154157], [-95.989486, 36.154212], [-95.989458, 36.15416], [-95.989397, 36.154142], [-95.989069, 36.154257], [-95.989054, 36.154297], [-95.989256, 36.154672], [-95.9893, 36.154697], [-95.989349, 36.154788], [-95.989211, 36.154837], [-95.989311, 36.155023], [-95.989806, 36.15485], [-95.989732, 36.154712], [-95.989964, 36.154631]]]}, "properties": {"display_name": "Tulsa Performing Arts Center, 110, East 2nd Street, Deco District, Tulsa, Tulsa County, Oklahoma, 74103, United States", "type": "theatre", "osm_type": "way", "osm_id": 60964209, "class": null, "keyword": "district"}}, {"type": "Feature", "geometry": {"type": "Polygon", "coordinates": [[[-95.853934, 36.118312], [-95.853831, 36.118312], [-95.853832, 36.117859], [-95.853657, 36.117859], [-95.85322, 36.117858], [-95.85322, 36.117997], [-95.853176, 36.117997], [-95.853175, 36.118421], [-95.853223, 36.118421], [-95.853223, 36.118559], [-95.853933, 36.11856], [-95.853934, 36.118312]]]}, "properties": {"display_name": "Walmart Neighborhood Market, 3116, South Garnett Road East, Tulsa, Tulsa County, Oklahoma, 74146, United States", "type": "supermarket", "osm_type": "relation", "osm_id": 19119892, "class": null, "keyword": "neighborhood"}}, {"type": "Feature", "geometry": {"type": "Polygon", "coordinates": [[[-95.947332, 36.027501], [-95.947331, 36.027395], [-95.947286, 36.027397], [-95.947286, 36.0273], [-95.946748, 36.0273], [-95.946748, 36.027704], [-95.946713, 36.027702], [-95.946714, 36.028081], [-95.946831, 36.028082], [-95.946831, 36.027971], [-95.947284, 36.02797], [-95.947286, 36.02785], [-95.947329, 36.027851], [-95.947332, 36.027725], [-95.947315, 36.027725], [-95.947318, 36.027501], [-95.947332, 36.027501]]]}, "properties": {"display_name": "Walmart Neighborhood Market, 9411, South Delaware Avenue, Tulsa, Tulsa County, Oklahoma, 74137, United States", "type": "supermarket", "osm_type": "way", "osm_id": 464837050, "class": null, "keyword": "neighborhood"}}, {"type": "Feature", "geometry": {"type": "Polygon", "coordinates": [[[-95.977494, 36.099237], [-95.977404, 36.099237], [-95.977405, 36.098998], [-95.977345, 36.098997], [-95.977345, 36.099013], [-95.977049, 36.099012], [-95.977049, 36.098943], [-95.976939, 36.098943], [-95.976939, 36.099012], [-95.976825, 36.099012], [-95.976823, 36.099391], [-95.976776, 36.099391], [-95.976776, 36.099551], [-95.976828, 36.099551], [-95.976828, 36.09963], [-95.977404, 36.099631], [-95.977405, 36.099398], [-95.977494, 36.099398], [-95.977494, 36.099237]]]}, "properties": {"display_name": "Walmart Neighborhood Market, 4404, South Peoria Avenue, Brooktowne, Tulsa, Tulsa County, Oklahoma, 74105, United States", "type": "supermarket", "osm_type": "way", "osm_id": 930814844, "class": null, "keyword": "neighborhood"}}, {"type": "Feature", "geometry": {"type": "Polygon", "coordinates": [[[-95.924163, 36.131597], [-95.923715, 36.131597], [-95.923715, 36.13152], [-95.923527, 36.13152], [-95.923527, 36.131597], [-95.923401, 36.131597], [-95.923401, 36.131873], [-95.923365, 36.131873], [-95.92332, 36.131873], [-95.92332, 36.131965], [-95.923365, 36.131965], [-95.923401, 36.131965], [-95.923401, 36.132058], [-95.923498, 36.132058], [-95.923498, 36.132051], [-95.923556, 36.132051], [-95.923556, 36.132067], [-95.923657, 36.132067], [-95.923657, 36.132051], [-95.923679, 36.132051], [-95.923679, 36.13207], [-95.923825, 36.13207], [-95.923825, 36.132051], [-95.923848, 36.132051], [-95.923848, 36.132097], [-95.92397, 36.132097], [-95.924092, 36.132097], [-95.924092, 36.132051], [-95.924163, 36.132051], [-95.924163, 36.131597]]]}, "properties": {"display_name": "Walmart Neighborhood Market, 4720, East 21st Street South, Mayo Meadow, Tulsa, Tulsa County, Oklahoma, 74114, United States", "type": "supermarket", "osm_type": "way", "osm_id": 321408650, "class": null, "keyword": "neighborhood"}}, {"type": "Feature", "geometry": {"type": "Polygon", "coordinates": [[[-95.938869, 36.117818], [-95.938869, 36.117703], [-95.938866, 36.117223], [-95.93832, 36.117225], [-95.938322, 36.117606], [-95.938237, 36.117606], [-95.938238, 36.11782], [-95.938869, 36.117818]]]}, "properties": {"display_name": "Walmart Neighborhood Market, 3139, South Harvard Avenue East, Ranch Acres, Tulsa, Tulsa County, Oklahoma, 74135, United States", "type": "supermarket", "osm_type": "way", "osm_id": 1238740062, "class": null, "keyword": "neighborhood"}}, {"type": "Feature", "geometry": {"type": "Polygon", "coordinates": [[[-95.979711, 36.156253], [-95.979711, 36.156161], [-95.979579, 36.156162], [-95.979579, 36.156138], [-95.979589, 36.156138], [-95.979589, 36.156092], [-95.979551, 36.156092], [-95.979551, 36.156073], [-95.979542, 36.156073], [-95.979541, 36.155929], [-95.97953, 36.155929], [-95.97953, 36.155918], [-95.979536, 36.155918], [-95.979536, 36.155886], [-95.97953, 36.155886], [-95.97953, 36.155875], [-95.979403, 36.155875], [-95.979403, 36.155887], [-95.979395, 36.155887], [-95.979395, 36.155919], [-95.979402, 36.155918], [-95.979402, 36.155929], [-95.979388, 36.155929], [-95.979389, 36.15606], [-95.979158, 36.156061], [-95.979157, 36.155997], [-95.979039, 36.155997], [-95.979039, 36.155946], [-95.979038, 36.155892], [-95.978961, 36.155892], [-95.978961, 36.155945], [-95.978961, 36.155997], [-95.978864, 36.155997], [-95.978864, 36.156129], [-95.978891, 36.156129], [-95.978891, 36.156222], [-95.978864, 36.156222], [-95.978864, 36.156343], [-95.978891, 36.156343], [-95.978891, 36.156352], [-95.978881, 36.156352], [-95.978882, 36.156407], [-95.978891, 36.156407], [-95.978891, 36.156415], [-95.978907, 36.156415], [-95.978907, 36.156423], [-95.978996, 36.156423], [-95.978996, 36.156415], [-95.979008, 36.156415], [-95.979008, 36.156422], [-95.979036, 36.156423], [-95.979036, 36.156415], [-95.979049, 36.156415], [-95.979049, 36.156423], [-95.979118, 36.156423], [-95.979118, 36.156414], [-95.97913, 36.156414], [-95.97913, 36.156393], [-95.979157, 36.156393], [-95.979157, 36.156352], [-95.979378, 36.156351], [-95.979389, 36.156351], [-95.97939, 36.156491], [-95.979402, 36.156491], [-95.979402, 36.1565], [-95.979395, 36.1565], [-95.979396, 36.156533], [-95.979403, 36.156533], [-95.979403, 36.156545], [-95.979529, 36.156544], [-95.979529, 36.156532], [-95.979536, 36.156532], [-95.979536, 36.156502], [-95.979529, 36.156502], [-95.979529, 36.156493], [-95.979541, 36.156493], [-95.97954, 36.156349], [-95.979551, 36.156349], [-95.979551, 36.156329], [-95.979588, 36.156329], [-95.979588, 36.156282], [-95.979579, 36.156282], [-95.979579, 36.156253], [-95.979711, 36.156253]], [[-95.979217, 36.15632], [-95.979159, 36.15632], [-95.979158, 36.156216], [-95.979145, 36.156216], [-95.979143, 36.156128], [-95.97916, 36.156128], [-95.97916, 36.156092], [-95.979214, 36.156092], [-95.979217, 36.15632]]]}, "properties": {"display_name": "Youth Services of Tulsa, South Madison Avenue, Pearl District, Tulsa, Tulsa County, Oklahoma, 74120, United States", "type": "yes", "osm_type": "relation", "osm_id": 10994247, "class": null, "keyword": "district"}}, {"type": "Feature", "geometry": {"type": "Polygon", "coordinates": [[[-95.99925, 36.155883], [-95.999159, 36.155716], [-95.999034, 36.155675], [-95.999017, 36.155651], [-95.998963, 36.155635], [-95.998825, 36.155684], [-95.998803, 36.155725], [-95.998838, 36.155796], [-95.998789, 36.15589], [-95.998705, 36.155921], [-95.99865, 36.15604], [-95.998728, 36.156188], [-95.998873, 36.156235], [-95.998968, 36.156202], [-95.999, 36.156262], [-95.999069, 36.156283], [-95.999173, 36.156247], [-95.999202, 36.156191], [-95.999148, 36.156104], [-95.99925, 36.155883]]]}, "properties": {"display_name": "Tulsa Day Center for the Homeless, West Archer Street, Downtown Tulsa, Tulsa, Tulsa County, Oklahoma, 74103, United States", "type": "social_facility", "osm_type": "way", "osm_id": 259791864, "class": null, "keyword": "district"}}, {"type": "Feature", "geometry": {"type": "Polygon", "coordinates": [[[-95.922156, 36.121462], [-95.922134, 36.121349], [-95.922155, 36.121226], [-95.922125, 36.12111], [-95.922078, 36.121104], [-95.922034, 36.12111], [-95.922032, 36.121123], [-95.921702, 36.121125], [-95.921702, 36.121141], [-95.921661, 36.121141], [-95.92166, 36.121117], [-95.921623, 36.121118], [-95.921627, 36.121309], [-95.921584, 36.121308], [-95.921588, 36.121588], [-95.922133, 36.121585], [-95.922156, 36.121462]]]}, "properties": {"display_name": "Midtown Church of Christ, 2901, South Yale Avenue East, Mockingbird, Tulsa, Tulsa County, Oklahoma, 74114, United States", "type": "place_of_worship", "osm_type": "way", "osm_id": 1038117216, "class": null, "keyword": "midtown"}}, {"type": "Feature", "geometry": {"type": "Polygon", "coordinates": [[[-95.990715, 36.166308], [-95.990713, 36.166016], [-95.990502, 36.166017], [-95.990502, 36.166004], [-95.990451, 36.166004], [-95.990451, 36.165988], [-95.990445, 36.165988], [-95.990444, 36.165958], [-95.990398, 36.165958], [-95.990398, 36.165989], [-95.9903, 36.165989], [-95.9903, 36.16597], [-95.990239, 36.16597], [-95.99024, 36.165989], [-95.990154, 36.16599], [-95.990158, 36.166478], [-95.990505, 36.166476], [-95.990504, 36.166363], [-95.990556, 36.166363], [-95.990555, 36.166309], [-95.990715, 36.166308]]]}, "properties": {"display_name": "Tulsa Housing Authority, East Independence Street North, The Heights, Tulsa, Tulsa County, Oklahoma, 74013, United States", "type": "estate_agent", "osm_type": "way", "osm_id": 327315006, "class": null, "keyword": "district"}}, {"type": "Feature", "geometry": {"type": "Polygon", "coordinates": [[[-95.973815, 36.12902], [-95.973814, 36.128914], [-95.973641, 36.128915], [-95.973641, 36.128859], [-95.973698, 36.128858], [-95.973694, 36.128553], [-95.973617, 36.128554], [-95.973615, 36.128472], [-95.97335, 36.128474], [-95.973355, 36.128752], [-95.973284, 36.128752], [-95.97329, 36.129163], [-95.973434, 36.129162], [-95.973433, 36.129039], [-95.973648, 36.129037], [-95.973647, 36.128973], [-95.973667, 36.128973], [-95.973668, 36.129022], [-95.973815, 36.12902]]]}, "properties": {"display_name": "Tulsa Historical Society, 2445, South Peoria Avenue East, Maple Ridge, Tulsa, Tulsa County, Oklahoma, 74114, United States", "type": "parking", "osm_type": "way", "osm_id": 220670674, "class": null, "keyword": "district"}}, {"type": "Feature", "geometry": {"type": "Polygon", "coordinates": [[[-95.9964, 36.154244], [-95.996391, 36.154226], [-95.996301, 36.154062], [-95.996349, 36.154044], [-95.99631, 36.153973], [-95.996285, 36.153967], [-95.996188, 36.154001], [-95.99618, 36.154013], [-95.995815, 36.154144], [-95.996105, 36.154674], [-95.99623, 36.154629], [-95.996241, 36.154649], [-95.99638, 36.154599], [-95.996221, 36.154308], [-95.9964, 36.154244]]]}, "properties": {"display_name": "Tulsa County Sheriff's Office, South Denver Avenue, Downtown Tulsa, Tulsa, Tulsa County, Oklahoma, 74103, United States", "type": "police", "osm_type": "way", "osm_id": 496168888, "class": null, "keyword": "district"}}, {"type": "Feature", "geometry": {"type": "Polygon", "coordinates": [[[-95.995699, 36.158248], [-95.995486, 36.157843], [-95.995454, 36.157854], [-95.995431, 36.15781], [-95.995085, 36.157929], [-95.995109, 36.157975], [-95.995073, 36.157987], [-95.995286, 36.158392], [-95.995378, 36.15836], [-95.995401, 36.158405], [-95.995632, 36.158325], [-95.995608, 36.15828], [-95.995699, 36.158248]]]}, "properties": {"display_name": "Tulsa Theater, 105, West Reconciliation Way, Tulsa Arts District, Tulsa, Tulsa County, Oklahoma, 74103, United States", "type": "theatre", "osm_type": "way", "osm_id": 60964202, "class": null, "keyword": "district"}}, {"type": "Feature", "geometry": {"type": "Polygon", "coordinates": [[[-95.991126, 36.156597], [-95.991084, 36.156518], [-95.991002, 36.156547], [-95.990902, 36.15636], [-95.990873, 36.15637], [-95.990846, 36.156319], [-95.990353, 36.156492], [-95.990379, 36.15654], [-95.990363, 36.156555], [-95.990362, 36.156571], [-95.990413, 36.156666], [-95.990432, 36.156681], [-95.990466, 36.156686], [-95.990491, 36.156732], [-95.990511, 36.156725], [-95.99055, 36.156797], [-95.990696, 36.156746], [-95.990709, 36.15677], [-95.99079, 36.156742], [-95.990794, 36.156748], [-95.991029, 36.156666], [-95.991013, 36.156636], [-95.991126, 36.156597]]]}, "properties": {"display_name": "Tulsa Union Station, South Boston Avenue, Downtown Tulsa, Tulsa, Tulsa County, Oklahoma, 74103, United States", "type": "train_station", "osm_type": "way", "osm_id": 324093534, "class": null, "keyword": "district"}}, {"type": "Feature", "geometry": {"type": "Polygon", "coordinates": [[[-95.998638, 36.161733], [-95.998611, 36.161733], [-95.998612, 36.161683], [-95.998323, 36.161681], [-95.998324, 36.161631], [-95.998195, 36.16163], [-95.998189, 36.162122], [-95.998556, 36.162125], [-95.998557, 36.162078], [-95.998634, 36.162078], [-95.998638, 36.161733]]]}, "properties": {"display_name": "Tulsa County Elections Board, 555, North Denver Avenue West, The Heights, Tulsa, Tulsa County, Oklahoma, 74103, United States", "type": "government", "osm_type": "way", "osm_id": 495944567, "class": null, "keyword": "district"}}, {"type": "Feature", "geometry": {"type": "Polygon", "coordinates": [[[-95.988996, 36.141487], [-95.988994, 36.141121], [-95.988597, 36.141122], [-95.988599, 36.141488], [-95.988996, 36.141487]]]}, "properties": {"display_name": "Tulsa Area United Way, South Boulder Avenue, Oakshire, Tulsa, Tulsa County, Oklahoma, 74119, United States", "type": "commercial", "osm_type": "way", "osm_id": 262282797, "class": null, "keyword": "district"}}, {"type": "Feature", "geometry": {"type": "Polygon", "coordinates": [[[-95.974254, 36.128839], [-95.974227, 36.128839], [-95.974227, 36.12879], [-95.974208, 36.12879], [-95.974208, 36.128753], [-95.974191, 36.128753], [-95.974191, 36.128736], [-95.974217, 36.128736], [-95.974218, 36.128682], [-95.974198, 36.128682], [-95.974198, 36.128639], [-95.974178, 36.128639], [-95.974179, 36.128602], [-95.974131, 36.128602], [-95.974104, 36.128578], [-95.974075, 36.128578], [-95.974075, 36.128566], [-95.973855, 36.128566], [-95.973854, 36.128617], [-95.973764, 36.128616], [-95.973764, 36.128646], [-95.973744, 36.128646], [-95.973743, 36.128738], [-95.973758, 36.128738], [-95.973758, 36.128777], [-95.973741, 36.128777], [-95.973741, 36.12884], [-95.973894, 36.12884], [-95.973894, 36.128793], [-95.974048, 36.128794], [-95.974047, 36.129002], [-95.974209, 36.129002], [-95.974209, 36.128967], [-95.974225, 36.128967], [-95.974225, 36.12892], [-95.974254, 36.12892], [-95.974254, 36.128839]]]}, "properties": {"display_name": "Tulsa Historical Society, 2445, South Peoria Avenue East, Garden District, Tulsa, Tulsa County, Oklahoma, 74114, United States", "type": "museum", "osm_type": "way", "osm_id": 220670675, "class": null, "keyword": "district"}}, {"type": "Feature", "geometry": {"type": "Polygon", "coordinates": [[[-95.88992, 36.113836], [-95.889918, 36.113666], [-95.88986, 36.113666], [-95.88986, 36.113647], [-95.889887, 36.113647], [-95.889886, 36.113519], [-95.889575, 36.113521], [-95.889575, 36.113588], [-95.889492, 36.113589], [-95.889494, 36.113805], [-95.889552, 36.113805], [-95.889554, 36.113926], [-95.889863, 36.113924], [-95.889862, 36.113837], [-95.88992, 36.113836]], [[-95.889769, 36.113665], [-95.889715, 36.113665], [-95.889716, 36.113838], [-95.889768, 36.113838], [-95.889768, 36.113857], [-95.889632, 36.113858], [-95.889632, 36.113838], [-95.889689, 36.113838], [-95.889687, 36.113667], [-95.889633, 36.113667], [-95.889632, 36.113648], [-95.889769, 36.113647], [-95.889769, 36.113665]]]}, "properties": {"display_name": "Memorial Midtown Station, East 33rd Street South, Tulsa, Tulsa County, Oklahoma, 74145, United States", "type": "parking", "osm_type": "relation", "osm_id": 3913552, "class": null, "keyword": "midtown"}}, {"type": "Feature", "geometry": {"type": "Polygon", "coordinates": [[[-95.990196, 36.159927], [-95.990186, 36.159907], [-95.990062, 36.159675], [-95.989609, 36.159832], [-95.98974, 36.16008], [-95.990196, 36.159927]]]}, "properties": {"display_name": "Living Arts of Tulsa, 307, East Reconciliation Way North, Greenwood District, Tulsa, Tulsa County, Oklahoma, 74120, United States", "type": "arts_centre", "osm_type": "way", "osm_id": 250496668, "class": null, "keyword": "district"}}, {"type": "Feature", "geometry": {"type": "Polygon", "coordinates": [[[-95.987001, 36.156621], [-95.986941, 36.156508], [-95.986897, 36.156523], [-95.986816, 36.156551], [-95.986807, 36.156534], [-95.986259, 36.156723], [-95.986271, 36.156746], [-95.986244, 36.156755], [-95.98631, 36.156879], [-95.986337, 36.15687], [-95.98635, 36.156895], [-95.986612, 36.156805], [-95.986615, 36.156809], [-95.986795, 36.156747], [-95.98678, 36.156719], [-95.986882, 36.156684], [-95.986872, 36.156666], [-95.986954, 36.156637], [-95.987001, 36.156621]]]}, "properties": {"display_name": "Hotel Indigo Tulsa Downtown-Entertainment Area, 121, South Elgin Avenue East, East Village, Tulsa, Tulsa County, Oklahoma, 74120, United States", "type": "hotel", "osm_type": "way", "osm_id": 1093697769, "class": null, "keyword": "district"}}, {"type": "Feature", "geometry": {"type": "Polygon", "coordinates": [[[-95.999522, 36.15117], [-95.99936, 36.150862], [-95.999029, 36.150975], [-95.99919, 36.151283], [-95.999522, 36.15117]]]}, "properties": {"display_name": "Tulsa County, 633, West 3rd Street, Crosbie Heights, Tulsa, Tulsa County, Oklahoma, 74127, United States", "type": "yes", "osm_type": "way", "osm_id": 256988048, "class": null, "keyword": "district"}}, {"type": "Feature", "geometry": {"type": "Polygon", "coordinates": [[[-95.988331, 36.144409], [-95.988327, 36.14413], [-95.987935, 36.144129], [-95.987897, 36.144159], [-95.987899, 36.144294], [-95.987926, 36.144294], [-95.987926, 36.144385], [-95.988142, 36.144384], [-95.988143, 36.14441], [-95.988331, 36.144409]]]}, "properties": {"display_name": "University of Tulsa Oxley College of Health Sciences, 1215, South Boulder Avenue, Riverview, Tulsa, Tulsa County, Oklahoma, 74119, United States", "type": "university", "osm_type": "way", "osm_id": 60965489, "class": null, "keyword": "district"}}, {"type": "Feature", "geometry": {"type": "Polygon", "coordinates": [[[-95.976153, 36.156396], [-95.976152, 36.156347], [-95.976091, 36.156348], [-95.976089, 36.15624], [-95.975779, 36.156245], [-95.975787, 36.156577], [-95.976034, 36.156573], [-95.976033, 36.156539], [-95.976097, 36.156538], [-95.976094, 36.156397], [-95.976153, 36.156396]]]}, "properties": {"display_name": "Tulsa Downtown Storage, East 3rd Street South, Central Park, Tulsa, Tulsa County, Oklahoma, 74120, United States", "type": "storage_rental", "osm_type": "way", "osm_id": 1239501605, "class": null, "keyword": "district"}}, {"type": "Feature", "geometry": {"type": "Polygon", "coordinates": [[[-95.98446, 36.141082], [-95.984098, 36.141081], [-95.984097, 36.141296], [-95.984136, 36.141296], [-95.984136, 36.141362], [-95.984459, 36.141363], [-95.98446, 36.141082]]]}, "properties": {"display_name": "Tulsa Fertility Center, 115, East 15th Street, Gunboat Park District, Tulsa, Tulsa County, Oklahoma, 74112, United States", "type": "alternative", "osm_type": "way", "osm_id": 496134690, "class": null, "keyword": "district"}}, {"type": "Feature", "geometry": {"type": "Polygon", "coordinates": [[[-95.997889, 36.147665], [-95.997239, 36.147656], [-95.997236, 36.147807], [-95.997885, 36.147816], [-95.997889, 36.147665]]]}, "properties": {"display_name": "La Quinta Inn & Suites Tulsa Downtown/Route 66, 707, South Houston Avenue, Crosbie Heights, Tulsa, Tulsa County, Oklahoma, 74127, United States", "type": "hotel", "osm_type": "way", "osm_id": 256990267, "class": null, "keyword": "district"}}, {"type": "Feature", "geometry": {"type": "Polygon", "coordinates": [[[-95.986883, 36.155148], [-95.986814, 36.155007], [-95.986527, 36.155107], [-95.986631, 36.155309], [-95.986637, 36.155307], [-95.986663, 36.15536], [-95.986688, 36.155351], [-95.986724, 36.155417], [-95.986877, 36.155362], [-95.986842, 36.155297], [-95.986863, 36.155287], [-95.986836, 36.15524], [-95.986841, 36.155238], [-95.986803, 36.155174], [-95.986883, 36.155148]]]}, "properties": {"display_name": "New Midtown Adult Superstore, East 3rd Street South, Blue Dome District, Tulsa, Tulsa County, Oklahoma, 74104, United States", "type": "erotic", "osm_type": "way", "osm_id": 60965746, "class": null, "keyword": "midtown"}}, {"type": "Feature", "geometry": {"type": "Polygon", "coordinates": [[[-95.888976, 36.114144], [-95.88897, 36.11371], [-95.888776, 36.113709], [-95.888781, 36.114144], [-95.888821, 36.114144], [-95.888821, 36.114188], [-95.88885, 36.114188], [-95.88885, 36.114228], [-95.888879, 36.114228], [-95.888908, 36.114228], [-95.888908, 36.114188], [-95.88894, 36.114188], [-95.88894, 36.114144], [-95.888976, 36.114144]], [[-95.888903, 36.113887], [-95.888902, 36.114019], [-95.888852, 36.114019], [-95.888853, 36.113887], [-95.888903, 36.113887]]]}, "properties": {"display_name": "Memorial Midtown Station, East 33rd Street South, Tulsa, Tulsa County, Oklahoma, 74145, United States", "type": "bus_station", "osm_type": "relation", "osm_id": 3913553, "class": null, "keyword": "midtown"}}, {"type": "Feature", "geometry": {"type": "Polygon", "coordinates": [[[-95.988391, 36.152394], [-95.988303, 36.152225], [-95.987898, 36.152363], [-95.987987, 36.152532], [-95.988391, 36.152394]]]}, "properties": {"display_name": "Tulsa Club, East 5th Street, Oil Capital Historic District, Tulsa, Tulsa County, Oklahoma, 74172, United States", "type": "hotel", "osm_type": "way", "osm_id": 60965502, "class": null, "keyword": "district"}}, {"type": "Feature", "geometry": {"type": "Polygon", "coordinates": [[[-95.921457, 36.138706], [-95.921456, 36.138531], [-95.921342, 36.138531], [-95.921341, 36.138428], [-95.921123, 36.138428], [-95.921125, 36.138706], [-95.921457, 36.138706]]]}, "properties": {"display_name": "Collins Midtown Liquor, 1649, South Yale Avenue East, Wedgewood, Tulsa, Tulsa County, Oklahoma, 74112, United States", "type": "alcohol", "osm_type": "relation", "osm_id": 19305746, "class": null, "keyword": "midtown"}}, {"type": "Feature", "geometry": {"type": "Polygon", "coordinates": [[[-95.961358, 36.133419], [-95.961011, 36.133418], [-95.96101, 36.133498], [-95.961024, 36.133498], [-95.961023, 36.133665], [-95.96122, 36.133666], [-95.96122, 36.133648], [-95.961289, 36.133649], [-95.961289, 36.13357], [-95.961357, 36.133571], [-95.961358, 36.133419]]]}, "properties": {"display_name": "Tulsa Dermatology Clinic, 2121, East 21st Street South, Gillette Street Historical District, Yorktown, Tulsa, Tulsa County, Oklahoma, 74114, United States", "type": "clinic", "osm_type": "way", "osm_id": 887580370, "class": null, "keyword": "district"}}, {"type": "Feature", "geometry": {"type": "Polygon", "coordinates": [[[-95.971173, 36.152414], [-95.971002, 36.152413], [-95.971003, 36.152255], [-95.970847, 36.152254], [-95.970845, 36.152558], [-95.970998, 36.152559], [-95.970998, 36.152551], [-95.971172, 36.152551], [-95.971173, 36.152414]]]}, "properties": {"display_name": "Tulsa Plumbing and Remodeling, LLC, 1515, East 6th Street South, Pearl District, Tulsa, Tulsa County, Oklahoma, 74120, United States", "type": "craft", "osm_type": "way", "osm_id": 1314075912, "class": null, "keyword": "district"}}, {"type": "Feature", "geometry": {"type": "Polygon", "coordinates": [[[-95.991538, 36.15892], [-95.99137, 36.158607], [-95.991216, 36.158662], [-95.99138, 36.158973], [-95.991538, 36.15892]]]}, "properties": {"display_name": "Build in Tulsa, 124, East Reconciliation Way North, Greenwood District, Tulsa, Tulsa County, Oklahoma, 74103, United States", "type": "association", "osm_type": "way", "osm_id": 250496657, "class": null, "keyword": "district"}}, {"type": "Feature", "geometry": {"type": "Polygon", "coordinates": [[[-95.993413, 36.148617], [-95.993358, 36.148512], [-95.993008, 36.148637], [-95.992968, 36.148613], [-95.99292, 36.148629], [-95.992915, 36.148679], [-95.992946, 36.148699], [-95.99298, 36.148766], [-95.993413, 36.148617]]]}, "properties": {"display_name": "Tulsa Abstract & Title Company, 612, South Denver Avenue, Oil Capital Historic District, Tulsa, Tulsa County, Oklahoma, 74103, United States", "type": "company", "osm_type": "way", "osm_id": 775427911, "class": null, "keyword": "district"}}, {"type": "Feature", "geometry": {"type": "Polygon", "coordinates": [[[-95.966993, 36.136935], [-95.966921, 36.136934], [-95.966921, 36.13694], [-95.966884, 36.13694], [-95.966885, 36.136879], [-95.966796, 36.136878], [-95.966796, 36.136889], [-95.96673, 36.136887], [-95.966731, 36.136925], [-95.966678, 36.136925], [-95.966678, 36.136978], [-95.966674, 36.136983], [-95.966672, 36.137087], [-95.966947, 36.137087], [-95.966948, 36.137054], [-95.966973, 36.137053], [-95.966975, 36.136968], [-95.966993, 36.136968], [-95.966993, 36.136935]]]}, "properties": {"display_name": "Allergy Clinic of Tulsa, 1727, South Utica Avenue East, Gillette Street Historical District, Yorktown, Tulsa, Tulsa County, Oklahoma, 74104, United States", "type": "doctors", "osm_type": "way", "osm_id": 803399271, "class": null, "keyword": "district"}}, {"type": "Feature", "geometry": {"type": "Polygon", "coordinates": [[[-95.995341, 36.128345], [-95.994964, 36.128343], [-95.994963, 36.128483], [-95.99534, 36.128485], [-95.995341, 36.128345]]]}, "properties": {"display_name": "City of Tulsa Public CNG, River Parks West Bank Trail, Buena Vista Park Historic District, Tulsa, Tulsa County, Oklahoma, 74113, United States", "type": "fuel", "osm_type": "way", "osm_id": 493731064, "class": null, "keyword": "district"}}, {"type": "Feature", "geometry": {"type": "Polygon", "coordinates": [[[-95.987683, 36.139358], [-95.987679, 36.139122], [-95.987466, 36.139124], [-95.98747, 36.139361], [-95.987683, 36.139358]]]}, "properties": {"display_name": "Securian Financial, South Main Street, Oakshire, Tulsa, Tulsa County, Oklahoma, 74119, United States", "type": "company", "osm_type": "way", "osm_id": 1117469335, "class": null, "keyword": "financial district"}}, {"type": "Feature", "geometry": {"type": "Polygon", "coordinates": [[[-95.974235, 36.129353], [-95.974065, 36.129353], [-95.97407, 36.12941], [-95.974064, 36.129439], [-95.974041, 36.129439], [-95.974041, 36.129454], [-95.973987, 36.129432], [-95.973967, 36.12948], [-95.974016, 36.129496], [-95.974021, 36.129488], [-95.974044, 36.129497], [-95.974044, 36.129513], [-95.973999, 36.129513], [-95.974, 36.129591], [-95.974185, 36.129589], [-95.974235, 36.129588], [-95.974235, 36.129353]]]}, "properties": {"display_name": "Tulsa Garden Center Mansion, East 25th Street, Garden District, Tulsa, Tulsa County, Oklahoma, 74114, United States", "type": "yes", "osm_type": "way", "osm_id": 206619894, "class": null, "keyword": "district"}}, {"type": "Feature", "geometry": {"type": "Polygon", "coordinates": [[[-95.974941, 36.156271], [-95.974915, 36.156271], [-95.974915, 36.156242], [-95.974779, 36.156242], [-95.974776, 36.156552], [-95.974939, 36.156553], [-95.97494, 36.156411], [-95.974941, 36.156271]]]}, "properties": {"display_name": "Forge Tulsa Gym, 1314, East 3rd Street South, Pearl District, Tulsa, Tulsa County, Oklahoma, 74120, United States", "type": "yes", "osm_type": "way", "osm_id": 249793328, "class": null, "keyword": "district"}}, {"type": "Feature", "geometry": {"type": "Polygon", "coordinates": [[[-95.885965, 36.074371], [-95.885941, 36.074351], [-95.885938, 36.074254], [-95.885651, 36.074255], [-95.885652, 36.074439], [-95.885744, 36.074439], [-95.885744, 36.074415], [-95.885875, 36.074412], [-95.885899, 36.07443], [-95.885965, 36.074371]]]}, "properties": {"display_name": "Uptown Cheapskate, 8228, East 61st Street, Woodland View Park, Tulsa, Tulsa County, Oklahoma, 74133, United States", "type": "clothes", "osm_type": "way", "osm_id": 98968777, "class": null, "keyword": "uptown"}}, {"type": "Feature", "geometry": {"type": "Polygon", "coordinates": [[[-95.985639, 36.140841], [-95.985638, 36.140718], [-95.985243, 36.14072], [-95.985244, 36.140843], [-95.985515, 36.140842], [-95.985639, 36.140841]]]}, "properties": {"display_name": "Tulsa County Bar Association, South Boston Avenue, SoBo Bar District, Tulsa, Tulsa County, Oklahoma, 74113, United States", "type": "lawyer", "osm_type": "way", "osm_id": 496134694, "class": null, "keyword": "district"}}, {"type": "Feature", "geometry": {"type": "Polygon", "coordinates": [[[-95.853347, 36.10411], [-95.853344, 36.103878], [-95.853147, 36.103879], [-95.853149, 36.104111], [-95.853347, 36.10411]]]}, "properties": {"display_name": "Applebee's, 11104, East 41st Street South, Shannon Park VI, Tulsa, Tulsa County, Oklahoma, 74146, United States", "type": "restaurant", "osm_type": "way", "osm_id": 224666362, "class": null, "keyword": "neighborhood"}}, {"type": "Feature", "geometry": {"type": "Polygon", "coordinates": [[[-95.871777, 36.061406], [-95.871773, 36.061305], [-95.871755, 36.061306], [-95.871754, 36.061281], [-95.871602, 36.061279], [-95.871602, 36.061303], [-95.871576, 36.061303], [-95.871578, 36.061416], [-95.871604, 36.061416], [-95.871605, 36.061472], [-95.871592, 36.061472], [-95.871593, 36.061532], [-95.871763, 36.061534], [-95.871759, 36.061406], [-95.871777, 36.061406]]]}, "properties": {"display_name": "Applebee's, 9409, East 71st Street South, Woodlands of South Tulsa, Tulsa, Tulsa County, Oklahoma, 74133, United States", "type": "restaurant", "osm_type": "way", "osm_id": 242890429, "class": null, "keyword": "neighborhood"}}, {"type": "Feature", "geometry": {"type": "Polygon", "coordinates": [[[-95.883889, 36.075069], [-95.883864, 36.07505], [-95.883864, 36.074969], [-95.883595, 36.074972], [-95.883595, 36.075105], [-95.883798, 36.075102], [-95.883819, 36.07512], [-95.883889, 36.075069]]]}, "properties": {"display_name": "Neighborhood Medical Clinic, East 61st Street, Woodland View II, Tulsa, Tulsa County, Oklahoma, 74145, United States", "type": "clinic", "osm_type": "way", "osm_id": 98968760, "class": null, "keyword": "neighborhood"}}, {"type": "Feature", "geometry": {"type": "Polygon", "coordinates": [[[-95.986408, 36.135581], [-95.986097, 36.135577], [-95.986095, 36.135694], [-95.986406, 36.135697], [-95.986408, 36.135581]]]}, "properties": {"display_name": "Unity Center of Tulsa, South Baltimore Avenue, SoBo Bar District, Tulsa, Tulsa County, Oklahoma, 74113, United States", "type": "place_of_worship", "osm_type": "way", "osm_id": 1117469343, "class": null, "keyword": "district"}}, {"type": "Feature", "geometry": {"type": "Polygon", "coordinates": [[[-95.989623, 36.152651], [-95.989537, 36.152478], [-95.989374, 36.15253], [-95.989461, 36.152704], [-95.989623, 36.152651]]]}, "properties": {"display_name": "Hyatt Place Tulsa / Downtown, 400, South Boston Avenue, Oil Capital Historic District, Tulsa, Tulsa County, Oklahoma, 74103, United States", "type": "hotel", "osm_type": "way", "osm_id": 905691915, "class": null, "keyword": "district"}}, {"type": "Feature", "geometry": {"type": "Polygon", "coordinates": [[[-95.973936, 36.15655], [-95.97393, 36.156356], [-95.973809, 36.156358], [-95.973815, 36.156552], [-95.973936, 36.15655]]]}, "properties": {"display_name": "Tulsa Eagle, South Quincy Avenue East, Pearl District, Tulsa, Tulsa County, Oklahoma, 74120, United States", "type": "bar", "osm_type": "way", "osm_id": 1093616577, "class": null, "keyword": "district"}}, {"type": "Feature", "geometry": {"type": "Polygon", "coordinates": [[[-95.992728, 36.138987], [-95.99272, 36.138987], [-95.99272, 36.138966], [-95.99259, 36.138966], [-95.99259, 36.138988], [-95.99256, 36.138987], [-95.992559, 36.139095], [-95.992589, 36.139095], [-95.992589, 36.139105], [-95.992695, 36.139106], [-95.992695, 36.1391], [-95.99272, 36.1391], [-95.99272, 36.139063], [-95.992728, 36.139063], [-95.992728, 36.138987]]]}, "properties": {"display_name": "Tulsa TMJ Center;Apnea & Breathing Clinic, South Denver Avenue, Riverview, Tulsa, Tulsa County, Oklahoma, 74113, United States", "type": "clinic", "osm_type": "way", "osm_id": 1117481164, "class": null, "keyword": "historic center"}}, {"type": "Feature", "geometry": {"type": "Polygon", "coordinates": [[[-95.979438, 36.140863], [-95.979438, 36.140804], [-95.9794, 36.140804], [-95.9794, 36.140772], [-95.979332, 36.140772], [-95.979332, 36.140746], [-95.979246, 36.140746], [-95.979246, 36.140815], [-95.979247, 36.140882], [-95.979403, 36.140882], [-95.979402, 36.140863], [-95.979438, 36.140863]]]}, "properties": {"display_name": "Midtown Dental Arts, South Norfolk Avenue, Tracy Park, Tulsa, Tulsa County, Oklahoma, 74119, United States", "type": "dentist", "osm_type": "way", "osm_id": 496131707, "class": null, "keyword": "midtown"}}, {"type": "Feature", "geometry": {"type": "Polygon", "coordinates": [[[-95.966838, 36.141707], [-95.966806, 36.141706], [-95.966806, 36.141691], [-95.966719, 36.14169], [-95.966718, 36.141705], [-95.966684, 36.141705], [-95.966682, 36.141789], [-95.966714, 36.14179], [-95.966714, 36.141805], [-95.966806, 36.141807], [-95.966806, 36.141789], [-95.966836, 36.14179], [-95.966838, 36.141707]]]}, "properties": {"display_name": "Watkins & Associates Financial Services, 1419, South Utica Avenue East, Gillette Street Historical District, Cherry Street District, Tulsa, Tulsa County, Oklahoma, 74104, United States", "type": "accountant", "osm_type": "way", "osm_id": 1181023752, "class": null, "keyword": "financial district"}}, {"type": "Feature", "geometry": {"type": "Polygon", "coordinates": [[[-95.924308, 36.119071], [-95.924146, 36.11907], [-95.924144, 36.11917], [-95.924255, 36.119171], [-95.924265, 36.119171], [-95.924265, 36.11915], [-95.924307, 36.119151], [-95.924308, 36.119071]]]}, "properties": {"display_name": "Midtown Storage Tulsa, 4625, East 31st Street South, Mockingbird, Tulsa, Tulsa County, Oklahoma, 74114, United States", "type": "storage_rental", "osm_type": "way", "osm_id": 1146054933, "class": null, "keyword": "midtown"}}, {"type": "Feature", "geometry": {"type": "Polygon", "coordinates": [[[-95.939891, 36.108509], [-95.93989, 36.108433], [-95.939695, 36.108434], [-95.939695, 36.108512], [-95.939891, 36.108509]]]}, "properties": {"display_name": "Midtown Tattoo, South Harvard Avenue East, Ranch Acres, Tulsa, Tulsa County, Oklahoma, 74135, United States", "type": "tattoo", "osm_type": "way", "osm_id": 1085747231, "class": null, "keyword": "midtown"}}, {"type": "Feature", "geometry": {"type": "Polygon", "coordinates": [[[-95.941809, 36.132865], [-95.941808, 36.132795], [-95.94164, 36.132796], [-95.94164, 36.132869], [-95.941809, 36.132865]]]}, "properties": {"display_name": "Midtown Nutrition, 3220, East 21st Street South, Florence Park, Tulsa, Tulsa County, Oklahoma, 74114, United States", "type": "nutrition_supplements", "osm_type": "way", "osm_id": 1240020157, "class": null, "keyword": "midtown"}}, {"type": "Feature", "geometry": {"type": "Polygon", "coordinates": [[[-95.97893, 36.152973], [-95.978929, 36.152915], [-95.978831, 36.152916], [-95.978831, 36.15286], [-95.978775, 36.15286], [-95.978777, 36.152975], [-95.97893, 36.152973]]]}, "properties": {"display_name": "Neighborhood Motors, 1023, East 6th Street South, Pearl District, Tulsa, Tulsa County, Oklahoma, 74120, United States", "type": "car_repair", "osm_type": "way", "osm_id": 495957770, "class": null, "keyword": "neighborhood"}}, {"type": "Feature", "geometry": {"type": "Polygon", "coordinates": [[[-95.956051, 36.089522], [-95.955925, 36.08952], [-95.955923, 36.089614], [-95.956049, 36.089616], [-95.956051, 36.089522]]]}, "properties": {"display_name": "The Heights @ Midtown, 2442, East 51st Street, Heller Park, Tulsa, Tulsa County, Oklahoma, 74105, United States", "type": "property_management", "osm_type": "way", "osm_id": 1315241739, "class": null, "keyword": "midtown"}}, {"type": "Feature", "geometry": {"type": "Polygon", "coordinates": [[[-95.965479, 36.140888], [-95.965454, 36.140888], [-95.965454, 36.140863], [-95.965323, 36.140863], [-95.965323, 36.140946], [-95.965454, 36.140946], [-95.965454, 36.140924], [-95.965479, 36.140924], [-95.965479, 36.140888]]]}, "properties": {"display_name": "Tulsa Healing, 1815, East 15th Street South, Gillette Street Historical District, Yorktown, Tulsa, Tulsa County, Oklahoma, 74104, United States", "type": "alternative", "osm_type": "way", "osm_id": 1305628837, "class": null, "keyword": "district"}}, {"type": "Feature", "geometry": {"type": "Polygon", "coordinates": [[[-95.984762, 36.14968], [-95.984735, 36.149632], [-95.984559, 36.149692], [-95.984587, 36.149738], [-95.984748, 36.149684], [-95.984762, 36.14968]]]}, "properties": {"display_name": "Cash Finance of Tulsa, South Detroit Avenue East, Gunboat Park District, Tulsa, Tulsa County, Oklahoma, 74120, United States", "type": "money_lender", "osm_type": "way", "osm_id": 543901394, "class": null, "keyword": "district"}}]}