{"type": "FeatureCollection", "features": [{"type": "Feature", "geometry": {"type": "Polygon", "coordinates": [[[144.600745, -38.287838], [144.602905, -38.288439], [144.603249, -38.288564], [144.603843, -38.288732], [144.604463, -38.28896], [144.604948, -38.289169], [144.605214, -38.289305], [144.605448, -38.289393], [144.605876, -38.289662], [144.606809, -38.290337], [144.607187, -38.290526], [144.607484, -38.29064], [144.607711, -38.290691], [144.608097, -38.290731], [144.608977, -38.290739], [144.609496, -38.290792], [144.6099, -38.29089], [144.610447, -38.291069], [144.611252, -38.29139], [144.611704, -38.291472], [144.612111, -38.291525], [144.612743, -38.291695], [144.613008, -38.291842], [144.613376, -38.292122], [144.61355, -38.292209], [144.613762, -38.292231], [144.613921, -38.292229], [144.614021, -38.292247], [144.614078, -38.29233], [144.614193, -38.292391], [144.614347, -38.292313], [144.614498, -38.291977], [144.614811, -38.291609], [144.614959, -38.291368], [144.617058, -38.291563], [144.617054, -38.291608], [144.617281, -38.291628], [144.617307, -38.291403], [144.617079, -38.291383], [144.617073, -38.291428], [144.61503, -38.291238], [144.615235, -38.290827], [144.615291, -38.290366], [144.615374, -38.290242], [144.615498, -38.289979], [144.615528, -38.289806], [144.61576, -38.289315], [144.615803, -38.289047], [144.615914, -38.288767], [144.616096, -38.288432], [144.616173, -38.288175], [144.61624, -38.288041], [144.61638, -38.287891], [144.616413, -38.2877], [144.616378, -38.287265], [144.616248, -38.287014], [144.616048, -38.286822], [144.615837, -38.286663], [144.615456, -38.286442], [144.615149, -38.286008], [144.615008, -38.285729], [144.614963, -38.285356], [144.615046, -38.284706], [144.615065, -38.284359], [144.615006, -38.284105], [144.615137, -38.283475], [144.615515, -38.282394], [144.61621, -38.281052], [144.616305, -38.280694], [144.616712, -38.280107], [144.616954, -38.279811], [144.61736, -38.279182], [144.617595, -38.278581], [144.617765, -38.278274], [144.617995, -38.277976], [144.618182, -38.277823], [144.618486, -38.277374], [144.618744, -38.277212], [144.619501, -38.276792], [144.619815, -38.276589], [144.620129, -38.276423], [144.620291, -38.276109], [144.620589, -38.275957], [144.621344, -38.275719], [144.621996, -38.275398], [144.622526, -38.27519], [144.622803, -38.275055], [144.623024, -38.274973], [144.623106, -38.274899], [144.623452, -38.274816], [144.623643, -38.27474], [144.624039, -38.274628], [144.62418, -38.27457], [144.625072, -38.274316], [144.625395, -38.274284], [144.625873, -38.274281], [144.626187, -38.274234], [144.626657, -38.274048], [144.626992, -38.273945], [144.627785, -38.273616], [144.628703, -38.273476], [144.629008, -38.273456], [144.62942, -38.273406], [144.629849, -38.273254], [144.630499, -38.273129], [144.631299, -38.273101], [144.63199, -38.273037], [144.633005, -38.272998], [144.634008, -38.272905], [144.634735, -38.272837], [144.63511, -38.272881], [144.635745, -38.273], [144.63664, -38.27293], [144.636995, -38.272845], [144.637444, -38.2728], [144.637856, -38.272716], [144.638697, -38.272618], [144.638897, -38.27254], [144.639989, -38.272312], [144.640156, -38.272259], [144.640891, -38.272199], [144.64166, -38.272243], [144.642118, -38.27223], [144.642388, -38.272147], [144.642913, -38.272029], [144.64348, -38.271951], [144.643872, -38.271923], [144.644447, -38.271907], [144.644452, -38.272313], [144.644836, -38.272278], [144.645352, -38.272329], [144.645692, -38.272337], [144.646182, -38.272225], [144.646947, -38.272127], [144.647281, -38.272107], [144.647578, -38.272122], [144.648526, -38.272196], [144.649314, -38.272321], [144.650199, -38.272558], [144.650682, -38.272662], [144.651774, -38.273032], [144.652477, -38.273209], [144.653108, -38.273393], [144.653484, -38.273588], [144.653788, -38.273687], [144.654417, -38.273733], [144.654782, -38.27381], [144.655688, -38.273892], [144.65669, -38.274036], [144.657448, -38.274178], [144.658236, -38.274413], [144.658653, -38.274556], [144.658926, -38.274667], [144.659119, -38.274789], [144.659309, -38.274844], [144.65948, -38.274803], [144.659669, -38.274678], [144.660043, -38.274286], [144.660178, -38.274121], [144.660547, -38.27383], [144.660704, -38.273661], [144.660839, -38.273481], [144.661471, -38.273024], [144.661659, -38.272915], [144.661853, -38.272778], [144.662011, -38.272639], [144.662575, -38.272063], [144.662943, -38.271662], [144.66307, -38.271502], [144.663173, -38.271306], [144.663212, -38.271159], [144.663199, -38.270924], [144.663149, -38.270771], [144.663208, -38.270588], [144.663326, -38.270392], [144.663326, -38.270283], [144.663283, -38.270069], [144.663327, -38.269874], [144.663438, -38.269717], [144.663429, -38.269593], [144.663446, -38.269471], [144.663579, -38.269387], [144.663797, -38.269071], [144.664543, -38.268445], [144.66569, -38.267888], [144.667084, -38.267423], [144.671946, -38.266463], [144.672658, -38.266215], [144.673185, -38.265936], [144.673402, -38.265689], [144.673649, -38.265162], [144.673401, -38.264666], [144.672689, -38.264481], [144.67241, -38.264357], [144.671667, -38.264078], [144.67176, -38.263366], [144.672224, -38.262777], [144.673216, -38.261972], [144.674082, -38.261229], [144.674485, -38.26095], [144.675259, -38.260207], [144.676529, -38.259619], [144.678171, -38.259309], [144.679441, -38.258999], [144.67981, -38.258883], [144.681206, -38.258442], [144.68229, -38.257946], [144.683869, -38.256893], [144.684799, -38.255778], [144.68517, -38.25488], [144.685542, -38.253734], [144.685975, -38.252681], [144.686781, -38.252031], [144.687369, -38.251412], [144.688484, -38.25104], [144.68932, -38.250792], [144.690095, -38.250637], [144.692107, -38.250358], [144.693068, -38.249863], [144.694368, -38.249367], [144.695236, -38.249058], [144.696319, -38.24881], [144.697899, -38.248345], [144.698137, -38.248196], [144.699733, -38.246462], [144.700143, -38.24607], [144.700409, -38.245702], [144.700888, -38.245338], [144.701247, -38.245163], [144.701567, -38.244706], [144.701778, -38.244475], [144.702067, -38.244378], [144.702313, -38.24416], [144.702419, -38.243845], [144.702475, -38.2434], [144.702424, -38.243047], [144.702006, -38.242684], [144.701448, -38.242274], [144.701137, -38.242152], [144.700975, -38.242133], [144.699924, -38.241686], [144.699325, -38.241656], [144.698877, -38.241748], [144.698381, -38.241752], [144.698112, -38.241801], [144.697315, -38.241624], [144.696922, -38.241557], [144.696617, -38.24136], [144.6963, -38.241292], [144.695951, -38.241527], [144.695798, -38.241804], [144.695569, -38.241941], [144.695609, -38.242104], [144.695124, -38.242347], [144.694108, -38.24265], [144.69286, -38.242858], [144.692378, -38.242871], [144.691931, -38.242805], [144.690672, -38.24278], [144.690099, -38.242818], [144.689567, -38.242899], [144.689166, -38.243064], [144.688844, -38.243569], [144.688575, -38.243849], [144.686114, -38.244305], [144.685933, -38.24429], [144.684761, -38.244285], [144.681139, -38.239574], [144.68056, -38.238496], [144.680206, -38.237758], [144.679771, -38.23761], [144.67917, -38.237744], [144.67848, -38.237958], [144.677736, -38.238423], [144.67679, -38.239387], [144.676288, -38.239986], [144.675721, -38.240366], [144.675154, -38.240636], [144.674359, -38.241203], [144.67363, -38.241881], [144.673095, -38.242587], [144.672775, -38.243259], [144.672477, -38.243694], [144.67226, -38.244272], [144.671717, -38.244634], [144.670816, -38.244956], [144.670067, -38.245334], [144.669404, -38.246322], [144.668729, -38.247265], [144.668273, -38.247723], [144.667783, -38.247911], [144.667758, -38.248104], [144.666798, -38.249354], [144.666587, -38.249834], [144.666164, -38.250195], [144.665665, -38.250265], [144.665107, -38.250489], [144.664466, -38.250476], [144.66387, -38.25088], [144.663414, -38.251762], [144.663122, -38.252027], [144.663163, -38.252324], [144.663038, -38.252691], [144.663036, -38.2529], [144.662951, -38.253273], [144.663556, -38.254577], [144.664192, -38.254659], [144.664573, -38.254856], [144.66497, -38.255019], [144.665168, -38.255078], [144.665413, -38.255197], [144.665717, -38.255302], [144.666087, -38.255277], [144.666505, -38.255191], [144.666834, -38.255085], [144.667098, -38.25511], [144.667302, -38.255238], [144.667386, -38.255397], [144.666336, -38.257088], [144.666179, -38.257072], [144.666108, -38.257231], [144.665672, -38.257698], [144.664942, -38.258395], [144.664349, -38.258936], [144.663846, -38.259103], [144.663367, -38.258945], [144.663025, -38.258803], [144.662632, -38.258663], [144.662052, -38.258809], [144.661777, -38.25916], [144.662582, -38.259578], [144.66317, -38.259748], [144.663801, -38.259722], [144.664074, -38.259738], [144.66442, -38.260003], [144.664674, -38.260876], [144.664723, -38.260867], [144.664758, -38.260987], [144.664839, -38.261064], [144.66487, -38.261227], [144.665309, -38.262875], [144.665259, -38.262884], [144.665227, -38.262979], [144.664377, -38.263327], [144.664037, -38.263243], [144.663971, -38.263338], [144.663892, -38.263318], [144.663906, -38.263211], [144.66344, -38.263101], [144.663359, -38.263207], [144.663229, -38.263434], [144.663028, -38.263673], [144.662894, -38.263753], [144.662779, -38.263767], [144.662713, -38.263836], [144.662513, -38.263872], [144.662346, -38.263854], [144.662212, -38.263859], [144.661655, -38.263806], [144.660842, -38.263815], [144.660567, -38.263796], [144.660183, -38.263741], [144.660076, -38.263746], [144.659947, -38.26365], [144.659876, -38.263532], [144.659838, -38.263594], [144.659673, -38.263664], [144.659517, -38.26366], [144.659085, -38.263743], [144.658968, -38.263748], [144.658803, -38.263733], [144.658627, -38.263682], [144.658385, -38.26364], [144.658183, -38.263659], [144.657998, -38.263728], [144.65786, -38.263818], [144.657608, -38.263947], [144.657303, -38.264252], [144.657123, -38.264566], [144.657035, -38.264677], [144.656767, -38.264955], [144.656596, -38.265101], [144.656367, -38.265249], [144.656234, -38.265285], [144.655848, -38.265489], [144.655336, -38.265817], [144.654921, -38.266054], [144.654175, -38.266289], [144.653982, -38.266393], [144.653644, -38.266494], [144.653122, -38.266722], [144.652984, -38.266764], [144.652608, -38.266862], [144.652208, -38.266939], [144.652031, -38.266958], [144.651428, -38.267081], [144.65118, -38.267109], [144.650371, -38.267102], [144.650245, -38.267122], [144.649868, -38.267135], [144.649646, -38.267115], [144.649556, -38.267084], [144.649514, -38.267101], [144.649452, -38.267082], [144.649425, -38.267092], [144.649277, -38.267083], [144.649111, -38.267029], [144.648953, -38.266933], [144.648873, -38.266862], [144.64847, -38.266741], [144.648407, -38.266665], [144.64837, -38.266658], [144.648282, -38.266777], [144.648066, -38.266912], [144.647561, -38.267305], [144.647069, -38.267615], [144.646878, -38.267715], [144.646588, -38.267895], [144.646296, -38.268033], [144.646185, -38.268188], [144.645539, -38.268587], [144.644928, -38.268911], [144.644416, -38.269128], [144.643953, -38.269378], [144.642952, -38.269813], [144.642554, -38.269963], [144.642012, -38.270061], [144.641491, -38.27018], [144.640864, -38.27022], [144.640559, -38.270217], [144.640474, -38.270176], [144.640601, -38.270162], [144.640388, -38.270118], [144.640177, -38.270097], [144.640006, -38.270111], [144.639603, -38.270073], [144.639397, -38.270088], [144.639161, -38.27005], [144.638851, -38.270058], [144.638352, -38.26997], [144.638172, -38.269911], [144.638048, -38.26992], [144.637954, -38.269911], [144.637703, -38.269937], [144.637423, -38.269914], [144.637305, -38.269936], [144.636583, -38.269975], [144.636221, -38.26997], [144.636003, -38.269989], [144.635707, -38.270058], [144.635416, -38.270107], [144.635234, -38.270119], [144.63366, -38.270063], [144.633325, -38.269995], [144.63322, -38.269999], [144.633016, -38.26995], [144.632917, -38.269952], [144.632822, -38.269869], [144.632728, -38.269817], [144.632585, -38.269669], [144.632504, -38.269625], [144.632457, -38.269702], [144.632358, -38.269696], [144.632434, -38.269569], [144.632456, -38.269469], [144.632438, -38.269374], [144.632579, -38.269222], [144.632644, -38.269085], [144.63285, -38.268902], [144.633268, -38.268453], [144.633354, -38.268308], [144.633637, -38.268086], [144.634194, -38.267597], [144.634344, -38.267414], [144.63449, -38.267178], [144.634539, -38.266982], [144.634607, -38.26693], [144.634747, -38.266893], [144.63561, -38.266888], [144.636299, -38.266939], [144.636731, -38.26687], [144.636931, -38.266889], [144.637127, -38.266793], [144.637156, -38.266521], [144.637071, -38.266315], [144.636637, -38.266036], [144.636127, -38.265762], [144.634825, -38.264795], [144.634712, -38.264726], [144.634752, -38.264679], [144.634706, -38.264619], [144.634409, -38.264395], [144.634093, -38.264117], [144.633775, -38.263924], [144.633651, -38.263825], [144.633507, -38.263747], [144.633433, -38.263672], [144.633124, -38.263458], [144.632885, -38.263258], [144.632762, -38.263185], [144.632769, -38.263156], [144.63271, -38.263089], [144.63237, -38.262834], [144.632221, -38.26276], [144.632124, -38.262758], [144.632157, -38.26272], [144.632116, -38.262659], [144.631793, -38.262407], [144.631582, -38.262182], [144.631399, -38.261954], [144.631331, -38.261839], [144.630664, -38.261203], [144.630167, -38.260887], [144.630065, -38.260839], [144.629971, -38.260819], [144.629866, -38.260747], [144.629658, -38.260655], [144.629471, -38.260521], [144.629267, -38.260424], [144.62894, -38.260048], [144.628881, -38.26], [144.628753, -38.259934], [144.62873, -38.259877], [144.628627, -38.259743], [144.628067, -38.259351], [144.627854, -38.259251], [144.627614, -38.259091], [144.627294, -38.258969], [144.627096, -38.258855], [144.627003, -38.258683], [144.626977, -38.258449], [144.626885, -38.258272], [144.626697, -38.258084], [144.626472, -38.25789], [144.626248, -38.257747], [144.626045, -38.257663], [144.618652, -38.266523], [144.618637, -38.26654], [144.606133, -38.281551], [144.606103, -38.281536], [144.604171, -38.283899], [144.602457, -38.285957], [144.602354, -38.285904], [144.600745, -38.287838]]]}, "properties": {"display_name": "Borough of Queenscliffe, Victoria, Australia", "type": "administrative", "osm_type": "relation", "osm_id": 3290265, "class": null, "keyword": "borough"}}, {"type": "Feature", "geometry": {"type": "Polygon", "coordinates": [[[144.951431, -37.813157], [144.955775, -37.822567], [144.955991, -37.82304], [144.956863, -37.822636], [144.958409, -37.821823], [144.959542, -37.82128], [144.960439, -37.820884], [144.96138, -37.82051], [144.961709, -37.8204], [144.963259, -37.820031], [144.964432, -37.819794], [144.965035, -37.819677], [144.965883, -37.819548], [144.966655, -37.819429], [144.967499, -37.819328], [144.968262, -37.819245], [144.968808, -37.820489], [144.970933, -37.82507], [144.97115, -37.825654], [144.971277, -37.826125], [144.97135, -37.826501], [144.971399, -37.82688], [144.971421, -37.82726], [144.971423, -37.827437], [144.971331, -37.828652], [144.971321, -37.829895], [144.97041, -37.830159], [144.970451, -37.830863], [144.969673, -37.831011], [144.969693, -37.831056], [144.969777, -37.831594], [144.970401, -37.831503], [144.970438, -37.831635], [144.970423, -37.83167], [144.970469, -37.831833], [144.969884, -37.83196], [144.970034, -37.832353], [144.97016, -37.832618], [144.970188, -37.832675], [144.970216, -37.832734], [144.971607, -37.832335], [144.971723, -37.832727], [144.971768, -37.833129], [144.97174, -37.833531], [144.971645, -37.833912], [144.971691, -37.834262], [144.971076, -37.835129], [144.970825, -37.835448], [144.970624, -37.835689], [144.970395, -37.835907], [144.969946, -37.836264], [144.969432, -37.836611], [144.968865, -37.836916], [144.968265, -37.837177], [144.967646, -37.837385], [144.967817, -37.837743], [144.967989, -37.837996], [144.9681, -37.838113], [144.968296, -37.838254], [144.968594, -37.838401], [144.968839, -37.838477], [144.969097, -37.838523], [144.969493, -37.838543], [144.96979, -37.838581], [144.970078, -37.838649], [144.970439, -37.838787], [144.970763, -37.838975], [144.971039, -37.839206], [144.971155, -37.839335], [144.971287, -37.839518], [144.97143, -37.839811], [144.971776, -37.841274], [144.971797, -37.841469], [144.971778, -37.841665], [144.971718, -37.841855], [144.97162, -37.842035], [144.971527, -37.842155], [144.971147, -37.842552], [144.971068, -37.842666], [144.970981, -37.842849], [144.970646, -37.844248], [144.970599, -37.844682], [144.970625, -37.845116], [144.970722, -37.845544], [144.970842, -37.845857], [144.970943, -37.846059], [144.971195, -37.846445], [144.971509, -37.846802], [144.971866, -37.84711], [144.972911, -37.847843], [144.973116, -37.847954], [144.973341, -37.848038], [144.973662, -37.848101], [144.973828, -37.848111], [144.974494, -37.848106], [144.974735, -37.848143], [144.97489, -37.848185], [144.975109, -37.848272], [144.975244, -37.848346], [144.976852, -37.849422], [144.977032, -37.849473], [144.977951, -37.849517], [144.97835, -37.850737], [144.978942, -37.852455], [144.979365, -37.85368], [144.979516, -37.853921], [144.979741, -37.854201], [144.980012, -37.854466], [144.980277, -37.854674], [144.980623, -37.854892], [144.981019, -37.855084], [144.981718, -37.855353], [144.982173, -37.855489], [144.982571, -37.855527], [144.982204, -37.854515], [144.982911, -37.854608], [144.982959, -37.854363], [144.982838, -37.854345], [144.982854, -37.854231], [144.982839, -37.854229], [144.982871, -37.854042], [144.982644, -37.854013], [144.98271, -37.853702], [144.982631, -37.853691], [144.982679, -37.853435], [144.982727, -37.853301], [144.982708, -37.853058], [144.982558, -37.852663], [144.982538, -37.852609], [144.98221, -37.852557], [144.982346, -37.851862], [144.982021, -37.85182], [144.981845, -37.851337], [144.982211, -37.851254], [144.982167, -37.851134], [144.982204, -37.851138], [144.98235, -37.850429], [144.984201, -37.850667], [144.984424, -37.849341], [144.984528, -37.848721], [144.984545, -37.848621], [144.984574, -37.848447], [144.984581, -37.848406], [144.984587, -37.84833], [144.984594, -37.848225], [144.984599, -37.848199], [144.984655, -37.847889], [144.984704, -37.847608], [144.984758, -37.847275], [144.984771, -37.84719], [144.984901, -37.846394], [144.985024, -37.845671], [144.984511, -37.845603], [144.980307, -37.845062], [144.97742, -37.837161], [144.97625, -37.83701], [144.976564, -37.83548], [144.976446, -37.835464], [144.975978, -37.835402], [144.975981, -37.835389], [144.975882, -37.835378], [144.975809, -37.835181], [144.975889, -37.834851], [144.978592, -37.835198], [144.978907, -37.833675], [144.983678, -37.834296], [144.984983, -37.827666], [144.985344, -37.827759], [144.985939, -37.827987], [144.986389, -37.828264], [144.986838, -37.828616], [144.987921, -37.829637], [144.988332, -37.827508], [144.988803, -37.824615], [144.989097, -37.823119], [144.987091, -37.822866], [144.986703, -37.822769], [144.985844, -37.822495], [144.985326, -37.822304], [144.984033, -37.82175], [144.98373, -37.821598], [144.982337, -37.820816], [144.978613, -37.818593], [144.978674, -37.818246], [144.978412, -37.818217], [144.978283, -37.818137], [144.97812, -37.818115], [144.978087, -37.818148], [144.977928, -37.818136], [144.976822, -37.817381], [144.97664, -37.81726], [144.976208, -37.816836], [144.976186, -37.816814], [144.975911, -37.816711], [144.975755, -37.816654], [144.975692, -37.816631], [144.975595, -37.816414], [144.975443, -37.81608], [144.975399, -37.81598], [144.974712, -37.815887], [144.974858, -37.815245], [144.971363, -37.807728], [144.970936, -37.807518], [144.959936, -37.806339], [144.96009, -37.805445], [144.958471, -37.801929], [144.95883, -37.799861], [144.955082, -37.799446], [144.955034, -37.799652], [144.956715, -37.80099], [144.956719, -37.801677], [144.956635, -37.802165], [144.957477, -37.80397], [144.95851, -37.806157], [144.955994, -37.805879], [144.955388, -37.80952], [144.955977, -37.810805], [144.956446, -37.811754], [144.956381, -37.811772], [144.951431, -37.813157]]]}, "properties": {"display_name": "Melbourne, City of Melbourne, Victoria, Australia", "type": "administrative", "osm_type": "relation", "osm_id": 2383266, "class": null, "keyword": "CBD"}}, {"type": "Feature", "geometry": {"type": "Polygon", "coordinates": [[[144.350888, -38.132644], [144.350958, -38.133032], [144.351099, -38.133407], [144.351354, -38.134299], [144.351494, -38.134665], [144.35165, -38.135147], [144.351844, -38.13562], [144.352162, -38.136234], [144.352521, -38.136786], [144.353331, -38.13759], [144.353602, -38.137929], [144.353764, -38.138201], [144.353887, -38.138485], [144.353948, -38.13868], [144.354005, -38.138977], [144.35402, -38.139177], [144.353576, -38.142822], [144.352709, -38.147429], [144.351475, -38.153912], [144.35346, -38.154497], [144.354485, -38.154777], [144.354414, -38.154932], [144.359459, -38.158501], [144.362972, -38.160985], [144.367223, -38.164011], [144.369456, -38.159078], [144.374881, -38.147282], [144.374609, -38.146484], [144.374392, -38.146526], [144.374172, -38.146624], [144.374077, -38.146732], [144.373519, -38.146719], [144.373184, -38.146693], [144.372934, -38.146672], [144.372571, -38.146599], [144.372259, -38.146589], [144.372051, -38.146614], [144.371833, -38.146666], [144.371577, -38.146668], [144.371522, -38.146603], [144.371409, -38.146668], [144.371292, -38.146711], [144.37107, -38.146737], [144.370465, -38.146685], [144.370102, -38.146609], [144.369335, -38.146409], [144.36894, -38.14629], [144.36867, -38.146181], [144.368396, -38.146035], [144.368185, -38.145886], [144.368007, -38.14573], [144.367964, -38.145603], [144.367799, -38.145649], [144.367661, -38.145729], [144.367549, -38.145628], [144.367421, -38.145568], [144.367112, -38.145485], [144.367294, -38.14522], [144.367011, -38.145084], [144.366726, -38.144971], [144.366655, -38.145072], [144.366479, -38.145019], [144.366333, -38.144936], [144.366157, -38.144875], [144.366113, -38.144897], [144.36587, -38.145351], [144.365108, -38.145019], [144.365158, -38.144967], [144.364992, -38.144894], [144.36502, -38.144785], [144.365107, -38.144627], [144.365258, -38.144452], [144.365405, -38.144235], [144.365258, -38.144179], [144.365131, -38.144362], [144.365012, -38.144477], [144.363126, -38.143545], [144.362975, -38.143451], [144.362994, -38.143322], [144.362862, -38.143388], [144.362761, -38.143518], [144.362726, -38.143673], [144.362781, -38.143766], [144.36275, -38.14383], [144.362036, -38.143616], [144.362225, -38.143164], [144.361682, -38.142875], [144.361488, -38.142802], [144.360926, -38.142481], [144.360514, -38.14221], [144.358829, -38.140908], [144.358259, -38.140391], [144.358066, -38.140196], [144.357967, -38.140128], [144.35776, -38.140123], [144.357721, -38.140098], [144.357489, -38.139851], [144.357213, -38.139612], [144.35692, -38.139317], [144.356679, -38.139017], [144.356539, -38.138796], [144.356522, -38.138759], [144.356527, -38.138696], [144.356408, -38.138531], [144.356233, -38.138212], [144.356145, -38.13807], [144.356047, -38.137995], [144.356004, -38.137844], [144.355997, -38.137727], [144.355949, -38.137502], [144.355911, -38.137451], [144.355833, -38.137394], [144.35569, -38.136947], [144.355695, -38.136824], [144.355729, -38.13673], [144.3559, -38.13649], [144.355612, -38.135681], [144.355843, -38.133511], [144.355954, -38.133116], [144.356022, -38.132974], [144.356159, -38.132754], [144.355721, -38.132706], [144.355439, -38.132763], [144.352356, -38.132398], [144.352078, -38.132625], [144.351952, -38.132521], [144.351824, -38.132464], [144.35089, -38.132269], [144.350888, -38.132644]]]}, "properties": {"display_name": "Geelong, City of Greater Geelong, Victoria, 3220, Australia", "type": "administrative", "osm_type": "relation", "osm_id": 2456176, "class": null, "keyword": "CBD"}}, {"type": "Feature", "geometry": {"type": "Polygon", "coordinates": [[[145.330317, -38.131146], [145.334711, -38.134572], [145.341888, -38.135432], [145.342823, -38.135553], [145.342999, -38.134709], [145.34393, -38.130543], [145.34367, -38.130511], [145.340414, -38.130135], [145.34037, -38.13013], [145.330769, -38.129109], [145.330649, -38.129647], [145.330317, -38.131146]]]}, "properties": {"display_name": "Future Clyde town centre, Clyde, Melbourne, City of Casey, Victoria, 3978, Australia", "type": "brownfield", "osm_type": "way", "osm_id": 1255518733, "class": null, "keyword": "town centre"}}, {"type": "Feature", "geometry": {"type": "Polygon", "coordinates": [[[144.769832, -37.695245], [144.769894, -37.695319], [144.769902, -37.695393], [144.769904, -37.695466], [144.76992, -37.695538], [144.769897, -37.695554], [144.769955, -37.695623], [144.76997, -37.695642], [144.76998, -37.695638], [144.770075, -37.695768], [144.770062, -37.695777], [144.772037, -37.698313], [144.773248, -37.699858], [144.773478, -37.70015], [144.773552, -37.700113], [144.773593, -37.700092], [144.773605, -37.700086], [144.773702, -37.700215], [144.773965, -37.700545], [144.773937, -37.700558], [144.774545, -37.701317], [144.774623, -37.701418], [144.774655, -37.701437], [144.77467, -37.701447], [144.774697, -37.701463], [144.774721, -37.701479], [144.774744, -37.701493], [144.774831, -37.701598], [144.774814, -37.701614], [144.774796, -37.701621], [144.774803, -37.701632], [144.774734, -37.701665], [144.774685, -37.70169], [144.775427, -37.702653], [144.77549, -37.702731], [144.775647, -37.70293], [144.776159, -37.703578], [144.776721, -37.70429], [144.777265, -37.704949], [144.777752, -37.705516], [144.778146, -37.706035], [144.778606, -37.704783], [144.778646, -37.704787], [144.778695, -37.704628], [144.778767, -37.704187], [144.778773, -37.704083], [144.778763, -37.703978], [144.778799, -37.70397], [144.778873, -37.703669], [144.778893, -37.703668], [144.778916, -37.703665], [144.778942, -37.703655], [144.778962, -37.703642], [144.778974, -37.703631], [144.778983, -37.703607], [144.779156, -37.703068], [144.779217, -37.702882], [144.779545, -37.701885], [144.7796, -37.701727], [144.779618, -37.70166], [144.779631, -37.701592], [144.779668, -37.701475], [144.779676, -37.701407], [144.779676, -37.701339], [144.779664, -37.701251], [144.779658, -37.701233], [144.779649, -37.701217], [144.779738, -37.700952], [144.779769, -37.700949], [144.779795, -37.700943], [144.779817, -37.700937], [144.779836, -37.700927], [144.779854, -37.700912], [144.779866, -37.700901], [144.779877, -37.700879], [144.780229, -37.699798], [144.78043, -37.699165], [144.780484, -37.699018], [144.780487, -37.69901], [144.780608, -37.698642], [144.780775, -37.698137], [144.780812, -37.698027], [144.780823, -37.697991], [144.780841, -37.697939], [144.780842, -37.697936], [144.780849, -37.69791], [144.780884, -37.697739], [144.780887, -37.697516], [144.780695, -37.697474], [144.779768, -37.697274], [144.779692, -37.697244], [144.779115, -37.69711], [144.778938, -37.697072], [144.778786, -37.697041], [144.778585, -37.697008], [144.778452, -37.696987], [144.77828, -37.696998], [144.7779, -37.69685], [144.775693, -37.696363], [144.775591, -37.696341], [144.775321, -37.696281], [144.775204, -37.696255], [144.774929, -37.696193], [144.774635, -37.696173], [144.774208, -37.696103], [144.774208, -37.696048], [144.774186, -37.696027], [144.772869, -37.695735], [144.772844, -37.695733], [144.772835, -37.69574], [144.772545, -37.695675], [144.772347, -37.695635], [144.772065, -37.695577], [144.772054, -37.695578], [144.77199, -37.695585], [144.771967, -37.695558], [144.771741, -37.695513], [144.771679, -37.695532], [144.771652, -37.695495], [144.77153, -37.695468], [144.771322, -37.695425], [144.771241, -37.695415], [144.771201, -37.695413], [144.771173, -37.695416], [144.771164, -37.695423], [144.771019, -37.69541], [144.770914, -37.695398], [144.770872, -37.695397], [144.770811, -37.695389], [144.770611, -37.695366], [144.770452, -37.695335], [144.770308, -37.695318], [144.769997, -37.695274], [144.769997, -37.695269], [144.769832, -37.695245]]]}, "properties": {"display_name": "Watergardens Town Centre, 399, Melton Highway, Taylors Lakes, Melbourne, City of Brimbank, Victoria, 3038, Australia", "type": "mall", "osm_type": "way", "osm_id": 33658236, "class": null, "keyword": "town centre"}}, {"type": "Feature", "geometry": {"type": "Polygon", "coordinates": [[[147.62417, -37.826813], [147.624338, -37.82728], [147.625896, -37.826937], [147.626213, -37.827869], [147.626261, -37.827864], [147.626325, -37.82785], [147.626564, -37.827801], [147.626724, -37.828251], [147.627153, -37.828155], [147.627112, -37.828163], [147.627228, -37.828136], [147.627382, -37.828105], [147.627402, -37.828099], [147.62837, -37.827886], [147.628575, -37.828455], [147.628975, -37.82837], [147.629862, -37.828164], [147.629959, -37.828141], [147.630224, -37.828962], [147.631584, -37.829259], [147.63242, -37.829103], [147.632367, -37.828945], [147.632946, -37.828807], [147.632802, -37.828377], [147.632603, -37.827779], [147.634728, -37.827455], [147.634895, -37.82744], [147.635021, -37.826794], [147.635587, -37.826832], [147.635594, -37.826698], [147.636058, -37.826742], [147.636153, -37.826118], [147.63643, -37.826161], [147.636517, -37.82584], [147.635318, -37.825703], [147.635418, -37.825177], [147.635144, -37.825149], [147.63522, -37.824666], [147.634722, -37.824612], [147.634758, -37.824354], [147.634422, -37.824345], [147.634357, -37.824345], [147.634299, -37.824349], [147.633995, -37.824275], [147.633606, -37.824199], [147.633556, -37.824188], [147.633469, -37.824188], [147.633412, -37.824193], [147.633358, -37.824198], [147.633303, -37.82421], [147.633217, -37.824223], [147.632789, -37.824308], [147.632728, -37.824136], [147.631579, -37.823969], [147.631144, -37.823993], [147.631101, -37.823899], [147.63057, -37.823738], [147.629908, -37.823667], [147.629618, -37.82368], [147.628417, -37.823937], [147.628471, -37.824092], [147.626241, -37.824618], [147.62666, -37.825772], [147.627149, -37.825665], [147.627329, -37.826108], [147.627493, -37.826593], [147.626814, -37.826749], [147.626641, -37.826255], [147.62417, -37.826813]]]}, "properties": {"display_name": "Central Business District, Bairnsdale, Shire of East Gippsland, Victoria, 3875, Australia", "type": "retail", "osm_type": "way", "osm_id": 170684406, "class": null, "keyword": "business district"}}, {"type": "Feature", "geometry": {"type": "Polygon", "coordinates": [[[145.124728, -37.58512], [145.12494, -37.585531], [145.125261, -37.586101], [145.125264, -37.586108], [145.125356, -37.586316], [145.125383, -37.586445], [145.125404, -37.586707], [145.125385, -37.587235], [145.125195, -37.587232], [145.125184, -37.587826], [145.125186, -37.587839], [145.125202, -37.588154], [145.125252, -37.588383], [145.125491, -37.588337], [145.127099, -37.588025], [145.128023, -37.587846], [145.128083, -37.58782], [145.128195, -37.587655], [145.128252, -37.587588], [145.128431, -37.58744], [145.128508, -37.587549], [145.128573, -37.587646], [145.128632, -37.587767], [145.128651, -37.587859], [145.128771, -37.587806], [145.131206, -37.588056], [145.131316, -37.587408], [145.13123, -37.587365], [145.131246, -37.587233], [145.131328, -37.587219], [145.13138, -37.587165], [145.131414, -37.587094], [145.131732, -37.585054], [145.131612, -37.585001], [145.131627, -37.584922], [145.131776, -37.584898], [145.131848, -37.584747], [145.132226, -37.582383], [145.132282, -37.582108], [145.132429, -37.581604], [145.131825, -37.581531], [145.131492, -37.581948], [145.131331, -37.581928], [145.131282, -37.581962], [145.131159, -37.58262], [145.129162, -37.582363], [145.128695, -37.582321], [145.128664, -37.582336], [145.128521, -37.582612], [145.128263, -37.58301], [145.127924, -37.583382], [145.12711, -37.584199], [145.126931, -37.584092], [145.126466, -37.584581], [145.124728, -37.58512]]]}, "properties": {"display_name": "Laurimar - Town Centre Estate, Doreen, Melbourne, City of Whittlesea, Victoria, Australia", "type": "residential", "osm_type": "way", "osm_id": 858898988, "class": null, "keyword": "town centre"}}, {"type": "Feature", "geometry": {"type": "Polygon", "coordinates": [[[145.235858, -37.868189], [145.236623, -37.868431], [145.236307, -37.869026], [145.237208, -37.869334], [145.23844, -37.869745], [145.240935, -37.870572], [145.241906, -37.870883], [145.242485, -37.871077], [145.244237, -37.871658], [145.244843, -37.870469], [145.245635, -37.870718], [145.246048, -37.869955], [145.246746, -37.870173], [145.247133, -37.869445], [145.246904, -37.869311], [145.245642, -37.868542], [145.245213, -37.868303], [145.244921, -37.868145], [145.24418, -37.867761], [145.243402, -37.867331], [145.24308, -37.867183], [145.242395, -37.866808], [145.241921, -37.866554], [145.241895, -37.866596], [145.241839, -37.866577], [145.241329, -37.86756], [145.241393, -37.867579], [145.241342, -37.867656], [145.241298, -37.867714], [145.241259, -37.86775], [145.24122, -37.867775], [145.241176, -37.86779], [145.241118, -37.867794], [145.241059, -37.867779], [145.241082, -37.867735], [145.240362, -37.867506], [145.236771, -37.866347], [145.236728, -37.866456], [145.236593, -37.866738], [145.236277, -37.86732], [145.236098, -37.867701], [145.236045, -37.867803], [145.235974, -37.867895], [145.235858, -37.868189]]]}, "properties": {"display_name": "Westfield Knox, 425, Burwood Highway, Wantirna South, Melbourne, City of Knox, Victoria, 3152, Australia", "type": "mall", "osm_type": "way", "osm_id": 24026232, "class": null, "keyword": "city centre"}}, {"type": "Feature", "geometry": {"type": "Polygon", "coordinates": [[[144.733094, -37.884363], [144.733157, -37.884462], [144.735312, -37.884707], [144.73797, -37.885008], [144.737942, -37.884968], [144.738184, -37.88363], [144.738222, -37.883417], [144.738064, -37.883399], [144.73756, -37.883341], [144.737479, -37.883332], [144.737322, -37.883314], [144.737485, -37.882406], [144.737339, -37.882334], [144.73714, -37.882472], [144.736393, -37.882388], [144.735687, -37.882308], [144.735667, -37.882287], [144.735796, -37.88157], [144.734366, -37.881114], [144.734317, -37.881132], [144.734204, -37.88128], [144.734123, -37.881388], [144.734059, -37.881478], [144.733987, -37.881584], [144.733898, -37.881726], [144.733828, -37.881841], [144.733767, -37.881951], [144.733694, -37.88209], [144.733627, -37.882233], [144.733569, -37.882362], [144.733501, -37.882533], [144.733448, -37.88268], [144.73341, -37.882798], [144.733388, -37.882868], [144.733341, -37.883046], [144.733314, -37.88316], [144.733292, -37.88327], [144.733268, -37.883402], [144.733235, -37.883584], [144.733094, -37.884363]]]}, "properties": {"display_name": "Point Cook Town Centre, Main Street, The Boardwalk, Point Cook, Melbourne, City of Wyndham, Victoria, 3030, Australia", "type": "mall", "osm_type": "way", "osm_id": 161535135, "class": null, "keyword": "town centre"}}, {"type": "Feature", "geometry": {"type": "Polygon", "coordinates": [[[145.369971, -38.127416], [145.373112, -38.127832], [145.373281, -38.127854], [145.373855, -38.125032], [145.373748, -38.12502], [145.373582, -38.125001], [145.37364, -38.124756], [145.373635, -38.124645], [145.373601, -38.124598], [145.373356, -38.124568], [145.373246, -38.124572], [145.373044, -38.124544], [145.372904, -38.124499], [145.372568, -38.124457], [145.372308, -38.12445], [145.372125, -38.124428], [145.370662, -38.124228], [145.370641, -38.124325], [145.370611, -38.124462], [145.369971, -38.127416]]]}, "properties": {"display_name": "Orana Town Centre, Bella Estate, Clyde, Melbourne, City of Casey, Victoria, 3978, Australia", "type": "construction", "osm_type": "way", "osm_id": 1332527478, "class": null, "keyword": "town centre"}}, {"type": "Feature", "geometry": {"type": "Polygon", "coordinates": [[[144.541313, -37.787405], [144.543104, -37.787833], [144.544902, -37.787841], [144.545617, -37.788005], [144.545653, -37.786438], [144.545618, -37.786421], [144.545207, -37.786538], [144.545143, -37.78632], [144.545182, -37.786311], [144.545219, -37.786269], [144.545021, -37.785218], [144.544989, -37.785186], [144.544116, -37.784949], [144.544167, -37.784801], [144.542533, -37.784668], [144.542319, -37.786454], [144.541553, -37.786386], [144.541313, -37.787405]]]}, "properties": {"display_name": "Future Town Centre, Eynesbury, Melbourne, City of Melton, Victoria, 3338, Australia", "type": "construction", "osm_type": "way", "osm_id": 1293773859, "class": null, "keyword": "town centre"}}, {"type": "Feature", "geometry": {"type": "Polygon", "coordinates": [[[144.744394, -37.865742], [144.744432, -37.865887], [144.744521, -37.865867], [144.74502, -37.865876], [144.74496, -37.866135], [144.744919, -37.866332], [144.745361, -37.866396], [144.745914, -37.866483], [144.746161, -37.866499], [144.746169, -37.866257], [144.74625, -37.866259], [144.746248, -37.866324], [144.746575, -37.866331], [144.746558, -37.866867], [144.746883, -37.866832], [144.747211, -37.866774], [144.747347, -37.866727], [144.747731, -37.866516], [144.747766, -37.866467], [144.747784, -37.862899], [144.747743, -37.862712], [144.747598, -37.86239], [144.747115, -37.862389], [144.74705, -37.862392], [144.74693, -37.862401], [144.7468, -37.862419], [144.746681, -37.862443], [144.746556, -37.862476], [144.74645, -37.862511], [144.746328, -37.862559], [144.745238, -37.862998], [144.746434, -37.863428], [144.746103, -37.864009], [144.746004, -37.864183], [144.745948, -37.8654], [144.744394, -37.865742]]]}, "properties": {"display_name": "Williams Landing Town Centre, Williams Landing, Melbourne, City of Wyndham, Victoria, 3027, Australia", "type": "construction", "osm_type": "way", "osm_id": 292847926, "class": null, "keyword": "town centre"}}, {"type": "Feature", "geometry": {"type": "Polygon", "coordinates": [[[144.612839, -37.911911], [144.61285, -37.911951], [144.612931, -37.912041], [144.613001, -37.91206], [144.613199, -37.912081], [144.613234, -37.912086], [144.613269, -37.912096], [144.613299, -37.912109], [144.613328, -37.912125], [144.61338, -37.912162], [144.613413, -37.912186], [144.61349, -37.912241], [144.613562, -37.912293], [144.613667, -37.912375], [144.613754, -37.912446], [144.613915, -37.912585], [144.614208, -37.91284], [144.614354, -37.912965], [144.614531, -37.913123], [144.61468, -37.913253], [144.614922, -37.913469], [144.616569, -37.912439], [144.616869, -37.912252], [144.616807, -37.912156], [144.616518, -37.911704], [144.615574, -37.910875], [144.615344, -37.910254], [144.615015, -37.910087], [144.614917, -37.910203], [144.614834, -37.910293], [144.614689, -37.910442], [144.614453, -37.910635], [144.614372, -37.910709], [144.614213, -37.910841], [144.614072, -37.910951], [144.613787, -37.911151], [144.613519, -37.911336], [144.613305, -37.911475], [144.61314, -37.911592], [144.613058, -37.911668], [144.612977, -37.911754], [144.612859, -37.911887], [144.612839, -37.911911]]]}, "properties": {"display_name": "Harpley Town Centre, Werribee, Melbourne, City of Wyndham, Victoria, 3030, Australia", "type": "retail", "osm_type": "way", "osm_id": 1370449069, "class": null, "keyword": "town centre"}}, {"type": "Feature", "geometry": {"type": "Polygon", "coordinates": [[[145.140854, -38.065236], [145.140887, -38.065262], [145.141034, -38.065578], [145.14088, -38.065708], [145.140947, -38.065752], [145.140904, -38.065789], [145.14095, -38.065826], [145.14106, -38.065731], [145.141092, -38.06574], [145.141123, -38.066133], [145.14097, -38.066143], [145.140988, -38.066173], [145.141008, -38.066212], [145.141246, -38.066656], [145.141293, -38.067039], [145.141156, -38.067741], [145.141195, -38.068048], [145.141199, -38.068081], [145.141203, -38.068114], [145.141233, -38.068203], [145.141279, -38.06827], [145.141285, -38.068277], [145.141319, -38.068315], [145.141401, -38.068378], [145.141485, -38.06842], [145.142019, -38.068214], [145.142383, -38.067934], [145.142447, -38.067886], [145.142548, -38.067754], [145.142507, -38.067671], [145.142343, -38.067407], [145.142342, -38.067366], [145.142341, -38.067279], [145.14234, -38.067195], [145.142339, -38.067102], [145.142338, -38.067006], [145.142335, -38.066755], [145.142335, -38.066746], [145.142343, -38.066706], [145.142363, -38.066674], [145.142409, -38.066646], [145.142445, -38.066632], [145.142796, -38.066499], [145.143031, -38.06641], [145.143214, -38.066334], [145.143217, -38.066326], [145.143282, -38.066183], [145.143333, -38.066073], [145.143344, -38.066062], [145.143379, -38.06603], [145.143429, -38.065985], [145.143536, -38.065924], [145.143676, -38.065844], [145.143692, -38.065786], [145.143706, -38.065731], [145.143693, -38.065678], [145.14366, -38.065541], [145.143648, -38.06549], [145.143592, -38.065413], [145.143514, -38.065305], [145.143432, -38.065191], [145.143366, -38.065099], [145.143266, -38.065057], [145.143162, -38.065012], [145.142993, -38.065044], [145.142836, -38.065074], [145.142702, -38.065099], [145.142567, -38.065125], [145.142434, -38.06515], [145.142337, -38.065168], [145.142244, -38.065198], [145.142031, -38.065265], [145.141842, -38.065324], [145.141629, -38.065391], [145.141527, -38.065423], [145.141021, -38.065248], [145.140959, -38.065228], [145.140944, -38.065227], [145.140896, -38.0652], [145.140854, -38.065236]], [[145.141991, -38.065745], [145.142084, -38.065596], [145.142286, -38.065525], [145.142414, -38.06548], [145.142589, -38.065419], [145.142753, -38.065388], [145.142984, -38.065343], [145.143142, -38.065371], [145.143254, -38.065528], [145.143429, -38.065773], [145.143384, -38.065937], [145.143323, -38.065996], [145.143292, -38.066028], [145.14327, -38.06605], [145.14287, -38.066165], [145.142667, -38.066223], [145.142563, -38.066252], [145.142442, -38.066284], [145.142403, -38.066294], [145.142245, -38.066206], [145.142181, -38.06617], [145.142056, -38.065952], [145.141998, -38.065767], [145.141991, -38.065745]]]}, "properties": {"display_name": "Patterson Lakes Inner Harbour, Patterson Lakes, Melbourne, City of Kingston, Victoria, 3197, Australia", "type": "water", "osm_type": "relation", "osm_id": 13956875, "class": null, "keyword": "inner city"}}, {"type": "Feature", "geometry": {"type": "Polygon", "coordinates": [[[144.669127, -37.722005], [144.66914, -37.722129], [144.669855, -37.72337], [144.669893, -37.723358], [144.669994, -37.723541], [144.67007, -37.72357], [144.672119, -37.722825], [144.672145, -37.722744], [144.671475, -37.721634], [144.671353, -37.721616], [144.67088, -37.721547], [144.670582, -37.721539], [144.670359, -37.721566], [144.670124, -37.721661], [144.670012, -37.721699], [144.669931, -37.721748], [144.669668, -37.721846], [144.669517, -37.721896], [144.669236, -37.721975], [144.669127, -37.722005]]]}, "properties": {"display_name": "Woodlea Town Centre, Aintree, Melbourne, City of Melton, Victoria, 3336, Australia", "type": "retail", "osm_type": "way", "osm_id": 911205754, "class": null, "keyword": "town centre"}}, {"type": "Feature", "geometry": {"type": "Polygon", "coordinates": [[[144.944076, -37.714509], [144.945749, -37.714692], [144.945842, -37.714704], [144.946195, -37.712611], [144.944551, -37.712434], [144.944076, -37.714509]]]}, "properties": {"display_name": "Merri-bek City Council Operations Centre, Hadfield, Melbourne, City of Merri-bek, Victoria, 3046, Australia", "type": "civic_admin", "osm_type": "way", "osm_id": 33996430, "class": null, "keyword": "city centre"}}, {"type": "Feature", "geometry": {"type": "Polygon", "coordinates": [[[144.978313, -37.780095], [144.978845, -37.780155], [144.978819, -37.780295], [144.98382, -37.780894], [144.984098, -37.780927], [144.985547, -37.781101], [144.985808, -37.780789], [144.985654, -37.780769], [144.985015, -37.78069], [144.98502, -37.780663], [144.984392, -37.780586], [144.984426, -37.780381], [144.982054, -37.780101], [144.982023, -37.780308], [144.981796, -37.780281], [144.981462, -37.780245], [144.981024, -37.780199], [144.980787, -37.780171], [144.980595, -37.78015], [144.979479, -37.780024], [144.978351, -37.779897], [144.978313, -37.780095]]]}, "properties": {"display_name": "Inner Circle-Janet Millman Reserve, Fitzroy North, Melbourne, City of Yarra, Victoria, 3068, Australia", "type": "park", "osm_type": "way", "osm_id": 32741641, "class": null, "keyword": "inner city"}}, {"type": "Feature", "geometry": {"type": "Polygon", "coordinates": [[[145.098055, -37.602843], [145.098061, -37.602872], [145.09808, -37.602895], [145.098112, -37.602911], [145.098143, -37.602919], [145.098202, -37.602925], [145.098495, -37.602955], [145.098532, -37.602959], [145.098907, -37.602998], [145.099004, -37.603008], [145.099148, -37.603023], [145.099193, -37.603027], [145.09936, -37.603044], [145.099422, -37.603051], [145.099546, -37.603064], [145.099605, -37.60307], [145.099851, -37.603095], [145.099893, -37.603099], [145.100228, -37.603134], [145.100314, -37.603143], [145.100323, -37.603143], [145.100355, -37.603145], [145.100389, -37.603129], [145.10041, -37.60311], [145.100438, -37.603048], [145.100466, -37.602983], [145.100475, -37.602943], [145.100453, -37.602903], [145.100558, -37.602414], [145.100598, -37.602389], [145.100691, -37.601966], [145.100689, -37.601939], [145.100684, -37.601925], [145.100665, -37.60191], [145.100644, -37.601902], [145.100603, -37.601893], [145.099382, -37.601767], [145.099329, -37.601762], [145.098381, -37.601664], [145.098336, -37.601662], [145.098305, -37.60167], [145.098288, -37.60169], [145.098199, -37.601992], [145.098183, -37.602061], [145.098055, -37.602843]]]}, "properties": {"display_name": "Mernda Town Centre, Mernda, Melbourne, City of Whittlesea, Victoria, 3754, Australia", "type": "retail", "osm_type": "way", "osm_id": 1133089985, "class": null, "keyword": "town centre"}}, {"type": "Feature", "geometry": {"type": "Polygon", "coordinates": [[[144.86679, -37.802613], [144.867715, -37.802718], [144.867867, -37.802735], [144.868306, -37.800334], [144.867227, -37.800215], [144.86679, -37.802613]]]}, "properties": {"display_name": "Maribyrnong City Operations Centre, 95, West Footscray, Melbourne, City of Maribyrnong, Victoria, 3012, Australia", "type": "industrial", "osm_type": "way", "osm_id": 843139991, "class": null, "keyword": "city centre"}}, {"type": "Feature", "geometry": {"type": "Polygon", "coordinates": [[[144.988265, -37.781296], [144.988275, -37.781328], [144.988298, -37.781363], [144.988368, -37.781407], [144.988799, -37.781466], [144.98918, -37.781535], [144.989586, -37.781661], [144.990344, -37.781978], [144.990855, -37.782258], [144.990958, -37.78216], [144.990726, -37.781864], [144.990641, -37.781646], [144.990625, -37.781475], [144.990681, -37.781092], [144.990841, -37.780826], [144.991668, -37.780147], [144.991495, -37.780079], [144.990739, -37.78002], [144.990723, -37.780133], [144.990684, -37.780417], [144.99068, -37.780445], [144.990564, -37.780506], [144.990492, -37.780498], [144.990473, -37.780616], [144.990455, -37.780614], [144.990437, -37.780612], [144.990432, -37.780642], [144.99033, -37.780631], [144.990333, -37.78061], [144.990235, -37.7806], [144.990221, -37.780681], [144.990086, -37.780667], [144.990081, -37.780698], [144.990064, -37.780798], [144.990063, -37.780808], [144.989843, -37.780786], [144.989859, -37.780683], [144.989761, -37.780673], [144.989721, -37.780915], [144.989516, -37.780894], [144.989493, -37.781034], [144.989261, -37.78101], [144.989236, -37.781161], [144.988611, -37.781097], [144.988615, -37.781075], [144.98856, -37.781069], [144.988552, -37.781113], [144.988305, -37.781087], [144.988296, -37.781141], [144.988277, -37.781155], [144.988271, -37.781213], [144.988265, -37.781296]]]}, "properties": {"display_name": "Inner Circle-Thomas Kidney Reserve, Fitzroy North, Melbourne, City of Yarra, Victoria, 3068, Australia", "type": "park", "osm_type": "way", "osm_id": 32741873, "class": null, "keyword": "inner city"}}, {"type": "Feature", "geometry": {"type": "Polygon", "coordinates": [[[145.296234, -38.129784], [145.297372, -38.129926], [145.297747, -38.128071], [145.29661, -38.127929], [145.296234, -38.129784]]]}, "properties": {"display_name": "Future Town Centre site, Cranbourne East, Melbourne, City of Casey, Victoria, 3977, Australia", "type": "brownfield", "osm_type": "way", "osm_id": 1234484840, "class": null, "keyword": "town centre"}}, {"type": "Feature", "geometry": {"type": "Polygon", "coordinates": [[[145.197421, -37.986982], [145.19932, -37.987215], [145.199479, -37.986439], [145.198265, -37.986284], [145.197621, -37.986206], [145.197514, -37.986482], [145.197421, -37.986982]]]}, "properties": {"display_name": "City of Greater Dandenong Operations Centre, Dandenong, Melbourne, City of Greater Dandenong, Victoria, 3175, Australia", "type": "civic_admin", "osm_type": "way", "osm_id": 1380639085, "class": null, "keyword": "city centre"}}, {"type": "Feature", "geometry": {"type": "Polygon", "coordinates": [[[144.970686, -37.779302], [144.973353, -37.779589], [144.974591, -37.779723], [144.974619, -37.779555], [144.973705, -37.779457], [144.973735, -37.77928], [144.973712, -37.779277], [144.973511, -37.779256], [144.973383, -37.779242], [144.971373, -37.779025], [144.970745, -37.778958], [144.970686, -37.779302]]]}, "properties": {"display_name": "Inner Circle Linear Park, Brunswick East, Melbourne, City of Merri-bek, Victoria, 3057, Australia", "type": "park", "osm_type": "way", "osm_id": 37522397, "class": null, "keyword": "inner city"}}, {"type": "Feature", "geometry": {"type": "Polygon", "coordinates": [[[145.343359, -37.809828], [145.343592, -37.810195], [145.343491, -37.810235], [145.344355, -37.810649], [145.344791, -37.810856], [145.345036, -37.810683], [145.345171, -37.810485], [145.344403, -37.810084], [145.343899, -37.809614], [145.343359, -37.809828]]]}, "properties": {"display_name": "Montrose Town Centre Reserve, Montrose, Melbourne, Shire of Yarra Ranges, Victoria, 3765, Australia", "type": "park", "osm_type": "way", "osm_id": 561167909, "class": null, "keyword": "town centre"}}, {"type": "Feature", "geometry": {"type": "Polygon", "coordinates": [[[144.984592, -37.785511], [144.984745, -37.785601], [144.984827, -37.785584], [144.984842, -37.785497], [144.985167, -37.78515], [144.9852, -37.785153], [144.985398, -37.785174], [144.98542, -37.785047], [144.985667, -37.783598], [144.985452, -37.783575], [144.985383, -37.783977], [144.985363, -37.783974], [144.985306, -37.784312], [144.985181, -37.784697], [144.985028, -37.784683], [144.984939, -37.78512], [144.984592, -37.785511]]]}, "properties": {"display_name": "Inner Circle-Mark Street Reserve, Fitzroy North, Melbourne, City of Yarra, Victoria, 3068, Australia", "type": "park", "osm_type": "way", "osm_id": 185735838, "class": null, "keyword": "inner city"}}, {"type": "Feature", "geometry": {"type": "Polygon", "coordinates": [[[145.044796, -37.76577], [145.045478, -37.766023], [145.045653, -37.765728], [145.045737, -37.765759], [145.045763, -37.765715], [145.045895, -37.765764], [145.045974, -37.765631], [145.045788, -37.765562], [145.045827, -37.765496], [145.045117, -37.765232], [145.044796, -37.76577]]]}, "properties": {"display_name": "The Centre Ivanhoe, 275, Upper Heidelberg Road, Ivanhoe, Melbourne, City of Banyule, Victoria, 3079, Australia", "type": "townhall", "osm_type": "way", "osm_id": 109352636, "class": null, "keyword": "town centre"}}, {"type": "Feature", "geometry": {"type": "Polygon", "coordinates": [[[145.004513, -37.623141], [145.004605, -37.623151], [145.004673, -37.623169], [145.004714, -37.62319], [145.004756, -37.623211], [145.004792, -37.623223], [145.004837, -37.623231], [145.004993, -37.62325], [145.005133, -37.622403], [145.005152, -37.622288], [145.005193, -37.622045], [145.004603, -37.621988], [145.00462, -37.622026], [145.004646, -37.622066], [145.004661, -37.622104], [145.004666, -37.622141], [145.004664, -37.622192], [145.004656, -37.622218], [145.004654, -37.62224], [145.004655, -37.622277], [145.004664, -37.622321], [145.00468, -37.622357], [145.004817, -37.622673], [145.004812, -37.622779], [145.004785, -37.622928], [145.004725, -37.623049], [145.004664, -37.623089], [145.004605, -37.623115], [145.004513, -37.623141]]]}, "properties": {"display_name": "Aurora Town Centre Park, Aurora Estate, Epping, Melbourne, City of Whittlesea, Victoria, 3076, Australia", "type": "park", "osm_type": "way", "osm_id": 702594276, "class": null, "keyword": "town centre"}}, {"type": "Feature", "geometry": {"type": "Polygon", "coordinates": [[[144.958401, -37.77984], [144.959637, -37.779944], [144.959672, -37.779673], [144.958604, -37.779598], [144.958401, -37.77984]]]}, "properties": {"display_name": "Inner Circle Linear Park, Parkville, Melbourne, City of Melbourne, Victoria, 3052, Australia", "type": "park", "osm_type": "way", "osm_id": 653725855, "class": null, "keyword": "inner city"}}, {"type": "Feature", "geometry": {"type": "Polygon", "coordinates": [[[145.032767, -37.640724], [145.033106, -37.64107], [145.033264, -37.64097], [145.033405, -37.640893], [145.033675, -37.640763], [145.033427, -37.640442], [145.033305, -37.640461], [145.032767, -37.640724]]]}, "properties": {"display_name": "Carlisle Drive Neighbourhood Park, Epping, Melbourne, City of Whittlesea, Victoria, 3076, Australia", "type": "park", "osm_type": "way", "osm_id": 498133125, "class": null, "keyword": "neighbourhood"}}, {"type": "Feature", "geometry": {"type": "Polygon", "coordinates": [[[143.863105, -37.540672], [143.864186, -37.540833], [143.864217, -37.540678], [143.863678, -37.540623], [143.863714, -37.5404], [143.863154, -37.540333], [143.863105, -37.540672]]]}, "properties": {"display_name": "Neighbourhood Early Learning Centre, Ligar Street, Ballarat North, Ballarat, City of Ballarat, Victoria, 3350, Australia", "type": "kindergarten", "osm_type": "way", "osm_id": 127980833, "class": null, "keyword": "neighbourhood"}}, {"type": "Feature", "geometry": {"type": "Polygon", "coordinates": [[[147.722866, -37.919656], [147.723358, -37.919805], [147.723429, -37.919672], [147.723559, -37.919694], [147.723577, -37.91959], [147.723623, -37.919586], [147.723671, -37.919557], [147.723706, -37.919553], [147.723717, -37.919356], [147.72367, -37.919344], [147.723484, -37.91932], [147.723455, -37.919478], [147.723347, -37.919465], [147.723339, -37.919546], [147.723121, -37.919489], [147.722965, -37.919449], [147.722866, -37.919656]]]}, "properties": {"display_name": "Paynesville Neighbourhood Centre, 55, Esplanade, Paynesville, Shire of East Gippsland, Victoria, 3880, Australia", "type": "community_centre", "osm_type": "way", "osm_id": 254312756, "class": null, "keyword": "neighbourhood"}}, {"type": "Feature", "geometry": {"type": "Polygon", "coordinates": [[[145.140142, -37.921731], [145.140375, -37.921873], [145.14038, -37.921859], [145.140384, -37.921853], [145.140393, -37.921849], [145.140401, -37.921848], [145.140484, -37.921859], [145.140498, -37.921867], [145.140505, -37.921873], [145.14049, -37.921947], [145.140669, -37.922057], [145.140681, -37.922059], [145.140691, -37.922051], [145.140781, -37.921599], [145.140183, -37.921526], [145.140142, -37.921731]]]}, "properties": {"display_name": "M-City Business District, 2107-2125, Dandenong Road, Clayton, Melbourne, City of Monash, Victoria, 3168, Australia", "type": "office", "osm_type": "way", "osm_id": 1110753396, "class": null, "keyword": "business district"}}, {"type": "Feature", "geometry": {"type": "Polygon", "coordinates": [[[144.974897, -37.792793], [144.975074, -37.792813], [144.975648, -37.792499], [144.97562, -37.792496], [144.975528, -37.792486], [144.974965, -37.792421], [144.974897, -37.792793]]]}, "properties": {"display_name": "Carlton Neighbourhood Learning Centre, 20, Princes Street, Carlton North, Melbourne, City of Yarra, Victoria, 3054, Australia", "type": "community_centre", "osm_type": "way", "osm_id": 1413786465, "class": null, "keyword": "neighbourhood"}}, {"type": "Feature", "geometry": {"type": "Polygon", "coordinates": [[[144.711032, -37.577938], [144.711179, -37.578008], [144.711346, -37.578063], [144.711461, -37.577866], [144.711375, -37.57783], [144.711432, -37.577751], [144.711491, -37.57777], [144.711574, -37.577594], [144.711276, -37.577485], [144.71119, -37.577628], [144.71123, -37.577641], [144.711032, -37.577938]]]}, "properties": {"display_name": "Sunbury Neighbourhood House, Elizabeth Drive, Sunbury, Melbourne, City of Hume, Victoria, 3429, Australia", "type": "public", "osm_type": "way", "osm_id": 902869532, "class": null, "keyword": "neighbourhood"}}, {"type": "Feature", "geometry": {"type": "Polygon", "coordinates": [[[145.029834, -37.676358], [145.030347, -37.676412], [145.030378, -37.676229], [145.029869, -37.676153], [145.029834, -37.676358]]]}, "properties": {"display_name": "Dalton Road Neighbourhood Park, Thomastown, Melbourne, City of Whittlesea, Victoria, 3074, Australia", "type": "park", "osm_type": "way", "osm_id": 232036574, "class": null, "keyword": "neighbourhood"}}, {"type": "Feature", "geometry": {"type": "Polygon", "coordinates": [[[144.914819, -37.776028], [144.914858, -37.776032], [144.914854, -37.776057], [144.91489, -37.776061], [144.914867, -37.776199], [144.915048, -37.776219], [144.915057, -37.776169], [144.915147, -37.776179], [144.915139, -37.776227], [144.915272, -37.776242], [144.915306, -37.776047], [144.915229, -37.776038], [144.915233, -37.776012], [144.915183, -37.776007], [144.915182, -37.776013], [144.915043, -37.775999], [144.915054, -37.775934], [144.914915, -37.775919], [144.914907, -37.775963], [144.914831, -37.775955], [144.914819, -37.776028]]]}, "properties": {"display_name": "Ascot Vale Neighbourhood Centre, Dutton Lane, Ascot Vale, Melbourne, City of Moonee Valley, Victoria, 3032, Australia", "type": "community_centre", "osm_type": "way", "osm_id": 265337693, "class": null, "keyword": "neighbourhood"}}, {"type": "Feature", "geometry": {"type": "Polygon", "coordinates": [[[145.148636, -37.946658], [145.148682, -37.946694], [145.148698, -37.946681], [145.148739, -37.94671], [145.148721, -37.946721], [145.148877, -37.946838], [145.148898, -37.946821], [145.148976, -37.946874], [145.149006, -37.946853], [145.149049, -37.946889], [145.14918, -37.946784], [145.148824, -37.946515], [145.148636, -37.946658]]]}, "properties": {"display_name": "Springvale Neighbourhood House, 46-50, Queens Avenue, Springvale, Melbourne, City of Greater Dandenong, Victoria, 3171, Australia", "type": "public", "osm_type": "way", "osm_id": 537397271, "class": null, "keyword": "neighbourhood"}}, {"type": "Feature", "geometry": {"type": "Polygon", "coordinates": [[[144.569951, -38.174059], [144.569996, -38.174095], [144.570005, -38.174087], [144.570017, -38.174097], [144.569978, -38.174128], [144.570034, -38.174173], [144.570021, -38.174182], [144.570039, -38.174197], [144.570052, -38.174187], [144.570121, -38.174243], [144.570081, -38.174274], [144.57013, -38.174314], [144.570154, -38.174333], [144.570167, -38.174323], [144.570143, -38.174304], [144.570147, -38.174301], [144.570152, -38.174297], [144.570212, -38.174343], [144.570201, -38.174351], [144.570226, -38.174373], [144.570254, -38.174352], [144.570327, -38.174407], [144.570346, -38.174392], [144.570357, -38.1744], [144.570409, -38.174358], [144.570398, -38.174349], [144.570423, -38.174329], [144.570346, -38.17427], [144.570333, -38.17428], [144.570325, -38.174274], [144.570317, -38.174268], [144.570268, -38.17423], [144.570289, -38.174213], [144.570275, -38.174201], [144.57034, -38.174151], [144.570339, -38.174151], [144.570352, -38.174141], [144.570317, -38.174114], [144.570312, -38.174117], [144.57031, -38.174115], [144.570287, -38.174097], [144.570264, -38.174079], [144.570258, -38.174083], [144.57014, -38.17399], [144.570117, -38.174009], [144.570101, -38.173996], [144.570083, -38.174011], [144.570099, -38.174023], [144.570088, -38.174031], [144.570083, -38.174027], [144.570092, -38.17402], [144.570046, -38.173984], [144.570024, -38.174001], [144.570003, -38.174018], [144.569994, -38.174025], [144.569972, -38.174042], [144.569951, -38.174059]]]}, "properties": {"display_name": "Springdale Neighbourhood Centre, 17-21, High Street, Drysdale, City of Greater Geelong, Victoria, 3222, Australia", "type": "community_centre", "osm_type": "way", "osm_id": 266485060, "class": null, "keyword": "neighbourhood"}}, {"type": "Feature", "geometry": {"type": "Polygon", "coordinates": [[[145.006515, -37.661729], [145.006913, -37.661787], [145.006955, -37.66156], [145.006563, -37.661505], [145.006515, -37.661729]]]}, "properties": {"display_name": "Edgars Road Neighbourhood Park, Lalor, Melbourne, City of Whittlesea, Victoria, 3075, Australia", "type": "park", "osm_type": "way", "osm_id": 586594918, "class": null, "keyword": "neighbourhood"}}, {"type": "Feature", "geometry": {"type": "Polygon", "coordinates": [[[144.941671, -37.793161], [144.941709, -37.793166], [144.941704, -37.793191], [144.941696, -37.793238], [144.941773, -37.793246], [144.941781, -37.793199], [144.941848, -37.793206], [144.941862, -37.793127], [144.941911, -37.793133], [144.94194, -37.792967], [144.94189, -37.792962], [144.941895, -37.792933], [144.941924, -37.792769], [144.941779, -37.792753], [144.941746, -37.792942], [144.941711, -37.792938], [144.941671, -37.793161]]]}, "properties": {"display_name": "Jean McKendry Neighbourhood Centre, 91-111, Melrose Street, North Melbourne, Melbourne, City of Melbourne, Victoria, 3051, Australia", "type": "community_centre", "osm_type": "way", "osm_id": 1115624606, "class": null, "keyword": "neighbourhood"}}, {"type": "Feature", "geometry": {"type": "Polygon", "coordinates": [[[144.339788, -38.171893], [144.340341, -38.171963], [144.340366, -38.171822], [144.339817, -38.171754], [144.339788, -38.171893]]]}, "properties": {"display_name": "Belmont Heights Neighbourhood Park, Regent Street, Belmont, Geelong, City of Greater Geelong, Victoria, 3216, Australia", "type": "playground", "osm_type": "way", "osm_id": 105690083, "class": null, "keyword": "neighbourhood"}}, {"type": "Feature", "geometry": {"type": "Polygon", "coordinates": [[[144.986851, -37.800075], [144.987057, -37.800099], [144.987072, -37.800095], [144.987078, -37.800084], [144.987157, -37.799633], [144.987051, -37.799622], [144.987006, -37.799617], [144.98694, -37.799992], [144.986866, -37.799984], [144.986851, -37.800075]]]}, "properties": {"display_name": "Neighbourhood Justice Centre, 241, Wellington Street, Collingwood, Melbourne, City of Yarra, Victoria, 3066, Australia", "type": "courthouse", "osm_type": "way", "osm_id": 146416103, "class": null, "keyword": "neighbourhood"}}, {"type": "Feature", "geometry": {"type": "Polygon", "coordinates": [[[144.948904, -37.82796], [144.949214, -37.828306], [144.949364, -37.828235], [144.949049, -37.827874], [144.948904, -37.82796]]]}, "properties": {"display_name": "City Kids Early Learning Center, Munro Street, Southbank, Melbourne, City of Port Phillip, Victoria, 3008, Australia", "type": "childcare", "osm_type": "way", "osm_id": 510325443, "class": null, "keyword": "city center"}}, {"type": "Feature", "geometry": {"type": "Polygon", "coordinates": [[[144.981083, -37.798149], [144.981144, -37.798156], [144.981146, -37.798144], [144.981347, -37.798167], [144.981399, -37.797884], [144.981137, -37.797854], [144.981083, -37.798149]]]}, "properties": {"display_name": "District, 161-164, Argyle Street, Fitzroy, Melbourne, City of Yarra, Victoria, 3065, Australia", "type": "apartments", "osm_type": "way", "osm_id": 985523888, "class": null, "keyword": "district"}}, {"type": "Feature", "geometry": {"type": "Polygon", "coordinates": [[[144.928048, -37.789586], [144.928093, -37.789593], [144.928089, -37.789632], [144.928485, -37.789673], [144.928461, -37.789544], [144.928402, -37.789537], [144.928404, -37.789489], [144.92809, -37.78945], [144.928065, -37.789558], [144.928053, -37.78956], [144.928048, -37.789586]]]}, "properties": {"display_name": "Kensington Neighbourhood Centre, 18, Anthony Street, Kensington, Melbourne, City of Melbourne, Victoria, 3031, Australia", "type": "public", "osm_type": "way", "osm_id": 92372297, "class": null, "keyword": "neighbourhood"}}, {"type": "Feature", "geometry": {"type": "Polygon", "coordinates": [[[144.858984, -37.761829], [144.859073, -37.761996], [144.859293, -37.761945], [144.859258, -37.761857], [144.85931, -37.761829], [144.859241, -37.761694], [144.859018, -37.761735], [144.859035, -37.761802], [144.858984, -37.761829]]]}, "properties": {"display_name": "Nancye Kirchner Neighbourhood Centre, Doyle Street, Avondale Heights, Melbourne, City of Moonee Valley, Victoria, 3034, Australia", "type": "public_building", "osm_type": "way", "osm_id": 27860624, "class": null, "keyword": "neighbourhood"}}, {"type": "Feature", "geometry": {"type": "Polygon", "coordinates": [[[144.992714, -37.913935], [144.992751, -37.913968], [144.992811, -37.914022], [144.99324, -37.913722], [144.993143, -37.913635], [144.992714, -37.913935]]]}, "properties": {"display_name": "Well Street Neighbourhood Park, 7, Brighton, Melbourne, City of Bayside, Victoria, 3186, Australia", "type": "park", "osm_type": "way", "osm_id": 1279524012, "class": null, "keyword": "neighbourhood"}}, {"type": "Feature", "geometry": {"type": "Polygon", "coordinates": [[[143.544869, -35.346092], [143.545022, -35.34617], [143.544984, -35.34622], [143.545046, -35.346251], [143.545085, -35.346199], [143.545138, -35.346226], [143.545243, -35.346088], [143.544976, -35.345952], [143.544869, -35.346092]]]}, "properties": {"display_name": "Swan Hill Neighbourhood House, Gray Street, Swan Hill, Rural City of Swan Hill, Victoria, 3585, Australia", "type": "social_centre", "osm_type": "way", "osm_id": 1304042715, "class": null, "keyword": "neighbourhood"}}, {"type": "Feature", "geometry": {"type": "Polygon", "coordinates": [[[145.097909, -37.823119], [145.098015, -37.82313], [145.098006, -37.823186], [145.097989, -37.823291], [145.098137, -37.823306], [145.098157, -37.823182], [145.098178, -37.823184], [145.098193, -37.823159], [145.098252, -37.823165], [145.098261, -37.82311], [145.098203, -37.823104], [145.098157, -37.823099], [145.097919, -37.823071], [145.097909, -37.823119]]]}, "properties": {"display_name": "Surrey Hills Neighbourhood Centre, 155, Union Road, Surrey Hills, Melbourne, City of Boroondara, Victoria, 3127, Australia", "type": "community_centre", "osm_type": "way", "osm_id": 257948289, "class": null, "keyword": "neighbourhood"}}, {"type": "Feature", "geometry": {"type": "Polygon", "coordinates": [[[145.347324, -38.032336], [145.34744, -38.032545], [145.347604, -38.032488], [145.347488, -38.032279], [145.347324, -38.032336]]]}, "properties": {"display_name": "Berwick Neighbourhood Centre, High Street, Berwick, Melbourne, City of Casey, Victoria, 3806, Australia", "type": "community_centre", "osm_type": "way", "osm_id": 1235785095, "class": null, "keyword": "neighbourhood"}}, {"type": "Feature", "geometry": {"type": "Polygon", "coordinates": [[[144.959142, -37.810639], [144.959209, -37.810782], [144.959444, -37.810713], [144.959378, -37.810571], [144.959142, -37.810639]]]}, "properties": {"display_name": "Centro, 350, La Trobe Street, Melbourne, City of Melbourne, Victoria, 3000, Australia", "type": "yes", "osm_type": "way", "osm_id": 306474063, "class": null, "keyword": "centro"}}, {"type": "Feature", "geometry": {"type": "Polygon", "coordinates": [[[144.873115, -37.796837], [144.873242, -37.796853], [144.873297, -37.796561], [144.873173, -37.796545], [144.873115, -37.796837]]]}, "properties": {"display_name": "Modern Inner West Stay, 630, Barkly Street, West Footscray, Melbourne, City of Maribyrnong, Victoria, 3012, Australia", "type": "residential", "osm_type": "way", "osm_id": 1088654243, "class": null, "keyword": "inner city"}}, {"type": "Feature", "geometry": {"type": "Polygon", "coordinates": [[[144.964617, -37.760332], [144.964896, -37.760365], [144.964904, -37.76032], [144.964947, -37.760325], [144.964938, -37.760373], [144.964985, -37.760379], [144.965011, -37.760237], [144.964814, -37.760214], [144.9648, -37.760288], [144.964628, -37.760268], [144.964617, -37.760332]]]}, "properties": {"display_name": "Brunswick Neighbourhood House, DeCarle Street, Brunswick, Melbourne, City of Merri-bek, Victoria, 3056, Australia", "type": "yes", "osm_type": "way", "osm_id": 38664942, "class": null, "keyword": "neighbourhood"}}, {"type": "Feature", "geometry": {"type": "Polygon", "coordinates": [[[144.941396, -37.837847], [144.941735, -37.838041], [144.941767, -37.838006], [144.941716, -37.837882], [144.941686, -37.837915], [144.941523, -37.837823], [144.941548, -37.837796], [144.941479, -37.837756], [144.941396, -37.837847]]]}, "properties": {"display_name": "Port Melbourne Neighbourhood Centre, Farrell Street, Port Melbourne, Melbourne, City of Port Phillip, Victoria, 3207, Australia", "type": "community_centre", "osm_type": "way", "osm_id": 364079550, "class": null, "keyword": "neighbourhood"}}, {"type": "Feature", "geometry": {"type": "Polygon", "coordinates": [[[145.247956, -37.862857], [145.247981, -37.862899], [145.248057, -37.86287], [145.248063, -37.862879], [145.248238, -37.862813], [145.248154, -37.862675], [145.247983, -37.862739], [145.248006, -37.862776], [145.247975, -37.862788], [145.248006, -37.862838], [145.247956, -37.862857]]]}, "properties": {"display_name": "Orana Neighbourhood House, 62, Coleman Road, Wantirna South, Melbourne, City of Knox, Victoria, 3152, Australia", "type": "community_centre", "osm_type": "way", "osm_id": 1384817144, "class": null, "keyword": "neighbourhood"}}, {"type": "Feature", "geometry": {"type": "Polygon", "coordinates": [[[144.959122, -37.74793], [144.959219, -37.747937], [144.959324, -37.747968], [144.959344, -37.747819], [144.959245, -37.747811], [144.959242, -37.74775], [144.959153, -37.747745], [144.959122, -37.74793]]]}, "properties": {"display_name": "Reynard Street Neighbourhood House, 104A, Reynard Street, Coburg, Melbourne, City of Merri-bek, Victoria, 3058, Australia", "type": "yes", "osm_type": "way", "osm_id": 582491757, "class": null, "keyword": "neighbourhood"}}, {"type": "Feature", "geometry": {"type": "Polygon", "coordinates": [[[145.132143, -37.816322], [145.132276, -37.816338], [145.132283, -37.81631], [145.132438, -37.816326], [145.13245, -37.816231], [145.132162, -37.816203], [145.132143, -37.816322]]]}, "properties": {"display_name": "Clota Cottage Neighbourhood House, 31, Clota Avenue, Box Hill, Melbourne, City of Whitehorse, Victoria, 3128, Australia", "type": "community_centre", "osm_type": "way", "osm_id": 1213169565, "class": null, "keyword": "neighbourhood"}}, {"type": "Feature", "geometry": {"type": "MultiPolygon", "coordinates": [[[[145.113563, -37.699058], [145.113592, -37.69907], [145.113669, -37.699104], [145.113749, -37.698992], [145.113642, -37.698945], [145.113563, -37.699058]]], [[[145.113841, -37.698723], [145.113915, -37.698758], [145.113995, -37.698652], [145.113921, -37.698617], [145.113869, -37.698686], [145.113841, -37.698723]]]]}, "properties": {"display_name": "Greenhills Neighbourhood House, Community Drive, Greensborough, Melbourne, City of Banyule, Victoria, 3088, Australia", "type": "social_facility", "osm_type": "relation", "osm_id": 17252700, "class": null, "keyword": "neighbourhood"}}, {"type": "Feature", "geometry": {"type": "Polygon", "coordinates": [[[144.885244, -37.791175], [144.885545, -37.791212], [144.885561, -37.791133], [144.885259, -37.791096], [144.885244, -37.791175]]]}, "properties": {"display_name": "Inner West Dermatology, Eleanor Street, Footscray, Melbourne, City of Maribyrnong, Victoria, 3011, Australia", "type": "hospital", "osm_type": "way", "osm_id": 779285206, "class": null, "keyword": "inner city"}}, {"type": "Feature", "geometry": {"type": "Polygon", "coordinates": [[[144.906902, -37.797281], [144.907128, -37.797306], [144.907138, -37.797249], [144.90711, -37.797246], [144.907112, -37.797233], [144.907114, -37.797224], [144.90714, -37.797227], [144.907145, -37.797196], [144.907119, -37.797193], [144.90712, -37.797188], [144.906939, -37.797168], [144.906931, -37.797213], [144.906928, -37.797229], [144.906924, -37.797256], [144.906906, -37.797254], [144.906902, -37.797281]]]}, "properties": {"display_name": "Angliss Neighbourhood House, 11, Vipont Street, Footscray, Melbourne, City of Maribyrnong, Victoria, 3011, Australia", "type": "community_centre", "osm_type": "way", "osm_id": 779241811, "class": null, "keyword": "neighbourhood"}}, {"type": "Feature", "geometry": {"type": "Polygon", "coordinates": [[[145.193533, -37.637096], [145.193587, -37.637125], [145.193651, -37.637051], [145.193731, -37.637094], [145.193795, -37.637019], [145.193652, -37.636941], [145.193621, -37.636977], [145.193638, -37.636986], [145.193599, -37.637032], [145.193592, -37.637029], [145.193533, -37.637096]]]}, "properties": {"display_name": "Allwood Neighbourhood House, Arthurs Creek Road, Hurstbridge, Melbourne, Shire of Nillumbik, Victoria, 3099, Australia", "type": "social_facility", "osm_type": "way", "osm_id": 599506069, "class": null, "keyword": "neighbourhood"}}, {"type": "Feature", "geometry": {"type": "Polygon", "coordinates": [[[145.152388, -37.809471], [145.152498, -37.809483], [145.152494, -37.809505], [145.152597, -37.809516], [145.152603, -37.809481], [145.152641, -37.809485], [145.152649, -37.809425], [145.152399, -37.809397], [145.152388, -37.809471]]]}, "properties": {"display_name": "Blackburn North Neighbourhood House, 109, Koonung Road, Blackburn North, Melbourne, City of Whitehorse, Victoria, 3130, Australia", "type": "community_centre", "osm_type": "way", "osm_id": 1213167496, "class": null, "keyword": "neighbourhood"}}, {"type": "Feature", "geometry": {"type": "Polygon", "coordinates": [[[145.127822, -37.806213], [145.12795, -37.806232], [145.127946, -37.806253], [145.128002, -37.806262], [145.128031, -37.806142], [145.127844, -37.806115], [145.127822, -37.806213]]]}, "properties": {"display_name": "Kerrimuir Neighbourhood House, 57, Linda Avenue, Box Hill North, Melbourne, City of Whitehorse, Victoria, 3129, Australia", "type": "community_centre", "osm_type": "way", "osm_id": 1213169564, "class": null, "keyword": "neighbourhood"}}, {"type": "Feature", "geometry": {"type": "Polygon", "coordinates": [[[145.153289, -37.950176], [145.153378, -37.950236], [145.153392, -37.950224], [145.153447, -37.950261], [145.153522, -37.950193], [145.153452, -37.950145], [145.153377, -37.950095], [145.153289, -37.950176]]]}, "properties": {"display_name": "Springvale Neighbourhood House Learning Centre, 1-3, Lightwood Road, Springvale, Melbourne, City of Greater Dandenong, Victoria, 3171, Australia", "type": "public", "osm_type": "way", "osm_id": 536388747, "class": null, "keyword": "neighbourhood"}}, {"type": "Feature", "geometry": {"type": "Polygon", "coordinates": [[[143.849881, -37.561692], [143.849927, -37.561698], [143.849996, -37.561324], [143.85, -37.561302], [143.849954, -37.561297], [143.84995, -37.561318], [143.849881, -37.561692]]]}, "properties": {"display_name": "CBD, 707, Sturt Street, Ballarat Central, Ballarat, City of Ballarat, Victoria, 3350, Australia", "type": "cafe", "osm_type": "way", "osm_id": 151225356, "class": null, "keyword": "CBD"}}, {"type": "Feature", "geometry": {"type": "Polygon", "coordinates": [[[145.00732, -37.86324], [145.007461, -37.863255], [145.007486, -37.863131], [145.007343, -37.863116], [145.00732, -37.86324]]]}, "properties": {"display_name": "Alma Rd Neighbourhood House, Alma Road, St Kilda East, Melbourne, City of Port Phillip, Victoria, 3183, Australia", "type": "house", "osm_type": "way", "osm_id": 562433518, "class": null, "keyword": "neighbourhood"}}, {"type": "Feature", "geometry": {"type": "Polygon", "coordinates": [[[145.00113, -37.756315], [145.001386, -37.756345], [145.001398, -37.756283], [145.001141, -37.756256], [145.00113, -37.756315]]]}, "properties": {"display_name": "Inner North Physiotherapy, 732, High Street, Thornbury, Melbourne, City of Darebin, Victoria, 3071, Australia", "type": "physiotherapist", "osm_type": "way", "osm_id": 617277659, "class": null, "keyword": "inner city"}}, {"type": "Feature", "geometry": {"type": "Polygon", "coordinates": [[[145.077874, -37.712181], [145.078015, -37.712196], [145.078038, -37.712064], [145.077971, -37.712057], [145.077961, -37.712111], [145.077888, -37.712103], [145.077874, -37.712181]]]}, "properties": {"display_name": "Watsonia Neighbourhood House, Lambourn Road, Watsonia, Melbourne, City of Banyule, Victoria, 3087, Australia", "type": "yes", "osm_type": "way", "osm_id": 498164060, "class": null, "keyword": "neighbourhood"}}, {"type": "Feature", "geometry": {"type": "Polygon", "coordinates": [[[144.89218, -37.805251], [144.892319, -37.805267], [144.892338, -37.805164], [144.892199, -37.805148], [144.89218, -37.805251]]]}, "properties": {"display_name": "Inner West Health Clinic, 87, Victoria Street, Seddon, Melbourne, City of Maribyrnong, Victoria, 3011, Australia", "type": "clinic", "osm_type": "way", "osm_id": 956281286, "class": null, "keyword": "inner city"}}, {"type": "Feature", "geometry": {"type": "Polygon", "coordinates": [[[144.964578, -37.773001], [144.964725, -37.773017], [144.964733, -37.772966], [144.964713, -37.772946], [144.964717, -37.772926], [144.964593, -37.772913], [144.964578, -37.773001]]]}, "properties": {"display_name": "Brunswick Neighbourhood House, 18, Garden Street, Brunswick, Melbourne, City of Merri-bek, Victoria, 3056, Australia", "type": "community_centre", "osm_type": "way", "osm_id": 1205669407, "class": null, "keyword": "neighbourhood"}}]}