{"type": "FeatureCollection", "features": [{"type": "Feature", "geometry": {"type": "Polygon", "coordinates": [[[102.643696, 17.999357], [102.643771, 17.999312], [102.644503, 17.999135], [102.64467, 17.999262], [102.64487, 17.99913], [102.644849, 17.99908], [102.644873, 17.99901], [102.645304, 17.998896], [102.645328, 17.998857], [102.645398, 17.998868], [102.645449, 17.998917], [102.645475, 17.998981], [102.645459, 17.999042], [102.645513, 17.999249], [102.644904, 17.999392], [102.644776, 17.999545], [102.644751, 17.999801], [102.644875, 17.99988], [102.644644, 18.000206], [102.644419, 18.000061], [102.644318, 18.000203], [102.644252, 18.000245], [102.644166, 18.000246], [102.644077, 18.000207], [102.644057, 18.00004], [102.644112, 17.999983], [102.643696, 17.999357]]]}, "properties": {"display_name": "Laos Business Center, ຖະໜົນ ໄກສອນ ພົມວິຫານ, ຈອມມະນີໃຕ້, ວຽງຈັນ, ໄຊເສດຖາ, ນະຄອນຫຼວງວຽງຈັນ, 21001, ປະເທດລາວ", "type": "commercial", "osm_type": "way", "osm_id": 1278227064, "class": null, "keyword": "business district"}}, {"type": "Feature", "geometry": {"type": "Polygon", "coordinates": [[[102.61713, 17.962324], [102.617476, 17.962061], [102.617533, 17.962013], [102.617589, 17.961961], [102.617676, 17.961888], [102.61773, 17.961849], [102.617779, 17.961823], [102.617831, 17.961803], [102.617897, 17.9618], [102.617958, 17.961817], [102.618017, 17.96185], [102.618418, 17.962275], [102.618499, 17.962365], [102.618751, 17.962626], [102.618453, 17.962885], [102.618202, 17.962624], [102.617791, 17.962975], [102.61713, 17.962324]]]}, "properties": {"display_name": "ວຽງຈັນເຊັນເຕີ້, ດົງປ່າລານທ່າ ຮ່ອມ 1, Nongchanh, ວຽງຈັນ, Sisattanāk, ນະຄອນຫຼວງວຽງຈັນ, 01006, ປະເທດລາວ", "type": "mall", "osm_type": "way", "osm_id": 628610747, "class": null, "keyword": "city centre"}}, {"type": "Feature", "geometry": {"type": "Polygon", "coordinates": [[[102.74427, 18.008032], [102.744295, 18.007354], [102.745183, 18.007384], [102.745157, 18.008062], [102.744723, 18.008047], [102.74427, 18.008032]]]}, "properties": {"display_name": "ບໍລິສັດ ກວດສອບຄຸນນະພາບ ແລະ ທົດສອບວິສະວະກຳກໍ່ສ້າງລາວ ຈ ຳກັດ, ວຽງຈັນ, ໄຊເສດຖາ, ນະຄອນຫຼວງວຽງຈັນ, ປະເທດລາວ", "type": "commercial", "osm_type": "way", "osm_id": 537443773, "class": null, "keyword": "老城"}}, {"type": "Feature", "geometry": {"type": "Polygon", "coordinates": [[[102.574529, 17.969774], [102.574779, 17.969874], [102.574817, 17.970243], [102.574769, 17.970247], [102.574783, 17.970404], [102.574599, 17.970419], [102.574529, 17.969774]]]}, "properties": {"display_name": "Alliance International Medical Center, Souphanouvong Avenue, ອາກາດ, ວຽງຈັນ, ສີໂຄດຕະບອງ, ນະຄອນຫຼວງວຽງຈັນ, 01020, ປະເທດລາວ", "type": "clinic", "osm_type": "way", "osm_id": 544127189, "class": null, "keyword": "centro"}}]}