{"type": "FeatureCollection", "features": [{"type": "Feature", "geometry": {"type": "Polygon", "coordinates": [[[25.219757, 54.674682], [25.219768, 54.674518], [25.219958, 54.674043], [25.220074, 54.673684], [25.220074, 54.673535], [25.219844, 54.672579], [25.219916, 54.672459], [25.220079, 54.672429], [25.221544, 54.672529], [25.222234, 54.672575], [25.222299, 54.672612], [25.222308, 54.67267], [25.221992, 54.675227], [25.221915, 54.67543], [25.220917, 54.675395], [25.219904, 54.675329], [25.219929, 54.674909], [25.219803, 54.67478], [25.219757, 54.674682]]]}, "properties": {"display_name": "Business Garden Vilnius, Lazdynų seniūnija, Vilnius, Vilniaus miesto savivaldybė, Vilniaus apskritis, Lietuva", "type": "commercial", "osm_type": "relation", "osm_id": 13485437, "class": null, "keyword": "business district"}}, {"type": "Feature", "geometry": {"type": "Polygon", "coordinates": [[[25.152041, 54.657704], [25.152921, 54.657696], [25.152946, 54.658617], [25.152952, 54.658842], [25.153845, 54.658834], [25.154656, 54.658827], [25.155505, 54.658819], [25.155516, 54.659243], [25.155524, 54.659564], [25.155526, 54.65963], [25.152093, 54.659661], [25.152092, 54.659597], [25.152062, 54.658477], [25.152059, 54.658373], [25.152041, 54.657704]]]}, "properties": {"display_name": "Verslo parkas „Gariūnai“, 70, Gariūnų g., Panerių seniūnija, Vilnius, Vilniaus miesto savivaldybė, Vilniaus apskritis, 02300, Lietuva", "type": "mall", "osm_type": "way", "osm_id": 251592947, "class": null, "keyword": "business district"}}, {"type": "Feature", "geometry": {"type": "Polygon", "coordinates": [[[25.289157, 54.694404], [25.289591, 54.693247], [25.289719, 54.693258], [25.289957, 54.692526], [25.291656, 54.692734], [25.29144, 54.693392], [25.291151, 54.694081], [25.291134, 54.694114], [25.290931, 54.694613], [25.289157, 54.694404]]]}, "properties": {"display_name": "„Business stadium“, Žirmūnų seniūnija, Vilnius, Vilniaus miesto savivaldybė, Vilniaus apskritis, Lietuva", "type": "construction", "osm_type": "way", "osm_id": 488934057, "class": null, "keyword": "business district"}}, {"type": "Feature", "geometry": {"type": "Polygon", "coordinates": [[[25.267338, 54.673811], [25.267772, 54.673411], [25.267902, 54.673458], [25.268533, 54.673686], [25.268347, 54.674173], [25.267338, 54.673811]], [[25.267702, 54.673761], [25.268172, 54.67393], [25.268238, 54.673761], [25.267855, 54.67362], [25.267702, 54.673761]]]}, "properties": {"display_name": "Uptown Park, 13, Švitrigailos g., Naujamiestis, Naujamiesčio seniūnija, Vilnius, Vilniaus miesto savivaldybė, Vilniaus apskritis, 03228, Lietuva", "type": "office", "osm_type": "relation", "osm_id": 9132325, "class": null, "keyword": "uptown"}}, {"type": "Feature", "geometry": {"type": "Polygon", "coordinates": [[[25.266616, 54.688533], [25.26666, 54.688525], [25.266658, 54.688521], [25.266863, 54.688487], [25.267041, 54.688457], [25.267302, 54.688414], [25.26733, 54.688445], [25.267344, 54.688463], [25.267523, 54.688689], [25.267526, 54.688693], [25.266756, 54.688822], [25.266616, 54.688533]]]}, "properties": {"display_name": "Hilton Garden Inn Vilnius City Centre, 44B, Gedimino pr., Lukiškės, Naujamiesčio seniūnija, Vilnius, Vilniaus miesto savivaldybė, Vilniaus apskritis, 01110, Lietuva", "type": "hotel", "osm_type": "way", "osm_id": 522865694, "class": null, "keyword": "city centre"}}, {"type": "Feature", "geometry": {"type": "Polygon", "coordinates": [[[25.264986, 54.693999], [25.264989, 54.693948], [25.264999, 54.693916], [25.265022, 54.693886], [25.26505, 54.693868], [25.265068, 54.693858], [25.26509, 54.693849], [25.265114, 54.693841], [25.265373, 54.693794], [25.265349, 54.693751], [25.265324, 54.693708], [25.265066, 54.693754], [25.26506, 54.693702], [25.265073, 54.693657], [25.265107, 54.693627], [25.265143, 54.69361], [25.265484, 54.693549], [25.265663, 54.693864], [25.265623, 54.693872], [25.265627, 54.693879], [25.265605, 54.693883], [25.265564, 54.693986], [25.265269, 54.693947], [25.265236, 54.694031], [25.264986, 54.693999]]]}, "properties": {"display_name": "„Uniq“ verslo centras, 12A, A. Goštauto g., Lukiškės, Naujamiesčio seniūnija, Vilnius, Vilniaus miesto savivaldybė, Vilniaus apskritis, 01108, Lietuva", "type": "commercial", "osm_type": "way", "osm_id": 383842254, "class": null, "keyword": "business district"}}, {"type": "Feature", "geometry": {"type": "Polygon", "coordinates": [[[25.337639, 54.723433], [25.337763, 54.723432], [25.337759, 54.72329], [25.337757, 54.723209], [25.338034, 54.723207], [25.338035, 54.723288], [25.338044, 54.72366], [25.33777, 54.723662], [25.337768, 54.723576], [25.337643, 54.723577], [25.337639, 54.723433]]]}, "properties": {"display_name": "Saulėtekio slėnio mokslo ir technologijų parkas (verslo centras), 15, Saulėtekio al., Saulėtekis, Antakalnio seniūnija, Vilnius, Vilniaus miesto savivaldybė, Vilniaus apskritis, 10222, Lietuva", "type": "office", "osm_type": "way", "osm_id": 148589588, "class": null, "keyword": "business district"}}, {"type": "Feature", "geometry": {"type": "Polygon", "coordinates": [[[25.265587, 54.67103], [25.265654, 54.670903], [25.266019, 54.670966], [25.266116, 54.670781], [25.266321, 54.670817], [25.266157, 54.671129], [25.265587, 54.67103]]]}, "properties": {"display_name": "Uptown Loft, 32A, Kauno g., Naujamiestis, Naujamiesčio seniūnija, Vilnius, Vilniaus miesto savivaldybė, Vilniaus apskritis, 03229, Lietuva", "type": "apartments", "osm_type": "way", "osm_id": 1102561009, "class": null, "keyword": "uptown"}}, {"type": "Feature", "geometry": {"type": "Polygon", "coordinates": [[[25.338031, 54.72547], [25.338074, 54.725469], [25.338073, 54.725446], [25.338441, 54.725442], [25.338444, 54.725509], [25.338504, 54.725508], [25.338506, 54.725569], [25.338426, 54.72557], [25.338428, 54.725615], [25.33833, 54.725617], [25.338328, 54.725572], [25.338035, 54.725576], [25.338031, 54.72547]]]}, "properties": {"display_name": "Vilnius Tech Sporto skyrius, 28, Saulėtekio al., Saulėtekis, Antakalnio seniūnija, Vilnius, Vilniaus miesto savivaldybė, Vilniaus apskritis, 10225, Lietuva", "type": "yes", "osm_type": "way", "osm_id": 54180845, "class": null, "keyword": "city center"}}, {"type": "Feature", "geometry": {"type": "Polygon", "coordinates": [[[25.301996, 54.677798], [25.302389, 54.677754], [25.302433, 54.677884], [25.302039, 54.677927], [25.301996, 54.677798]]]}, "properties": {"display_name": "Downtown Forest Hostel, 31A, Paupio g., Paupys, Senamiesčio seniūnija, Vilnius, Vilniaus miesto savivaldybė, Vilniaus apskritis, 11341, Lietuva", "type": "hostel", "osm_type": "way", "osm_id": 69687246, "class": null, "keyword": "downtown"}}]}