{"type": "FeatureCollection", "features": [{"type": "Feature", "geometry": {"type": "Polygon", "coordinates": [[[119.107898, 36.646234], [119.10856, 36.646199], [119.109626, 36.646182], [119.109568, 36.644882], [119.110166, 36.644396], [119.111155, 36.643578], [119.111724, 36.643312], [119.111923, 36.642985], [119.111953, 36.642899], [119.111693, 36.64283], [119.109694, 36.642338], [119.110596, 36.639789], [119.110631, 36.639692], [119.113413, 36.640283], [119.114533, 36.64053], [119.114644, 36.640247], [119.114854, 36.640307], [119.115238, 36.639379], [119.113808, 36.639046], [119.114624, 36.6372], [119.114524, 36.636097], [119.115437, 36.635961], [119.118508, 36.635505], [119.118785, 36.635564], [119.121187, 36.634632], [119.121647, 36.634569], [119.121942, 36.634531], [119.122239, 36.634595], [119.122858, 36.632863], [119.124023, 36.633161], [119.123979, 36.634043], [119.123921, 36.635194], [119.124092, 36.635201], [119.123846, 36.636006], [119.124484, 36.636134], [119.124354, 36.637141], [119.121203, 36.646124], [119.119668, 36.650435], [119.116498, 36.659335], [119.116238, 36.660063], [119.115208, 36.65991], [119.114697, 36.661457], [119.11271, 36.660982], [119.112804, 36.660697], [119.113122, 36.659886], [119.113189, 36.659035], [119.109718, 36.658854], [119.109558, 36.658425], [119.109834, 36.655307], [119.109135, 36.651269], [119.109274, 36.65061], [119.109274, 36.650444], [119.109274, 36.649671], [119.109194, 36.647156], [119.107947, 36.647207], [119.107898, 36.646234]]]}, "properties": {"display_name": "潍坊南苑机场, 凤凰街, 南苑社区, 奎文区, 潍坊市, 山东省, 261206, 中国", "type": "aerodrome", "osm_type": "way", "osm_id": 107008585, "class": null, "keyword": "district"}}, {"type": "Feature", "geometry": {"type": "Polygon", "coordinates": [[[119.210865, 36.738648], [119.211425, 36.73305], [119.219875, 36.733566], [119.219921, 36.733602], [119.219229, 36.738892], [119.217903, 36.738803], [119.217613, 36.741112], [119.211095, 36.740726], [119.210875, 36.739341], [119.210865, 36.738648]]]}, "properties": {"display_name": "潍柴(潍坊)材料成型制造中心有限公司, 寒亭区, 潍坊市, 山东省, 中国", "type": "industrial", "osm_type": "way", "osm_id": 481473948, "class": null, "keyword": "中心城区"}}, {"type": "Feature", "geometry": {"type": "Polygon", "coordinates": [[[119.172179, 36.783948], [119.172282, 36.782088], [119.179396, 36.780092], [119.179445, 36.784112], [119.172179, 36.783948]]]}, "properties": {"display_name": "潍坊滨投城市发展有限公司圆梦中心公园及周边地块, 开元街道, 寒亭区, 潍坊市, 山东省, 中国", "type": "construction", "osm_type": "way", "osm_id": 1187191703, "class": null, "keyword": "中心城区"}}, {"type": "Feature", "geometry": {"type": "Polygon", "coordinates": [[[119.427257, 36.527737], [119.432451, 36.527683], [119.432408, 36.530925], [119.42923, 36.530878], [119.429209, 36.528446], [119.427285, 36.528439], [119.427257, 36.527737]]]}, "properties": {"display_name": "峡山区产城融合创新基地研发运营中心(在建), 坊子区, 潍坊市, 山东省, 中国", "type": "construction", "osm_type": "way", "osm_id": 772239904, "class": null, "keyword": "中心城区"}}, {"type": "Feature", "geometry": {"type": "Polygon", "coordinates": [[[119.114593, 36.772412], [119.114598, 36.770977], [119.118061, 36.770968], [119.118049, 36.772652], [119.118067, 36.774335], [119.11828, 36.775568], [119.117543, 36.775748], [119.117521, 36.775694], [119.116376, 36.772658], [119.115883, 36.771352], [119.115544, 36.771434], [119.116039, 36.772746], [119.11533, 36.772917], [119.115093, 36.772291], [119.114593, 36.772412]]]}, "properties": {"display_name": "潍坊理工学院中心校区四期工程, 奎文区, 潍坊市, 山东省, 中国", "type": "construction", "osm_type": "way", "osm_id": 1238025599, "class": null, "keyword": "中心城区"}}, {"type": "Feature", "geometry": {"type": "Polygon", "coordinates": [[[119.169441, 36.665656], [119.169468, 36.663542], [119.172754, 36.663546], [119.175418, 36.663569], [119.175395, 36.664299], [119.169441, 36.665656]]]}, "properties": {"display_name": "城市餐桌即享中心, 凤凰街道, 坊子区, 潍坊市, 山东省, 中国", "type": "construction", "osm_type": "way", "osm_id": 1186318530, "class": null, "keyword": "中心城区"}}, {"type": "Feature", "geometry": {"type": "Polygon", "coordinates": [[[119.475659, 36.735121], [119.475698, 36.732136], [119.478385, 36.732159], [119.478346, 36.735144], [119.475659, 36.735121]]]}, "properties": {"display_name": "山东祥腾食品有限公司数智化肉鸡屠宰加工中心, 昌邑市, 潍坊市, 山东省, 中国", "type": "construction", "osm_type": "way", "osm_id": 1425045620, "class": null, "keyword": "市中心"}}, {"type": "Feature", "geometry": {"type": "Polygon", "coordinates": [[[119.165828, 36.630841], [119.166115, 36.630751], [119.168801, 36.630787], [119.168791, 36.633459], [119.16588, 36.633448], [119.165828, 36.630841]]]}, "properties": {"display_name": "(潍坊市中昊佳信城市发展集团有限公司), 坊子区, 潍坊市, 山东省, 中国", "type": "residential", "osm_type": "way", "osm_id": 549170057, "class": null, "keyword": "中心城区"}}, {"type": "Feature", "geometry": {"type": "Polygon", "coordinates": [[[118.683705, 36.895327], [118.686638, 36.895071], [118.687245, 36.895018], [118.687528, 36.897236], [118.684073, 36.89751], [118.683705, 36.895327]]]}, "properties": {"display_name": "寿光市西城养老中心(在建), 寿光市, 潍坊市, 山东省, 中国", "type": "construction", "osm_type": "way", "osm_id": 552367156, "class": null, "keyword": "老城"}}, {"type": "Feature", "geometry": {"type": "Polygon", "coordinates": [[[118.465356, 36.677456], [118.465393, 36.675453], [118.465501, 36.675449], [118.46673, 36.675372], [118.467885, 36.675306], [118.467892, 36.67541], [118.468742, 36.675421], [118.468807, 36.676567], [118.468803, 36.67665], [118.468749, 36.677721], [118.466607, 36.677667], [118.465646, 36.677642], [118.465356, 36.677456]]]}, "properties": {"display_name": "潍坊市益都中心医院（古城院区）, 玲珑山南路, 后所社区, 青州市, 潍坊市, 山东省, 262550, 中国", "type": "hospital", "osm_type": "way", "osm_id": 673293129, "class": null, "keyword": "中心城区"}}, {"type": "Feature", "geometry": {"type": "Polygon", "coordinates": [[[119.022912, 36.646223], [119.025112, 36.646955], [119.025237, 36.650086], [119.023141, 36.650152], [119.022912, 36.646223]]]}, "properties": {"display_name": "潍城区望留中心学校(在建), 潍城区, 潍坊市, 山东省, 中国", "type": "construction", "osm_type": "way", "osm_id": 925801487, "class": null, "keyword": "中心城区"}}, {"type": "Feature", "geometry": {"type": "Polygon", "coordinates": [[[119.399449, 36.843156], [119.403884, 36.843016], [119.404073, 36.84435], [119.404058, 36.844401], [119.40404, 36.844452], [119.404002, 36.844489], [119.403947, 36.844518], [119.403878, 36.844538], [119.403789, 36.844542], [119.402743, 36.84456], [119.402596, 36.844573], [119.402596, 36.84461], [119.402588, 36.844624], [119.402568, 36.844639], [119.402333, 36.844641], [119.401075, 36.844665], [119.400812, 36.844666], [119.40081, 36.844607], [119.400661, 36.844608], [119.399707, 36.844626], [119.399653, 36.844611], [119.399619, 36.844586], [119.399586, 36.844564], [119.39956, 36.84454], [119.399486, 36.844535], [119.399449, 36.843156]]]}, "properties": {"display_name": "昌邑市政务服务中心, 奎聚街道, 昌邑市, 潍坊市, 山东省, 中国", "type": "commercial", "osm_type": "way", "osm_id": 823502685, "class": null, "keyword": "市中心"}}, {"type": "Feature", "geometry": {"type": "Polygon", "coordinates": [[[119.142375, 36.58734], [119.145049, 36.587193], [119.145265, 36.589484], [119.144442, 36.589361], [119.144316, 36.58929], [119.142579, 36.589416], [119.142375, 36.58734]]]}, "properties": {"display_name": "2016-F11号地块(估计位置)(潍坊市中昊佳信城市发展集团有限公司), 西华昌社区, 坊子区, 潍坊市, 山东省, 中国", "type": "construction", "osm_type": "way", "osm_id": 549170056, "class": null, "keyword": "中心城区"}}, {"type": "Feature", "geometry": {"type": "Polygon", "coordinates": [[[119.281987, 36.831555], [119.283636, 36.831541], [119.28369, 36.834916], [119.28206, 36.834969], [119.281987, 36.831555]]]}, "properties": {"display_name": "昌邑市旅投新能源发展有限公司昌邑市新能源综合服务中心, 都昌街道, 昌邑市, 潍坊市, 山东省, 中国", "type": "industrial", "osm_type": "way", "osm_id": 1125406069, "class": null, "keyword": "市中心"}}, {"type": "Feature", "geometry": {"type": "Polygon", "coordinates": [[[118.981022, 36.621005], [118.981077, 36.618664], [118.981176, 36.618567], [118.983117, 36.618646], [118.983073, 36.621146], [118.981099, 36.621084], [118.981022, 36.621005]]]}, "properties": {"display_name": "潍城区浮烟山小学、潍城区浮烟山中心幼儿园、潍城区特殊教育学校(在建), 大柳树社区, 潍城区, 潍坊市, 山东省, 中国", "type": "construction", "osm_type": "way", "osm_id": 925801517, "class": null, "keyword": "中心城区"}}, {"type": "Feature", "geometry": {"type": "Polygon", "coordinates": [[[119.427266, 36.530942], [119.427285, 36.528439], [119.429209, 36.528446], [119.42923, 36.530878], [119.427266, 36.530942]]]}, "properties": {"display_name": "峡山区产城融合创新基地研发运营中心, 坊子区, 潍坊市, 山东省, 中国", "type": "commercial", "osm_type": "way", "osm_id": 733001729, "class": null, "keyword": "中心城区"}}, {"type": "Feature", "geometry": {"type": "Polygon", "coordinates": [[[119.904566, 36.4537], [119.904662, 36.453148], [119.905209, 36.453208], [119.905574, 36.451284], [119.906282, 36.451396], [119.907355, 36.452035], [119.90699, 36.453994], [119.904566, 36.4537]]]}, "properties": {"display_name": "高密市东北乡游客服务中心, 高密市, 潍坊市, 山东省, 中国", "type": "commercial", "osm_type": "way", "osm_id": 773007584, "class": null, "keyword": "市中心"}}, {"type": "Feature", "geometry": {"type": "Polygon", "coordinates": [[[118.737643, 36.891904], [118.737752, 36.891903], [118.740252, 36.891865], [118.740346, 36.892993], [118.740382, 36.89343], [118.737676, 36.893599], [118.737665, 36.893021], [118.737646, 36.892051], [118.737643, 36.891904]]]}, "properties": {"display_name": "城投·老年医养居住社区, 寿光市, 潍坊市, 山东省, 中国", "type": "residential", "osm_type": "way", "osm_id": 552367067, "class": null, "keyword": "老城"}}, {"type": "Feature", "geometry": {"type": "Polygon", "coordinates": [[[119.388497, 36.856834], [119.388588, 36.856828], [119.388584, 36.856789], [119.388575, 36.856715], [119.389264, 36.85667], [119.389261, 36.856636], [119.391513, 36.856459], [119.391525, 36.856605], [119.391534, 36.856687], [119.391641, 36.857798], [119.391579, 36.857875], [119.390433, 36.857961], [119.390241, 36.85798], [119.38958, 36.858031], [119.389565, 36.857831], [119.389451, 36.857906], [119.389113, 36.857925], [119.389022, 36.857947], [119.389027, 36.858108], [119.388639, 36.858132], [119.388497, 36.856834]]]}, "properties": {"display_name": "新嘉城中央华府小区, 奎聚街道, 昌邑市, 潍坊市, 山东省, 中国", "type": "residential", "osm_type": "way", "osm_id": 373157971, "class": null, "keyword": "中心城区"}}, {"type": "Feature", "geometry": {"type": "Polygon", "coordinates": [[[119.204773, 36.68248], [119.204777, 36.680674], [119.204777, 36.680837], [119.204816, 36.680786], [119.204854, 36.680745], [119.204901, 36.680714], [119.204973, 36.680677], [119.20679, 36.680677], [119.206802, 36.681106], [119.206935, 36.682293], [119.206739, 36.682309], [119.206744, 36.682478], [119.204773, 36.68248]]]}, "properties": {"display_name": "潍坊高新区城市建设发展有限公司高新宝通枢纽中心, 奎文区, 潍坊市, 山东省, 中国", "type": "construction", "osm_type": "way", "osm_id": 1132431917, "class": null, "keyword": "中心城区"}}, {"type": "Feature", "geometry": {"type": "Polygon", "coordinates": [[[119.801634, 36.376502], [119.804455, 36.376485], [119.804514, 36.377569], [119.801639, 36.377603], [119.801634, 36.376502]]]}, "properties": {"display_name": "高密市第二人民医院(高密市精神卫生中心)(在建), 高密市, 潍坊市, 山东省, 中国", "type": "construction", "osm_type": "way", "osm_id": 552608395, "class": null, "keyword": "市中心"}}, {"type": "Feature", "geometry": {"type": "Polygon", "coordinates": [[[118.580109, 36.492447], [118.58012, 36.491569], [118.583213, 36.491534], [118.583327, 36.492457], [118.580109, 36.492447]]]}, "properties": {"display_name": "中国江北建材城新玻璃区D区, 临朐县, 潍坊市, 山东省, 中国", "type": "industrial", "osm_type": "way", "osm_id": 772507382, "class": null, "keyword": "中心城区"}}, {"type": "Feature", "geometry": {"type": "Polygon", "coordinates": [[[119.149968, 36.755285], [119.150104, 36.752769], [119.151168, 36.75278], [119.151092, 36.755322], [119.149968, 36.755285]]]}, "properties": {"display_name": "潍坊市消防远程控制指挥中心(估计位置), 寒亭区, 潍坊市, 山东省, 中国", "type": "construction", "osm_type": "way", "osm_id": 566750375, "class": null, "keyword": "中心城区"}}, {"type": "Feature", "geometry": {"type": "Polygon", "coordinates": [[[118.572682, 36.499241], [118.573313, 36.496639], [118.573626, 36.496656], [118.573555, 36.496936], [118.574016, 36.496936], [118.574023, 36.497004], [118.574253, 36.496985], [118.574251, 36.497481], [118.574311, 36.497698], [118.574311, 36.498044], [118.574113, 36.498046], [118.574113, 36.498206], [118.574065, 36.4984], [118.574065, 36.498812], [118.573819, 36.498815], [118.573815, 36.499011], [118.573654, 36.499012], [118.573562, 36.499001], [118.57353, 36.499212], [118.573512, 36.499376], [118.572682, 36.499241]]]}, "properties": {"display_name": "中国江北建材城新加工区, 临朐县, 潍坊市, 临朐县, 山东省, 中国", "type": "industrial", "osm_type": "way", "osm_id": 772507402, "class": null, "keyword": "中心城区"}}, {"type": "Feature", "geometry": {"type": "Polygon", "coordinates": [[[119.076553, 36.70519], [119.076655, 36.705147], [119.076653, 36.705048], [119.076651, 36.704953], [119.076607, 36.704881], [119.076776, 36.704773], [119.077226, 36.704486], [119.077352, 36.704405], [119.077804, 36.704116], [119.078636, 36.703585], [119.078755, 36.703711], [119.078972, 36.704472], [119.079186, 36.704432], [119.079334, 36.705048], [119.078727, 36.705133], [119.078556, 36.705152], [119.078416, 36.705174], [119.078429, 36.70522], [119.078372, 36.705229], [119.078349, 36.705233], [119.078274, 36.705244], [119.077767, 36.705316], [119.077751, 36.705248], [119.077707, 36.705255], [119.077695, 36.705207], [119.077635, 36.705218], [119.077301, 36.705277], [119.07729, 36.705238], [119.077207, 36.705253], [119.076816, 36.705308], [119.076588, 36.705342], [119.076557, 36.705205], [119.076553, 36.70519]]]}, "properties": {"display_name": "潍城区信德仓储服务中心, 潍城区, 潍坊市, 山东省, 中国", "type": "industrial", "osm_type": "way", "osm_id": 943442294, "class": null, "keyword": "中心城区"}}, {"type": "Feature", "geometry": {"type": "Polygon", "coordinates": [[[119.025264, 36.736651], [119.025845, 36.73662], [119.026113, 36.736605], [119.02677, 36.73657], [119.026799, 36.738286], [119.025319, 36.738309], [119.025264, 36.736651]]]}, "properties": {"display_name": "潍坊诚信特种设备有限公司, 潍城区, 潍坊市, 山东省, 中国", "type": "industrial", "osm_type": "way", "osm_id": 1186901525, "class": null, "keyword": "中心城区"}}, {"type": "Feature", "geometry": {"type": "Polygon", "coordinates": [[[119.464364, 36.946718], [119.464983, 36.946567], [119.464977, 36.946214], [119.466042, 36.946014], [119.466049, 36.946065], [119.466279, 36.946064], [119.466281, 36.946243], [119.46607, 36.946248], [119.466151, 36.947368], [119.466166, 36.947679], [119.464526, 36.947767], [119.464364, 36.946718]]]}, "properties": {"display_name": "昌邑市鑫辉种苗有限公司, 小窑, 昌邑市, 潍坊市, 山东省, 中国", "type": "industrial", "osm_type": "way", "osm_id": 970161560, "class": null, "keyword": "市中心"}}, {"type": "Feature", "geometry": {"type": "Polygon", "coordinates": [[[119.217838, 36.697896], [119.217843, 36.695498], [119.218865, 36.695493], [119.218853, 36.69776], [119.218852, 36.697898], [119.217838, 36.697896]]]}, "properties": {"display_name": "现代中药创新平台及绿色制造示范基地(在建), 山东沃华医药科技股份有限公司, 奎文区, 潍坊市, 山东省, 中国", "type": "construction", "osm_type": "way", "osm_id": 908378461, "class": null, "keyword": "市中心"}}, {"type": "Feature", "geometry": {"type": "Polygon", "coordinates": [[[119.192843, 36.687754], [119.194551, 36.687763], [119.194557, 36.688239], [119.194539, 36.689076], [119.192846, 36.689086], [119.192843, 36.687754]]]}, "properties": {"display_name": "潍坊市疾病预防控制中心, 奎文区, 潍坊市, 山东省, 中国", "type": "commercial", "osm_type": "way", "osm_id": 327718835, "class": null, "keyword": "市中心"}}, {"type": "Feature", "geometry": {"type": "Polygon", "coordinates": [[[119.207573, 36.660204], [119.209106, 36.660039], [119.209086, 36.66112], [119.208265, 36.661735], [119.207615, 36.661752], [119.207573, 36.660204]]]}, "properties": {"display_name": "潍坊市档案中心(在建), 奎文区, 潍坊市, 山东省, 中国", "type": "construction", "osm_type": "way", "osm_id": 977910222, "class": null, "keyword": "市中心"}}, {"type": "Feature", "geometry": {"type": "Polygon", "coordinates": [[[119.159927, 36.71186], [119.159927, 36.711809], [119.159927, 36.711719], [119.159929, 36.711199], [119.159929, 36.711065], [119.159931, 36.710621], [119.159982, 36.710621], [119.161057, 36.710618], [119.161078, 36.711909], [119.161081, 36.712081], [119.161082, 36.712144], [119.161085, 36.712297], [119.161085, 36.712339], [119.16073, 36.712336], [119.160322, 36.712333], [119.160179, 36.712333], [119.160115, 36.712284], [119.160011, 36.712206], [119.159938, 36.712134], [119.159927, 36.71186]]]}, "properties": {"display_name": "潍坊市政务服务中心, 奎文区, 潍坊市, 山东省, 中国", "type": "commercial", "osm_type": "way", "osm_id": 803044633, "class": null, "keyword": "市中心"}}, {"type": "Feature", "geometry": {"type": "Polygon", "coordinates": [[[119.026338, 36.752425], [119.026672, 36.75241], [119.028059, 36.752347], [119.02815, 36.753499], [119.027335, 36.753475], [119.027211, 36.753471], [119.026512, 36.75345], [119.026363, 36.753446], [119.026338, 36.752425]]]}, "properties": {"display_name": "潍城区于河街办中心小学, 泰山街, 于河街道, 潍城区, 潍坊市, 山东省, 中国", "type": "school", "osm_type": "way", "osm_id": 925801484, "class": null, "keyword": "中心城区"}}, {"type": "Feature", "geometry": {"type": "Polygon", "coordinates": [[[119.021521, 36.726501], [119.023251, 36.726411], [119.023291, 36.727496], [119.02156, 36.727502], [119.021521, 36.726501]]]}, "properties": {"display_name": "潍城区政务服务中心, 潍城区, 潍坊市, 山东省, 中国", "type": "commercial", "osm_type": "way", "osm_id": 1133253193, "class": null, "keyword": "中心城区"}}, {"type": "Feature", "geometry": {"type": "Polygon", "coordinates": [[[118.58011, 36.492975], [118.583375, 36.492997], [118.583425, 36.493549], [118.580115, 36.493515], [118.58011, 36.492975]]]}, "properties": {"display_name": "中国江北建材城新玻璃区B区, 临朐县, 潍坊市, 山东省, 中国", "type": "industrial", "osm_type": "way", "osm_id": 772507384, "class": null, "keyword": "中心城区"}}, {"type": "Feature", "geometry": {"type": "Polygon", "coordinates": [[[118.580109, 36.492447], [118.583327, 36.492457], [118.583375, 36.492997], [118.58011, 36.492975], [118.580109, 36.492447]]]}, "properties": {"display_name": "中国江北建材城新玻璃区C区, 临朐县, 潍坊市, 山东省, 中国", "type": "industrial", "osm_type": "way", "osm_id": 772507383, "class": null, "keyword": "中心城区"}}, {"type": "Feature", "geometry": {"type": "Polygon", "coordinates": [[[119.112617, 36.711879], [119.11267, 36.710752], [119.113952, 36.71069], [119.113993, 36.711003], [119.113961, 36.71113], [119.113997, 36.711657], [119.114383, 36.711653], [119.114384, 36.711767], [119.114113, 36.711771], [119.114113, 36.711836], [119.114113, 36.711917], [119.112617, 36.711879]]]}, "properties": {"display_name": "中和园社区城市更新, 东关街道, 奎文区, 潍坊市, 山东省, 中国", "type": "construction", "osm_type": "way", "osm_id": 750520341, "class": null, "keyword": "中心城区"}}, {"type": "Feature", "geometry": {"type": "Polygon", "coordinates": [[[118.580044, 36.489586], [118.582743, 36.489581], [118.582731, 36.490141], [118.58005, 36.490181], [118.580044, 36.489586]]]}, "properties": {"display_name": "中国江北建材城新玻南区K区, 临朐县, 潍坊市, 山东省, 中国", "type": "industrial", "osm_type": "way", "osm_id": 772507409, "class": null, "keyword": "中心城区"}}, {"type": "Feature", "geometry": {"type": "Polygon", "coordinates": [[[119.134988, 36.707689], [119.135088, 36.707688], [119.135089, 36.7078], [119.135614, 36.707797], [119.135616, 36.708024], [119.136028, 36.708021], [119.136028, 36.707457], [119.137207, 36.707421], [119.137205, 36.707521], [119.137295, 36.707559], [119.137247, 36.707959], [119.13692, 36.708282], [119.136217, 36.708407], [119.136271, 36.708609], [119.136012, 36.708711], [119.13602, 36.708119], [119.134994, 36.708119], [119.134988, 36.707689]]]}, "properties": {"display_name": "潍坊市中心血站, 陈家社区, 奎文区, 潍坊市, 山东省, 中国", "type": "commercial", "osm_type": "way", "osm_id": 1014283436, "class": null, "keyword": "市中心"}}, {"type": "Feature", "geometry": {"type": "Polygon", "coordinates": [[[118.579143, 36.489604], [118.579841, 36.489595], [118.579898, 36.493694], [118.579629, 36.493699], [118.579664, 36.492906], [118.579616, 36.492753], [118.57961, 36.492295], [118.579608, 36.491921], [118.579627, 36.491503], [118.579546, 36.491503], [118.579543, 36.491246], [118.579528, 36.491036], [118.579523, 36.490833], [118.579516, 36.490624], [118.579562, 36.490456], [118.579546, 36.490042], [118.579175, 36.490026], [118.579143, 36.489604]]]}, "properties": {"display_name": "中国江北建材城新玻南区V区, 临朐县, 潍坊市, 山东省, 中国", "type": "industrial", "osm_type": "way", "osm_id": 772507410, "class": null, "keyword": "中心城区"}}, {"type": "Feature", "geometry": {"type": "Polygon", "coordinates": [[[119.345917, 36.860445], [119.345973, 36.859025], [119.346881, 36.858983], [119.346804, 36.860461], [119.346597, 36.860457], [119.345917, 36.860445]]]}, "properties": {"display_name": "昌邑市环境卫生中心昌邑市垃圾转运站奎聚站, 都昌街道, 昌邑市, 潍坊市, 山东省, 中国", "type": "industrial", "osm_type": "way", "osm_id": 1240460298, "class": null, "keyword": "市中心"}}, {"type": "Feature", "geometry": {"type": "Polygon", "coordinates": [[[119.179905, 36.706279], [119.179911, 36.706122], [119.179937, 36.705444], [119.180123, 36.705455], [119.181209, 36.705517], [119.181439, 36.705531], [119.181375, 36.706326], [119.179905, 36.706279]]]}, "properties": {"display_name": "软件园·置城世贸中心, 奎文区, 潍坊市, 山东省, 中国", "type": "commercial", "osm_type": "way", "osm_id": 485839246, "class": null, "keyword": "中心城区"}}, {"type": "Feature", "geometry": {"type": "Polygon", "coordinates": [[[118.580118, 36.491206], [118.583205, 36.491181], [118.583213, 36.491534], [118.58012, 36.491569], [118.580118, 36.491206]]]}, "properties": {"display_name": "中国江北建材城新玻南区F区, 临朐县, 潍坊市, 山东省, 中国", "type": "industrial", "osm_type": "way", "osm_id": 772507405, "class": null, "keyword": "中心城区"}}, {"type": "Feature", "geometry": {"type": "Polygon", "coordinates": [[[118.977073, 36.685757], [118.977317, 36.685739], [118.977267, 36.685371], [118.977593, 36.685329], [118.977773, 36.685305], [118.977821, 36.685626], [118.978447, 36.685577], [118.978471, 36.685727], [118.978534, 36.686133], [118.978543, 36.686221], [118.977215, 36.686321], [118.977217, 36.686293], [118.977118, 36.686296], [118.977073, 36.685757]]]}, "properties": {"display_name": "潍坊市潍城区符山中心卫生院, 福兴街, 潍城区, 潍坊市, 山东省, 中国", "type": "hospital", "osm_type": "way", "osm_id": 893960551, "class": null, "keyword": "中心城区"}}, {"type": "Feature", "geometry": {"type": "Polygon", "coordinates": [[[119.210012, 36.660872], [119.210194, 36.66066], [119.210342, 36.660762], [119.210563, 36.660793], [119.210706, 36.662357], [119.210012, 36.662358], [119.210012, 36.660872]]]}, "properties": {"display_name": "潍坊市精神卫生中心病房楼扩建项目, 奎文区, 潍坊市, 山东省, 中国", "type": "construction", "osm_type": "way", "osm_id": 1126717670, "class": null, "keyword": "市中心"}}, {"type": "Feature", "geometry": {"type": "Polygon", "coordinates": [[[119.078659, 36.636379], [119.079304, 36.636374], [119.079323, 36.637886], [119.078678, 36.637891], [119.078659, 36.636379]]]}, "properties": {"display_name": "潍坊潍州教育投资股份有限公司潍城区军埠口中心幼儿园, 潍城区, 潍坊市, 山东省, 中国", "type": "construction", "osm_type": "way", "osm_id": 1186901496, "class": null, "keyword": "中心城区"}}, {"type": "Feature", "geometry": {"type": "Polygon", "coordinates": [[[119.461285, 36.743612], [119.46129, 36.742537], [119.461355, 36.742481], [119.46144, 36.742417], [119.461558, 36.742378], [119.462031, 36.742356], [119.462122, 36.743341], [119.462138, 36.743606], [119.461285, 36.743612]]]}, "properties": {"display_name": "石埠为农服务中心北区, 石埠经济发展区, 昌邑市, 潍坊市, 山东省, 中国", "type": "industrial", "osm_type": "way", "osm_id": 700496101, "class": null, "keyword": "市中心"}}, {"type": "Feature", "geometry": {"type": "Polygon", "coordinates": [[[118.773515, 36.86719], [118.774239, 36.867186], [118.774235, 36.867793], [118.77423, 36.868531], [118.774164, 36.86853], [118.773529, 36.868527], [118.773519, 36.867603], [118.773517, 36.867366], [118.773515, 36.86719]]]}, "properties": {"display_name": "寿光市检验检测中心, 寿光市, 潍坊市, 山东省, 中国", "type": "commercial", "osm_type": "way", "osm_id": 605645988, "class": null, "keyword": "市中心"}}, {"type": "Feature", "geometry": {"type": "Polygon", "coordinates": [[[118.793056, 36.917507], [118.793099, 36.916649], [118.794461, 36.916632], [118.79444, 36.91713], [118.793571, 36.917379], [118.793056, 36.917507]]]}, "properties": {"display_name": "寿光市开发区中心社区·茗香苑小区, 寿光市, 潍坊市, 山东省, 中国", "type": "residential", "osm_type": "way", "osm_id": 552437951, "class": null, "keyword": "市中心"}}, {"type": "Feature", "geometry": {"type": "Polygon", "coordinates": [[[119.111615, 36.712797], [119.111619, 36.712418], [119.11162, 36.712353], [119.11279, 36.712373], [119.112758, 36.713134], [119.111973, 36.713132], [119.111979, 36.712954], [119.111651, 36.71295], [119.111646, 36.712799], [119.111615, 36.712797]]]}, "properties": {"display_name": "潍坊市资本中心, 东关街道, 奎文区, 潍坊市, 山东省, 中国", "type": "commercial", "osm_type": "way", "osm_id": 1380801984, "class": null, "keyword": "市中心"}}, {"type": "Feature", "geometry": {"type": "Polygon", "coordinates": [[[119.380953, 36.841986], [119.381166, 36.841983], [119.381216, 36.841982], [119.381253, 36.841982], [119.381447, 36.841978], [119.382032, 36.841964], [119.382034, 36.842004], [119.382041, 36.842127], [119.382043, 36.842161], [119.382044, 36.842171], [119.382065, 36.842567], [119.382073, 36.842699], [119.380984, 36.842714], [119.380971, 36.842461], [119.380964, 36.842292], [119.380953, 36.841986]]]}, "properties": {"display_name": "昌邑市规划编制研究中心, 2091, 都昌街道, 昌邑市, 潍坊市, 山东省, 中国", "type": "commercial", "osm_type": "way", "osm_id": 373177688, "class": null, "keyword": "市中心"}}, {"type": "Feature", "geometry": {"type": "Polygon", "coordinates": [[[119.479098, 37.066425], [119.479102, 37.065624], [119.480007, 37.065601], [119.480007, 37.066417], [119.479098, 37.066425]]]}, "properties": {"display_name": "昌邑市港航服务中心;昌邑市交通运输局下营交通运输服务所, 昌邑市, 潍坊市, 山东省, 中国", "type": "commercial", "osm_type": "way", "osm_id": 373848605, "class": null, "keyword": "市中心"}}, {"type": "Feature", "geometry": {"type": "Polygon", "coordinates": [[[118.580075, 36.490612], [118.58315, 36.490567], [118.583174, 36.4908], [118.580075, 36.49085], [118.580075, 36.490612]]]}, "properties": {"display_name": "中国江北建材城新玻南区H区, 临朐县, 潍坊市, 山东省, 中国", "type": "industrial", "osm_type": "way", "osm_id": 772507407, "class": null, "keyword": "中心城区"}}, {"type": "Feature", "geometry": {"type": "Polygon", "coordinates": [[[118.58005, 36.490181], [118.582731, 36.490141], [118.582724, 36.490404], [118.58005, 36.490453], [118.58005, 36.490181]]]}, "properties": {"display_name": "中国江北建材城新玻南区J区, 临朐县, 潍坊市, 山东省, 中国", "type": "industrial", "osm_type": "way", "osm_id": 772507408, "class": null, "keyword": "中心城区"}}, {"type": "Feature", "geometry": {"type": "Polygon", "coordinates": [[[119.127695, 36.733624], [119.127723, 36.733092], [119.128958, 36.733149], [119.12891, 36.733742], [119.12794, 36.733691], [119.127941, 36.73364], [119.127695, 36.733624]]]}, "properties": {"display_name": "潍坊市园林环卫服务中心, 奎文区, 潍坊市, 山东省, 中国", "type": "commercial", "osm_type": "way", "osm_id": 918101066, "class": null, "keyword": "市中心"}}, {"type": "Feature", "geometry": {"type": "Polygon", "coordinates": [[[119.141637, 36.710046], [119.142338, 36.710044], [119.142335, 36.711007], [119.141642, 36.711011], [119.141637, 36.710046]]]}, "properties": {"display_name": "世纪环球中心, 陈家社区, 奎文区, 潍坊市, 山东省, 中国", "type": "commercial", "osm_type": "way", "osm_id": 1237990858, "class": null, "keyword": "市中心"}}, {"type": "Feature", "geometry": {"type": "Polygon", "coordinates": [[[119.11041, 36.713481], [119.110417, 36.712556], [119.110611, 36.712429], [119.111001, 36.712434], [119.111025, 36.712434], [119.111024, 36.71252], [119.111022, 36.712793], [119.11115, 36.712795], [119.111141, 36.713226], [119.110928, 36.713222], [119.110915, 36.713482], [119.11041, 36.713481]]]}, "properties": {"display_name": "中国联合网络通信有限公司潍坊市分公司, 东关街道, 奎文区, 潍坊市, 山东省, 中国", "type": "commercial", "osm_type": "way", "osm_id": 801946132, "class": null, "keyword": "市中心"}}, {"type": "Feature", "geometry": {"type": "Polygon", "coordinates": [[[119.142377, 36.719153], [119.142385, 36.71898], [119.142391, 36.718854], [119.142401, 36.718654], [119.142877, 36.718663], [119.143247, 36.718665], [119.143235, 36.718926], [119.143224, 36.719388], [119.143217, 36.719519], [119.142755, 36.71951], [119.142756, 36.719489], [119.142377, 36.719153]]]}, "properties": {"display_name": "潍坊市房地产业发展服务中心, 陈家社区, 奎文区, 潍坊市, 山东省, 中国", "type": "commercial", "osm_type": "way", "osm_id": 442509498, "class": null, "keyword": "市中心"}}, {"type": "Feature", "geometry": {"type": "Polygon", "coordinates": [[[118.580075, 36.49085], [118.583174, 36.4908], [118.583168, 36.491008], [118.580081, 36.491058], [118.580075, 36.49085]]]}, "properties": {"display_name": "中国江北建材城新玻南区G区, 临朐县, 潍坊市, 山东省, 中国", "type": "industrial", "osm_type": "way", "osm_id": 772507406, "class": null, "keyword": "中心城区"}}, {"type": "Feature", "geometry": {"type": "Polygon", "coordinates": [[[119.38798, 36.852646], [119.388082, 36.852638], [119.388834, 36.852564], [119.388863, 36.852712], [119.38888, 36.852811], [119.388938, 36.853126], [119.38898, 36.853344], [119.389006, 36.853473], [119.388659, 36.85352], [119.388645, 36.853443], [119.388639, 36.853413], [119.388623, 36.853324], [119.388604, 36.853192], [119.388464, 36.853206], [119.388228, 36.853229], [119.388121, 36.85324], [119.388065, 36.853243], [119.388015, 36.852911], [119.388005, 36.852835], [119.38798, 36.852646]]]}, "properties": {"display_name": "中国联合网络通信有限公司昌邑市分公司, 奎聚街道, 昌邑市, 潍坊市, 山东省, 中国", "type": "commercial", "osm_type": "way", "osm_id": 432557400, "class": null, "keyword": "市中心"}}, {"type": "Feature", "geometry": {"type": "Polygon", "coordinates": [[[118.58011, 36.493699], [118.580115, 36.493515], [118.583425, 36.493549], [118.583444, 36.493725], [118.58011, 36.493699]]]}, "properties": {"display_name": "中国江北建材城新玻璃区A区, 临朐县, 潍坊市, 山东省, 中国", "type": "industrial", "osm_type": "way", "osm_id": 772507385, "class": null, "keyword": "中心城区"}}, {"type": "Feature", "geometry": {"type": "Polygon", "coordinates": [[[119.221035, 36.683158], [119.221684, 36.683156], [119.221694, 36.684042], [119.221035, 36.684044], [119.221035, 36.683158]]]}, "properties": {"display_name": "盛瑞饮食服务中心, 奎文区, 潍坊市, 山东省, 中国", "type": "commercial", "osm_type": "way", "osm_id": 1128022851, "class": null, "keyword": "市中心"}}, {"type": "Feature", "geometry": {"type": "Polygon", "coordinates": [[[119.39951, 35.99196], [119.399531, 35.991319], [119.400373, 35.991302], [119.400339, 35.991963], [119.39951, 35.99196]]]}, "properties": {"display_name": "诸城市老年大学, 毛家巷, 诸城市, 潍坊市, 山东省, 262200, 中国", "type": "school", "osm_type": "way", "osm_id": 835016344, "class": null, "keyword": "老城"}}, {"type": "Feature", "geometry": {"type": "Polygon", "coordinates": [[[118.773529, 36.868527], [118.774164, 36.86853], [118.774169, 36.869402], [118.773584, 36.869411], [118.773529, 36.868527]]]}, "properties": {"display_name": "寿光市财税服务中心, 寿光市, 潍坊市, 山东省, 中国", "type": "commercial", "osm_type": "way", "osm_id": 605645999, "class": null, "keyword": "市中心"}}, {"type": "Feature", "geometry": {"type": "Polygon", "coordinates": [[[119.461387, 36.742111], [119.461398, 36.741252], [119.461918, 36.741251], [119.462009, 36.742167], [119.461505, 36.742163], [119.461387, 36.742111]]]}, "properties": {"display_name": "石埠为农服务中心南区, 石埠经济发展区, 昌邑市, 潍坊市, 山东省, 中国", "type": "retail", "osm_type": "way", "osm_id": 700496100, "class": null, "keyword": "市中心"}}, {"type": "Feature", "geometry": {"type": "Polygon", "coordinates": [[[119.141318, 36.71744], [119.141335, 36.717229], [119.141346, 36.717089], [119.141382, 36.716664], [119.142041, 36.716699], [119.142027, 36.716898], [119.142025, 36.71694], [119.142015, 36.717017], [119.141977, 36.717475], [119.141318, 36.71744]]]}, "properties": {"display_name": "潍坊市市政工程和建筑业发展服务中心, 陈家社区, 奎文区, 潍坊市, 山东省, 中国", "type": "commercial", "osm_type": "way", "osm_id": 442509478, "class": null, "keyword": "中心城区"}}, {"type": "Feature", "geometry": {"type": "Polygon", "coordinates": [[[119.188869, 36.707186], [119.189685, 36.707239], [119.189649, 36.707851], [119.18887, 36.707841], [119.188869, 36.707186]]]}, "properties": {"display_name": "潍坊市中小企业公共服务中心, 奎文区, 潍坊市, 山东省, 中国", "type": "commercial", "osm_type": "way", "osm_id": 485839238, "class": null, "keyword": "市中心"}}, {"type": "Feature", "geometry": {"type": "Polygon", "coordinates": [[[119.367373, 36.829023], [119.367377, 36.82864], [119.368359, 36.828609], [119.368617, 36.828601], [119.368626, 36.829007], [119.367373, 36.829023]]]}, "properties": {"display_name": "昌邑市道路运输服务中心, 都昌街道, 昌邑市, 潍坊市, 山东省, 中国", "type": "commercial", "osm_type": "way", "osm_id": 421440358, "class": null, "keyword": "市中心"}}, {"type": "Feature", "geometry": {"type": "Polygon", "coordinates": [[[119.383694, 36.830605], [119.384751, 36.83054], [119.384808, 36.83098], [119.384709, 36.830987], [119.384017, 36.831036], [119.383748, 36.831055], [119.383694, 36.830605]]]}, "properties": {"display_name": "昌邑市公共自行车运营中心, 都昌街道, 昌邑市, 潍坊市, 山东省, 中国", "type": "commercial", "osm_type": "way", "osm_id": 716024662, "class": null, "keyword": "市中心"}}, {"type": "Feature", "geometry": {"type": "Polygon", "coordinates": [[[119.11036, 36.720271], [119.111165, 36.720248], [119.11117, 36.720446], [119.111203, 36.720837], [119.110796, 36.720841], [119.110379, 36.720848], [119.11036, 36.720271]]]}, "properties": {"display_name": "(中国联合网络通信有限公司潍坊市分公司), 东关街道, 奎文区, 潍坊市, 山东省, 中国", "type": "residential", "osm_type": "way", "osm_id": 581097588, "class": null, "keyword": "市中心"}}, {"type": "Feature", "geometry": {"type": "Polygon", "coordinates": [[[119.388825, 36.859422], [119.389452, 36.859385], [119.389458, 36.859461], [119.389489, 36.859909], [119.389447, 36.85991], [119.389478, 36.860136], [119.389073, 36.860169], [119.388976, 36.860176], [119.38889, 36.860183], [119.388857, 36.859884], [119.388856, 36.859869], [119.38885, 36.859811], [119.388833, 36.859662], [119.388849, 36.859662], [119.388848, 36.859651], [119.388833, 36.859487], [119.388825, 36.859422]]]}, "properties": {"display_name": "昌邑市供电公司物流服务中心, 奎聚街道, 昌邑市, 潍坊市, 山东省, 中国", "type": "commercial", "osm_type": "way", "osm_id": 373230078, "class": null, "keyword": "市中心"}}, {"type": "Feature", "geometry": {"type": "Polygon", "coordinates": [[[119.408649, 36.843832], [119.409454, 36.843798], [119.409493, 36.844401], [119.409422, 36.844403], [119.408798, 36.844422], [119.408796, 36.844338], [119.408792, 36.844195], [119.40867, 36.844198], [119.408649, 36.843832]]]}, "properties": {"display_name": "国网昌邑市供电公司配电运检中心, 奎聚街道, 昌邑市, 潍坊市, 山东省, 中国", "type": "commercial", "osm_type": "way", "osm_id": 422650156, "class": null, "keyword": "市中心"}}, {"type": "Feature", "geometry": {"type": "Polygon", "coordinates": [[[119.110404, 36.705878], [119.11042, 36.705465], [119.110421, 36.705424], [119.111301, 36.705418], [119.111301, 36.705432], [119.111277, 36.705903], [119.110905, 36.705894], [119.110457, 36.705881], [119.110404, 36.705878]]]}, "properties": {"display_name": "中国人民银行潍坊市中心支行, 东关街道, 奎文区, 潍坊市, 山东省, 中国", "type": "commercial", "osm_type": "way", "osm_id": 998772725, "class": null, "keyword": "市中心"}}, {"type": "Feature", "geometry": {"type": "Polygon", "coordinates": [[[119.471667, 36.733728], [119.471677, 36.733275], [119.472508, 36.733287], [119.472504, 36.733439], [119.472498, 36.733739], [119.471667, 36.733728]]]}, "properties": {"display_name": "昌邑市华信种业有限公司, 石埠经济发展区, 昌邑市, 潍坊市, 山东省, 中国", "type": "industrial", "osm_type": "way", "osm_id": 493249835, "class": null, "keyword": "市中心"}}, {"type": "Feature", "geometry": {"type": "Polygon", "coordinates": [[[119.108902, 36.639789], [119.109438, 36.639781], [119.109428, 36.640493], [119.108909, 36.640491], [119.108902, 36.639789]]]}, "properties": {"display_name": "潍坊市奎文区廿里堡街道南苑社区服务中心, 南苑社区, 奎文区, 潍坊市, 山东省, 中国", "type": "commercial", "osm_type": "way", "osm_id": 488678152, "class": null, "keyword": "市中心"}}, {"type": "Feature", "geometry": {"type": "Polygon", "coordinates": [[[119.33516, 36.813921], [119.335294, 36.813799], [119.335414, 36.813689], [119.336256, 36.814318], [119.336014, 36.814499], [119.335927, 36.81445], [119.335583, 36.814209], [119.335494, 36.814146], [119.33516, 36.813921]]]}, "properties": {"display_name": "昌邑市佳通货运配送中心, 都昌街道, 昌邑市, 潍坊市, 山东省, 中国", "type": "commercial", "osm_type": "way", "osm_id": 777994179, "class": null, "keyword": "市中心"}}, {"type": "Feature", "geometry": {"type": "Polygon", "coordinates": [[[119.387365, 36.85908], [119.388236, 36.859004], [119.388248, 36.859091], [119.388252, 36.859119], [119.38828, 36.859357], [119.387421, 36.859432], [119.387365, 36.85908]]]}, "properties": {"display_name": "昌邑市实验中学附属小学, 北海路, 利民社区, 都昌街道, 昌邑市, 潍坊市, 山东省, 261300, 中国", "type": "school", "osm_type": "way", "osm_id": 522448383, "class": null, "keyword": "中心商務區"}}, {"type": "Feature", "geometry": {"type": "Polygon", "coordinates": [[[119.224696, 36.623555], [119.2247, 36.623385], [119.225573, 36.623393], [119.225596, 36.623969], [119.225286, 36.623967], [119.225274, 36.623609], [119.225195, 36.623556], [119.224696, 36.623555]]]}, "properties": {"display_name": "钢城社区服务中心, 钢城二路, 新钢街道, 奎文区, 潍坊市, 山东省, 中国", "type": "community_centre", "osm_type": "way", "osm_id": 410844527, "class": null, "keyword": "中心城区"}}, {"type": "Feature", "geometry": {"type": "Polygon", "coordinates": [[[119.503939, 36.600977], [119.503996, 36.600455], [119.504193, 36.600464], [119.504293, 36.600471], [119.504484, 36.600484], [119.504433, 36.601003], [119.503939, 36.600977]]]}, "properties": {"display_name": "昌邑市公路事业发展中心北孟公路站, 北孟中心社区, 昌邑市, 潍坊市, 山东省, 中国", "type": "commercial", "osm_type": "way", "osm_id": 380218293, "class": null, "keyword": "市中心"}}, {"type": "Feature", "geometry": {"type": "Polygon", "coordinates": [[[119.388322, 36.865756], [119.388324, 36.865457], [119.38844, 36.865456], [119.388468, 36.865455], [119.388665, 36.865453], [119.388773, 36.865452], [119.388776, 36.865606], [119.388782, 36.865944], [119.388731, 36.86599], [119.388325, 36.865998], [119.388323, 36.865877], [119.388322, 36.865781], [119.388322, 36.865756]]]}, "properties": {"display_name": "昌邑市石油天然气管道保护服务中心, 75, 都昌街道, 昌邑市, 潍坊市, 山东省, 中国", "type": "commercial", "osm_type": "way", "osm_id": 371547426, "class": null, "keyword": "市中心"}}, {"type": "Feature", "geometry": {"type": "Polygon", "coordinates": [[[119.127468, 36.710733], [119.127911, 36.71073], [119.127998, 36.710729], [119.128024, 36.71075], [119.128035, 36.711155], [119.127481, 36.711162], [119.127468, 36.710733]]]}, "properties": {"display_name": "潍坊市不动产登记中心, 大虞街道, 奎文区, 潍坊市, 山东省, 中国", "type": "commercial", "osm_type": "way", "osm_id": 902359583, "class": null, "keyword": "市中心"}}, {"type": "Feature", "geometry": {"type": "Polygon", "coordinates": [[[119.114164, 36.696395], [119.114663, 36.696371], [119.114668, 36.696452], [119.114694, 36.696836], [119.11435, 36.696845], [119.114193, 36.696765], [119.114166, 36.696427], [119.114164, 36.696395]]]}, "properties": {"display_name": "潍坊市医学培训中心, 潍州路街道, 奎文区, 潍坊市, 山东省, 中国", "type": "commercial", "osm_type": "way", "osm_id": 1090787720, "class": null, "keyword": "市中心"}}, {"type": "Feature", "geometry": {"type": "Polygon", "coordinates": [[[119.404636, 36.860213], [119.405339, 36.860164], [119.40536, 36.860445], [119.404656, 36.860487], [119.40465, 36.860411], [119.404642, 36.860293], [119.404636, 36.860213]]]}, "properties": {"display_name": "昌邑市疾病预防控制中心, 41, 奎聚街道, 昌邑市, 潍坊市, 山东省, 中国", "type": "commercial", "osm_type": "way", "osm_id": 768990520, "class": null, "keyword": "市中心"}}, {"type": "Feature", "geometry": {"type": "Polygon", "coordinates": [[[119.436196, 36.86051], [119.436408, 36.859932], [119.436616, 36.859981], [119.436605, 36.86001], [119.436577, 36.860086], [119.436404, 36.860559], [119.436196, 36.86051]]]}, "properties": {"display_name": "昌邑市海能供水管理中心, 马老庄, 昌邑市, 潍坊市, 山东省, 中国", "type": "commercial", "osm_type": "way", "osm_id": 1084510999, "class": null, "keyword": "市中心"}}, {"type": "Feature", "geometry": {"type": "Polygon", "coordinates": [[[118.751914, 36.952743], [118.752171, 36.952726], [118.752204, 36.953185], [118.751946, 36.953202], [118.751914, 36.952743]]]}, "properties": {"display_name": "古城街道敬老院, 古安街, 寿光市, 潍坊市, 山东省, 中国", "type": "social_facility", "osm_type": "way", "osm_id": 569019235, "class": null, "keyword": "老城"}}, {"type": "Feature", "geometry": {"type": "Polygon", "coordinates": [[[119.386683, 36.853307], [119.386761, 36.853305], [119.386926, 36.853296], [119.387392, 36.853275], [119.387486, 36.853272], [119.387489, 36.853378], [119.386689, 36.853422], [119.386683, 36.853307]]]}, "properties": {"display_name": "香柏养老中心, 北海路, 新村社区, 都昌街道, 昌邑市, 潍坊市, 山东省, 261300, 中国", "type": "yes", "osm_type": "way", "osm_id": 766056247, "class": null, "keyword": "中心商務區"}}, {"type": "Feature", "geometry": {"type": "Polygon", "coordinates": [[[119.386951, 36.852499], [119.387465, 36.852471], [119.387478, 36.852609], [119.387146, 36.852624], [119.387154, 36.852802], [119.387089, 36.852804], [119.387079, 36.852674], [119.387, 36.852677], [119.386977, 36.85268], [119.386961, 36.852672], [119.386953, 36.852664], [119.386956, 36.852653], [119.386965, 36.852646], [119.386981, 36.852635], [119.386978, 36.852613], [119.386961, 36.852604], [119.386951, 36.852499]]]}, "properties": {"display_name": "放疗中心, 北海路, 新村社区, 都昌街道, 昌邑市, 潍坊市, 山东省, 261300, 中国", "type": "yes", "osm_type": "way", "osm_id": 766056249, "class": null, "keyword": "中心商務區"}}, {"type": "Feature", "geometry": {"type": "Polygon", "coordinates": [[[119.173515, 37.014088], [119.173517, 37.013967], [119.173923, 37.013972], [119.173921, 37.014093], [119.173515, 37.014088]]]}, "properties": {"display_name": "潍坊市建工工程咨询院未来之家, 香江东三街, 寒亭区, 潍坊市, 山东省, 中国", "type": "yes", "osm_type": "way", "osm_id": 1292096325, "class": null, "keyword": "中心城区"}}, {"type": "Feature", "geometry": {"type": "Polygon", "coordinates": [[[119.257381, 36.690324], [119.257382, 36.690192], [119.257747, 36.690194], [119.257746, 36.690326], [119.257381, 36.690324]]]}, "properties": {"display_name": "潍坊市气体分离装备工程技术研发中心, 樱前街, 奎文区, 潍坊市, 山东省, 261000, 中国", "type": "commercial", "osm_type": "way", "osm_id": 828510269, "class": null, "keyword": "中心城区"}}, {"type": "Feature", "geometry": {"type": "Polygon", "coordinates": [[[119.176999, 36.713605], [119.17741, 36.7136], [119.177404, 36.713707], [119.17741, 36.713717], [119.177003, 36.713725], [119.176999, 36.713605]]]}, "properties": {"display_name": "物业中心, 东风东街, 陈家社区, 奎文区, 潍坊市, 山东省, 261061, 中国", "type": "school", "osm_type": "way", "osm_id": 839528009, "class": null, "keyword": "中心商圈"}}]}