{"type": "FeatureCollection", "features": [{"type": "Feature", "geometry": {"type": "Polygon", "coordinates": [[[120.690224, 27.996114], [120.690292, 27.994927], [120.690498, 27.994991], [120.691692, 27.995394], [120.69247, 27.995602], [120.692714, 27.99568], [120.692952, 27.995789], [120.693119, 27.995829], [120.693149, 27.99583], [120.693457, 27.995839], [120.69355, 27.995841], [120.693972, 27.995834], [120.694637, 27.995808], [120.694878, 27.995844], [120.695192, 27.995886], [120.695535, 27.995898], [120.695696, 27.995867], [120.695895, 27.995853], [120.696026, 27.995863], [120.696222, 27.995898], [120.696451, 27.995974], [120.696965, 27.99622], [120.697106, 27.99629], [120.697225, 27.996334], [120.697274, 27.996344], [120.697423, 27.996374], [120.697623, 27.996406], [120.697729, 27.996439], [120.697854, 27.996499], [120.697936, 27.996548], [120.698032, 27.99663], [120.698341, 27.996931], [120.698484, 27.997049], [120.699226, 27.99749], [120.70039, 27.997963], [120.700285, 27.998477], [120.698268, 27.998207], [120.698142, 27.998139], [120.697622, 27.998174], [120.69678, 27.998198], [120.692836, 27.998164], [120.692761, 27.99812], [120.692744, 27.998062], [120.693084, 27.997106], [120.693328, 27.996351], [120.693078, 27.996173], [120.690466, 27.996126], [120.690224, 27.996114]]]}, "properties": {"display_name": "温州市公共服务中心, 蒲鞋市街道, 鹿城区, 温州市, 浙江省, 中国", "type": "civic_admin", "osm_type": "way", "osm_id": 997791462, "class": null, "keyword": "市中心"}}, {"type": "Feature", "geometry": {"type": "Polygon", "coordinates": [[[120.588974, 27.728061], [120.589033, 27.727963], [120.590009, 27.727061], [120.591844, 27.725791], [120.592938, 27.727177], [120.592163, 27.727728], [120.592042, 27.727942], [120.592638, 27.728611], [120.592568, 27.72877], [120.592367, 27.72888], [120.592351, 27.728967], [120.591825, 27.729257], [120.591656, 27.729423], [120.591543, 27.729466], [120.591511, 27.729561], [120.591256, 27.729791], [120.591128, 27.729872], [120.590961, 27.730083], [120.589379, 27.728443], [120.588974, 27.728061]]]}, "properties": {"display_name": "平阳县万全综合高级中学(万全校区), 兴隆路, 王子花苑, 平阳县, 温州市, 浙江省, 中国", "type": "school", "osm_type": "way", "osm_id": 1177043223, "class": null, "keyword": "中央区"}}, {"type": "Feature", "geometry": {"type": "Polygon", "coordinates": [[[120.705877, 27.791065], [120.705913, 27.790895], [120.708581, 27.789497], [120.708736, 27.789517], [120.710416, 27.791043], [120.707238, 27.793082], [120.7068, 27.792375], [120.706475, 27.791886], [120.705877, 27.791065]]]}, "properties": {"display_name": "瑞安市上海新纪元高级中学, 人民路, 汀田街道, 瑞安市, 温州市, 浙江省, 中国", "type": "school", "osm_type": "way", "osm_id": 1202239437, "class": null, "keyword": "市中心"}}, {"type": "Feature", "geometry": {"type": "Polygon", "coordinates": [[[120.63864, 27.998238], [120.639469, 27.997064], [120.64031, 27.996073], [120.64077, 27.996178], [120.643761, 27.997289], [120.643463, 27.997731], [120.643144, 27.998039], [120.642792, 27.998271], [120.64232, 27.998458], [120.641706, 27.998629], [120.641014, 27.998702], [120.640327, 27.998619], [120.639987, 27.998545], [120.639289, 27.998392], [120.638841, 27.998286], [120.63864, 27.998238]]]}, "properties": {"display_name": "农副产品中心市场, 鹿城区, 温州市, 浙江省, 中国", "type": "retail", "osm_type": "way", "osm_id": 904282830, "class": null, "keyword": "市中心"}}, {"type": "Feature", "geometry": {"type": "Polygon", "coordinates": [[[120.822935, 27.859769], [120.824417, 27.858025], [120.826488, 27.858978], [120.824598, 27.861172], [120.822935, 27.859769]]]}, "properties": {"display_name": "万洋众创城, 龙湾区, 温州市, 浙江省, 中国", "type": "commercial", "osm_type": "way", "osm_id": 1355189655, "class": null, "keyword": "市中心"}}, {"type": "Feature", "geometry": {"type": "Polygon", "coordinates": [[[120.580613, 27.962222], [120.582571, 27.96166], [120.583545, 27.964224], [120.583483, 27.96444], [120.582166, 27.965349], [120.58207, 27.965422], [120.581899, 27.965001], [120.581357, 27.963068], [120.580852, 27.962556], [120.580613, 27.962222]]]}, "properties": {"display_name": "大象城国际商贸中心, 潘桥街道, 瓯海区, 温州市, 浙江省, 中国", "type": "retail", "osm_type": "way", "osm_id": 1009329231, "class": null, "keyword": "中心城区"}}, {"type": "Feature", "geometry": {"type": "Polygon", "coordinates": [[[120.594895, 27.98208], [120.597838, 27.980792], [120.597998, 27.982405], [120.59747, 27.982627], [120.596618, 27.983006], [120.59568, 27.983504], [120.594938, 27.983239], [120.594993, 27.982882], [120.594895, 27.98208]]]}, "properties": {"display_name": "瓯海中心西单元 F-09 地块学校工程, 汇源路, 娄桥街道, 瓯海区, 温州市, 浙江省, 325006, 中国", "type": "school", "osm_type": "way", "osm_id": 1068950272, "class": null, "keyword": "中心城区"}}, {"type": "Feature", "geometry": {"type": "Polygon", "coordinates": [[[120.682741, 27.991071], [120.682789, 27.990614], [120.683178, 27.990614], [120.683178, 27.990358], [120.685823, 27.99037], [120.68597, 27.990484], [120.68597, 27.991204], [120.685866, 27.9916], [120.685568, 27.992208], [120.682741, 27.991071]]]}, "properties": {"display_name": "鹿城中心, 南汇街道, 鹿城区, 温州市, 浙江省, 中国", "type": "residential", "osm_type": "way", "osm_id": 1223251877, "class": null, "keyword": "中心城区"}}, {"type": "Feature", "geometry": {"type": "Polygon", "coordinates": [[[120.679691, 27.824764], [120.679745, 27.823886], [120.68011, 27.823701], [120.681982, 27.823488], [120.68195, 27.825404], [120.680582, 27.825245], [120.679831, 27.825091], [120.679691, 27.824764]]]}, "properties": {"display_name": "塘下职业中专朝阳校区, 新川路, 瑞安市, 温州市, 浙江省, 中国", "type": "college", "osm_type": "way", "osm_id": 1241982295, "class": null, "keyword": "中央区"}}, {"type": "Feature", "geometry": {"type": "Polygon", "coordinates": [[[119.840965, 27.885072], [119.84231, 27.883894], [119.842728, 27.884383], [119.842739, 27.884666], [119.842487, 27.885194], [119.841296, 27.885803], [119.841019, 27.88564], [119.840965, 27.885072]]]}, "properties": {"display_name": "文成月老山滑雪场, 文成县, 温州市, 浙江省, 中国", "type": "winter_sports", "osm_type": "way", "osm_id": 1359796198, "class": null, "keyword": "老城"}}, {"type": "Feature", "geometry": {"type": "Polygon", "coordinates": [[[120.679764, 28.002657], [120.679843, 28.002257], [120.679875, 28.002092], [120.680131, 28.000789], [120.681049, 28.000943], [120.680817, 28.00224], [120.68079, 28.002391], [120.680768, 28.002519], [120.680743, 28.002657], [120.680259, 28.002657], [120.680205, 28.002657], [120.679764, 28.002657]]]}, "properties": {"display_name": "时代广场购物中心, 蒲鞋市街道, 鹿城区, 温州市, 浙江省, 中国", "type": "retail", "osm_type": "way", "osm_id": 899611715, "class": null, "keyword": "市中心"}}, {"type": "Feature", "geometry": {"type": "Polygon", "coordinates": [[[120.685799, 27.992317], [120.686005, 27.991953], [120.686153, 27.991555], [120.68629, 27.991585], [120.687269, 27.991611], [120.687309, 27.992], [120.686925, 27.992078], [120.686837, 27.992713], [120.685799, 27.992317]]]}, "properties": {"display_name": "鹿城中心东园, 南汇街道, 鹿城区, 温州市, 浙江省, 中国", "type": "residential", "osm_type": "way", "osm_id": 1223251876, "class": null, "keyword": "中心城区"}}, {"type": "Feature", "geometry": {"type": "Polygon", "coordinates": [[[120.658994, 28.022183], [120.659063, 28.022005], [120.659098, 28.021798], [120.659085, 28.021618], [120.65965, 28.021531], [120.660037, 28.021436], [120.660288, 28.021554], [120.659771, 28.022567], [120.659024, 28.022322], [120.658994, 28.022183]]]}, "properties": {"display_name": "温州市实验中学(新东区), 环城东路, 华盖公寓, 五马街道, 鹿城区, 温州市, 浙江省, 325003, 中国", "type": "school", "osm_type": "way", "osm_id": 1011877136, "class": null, "keyword": "市中心"}}, {"type": "Feature", "geometry": {"type": "Polygon", "coordinates": [[[120.992163, 28.116695], [120.992658, 28.116464], [120.99292, 28.116259], [120.993237, 28.116621], [120.993461, 28.116975], [120.993602, 28.117231], [120.993181, 28.117346], [120.992826, 28.11728], [120.992443, 28.117008], [120.992163, 28.116695]]]}, "properties": {"display_name": "乐清市中心幼儿园, 百珍东路, 城南街道, 乐清市, 温州市, 浙江省, 325600, 中国", "type": "kindergarten", "osm_type": "way", "osm_id": 976155440, "class": null, "keyword": "市中心"}}, {"type": "Feature", "geometry": {"type": "Polygon", "coordinates": [[[120.701098, 27.92065], [120.701342, 27.920636], [120.701354, 27.921175], [120.701415, 27.921157], [120.701492, 27.920991], [120.701516, 27.920808], [120.70148, 27.92065], [120.701423, 27.920478], [120.701415, 27.920334], [120.701431, 27.920154], [120.701679, 27.920151], [120.701671, 27.921236], [120.701655, 27.921343], [120.701537, 27.921581], [120.701407, 27.921731], [120.701179, 27.921638], [120.701187, 27.921311], [120.701098, 27.921315], [120.701098, 27.92065]]]}, "properties": {"display_name": "温州大学城商务中心, 花园北路, 茶山街道, 瓯海区, 温州市, 浙江省, 中国", "type": "mall", "osm_type": "way", "osm_id": 375962108, "class": null, "keyword": "中心城区"}}, {"type": "Feature", "geometry": {"type": "Polygon", "coordinates": [[[120.975616, 28.120503], [120.976211, 28.120182], [120.976453, 28.120679], [120.976362, 28.120773], [120.976367, 28.121062], [120.9759, 28.121095], [120.975868, 28.120939], [120.975616, 28.120503]]]}, "properties": {"display_name": "乐清市公共卫生中心, 良港路, 城东街道, 乐清市, 温州市, 浙江省, 325600, 中国", "type": "quango", "osm_type": "way", "osm_id": 976140213, "class": null, "keyword": "市中心"}}, {"type": "Feature", "geometry": {"type": "Polygon", "coordinates": [[[120.648707, 27.923396], [120.648708, 27.922746], [120.64938, 27.922746], [120.649367, 27.92279], [120.649292, 27.923041], [120.6489, 27.923038], [120.648902, 27.92317], [120.649183, 27.923262], [120.649237, 27.923279], [120.649187, 27.923397], [120.648707, 27.923396]]]}, "properties": {"display_name": "CBPM·College of Business & Public Management Building 商学院, Wenzhou Road 温州路, 丽欧锦园, 丽岙街道, 瓯海区, 温州市, 浙江省, 中国", "type": "college", "osm_type": "way", "osm_id": 1273260146, "class": null, "keyword": "business district"}}, {"type": "Feature", "geometry": {"type": "Polygon", "coordinates": [[[120.690345, 27.996006], [120.690393, 27.995446], [120.690882, 27.995479], [120.690875, 27.995551], [120.690979, 27.995555], [120.690974, 27.995666], [120.690866, 27.995661], [120.690833, 27.996039], [120.690345, 27.996006]]]}, "properties": {"display_name": "温州市行政审批服务中心-20号楼, 惠民路, 上陡门7组团, 蒲鞋市街道, 鹿城区, 温州市, 浙江省, 325002, 中国", "type": "yes", "osm_type": "way", "osm_id": 1019307796, "class": null, "keyword": "市中心"}}, {"type": "Feature", "geometry": {"type": "Polygon", "coordinates": [[[121.028646, 28.299588], [121.029317, 28.299398], [121.029398, 28.299845], [121.028722, 28.299955], [121.028646, 28.299588]]]}, "properties": {"display_name": "乐清市芙蓉中心卫生院, 虹芙隧道, 乐清市, 温州市, 浙江省, 325612, 中国", "type": "hospital", "osm_type": "way", "osm_id": 887671453, "class": null, "keyword": "市中心"}}, {"type": "Feature", "geometry": {"type": "Polygon", "coordinates": [[[120.637213, 28.020052], [120.637447, 28.019638], [120.63786, 28.019834], [120.637996, 28.019861], [120.637737, 28.020302], [120.637213, 28.020052]]]}, "properties": {"display_name": "温州室内体育活动中心, 九山路, 复兴大厦, 松台街道, 鹿城区, 温州市, 浙江省, 325003, 中国", "type": "pitch", "osm_type": "way", "osm_id": 982036034, "class": null, "keyword": "市中心"}}, {"type": "Feature", "geometry": {"type": "Polygon", "coordinates": [[[120.95669, 28.131732], [120.956865, 28.131259], [120.957348, 28.131499], [120.956999, 28.131861], [120.95669, 28.131732]]]}, "properties": {"display_name": "乐清市中心幼儿园, 环城东路, 城东街道, 乐清市, 温州市, 浙江省, 325600, 中国", "type": "kindergarten", "osm_type": "way", "osm_id": 976155232, "class": null, "keyword": "市中心"}}, {"type": "Feature", "geometry": {"type": "Polygon", "coordinates": [[[120.565911, 27.993825], [120.565912, 27.993715], [120.566745, 27.993739], [120.566741, 27.993975], [120.565911, 27.993967], [120.565911, 27.993825]]]}, "properties": {"display_name": "瓯海郭溪中心农贸市场, 景德路, 瓯海区, 温州市, 浙江省, 中国", "type": "marketplace", "osm_type": "way", "osm_id": 1309010796, "class": null, "keyword": "市中心"}}, {"type": "Feature", "geometry": {"type": "Polygon", "coordinates": [[[120.66053, 28.009338], [120.660616, 28.009103], [120.660723, 28.009063], [120.661063, 28.009155], [120.66109, 28.009226], [120.660983, 28.00947], [120.660876, 28.009525], [120.66057, 28.009428], [120.66053, 28.009338]]]}, "properties": {"display_name": "温州世界贸易中心, 荷花路, 大南街道, 鹿城区, 温州市, 浙江省, 325003, 中国", "type": "yes", "osm_type": "way", "osm_id": 951553382, "class": null, "keyword": "市中心"}}]}