{"type": "FeatureCollection", "features": [{"type": "Feature", "geometry": {"type": "Polygon", "coordinates": [[[17.075994, -22.560374], [17.076015, -22.560531], [17.076111, -22.560527], [17.076126, -22.56055], [17.076377, -22.56049], [17.076356, -22.560333], [17.076115, -22.560325], [17.076097, -22.560348], [17.075994, -22.560374]]]}, "properties": {"display_name": "Inner City Lutheran Congregation, Van Rhyn Street, Windhoek North, Windhoek, Khomas Region, 10005, Namibia", "type": "place_of_worship", "osm_type": "way", "osm_id": 117981361, "class": null, "keyword": "inner city"}}, {"type": "Feature", "geometry": {"type": "Polygon", "coordinates": [[[17.086062, -22.560699], [17.086065, -22.56081], [17.086584, -22.560795], [17.086581, -22.560684], [17.086062, -22.560699]]]}, "properties": {"display_name": "Franco Namibian Cultural Centre, 118, Robert Mugabe Avenue, Windhoek Central, Windhoek, Khomas Region, 10005, Namibia", "type": "arts_centre", "osm_type": "way", "osm_id": 751007763, "class": null, "keyword": "centro"}}]}