{"type": "FeatureCollection", "features": [{"type": "Feature", "geometry": {"type": "Polygon", "coordinates": [[[-97.155656, 49.904186], [-97.155522, 49.904144], [-97.155137, 49.904024], [-97.143311, 49.900218], [-97.142533, 49.899968], [-97.142319, 49.8999], [-97.14203, 49.899812], [-97.140872, 49.901454], [-97.140302, 49.901274], [-97.140208, 49.901245], [-97.139679, 49.901938], [-97.139219, 49.902533], [-97.138516, 49.903439], [-97.143166, 49.904932], [-97.152543, 49.907941], [-97.152623, 49.907853], [-97.152826, 49.90763], [-97.153602, 49.907092], [-97.153684, 49.906999], [-97.153743, 49.906897], [-97.154536, 49.905924], [-97.154591, 49.905856], [-97.155656, 49.904186]]]}, "properties": {"display_name": "Centennial Neighbourhood, Point Douglas, Winnipeg, Manitoba, Canada", "type": "neighbourhood", "osm_type": "way", "osm_id": 432156819, "class": null, "keyword": "neighbourhood"}}, {"type": "Feature", "geometry": {"type": "Polygon", "coordinates": [[[-97.146959, 49.950877], [-97.146717, 49.950802], [-97.146686, 49.950795], [-97.146648, 49.950843], [-97.146582, 49.950822], [-97.14657, 49.950837], [-97.146365, 49.95077], [-97.146386, 49.950747], [-97.146295, 49.950715], [-97.146145, 49.95092], [-97.145901, 49.950837], [-97.146107, 49.950558], [-97.146145, 49.95057], [-97.146212, 49.950511], [-97.145833, 49.950392], [-97.145423, 49.950263], [-97.145397, 49.950285], [-97.14527, 49.950249], [-97.145195, 49.950271], [-97.145096, 49.950404], [-97.144639, 49.950269], [-97.144657, 49.950247], [-97.1446, 49.950223], [-97.144535, 49.950207], [-97.144515, 49.95023], [-97.144251, 49.950142], [-97.144361, 49.949976], [-97.144356, 49.949929], [-97.144061, 49.949841], [-97.144039, 49.949802], [-97.143935, 49.949759], [-97.1439, 49.949774], [-97.143599, 49.949686], [-97.143516, 49.949703], [-97.143176, 49.950133], [-97.142916, 49.950054], [-97.142682, 49.950359], [-97.142406, 49.950283], [-97.142178, 49.950585], [-97.14376, 49.951098], [-97.144163, 49.950594], [-97.144313, 49.950639], [-97.143913, 49.951146], [-97.144345, 49.951288], [-97.144474, 49.951134], [-97.144616, 49.951191], [-97.144495, 49.951317], [-97.144951, 49.951471], [-97.144925, 49.951501], [-97.14509, 49.951553], [-97.145123, 49.951528], [-97.14516, 49.95154], [-97.14519, 49.95155], [-97.145364, 49.951514], [-97.145343, 49.951471], [-97.145372, 49.951464], [-97.14581, 49.951607], [-97.14579, 49.951631], [-97.14595, 49.951683], [-97.145983, 49.951641], [-97.146084, 49.951672], [-97.146317, 49.95175], [-97.146893, 49.951001], [-97.146875, 49.950973], [-97.146889, 49.950968], [-97.146959, 49.950877]]]}, "properties": {"display_name": "Garden City Shopping Centre, Kingsbury Avenue, Garden City, Old Kildonan, Winnipeg, Manitoba, R2V 2T7, Canada", "type": "yes", "osm_type": "way", "osm_id": 162015054, "class": null, "keyword": "city centre"}}, {"type": "Feature", "geometry": {"type": "Polygon", "coordinates": [[[-97.156076, 49.883906], [-97.155524, 49.883874], [-97.155599, 49.882918], [-97.155068, 49.882898], [-97.154978, 49.885224], [-97.155442, 49.885238], [-97.155452, 49.884964], [-97.155979, 49.884974], [-97.156076, 49.883906]]]}, "properties": {"display_name": "Broadway Neighbourhood Centre, West Broadway, Fort Rouge–East Fort Garry, Winnipeg, Manitoba, Canada", "type": "park", "osm_type": "way", "osm_id": 507685172, "class": null, "keyword": "neighbourhood"}}, {"type": "Feature", "geometry": {"type": "Polygon", "coordinates": [[[-97.139018, 49.885202], [-97.138973, 49.885109], [-97.138916, 49.885026], [-97.138833, 49.884917], [-97.138739, 49.88481], [-97.138602, 49.884675], [-97.137889, 49.88402], [-97.137404, 49.883575], [-97.137326, 49.883487], [-97.137253, 49.883385], [-97.137178, 49.883251], [-97.137154, 49.883182], [-97.137145, 49.883156], [-97.137141, 49.883142], [-97.137135, 49.883098], [-97.137117, 49.883102], [-97.137053, 49.883112], [-97.136953, 49.883129], [-97.136882, 49.883141], [-97.136866, 49.883144], [-97.136901, 49.883249], [-97.136935, 49.883326], [-97.136988, 49.883429], [-97.137059, 49.883534], [-97.137164, 49.883658], [-97.137304, 49.883791], [-97.137656, 49.884114], [-97.138412, 49.884811], [-97.138509, 49.884915], [-97.138592, 49.885024], [-97.138657, 49.88512], [-97.138698, 49.885199], [-97.138724, 49.885281], [-97.138739, 49.885276], [-97.138803, 49.885259], [-97.138933, 49.885225], [-97.139004, 49.885206], [-97.139018, 49.885202]]]}, "properties": {"display_name": "Midtown Bridge, Donald Street, Broadway–Assiniboine, Fort Rouge–East Fort Garry, Winnipeg, Manitoba, R3C 0X5, Canada", "type": "bridge", "osm_type": "way", "osm_id": 432765320, "class": null, "keyword": "midtown"}}, {"type": "Feature", "geometry": {"type": "Polygon", "coordinates": [[[-97.138611, 49.885118], [-97.13849, 49.884933], [-97.138025, 49.884502], [-97.137763, 49.884632], [-97.136786, 49.885021], [-97.136394, 49.885138], [-97.136506, 49.88525], [-97.137291, 49.885154], [-97.137745, 49.884976], [-97.137704, 49.884935], [-97.137874, 49.884864], [-97.138253, 49.885105], [-97.1383, 49.885231], [-97.138611, 49.885118]]]}, "properties": {"display_name": "Midtown Bridge Park, Broadway–Assiniboine, Fort Rouge–East Fort Garry, Winnipeg, Manitoba, Canada", "type": "park", "osm_type": "way", "osm_id": 28989948, "class": null, "keyword": "midtown"}}, {"type": "Feature", "geometry": {"type": "Polygon", "coordinates": [[[-97.192604, 49.891771], [-97.192564, 49.891739], [-97.192358, 49.891733], [-97.19235, 49.891835], [-97.192295, 49.891834], [-97.19156, 49.89181], [-97.191537, 49.89211], [-97.192079, 49.892127], [-97.192576, 49.892143], [-97.192604, 49.891771]]]}, "properties": {"display_name": "Uptown Alley, 1301, Saint Matthews Avenue, Minto, Daniel McIntyre, Winnipeg, Manitoba, R3G 3P5, Canada", "type": "bowling_alley", "osm_type": "way", "osm_id": 82348534, "class": null, "keyword": "uptown"}}, {"type": "Feature", "geometry": {"type": "Polygon", "coordinates": [[[-97.01945, 49.906923], [-97.019328, 49.906745], [-97.019305, 49.906752], [-97.019277, 49.906706], [-97.019019, 49.906773], [-97.019036, 49.906803], [-97.018952, 49.906828], [-97.018904, 49.906907], [-97.018253, 49.907099], [-97.018324, 49.907198], [-97.018972, 49.907016], [-97.019104, 49.907047], [-97.019136, 49.907039], [-97.019154, 49.907061], [-97.019174, 49.907055], [-97.019221, 49.907042], [-97.019206, 49.907019], [-97.019304, 49.906989], [-97.019292, 49.906967], [-97.01945, 49.906923]]]}, "properties": {"display_name": "Park City West Community Centre, 115, Sanford Fleming Road, Meadows, Transcona, Winnipeg, Manitoba, R2C 5B8, Canada", "type": "yes", "osm_type": "way", "osm_id": 83572523, "class": null, "keyword": "city centre"}}, {"type": "Feature", "geometry": {"type": "Polygon", "coordinates": [[[-97.154404, 49.899392], [-97.154301, 49.899389], [-97.1543, 49.899401], [-97.153982, 49.899393], [-97.153979, 49.899435], [-97.153963, 49.89967], [-97.154378, 49.899799], [-97.154404, 49.899392]]]}, "properties": {"display_name": "Centro Cultural Português, 659, Young Street, Spence, Daniel McIntyre, Winnipeg, Manitoba, R3B 1W4, Canada", "type": "community_centre", "osm_type": "way", "osm_id": 1013146373, "class": null, "keyword": "centro"}}, {"type": "Feature", "geometry": {"type": "Polygon", "coordinates": [[[-97.13884, 49.947446], [-97.138803, 49.947434], [-97.13882, 49.947412], [-97.13854, 49.947323], [-97.138523, 49.947346], [-97.13849, 49.947335], [-97.138313, 49.947567], [-97.138345, 49.947578], [-97.138319, 49.947612], [-97.138599, 49.947701], [-97.138625, 49.947666], [-97.138662, 49.947678], [-97.138717, 49.947606], [-97.13884, 49.947446]]]}, "properties": {"display_name": "Garden City Community Centre, 725, Kingsbury Avenue, Garden City, Old Kildonan, Winnipeg, Manitoba, R2V 2T7, Canada", "type": "community_centre", "osm_type": "way", "osm_id": 130731812, "class": null, "keyword": "city centre"}}, {"type": "Feature", "geometry": {"type": "Polygon", "coordinates": [[[-97.166052, 49.858558], [-97.165982, 49.85847], [-97.165938, 49.858485], [-97.165842, 49.858365], [-97.16583, 49.85837], [-97.165781, 49.858309], [-97.165697, 49.858337], [-97.165746, 49.858398], [-97.165626, 49.858438], [-97.165681, 49.858505], [-97.165699, 49.858499], [-97.165825, 49.858656], [-97.166022, 49.85859], [-97.166009, 49.858572], [-97.166052, 49.858558]]]}, "properties": {"display_name": "Applebee's, 1150, Grant Avenue, Grant Park, River Heights–Fort Garry, River Heights - Fort Garry, Winnipeg, Manitoba, R3M 2A6, Canada", "type": "restaurant", "osm_type": "way", "osm_id": 57354846, "class": null, "keyword": "neighborhood"}}, {"type": "Feature", "geometry": {"type": "Polygon", "coordinates": [[[-97.1431, 49.898022], [-97.142755, 49.897909], [-97.14263, 49.898068], [-97.142976, 49.898181], [-97.1431, 49.898022]]]}, "properties": {"display_name": "Earn Business Centre, McDermot Avenue, Exchange District, Point Douglas, Winnipeg, Manitoba, R3B 0S5, Canada", "type": "office", "osm_type": "way", "osm_id": 103177900, "class": null, "keyword": "business district"}}, {"type": "Feature", "geometry": {"type": "Polygon", "coordinates": [[[-97.123202, 49.892399], [-97.123021, 49.892103], [-97.122902, 49.892133], [-97.123028, 49.892339], [-97.12297, 49.892354], [-97.122956, 49.89233], [-97.122882, 49.892349], [-97.122897, 49.892373], [-97.122762, 49.892407], [-97.122822, 49.892504], [-97.122876, 49.89249], [-97.122862, 49.892466], [-97.123139, 49.892396], [-97.123149, 49.892413], [-97.123202, 49.892399]]]}, "properties": {"display_name": "City Centre Auto, Boulevard Provencher Boulevard, North St. Boniface, St. Boniface, Winnipeg, Manitoba, R2H 0G2, Canada", "type": "car_repair", "osm_type": "way", "osm_id": 120350266, "class": null, "keyword": "city centre"}}, {"type": "Feature", "geometry": {"type": "Polygon", "coordinates": [[[-97.139515, 49.877346], [-97.139449, 49.877263], [-97.138923, 49.877438], [-97.138989, 49.877521], [-97.139515, 49.877346]]]}, "properties": {"display_name": "Midtown Car Wash, Gertrude Avenue, River–Osborne, Fort Rouge–East Fort Garry, Winnipeg, Manitoba, R3L 1Z5, Canada", "type": "car_wash", "osm_type": "way", "osm_id": 700207225, "class": null, "keyword": "midtown"}}, {"type": "Feature", "geometry": {"type": "Polygon", "coordinates": [[[-97.141004, 49.885248], [-97.14094, 49.885133], [-97.140576, 49.885213], [-97.140641, 49.885329], [-97.141004, 49.885248]]]}, "properties": {"display_name": "Midtown Manor, 30, Hargrave Street, Broadway–Assiniboine, Fort Rouge–East Fort Garry, Winnipeg, Manitoba, R3C 1N1, Canada", "type": "apartments", "osm_type": "way", "osm_id": 33068167, "class": null, "keyword": "midtown"}}, {"type": "Feature", "geometry": {"type": "Polygon", "coordinates": [[[-97.149422, 49.920147], [-97.149208, 49.920082], [-97.149076, 49.920261], [-97.14929, 49.920326], [-97.149422, 49.920147]]]}, "properties": {"display_name": "Springs Church Inner City, 648, Burrows Avenue, William Whyte, Mynarski, Winnipeg, Manitoba, R2W 2A7, Canada", "type": "place_of_worship", "osm_type": "way", "osm_id": 1327133018, "class": null, "keyword": "inner city"}}]}