{"type": "FeatureCollection", "features": [{"type": "Feature", "geometry": {"type": "Polygon", "coordinates": [[[17.025467, 51.111943], [17.025979, 51.111852], [17.025991, 51.1118], [17.026003, 51.111798], [17.02604, 51.111792], [17.026054, 51.111733], [17.026013, 51.111729], [17.026025, 51.11168], [17.026032, 51.111656], [17.026084, 51.111661], [17.026131, 51.111666], [17.026509, 51.111703], [17.026738, 51.111726], [17.02684, 51.111736], [17.026849, 51.111753], [17.026811, 51.111761], [17.026846, 51.111825], [17.026719, 51.11185], [17.026717, 51.11185], [17.026702, 51.111816], [17.026618, 51.111831], [17.026637, 51.111872], [17.026545, 51.111889], [17.02654, 51.11188], [17.026305, 51.11192], [17.026335, 51.111989], [17.026344, 51.11201], [17.026006, 51.112058], [17.026004, 51.112049], [17.025555, 51.11213], [17.025467, 51.111943]]]}, "properties": {"display_name": "Nicolas Business Center, Świętego Mikołaja, Dzielnica Czterech Wyznań, Stare Miasto, Wrocław, województwo dolnośląskie, 50-128, Polska", "type": "commercial", "osm_type": "way", "osm_id": 385679289, "class": null, "keyword": "business district"}}, {"type": "Feature", "geometry": {"type": "Polygon", "coordinates": [[[17.033648, 51.117662], [17.033969, 51.117548], [17.033688, 51.117238], [17.033854, 51.117179], [17.033933, 51.11726], [17.034186, 51.117518], [17.0339, 51.117836], [17.033801, 51.117825], [17.033648, 51.117662]]]}, "properties": {"display_name": "Verity UpTown, Śrutowa, Nadodrze, Wrocław, województwo dolnośląskie, 50-256, Polska", "type": "apartments", "osm_type": "way", "osm_id": 192317346, "class": null, "keyword": "uptown"}}, {"type": "Feature", "geometry": {"type": "Polygon", "coordinates": [[[17.029328, 51.11155], [17.029378, 51.111543], [17.029419, 51.111536], [17.029359, 51.1114], [17.0296, 51.111358], [17.029697, 51.111575], [17.029718, 51.111622], [17.029705, 51.111624], [17.029707, 51.111628], [17.029588, 51.11165], [17.029584, 51.111642], [17.029575, 51.111644], [17.029474, 51.111661], [17.029434, 51.111668], [17.029392, 51.111675], [17.029328, 51.11155]]]}, "properties": {"display_name": "Renaissance Business Centre, Kiełbaśnicza, Dzielnica Czterech Wyznań, Stare Miasto, Wrocław, województwo dolnośląskie, 50-110, Polska", "type": "commercial", "osm_type": "way", "osm_id": 101192570, "class": null, "keyword": "business district"}}, {"type": "Feature", "geometry": {"type": "Polygon", "coordinates": [[[17.025268, 51.112642], [17.025298, 51.112625], [17.025397, 51.112565], [17.025426, 51.11256], [17.025435, 51.112574], [17.025587, 51.112785], [17.025502, 51.112798], [17.025435, 51.112753], [17.025401, 51.112732], [17.025292, 51.112659], [17.025268, 51.112642]]]}, "properties": {"display_name": "Old Town Residence, Wszystkich Świętych, Dzielnica Czterech Wyznań, Stare Miasto, Wrocław, województwo dolnośląskie, 50-136, Polska", "type": "apartments", "osm_type": "way", "osm_id": 192450212, "class": null, "keyword": "old town"}}, {"type": "Feature", "geometry": {"type": "Polygon", "coordinates": [[[17.036563, 51.12295], [17.036583, 51.122943], [17.036704, 51.1229], [17.036759, 51.122906], [17.036802, 51.122906], [17.036809, 51.122927], [17.036821, 51.122963], [17.0368, 51.122972], [17.036675, 51.123024], [17.036641, 51.123039], [17.036601, 51.122993], [17.036563, 51.12295]]]}, "properties": {"display_name": "Great Polonia Wrocław City Center, 43, Świętego Wincentego, Nadodrze, Wrocław, województwo dolnośląskie, 50-251, Polska", "type": "hotel", "osm_type": "way", "osm_id": 101419006, "class": null, "keyword": "city center"}}]}