{"type": "FeatureCollection", "features": [{"type": "Feature", "geometry": {"type": "Polygon", "coordinates": [[[120.421186, 31.486124], [120.421826, 31.484747], [120.422189, 31.484863], [120.422295, 31.484741], [120.422284, 31.484603], [120.421907, 31.484507], [120.422218, 31.48396], [120.422789, 31.483025], [120.423137, 31.482323], [120.42315, 31.482254], [120.423147, 31.48219], [120.42311, 31.482082], [120.423047, 31.48191], [120.423019, 31.481769], [120.423032, 31.481663], [120.423078, 31.481568], [120.423209, 31.481444], [120.42334, 31.481382], [120.423695, 31.48126], [120.423732, 31.481272], [120.424459, 31.48098], [120.4249, 31.481691], [120.426469, 31.481243], [120.426797, 31.481897], [120.426877, 31.482094], [120.426948, 31.482333], [120.426991, 31.482519], [120.427033, 31.482587], [120.427121, 31.482727], [120.427296, 31.482998], [120.427532, 31.483574], [120.428007, 31.484662], [120.428459, 31.485721], [120.43024, 31.485109], [120.4302, 31.485024], [120.430487, 31.484928], [120.430595, 31.485152], [120.430304, 31.485246], [120.430256, 31.485182], [120.428491, 31.485782], [120.428738, 31.486346], [120.429241, 31.487514], [120.429914, 31.489127], [120.430397, 31.490253], [120.430773, 31.491094], [120.431192, 31.492068], [120.431499, 31.49277], [120.432037, 31.494013], [120.432475, 31.495042], [120.432918, 31.496045], [120.433446, 31.497221], [120.433794, 31.498067], [120.434117, 31.498815], [120.434395, 31.499582], [120.434484, 31.499785], [120.434605, 31.500016], [120.434927, 31.50077], [120.435174, 31.501259], [120.435324, 31.501776], [120.435624, 31.502656], [120.435885, 31.503237], [120.43611, 31.503701], [120.43638, 31.504121], [120.436662, 31.504931], [120.436396, 31.505317], [120.436836, 31.506335], [120.437408, 31.50767], [120.437641, 31.508235], [120.437834, 31.508656], [120.438349, 31.509888], [120.438751, 31.510785], [120.439239, 31.511978], [120.439588, 31.512772], [120.439548, 31.512927], [120.439493, 31.513079], [120.439465, 31.513094], [120.438969, 31.513716], [120.438584, 31.514157], [120.438215, 31.51461], [120.438149, 31.514682], [120.436746, 31.515663], [120.435941, 31.516191], [120.435209, 31.516448], [120.434582, 31.516522], [120.433907, 31.516439], [120.433892, 31.516403], [120.432035, 31.511935], [120.431579, 31.510904], [120.430616, 31.511196], [120.430172, 31.510082], [120.430144, 31.510011], [120.429196, 31.510307], [120.428945, 31.509722], [120.429054, 31.509688], [120.429027, 31.509626], [120.429575, 31.509455], [120.429352, 31.508936], [120.429112, 31.508376], [120.429843, 31.508148], [120.429762, 31.507942], [120.429541, 31.507997], [120.429345, 31.508088], [120.429262, 31.507897], [120.429083, 31.507483], [120.428833, 31.506903], [120.428515, 31.506167], [120.428498, 31.506082], [120.428331, 31.505682], [120.428312, 31.505637], [120.42823, 31.505662], [120.428027, 31.505177], [120.42776, 31.504539], [120.427649, 31.504273], [120.428128, 31.504127], [120.427854, 31.503471], [120.428001, 31.503426], [120.427768, 31.502849], [120.42744, 31.502941], [120.426529, 31.503225], [120.426233, 31.502483], [120.427644, 31.502043], [120.425904, 31.498002], [120.421731, 31.488303], [120.421775, 31.488238], [120.422022, 31.488157], [120.421186, 31.486124]]]}, "properties": {"display_name": "无锡硕放机场, 1, 机场路, 硕放街道, 新吴区, 无锡市, 江苏省, 214028, 中国", "type": "aerodrome", "osm_type": "way", "osm_id": 548182726, "class": null, "keyword": "district"}}, {"type": "Feature", "geometry": {"type": "Polygon", "coordinates": [[[120.362334, 31.513177], [120.36345, 31.512054], [120.364296, 31.511104], [120.364377, 31.510841], [120.36589, 31.509108], [120.366166, 31.508997], [120.367052, 31.509801], [120.367312, 31.509607], [120.369044, 31.508027], [120.369834, 31.508425], [120.370413, 31.508656], [120.371276, 31.508855], [120.371522, 31.508971], [120.374024, 31.510904], [120.368676, 31.515925], [120.367707, 31.515532], [120.368287, 31.514956], [120.364647, 31.514032], [120.363824, 31.513743], [120.36258, 31.513296], [120.362334, 31.513177]]]}, "properties": {"display_name": "中储发展股份有限公司无锡物流中心, 旺庄街道, 新吴区, 无锡市, 江苏省, 214000, 中国", "type": "industrial", "osm_type": "way", "osm_id": 653677159, "class": null, "keyword": "district"}}, {"type": "Feature", "geometry": {"type": "Polygon", "coordinates": [[[120.461086, 31.630501], [120.464097, 31.631107], [120.464562, 31.630878], [120.464697, 31.629835], [120.465051, 31.629666], [120.466451, 31.629986], [120.466957, 31.62992], [120.469949, 31.630317], [120.469029, 31.635241], [120.468774, 31.63553], [120.468449, 31.635681], [120.461254, 31.635645], [120.461156, 31.635545], [120.461086, 31.630501]]]}, "properties": {"display_name": "无锡现代农业博览园, 安镇街道, 锡山区, 无锡市, 江苏省, 214100, 中国", "type": "park", "osm_type": "way", "osm_id": 684347797, "class": null, "keyword": "district"}}, {"type": "Feature", "geometry": {"type": "Polygon", "coordinates": [[[120.258078, 31.548697], [120.258231, 31.547698], [120.258274, 31.546997], [120.258426, 31.543195], [120.258475, 31.543121], [120.26536, 31.543173], [120.265408, 31.543211], [120.265365, 31.544249], [120.265172, 31.548876], [120.26509, 31.548924], [120.258153, 31.54877], [120.2581, 31.548737], [120.258078, 31.548697]]]}, "properties": {"display_name": "无锡体育中心, Wuhu Avenue, 北陆巷, 河埒街道, 滨湖区, 无锡市, 江苏省, 214000, 中国", "type": "sports_centre", "osm_type": "way", "osm_id": 238270068, "class": null, "keyword": "district"}}, {"type": "Feature", "geometry": {"type": "Polygon", "coordinates": [[[120.319374, 31.562662], [120.320017, 31.558941], [120.323459, 31.559356], [120.326411, 31.559265], [120.326273, 31.560125], [120.327633, 31.560332], [120.325205, 31.563549], [120.321445, 31.563384], [120.320157, 31.563206], [120.320205, 31.562955], [120.319597, 31.562873], [120.319595, 31.562696], [120.319374, 31.562662]]]}, "properties": {"display_name": "无锡招商城, 江溪街道, 新吴区, 无锡市, 江苏省, 214000, 中国", "type": "retail", "osm_type": "way", "osm_id": 224192877, "class": null, "keyword": "district"}}, {"type": "Feature", "geometry": {"type": "Polygon", "coordinates": [[[120.227975, 31.582631], [120.228116, 31.581933], [120.22831, 31.581504], [120.228406, 31.58159], [120.228593, 31.581682], [120.22897, 31.581631], [120.229375, 31.581662], [120.229546, 31.581505], [120.229867, 31.581359], [120.230223, 31.581351], [120.230437, 31.581415], [120.230426, 31.581625], [120.230608, 31.581816], [120.230952, 31.581991], [120.231532, 31.582201], [120.231864, 31.582301], [120.232282, 31.582283], [120.232637, 31.582393], [120.232733, 31.582576], [120.232894, 31.582804], [120.232851, 31.583097], [120.23255, 31.583315], [120.232271, 31.583424], [120.231927, 31.583315], [120.231532, 31.583151], [120.230897, 31.583187], [120.230587, 31.583014], [120.229954, 31.583023], [120.229482, 31.583051], [120.229042, 31.583215], [120.228903, 31.583526], [120.228828, 31.583864], [120.228934, 31.58421], [120.229118, 31.584632], [120.229289, 31.585079], [120.229224, 31.585435], [120.229289, 31.585738], [120.229407, 31.585929], [120.22975, 31.586149], [120.230018, 31.586029], [120.230447, 31.585773], [120.230577, 31.585445], [120.230801, 31.585161], [120.231273, 31.584887], [120.231693, 31.584698], [120.232248, 31.584664], [120.23265, 31.584636], [120.23313, 31.58444], [120.233837, 31.58421], [120.23474, 31.583846], [120.235017, 31.583863], [120.235383, 31.584193], [120.235512, 31.584467], [120.235479, 31.584685], [120.235158, 31.584942], [120.23491, 31.585188], [120.234729, 31.585491], [120.234696, 31.586021], [120.2349, 31.586213], [120.234847, 31.586386], [120.234588, 31.586806], [120.234353, 31.586816], [120.233936, 31.586747], [120.233615, 31.586765], [120.233285, 31.586602], [120.232636, 31.586705], [120.232422, 31.586852], [120.232315, 31.587035], [120.232326, 31.587291], [120.23254, 31.587529], [120.232282, 31.587757], [120.232132, 31.588159], [120.231928, 31.588552], [120.23181, 31.589009], [120.231735, 31.589357], [120.231732, 31.589771], [120.230172, 31.589942], [120.23005, 31.589144], [120.229733, 31.587915], [120.229275, 31.586564], [120.228489, 31.584504], [120.228045, 31.583417], [120.228383, 31.583275], [120.228336, 31.582756], [120.227975, 31.582631]]]}, "properties": {"display_name": "无锡动物园, 荣巷街道, 滨湖区, 无锡市, 江苏省, 214000, 中国", "type": "park", "osm_type": "way", "osm_id": 221496135, "class": null, "keyword": "district"}}, {"type": "Feature", "geometry": {"type": "Polygon", "coordinates": [[[120.410001, 31.582557], [120.410462, 31.580322], [120.410837, 31.580304], [120.411787, 31.580638], [120.412028, 31.580747], [120.41331, 31.580391], [120.412774, 31.578878], [120.414228, 31.5788], [120.414738, 31.579998], [120.415349, 31.579893], [120.415462, 31.580226], [120.416524, 31.580199], [120.416497, 31.579491], [120.418911, 31.579431], [120.418916, 31.579605], [120.419759, 31.579399], [120.419962, 31.579888], [120.418954, 31.580185], [120.418873, 31.581552], [120.418552, 31.581849], [120.41823, 31.581981], [120.416143, 31.582082], [120.413074, 31.582923], [120.412415, 31.581602], [120.411556, 31.581803], [120.411921, 31.582799], [120.410001, 31.582557]]]}, "properties": {"display_name": "GCL Wuxi Lantian Gas Thermal Power Plant, 梅村街道, 新吴区, 无锡市, 江苏省, 214000, 中国", "type": "industrial", "osm_type": "way", "osm_id": 975151311, "class": null, "keyword": "district"}}, {"type": "Feature", "geometry": {"type": "Polygon", "coordinates": [[[120.299502, 31.492029], [120.299865, 31.490233], [120.300955, 31.485246], [120.303616, 31.48568], [120.303207, 31.487778], [120.302254, 31.49223], [120.302074, 31.493063], [120.30201, 31.49311], [120.301914, 31.493118], [120.300637, 31.492672], [120.299793, 31.492338], [120.299502, 31.492029]]]}, "properties": {"display_name": "太湖新城金融商务街, 立信大道, 海岸城·馨园, 太湖街道, 滨湖区, 无锡市, 江苏省, 214000, 中国", "type": "financial", "osm_type": "way", "osm_id": 685767747, "class": null, "keyword": "financial district"}}, {"type": "Feature", "geometry": {"type": "Polygon", "coordinates": [[[120.36657, 31.521255], [120.369075, 31.519023], [120.373826, 31.522286], [120.373576, 31.522553], [120.372265, 31.523955], [120.37216, 31.523896], [120.371715, 31.52422], [120.371197, 31.5243], [120.371033, 31.524403], [120.36657, 31.521255]]]}, "properties": {"display_name": "村田新能源(无锡)有限公司, 旺庄街道, 新吴区, 无锡市, 江苏省, 214000, 中国", "type": "industrial", "osm_type": "way", "osm_id": 638555125, "class": null, "keyword": "district"}}, {"type": "Feature", "geometry": {"type": "Polygon", "coordinates": [[[120.407276, 31.455439], [120.409148, 31.455211], [120.409205, 31.455442], [120.408698, 31.455668], [120.40905, 31.456058], [120.409805, 31.45639], [120.41081, 31.456103], [120.411119, 31.456694], [120.411684, 31.456522], [120.412098, 31.454825], [120.412701, 31.454492], [120.413283, 31.454163], [120.415373, 31.454524], [120.414477, 31.457891], [120.413873, 31.457804], [120.412249, 31.457578], [120.411362, 31.457721], [120.409656, 31.458279], [120.407575, 31.457538], [120.407854, 31.456367], [120.407466, 31.456051], [120.4073, 31.45577], [120.407276, 31.455439]]]}, "properties": {"display_name": "无锡中关村科技创新园, 新安街道, 新吴区, 无锡市, 江苏省, 214000, 中国", "type": "commercial", "osm_type": "way", "osm_id": 687902301, "class": null, "keyword": "district"}}, {"type": "Feature", "geometry": {"type": "Polygon", "coordinates": [[[120.2659, 31.583063], [120.265972, 31.582986], [120.266278, 31.583164], [120.267017, 31.582303], [120.267135, 31.581948], [120.267034, 31.581925], [120.267042, 31.581851], [120.267055, 31.581771], [120.267243, 31.581777], [120.267281, 31.581452], [120.267358, 31.581461], [120.26833, 31.581553], [120.269276, 31.581689], [120.269414, 31.581323], [120.27004, 31.581512], [120.270162, 31.581605], [120.270152, 31.581651], [120.270145, 31.581708], [120.270145, 31.581773], [120.271041, 31.581983], [120.271572, 31.582058], [120.271605, 31.581978], [120.271891, 31.581994], [120.27239, 31.58205], [120.27269, 31.582082], [120.272771, 31.582125], [120.272967, 31.582072], [120.273203, 31.581929], [120.273034, 31.582274], [120.272953, 31.582404], [120.272733, 31.582929], [120.272728, 31.583028], [120.272642, 31.583135], [120.272398, 31.583871], [120.27225, 31.584193], [120.272057, 31.584549], [120.271691, 31.585024], [120.270725, 31.585855], [120.269939, 31.586494], [120.269826, 31.586382], [120.270055, 31.586167], [120.269802, 31.585936], [120.269866, 31.585885], [120.269565, 31.585659], [120.269441, 31.585722], [120.269088, 31.585297], [120.268869, 31.585125], [120.268798, 31.585205], [120.268598, 31.58503], [120.269262, 31.58444], [120.269056, 31.584211], [120.268752, 31.584445], [120.268634, 31.584327], [120.268852, 31.584152], [120.2683, 31.583699], [120.267417, 31.582924], [120.267077, 31.583256], [120.266832, 31.583171], [120.266433, 31.583622], [120.266155, 31.583437], [120.265981, 31.583322], [120.266027, 31.58316], [120.2659, 31.583063]]]}, "properties": {"display_name": "惠山古镇, 惠山街道, 梁溪区, 无锡市, 江苏省, 214000, 中国", "type": "commercial", "osm_type": "way", "osm_id": 298295071, "class": null, "keyword": "old town"}}, {"type": "Feature", "geometry": {"type": "Polygon", "coordinates": [[[120.231823, 31.548406], [120.232987, 31.547641], [120.234006, 31.547055], [120.236605, 31.545267], [120.237162, 31.545627], [120.237552, 31.54585], [120.237369, 31.548031], [120.237194, 31.549773], [120.236882, 31.550005], [120.234532, 31.549946], [120.233757, 31.549857], [120.233068, 31.549625], [120.23237, 31.549343], [120.231823, 31.548406]]]}, "properties": {"display_name": "无锡国家集成电路设计中心, 蠡园街道, 滨湖区, 无锡市, 江苏省, 214000, 中国", "type": "commercial", "osm_type": "way", "osm_id": 742387056, "class": null, "keyword": "中心城区"}}, {"type": "Feature", "geometry": {"type": "Polygon", "coordinates": [[[120.232219, 31.558352], [120.232782, 31.553947], [120.232927, 31.55392], [120.234603, 31.554336], [120.236585, 31.554912], [120.23624, 31.55625], [120.236094, 31.556555], [120.236679, 31.556723], [120.23644, 31.557436], [120.236407, 31.557447], [120.23558, 31.557342], [120.235523, 31.557783], [120.234911, 31.557769], [120.234887, 31.558491], [120.234809, 31.55856], [120.234726, 31.55882], [120.234839, 31.558871], [120.234818, 31.558978], [120.232264, 31.558436], [120.232219, 31.558352]]]}, "properties": {"display_name": "无锡联勤保障中心, 荣巷街道, 滨湖区, 无锡市, 江苏省, 214000, 中国", "type": "military", "osm_type": "way", "osm_id": 1412147409, "class": null, "keyword": "district"}}, {"type": "Feature", "geometry": {"type": "Polygon", "coordinates": [[[120.464183, 31.698215], [120.464375, 31.696284], [120.464495, 31.695072], [120.464655, 31.69428], [120.464689, 31.694181], [120.464924, 31.693496], [120.465174, 31.693396], [120.467285, 31.694128], [120.46687, 31.698394], [120.464183, 31.698215]]]}, "properties": {"display_name": "东亚电力(无锡)有限公司, 东港镇, 锡山区, 无锡市, 江苏省, 214100, 中国", "type": "industrial", "osm_type": "way", "osm_id": 1038392341, "class": null, "keyword": "district"}}, {"type": "Feature", "geometry": {"type": "Polygon", "coordinates": [[[120.359983, 31.531135], [120.361991, 31.529172], [120.365006, 31.531411], [120.364768, 31.531644], [120.364632, 31.531543], [120.36418, 31.531984], [120.364369, 31.532124], [120.363051, 31.533413], [120.359983, 31.531135]]]}, "properties": {"display_name": "江森自控空调冷冻设备(无锡)有限公司, 旺庄街道, 新吴区, 无锡市, 江苏省, 214000, 中国", "type": "industrial", "osm_type": "way", "osm_id": 801817229, "class": null, "keyword": "district"}}, {"type": "Feature", "geometry": {"type": "Polygon", "coordinates": [[[120.374162, 31.539476], [120.37718, 31.535794], [120.379069, 31.536918], [120.376051, 31.5406], [120.374162, 31.539476]]]}, "properties": {"display_name": "英飞凌科技(无锡)有限公司, 旺庄街道, 新吴区, 无锡市, 江苏省, 214000, 中国", "type": "industrial", "osm_type": "way", "osm_id": 676624339, "class": null, "keyword": "district"}}, {"type": "Feature", "geometry": {"type": "Polygon", "coordinates": [[[120.225849, 31.594198], [120.226332, 31.592661], [120.226254, 31.59264], [120.226358, 31.592352], [120.229044, 31.593027], [120.229084, 31.592989], [120.229537, 31.5931], [120.229736, 31.593401], [120.22986, 31.594519], [120.229766, 31.595244], [120.229689, 31.595271], [120.227714, 31.594676], [120.225849, 31.594198]]]}, "properties": {"display_name": "无锡市精神卫生中心, 勤新路, 荣巷街道, 滨湖区, 无锡市, 江苏省, 214000, 中国", "type": "hospital", "osm_type": "way", "osm_id": 761384053, "class": null, "keyword": "市中心"}}, {"type": "Feature", "geometry": {"type": "Polygon", "coordinates": [[[120.439871, 31.589074], [120.442274, 31.5871], [120.443982, 31.588662], [120.441624, 31.590511], [120.439871, 31.589074]]]}, "properties": {"display_name": "无锡浙大网新国际科技创新园, 安镇街道, 锡山区, 无锡市, 江苏省, 214100, 中国", "type": "commercial", "osm_type": "way", "osm_id": 964221222, "class": null, "keyword": "district"}}, {"type": "Feature", "geometry": {"type": "Polygon", "coordinates": [[[120.231613, 31.634117], [120.235657, 31.633876], [120.235737, 31.635024], [120.234732, 31.635385], [120.233696, 31.635649], [120.231746, 31.635734], [120.231613, 31.634117]]]}, "properties": {"display_name": "无锡西区燃气热电有限公司, 钱桥街道, 惠山区, 无锡市, 江苏省, 214100, 中国", "type": "industrial", "osm_type": "way", "osm_id": 1085889405, "class": null, "keyword": "district"}}, {"type": "Feature", "geometry": {"type": "Polygon", "coordinates": [[[120.389975, 31.640638], [120.393154, 31.640374], [120.393245, 31.641397], [120.393347, 31.642265], [120.390451, 31.642498], [120.39037, 31.641643], [120.390066, 31.641635], [120.389975, 31.640638]]]}, "properties": {"display_name": "无锡市毛纺织工程技术研究中心, 芙蓉一路, 云林街道, 锡山区, 无锡市, 江苏省, 214100, 中国", "type": "yes", "osm_type": "way", "osm_id": 965861850, "class": null, "keyword": "中心城区"}}, {"type": "Feature", "geometry": {"type": "Polygon", "coordinates": [[[120.323898, 31.492556], [120.324129, 31.491378], [120.324298, 31.490489], [120.324327, 31.490409], [120.324392, 31.490345], [120.324454, 31.490284], [120.324534, 31.490236], [120.324607, 31.490199], [120.3247, 31.490174], [120.324794, 31.490155], [120.324896, 31.490158], [120.326484, 31.490487], [120.325902, 31.492587], [120.325695, 31.493333], [120.325658, 31.493359], [120.325123, 31.49325], [120.325143, 31.493166], [120.325162, 31.49308], [120.325132, 31.492993], [120.325087, 31.492926], [120.324998, 31.492871], [120.32491, 31.492835], [120.324732, 31.492798], [120.323944, 31.492643], [120.323898, 31.492601], [120.323898, 31.492556]]]}, "properties": {"display_name": "江南中学新城校区, 和畅路, 雅居乐, 华庄街道, 滨湖区, 无锡市, 江苏省, 214000, 中国", "type": "school", "osm_type": "way", "osm_id": 1183363336, "class": null, "keyword": "中心城区"}}, {"type": "Feature", "geometry": {"type": "Polygon", "coordinates": [[[120.381628, 31.562902], [120.383809, 31.562758], [120.383926, 31.564963], [120.383095, 31.565023], [120.383124, 31.565267], [120.382168, 31.565196], [120.382004, 31.565119], [120.381757, 31.565137], [120.381628, 31.562902]]]}, "properties": {"display_name": "新城中学, 新光路, 万裕苑, 江溪街道, 新吴区, 无锡市, 江苏省, 214000, 中国", "type": "school", "osm_type": "way", "osm_id": 234736723, "class": null, "keyword": "中心城区"}}, {"type": "Feature", "geometry": {"type": "Polygon", "coordinates": [[[120.282229, 31.926139], [120.282528, 31.925703], [120.283308, 31.92476], [120.285507, 31.925402], [120.285348, 31.925763], [120.28519, 31.925988], [120.284788, 31.92629], [120.28434, 31.926492], [120.283779, 31.926623], [120.283467, 31.926627], [120.282285, 31.926214], [120.282229, 31.926139]]]}, "properties": {"display_name": "江阴市民水上活动中心, 澄江街道, 江阴市, 无锡市, 江苏省, 214400, 中国", "type": "park", "osm_type": "way", "osm_id": 1218042860, "class": null, "keyword": "市中心"}}, {"type": "Feature", "geometry": {"type": "Polygon", "coordinates": [[[120.301822, 31.481711], [120.302177, 31.479784], [120.304565, 31.480103], [120.304438, 31.480791], [120.30337, 31.480648], [120.303142, 31.481888], [120.301822, 31.481711]]]}, "properties": {"display_name": "银华金融大厦, 太湖街道, 滨湖区, 无锡市, 江苏省, 214000, 中国", "type": "commercial", "osm_type": "way", "osm_id": 687887561, "class": null, "keyword": "financial district"}}, {"type": "Feature", "geometry": {"type": "Polygon", "coordinates": [[[120.362544, 31.467156], [120.362617, 31.46604], [120.362981, 31.46604], [120.362976, 31.465921], [120.363303, 31.465908], [120.363282, 31.465656], [120.365422, 31.465711], [120.365438, 31.466109], [120.365014, 31.466091], [120.364982, 31.466031], [120.364575, 31.466188], [120.364537, 31.467188], [120.363416, 31.467183], [120.362544, 31.467156]]]}, "properties": {"display_name": "无锡(太湖)国际科技园管理委员会, 通锡高速, 裕沁湖畔庭-东区, 新安街道, 新吴区, 无锡市, 江苏省, 214000, 中国", "type": "government", "osm_type": "way", "osm_id": 687905904, "class": null, "keyword": "district"}}, {"type": "Feature", "geometry": {"type": "Polygon", "coordinates": [[[120.293763, 31.510559], [120.293822, 31.510312], [120.294508, 31.510537], [120.294648, 31.510262], [120.296012, 31.510581], [120.295964, 31.511363], [120.295485, 31.511424], [120.295458, 31.511602], [120.29495, 31.511602], [120.29475, 31.511602], [120.294573, 31.51168], [120.293779, 31.511337], [120.293763, 31.510559]]]}, "properties": {"display_name": "江苏省无锡立信中等专业学校, 周新路, 蠡江新村, 太湖街道, 滨湖区, 无锡市, 江苏省, 214000, 中国", "type": "school", "osm_type": "way", "osm_id": 685766796, "class": null, "keyword": "中心商圈"}}, {"type": "Feature", "geometry": {"type": "Polygon", "coordinates": [[[120.290015, 31.878202], [120.291155, 31.877695], [120.29227, 31.878726], [120.292048, 31.878935], [120.290483, 31.878883], [120.290015, 31.878202]]]}, "properties": {"display_name": "江阴市公路事业发展中心, 澄江街道, 江阴市, 无锡市, 江苏省, 214400, 中国", "type": "commercial", "osm_type": "way", "osm_id": 1218297269, "class": null, "keyword": "市中心"}}, {"type": "Feature", "geometry": {"type": "Polygon", "coordinates": [[[120.386828, 31.499977], [120.387886, 31.498972], [120.388282, 31.499285], [120.387215, 31.500271], [120.386828, 31.499977]]]}, "properties": {"display_name": "无锡新区站, 新华路, 旺庄街道, 新吴区, 无锡市, 江苏省, 214000, 中国", "type": "train_station", "osm_type": "way", "osm_id": 165144877, "class": null, "keyword": "district"}}, {"type": "Feature", "geometry": {"type": "Polygon", "coordinates": [[[120.104631, 31.438768], [120.104647, 31.438352], [120.105135, 31.438338], [120.105119, 31.43826], [120.1055, 31.438201], [120.10565, 31.438201], [120.10565, 31.438764], [120.105012, 31.438787], [120.104631, 31.438768]]]}, "properties": {"display_name": "无锡市马山城乡敬老院, 竹溪路, 马山, 马山街道, 滨湖区, 无锡市, 江苏省, 214000, 中国", "type": "social_facility", "osm_type": "way", "osm_id": 767781875, "class": null, "keyword": "老城区"}}, {"type": "Feature", "geometry": {"type": "Polygon", "coordinates": [[[120.26751, 31.904604], [120.267522, 31.904563], [120.267623, 31.903949], [120.267921, 31.903989], [120.267909, 31.904095], [120.268293, 31.904149], [120.268248, 31.904423], [120.268205, 31.904686], [120.26751, 31.904604]]]}, "properties": {"display_name": "江阴市老年文化活动中心, 澄江街道, 江阴市, 无锡市, 江苏省, 214400, 中国", "type": "commercial", "osm_type": "way", "osm_id": 1220973791, "class": null, "keyword": "市中心"}}, {"type": "Feature", "geometry": {"type": "Polygon", "coordinates": [[[120.316385, 31.543677], [120.316496, 31.543572], [120.316565, 31.543626], [120.316605, 31.543587], [120.317264, 31.544086], [120.317228, 31.544123], [120.317628, 31.54442], [120.317497, 31.544552], [120.316427, 31.543755], [120.316455, 31.54373], [120.316385, 31.543677]]]}, "properties": {"display_name": "无锡市疾控中心, 金城路, 五星小区-五星东区, 清名桥街道, 梁溪区, 无锡市, 江苏省, 214000, 中国", "type": "yes", "osm_type": "way", "osm_id": 308702374, "class": null, "keyword": "city center"}}, {"type": "Feature", "geometry": {"type": "Polygon", "coordinates": [[[120.27851, 31.528217], [120.27851, 31.527683], [120.279273, 31.527679], [120.279276, 31.527828], [120.278705, 31.527825], [120.278707, 31.528076], [120.279283, 31.528065], [120.279296, 31.528211], [120.27851, 31.528217]]]}, "properties": {"display_name": "无锡市城市规划编制研究中心, 会友西路, 蠡湖社区, 蠡湖街道, 滨湖区, 无锡市, 江苏省, 214000, 中国", "type": "research", "osm_type": "way", "osm_id": 297995632, "class": null, "keyword": "中心城区"}}, {"type": "Feature", "geometry": {"type": "Polygon", "coordinates": [[[120.291222, 31.571234], [120.291259, 31.571184], [120.291543, 31.571103], [120.291724, 31.571568], [120.291721, 31.57165], [120.29127, 31.571637], [120.291238, 31.571566], [120.291222, 31.571234]]]}, "properties": {"display_name": "无锡清真寺, 解放南路, 学前街, 崇安寺街道, 梁溪区, 无锡市, 江苏省, 214000, 中国", "type": "place_of_worship", "osm_type": "way", "osm_id": 245135762, "class": null, "keyword": "district"}}, {"type": "Feature", "geometry": {"type": "Polygon", "coordinates": [[[120.336832, 31.548028], [120.336856, 31.547996], [120.336833, 31.547983], [120.336911, 31.547881], [120.336942, 31.547899], [120.33703, 31.547784], [120.337143, 31.547847], [120.337049, 31.54797], [120.337085, 31.54799], [120.337029, 31.548063], [120.336992, 31.548042], [120.336952, 31.548094], [120.336832, 31.548028]]]}, "properties": {"display_name": "无锡南, 兴源中路, 清名桥街道, 梁溪区, 无锡市, 江苏省, 214000, 中国", "type": "train_station", "osm_type": "way", "osm_id": 788695624, "class": null, "keyword": "district"}}]}