{"type": "FeatureCollection", "features": [{"type": "Feature", "geometry": {"type": "Polygon", "coordinates": [[[114.47707, 37.111699], [114.47834, 37.107719], [114.481054, 37.10531], [114.482499, 37.103983], [114.483462, 37.097419], [114.487358, 37.097454], [114.488015, 37.096406], [114.492787, 37.096441], [114.493444, 37.09878], [114.493499, 37.098777], [114.49601, 37.098742], [114.496062, 37.099687], [114.498137, 37.099869], [114.499989, 37.099779], [114.499942, 37.100268], [114.500785, 37.100303], [114.500755, 37.101198], [114.499882, 37.101187], [114.499822, 37.101812], [114.500579, 37.101889], [114.50055, 37.102442], [114.50128, 37.102445], [114.501472, 37.100061], [114.502664, 37.100116], [114.502783, 37.098693], [114.501826, 37.098627], [114.501938, 37.097597], [114.502076, 37.095785], [114.500898, 37.095754], [114.50081, 37.095039], [114.499944, 37.095033], [114.499908, 37.094614], [114.500354, 37.094527], [114.500342, 37.093866], [114.50027, 37.093614], [114.500315, 37.093283], [114.500143, 37.09321], [114.500104, 37.092815], [114.497386, 37.093376], [114.497044, 37.092552], [114.49728, 37.091425], [114.503352, 37.091347], [114.503983, 37.089719], [114.505345, 37.090043], [114.505691, 37.090082], [114.506215, 37.090075], [114.506658, 37.090003], [114.507539, 37.089734], [114.507655, 37.091279], [114.509115, 37.091238], [114.509162, 37.092481], [114.513132, 37.092504], [114.513197, 37.093821], [114.515272, 37.093758], [114.51527, 37.095492], [114.521292, 37.095185], [114.521247, 37.098717], [114.521945, 37.098711], [114.521989, 37.093927], [114.521113, 37.086628], [114.521507, 37.085475], [114.523433, 37.08558], [114.532803, 37.088409], [114.537137, 37.088339], [114.538319, 37.08565], [114.537575, 37.077023], [114.537944, 37.073668], [114.538986, 37.072676], [114.539098, 37.070797], [114.545597, 37.071421], [114.550256, 37.071843], [114.553119, 37.0724], [114.553463, 37.073905], [114.55811, 37.073914], [114.557766, 37.076513], [114.569375, 37.076486], [114.57005, 37.076484], [114.569088, 37.084752], [114.568679, 37.088269], [114.568292, 37.095521], [114.568297, 37.095649], [114.568431, 37.099045], [114.568575, 37.102707], [114.568632, 37.104141], [114.554965, 37.103963], [114.551604, 37.103918], [114.547811, 37.103867], [114.547821, 37.106051], [114.547822, 37.106325], [114.547848, 37.112243], [114.54786, 37.114944], [114.547893, 37.122266], [114.54796, 37.128072], [114.548027, 37.13382], [114.548063, 37.137038], [114.547633, 37.138233], [114.54053, 37.138354], [114.538506, 37.138691], [114.532134, 37.139394], [114.531056, 37.139356], [114.525672, 37.136333], [114.517257, 37.134653], [114.516682, 37.134538], [114.515074, 37.134217], [114.504862, 37.130563], [114.503136, 37.127016], [114.50278, 37.127005], [114.499385, 37.126895], [114.493829, 37.126716], [114.489466, 37.124809], [114.483968, 37.122405], [114.481173, 37.121131], [114.482805, 37.119415], [114.482149, 37.118193], [114.48228, 37.114074], [114.477683, 37.114248], [114.47707, 37.111699]], [[114.503676, 37.098335], [114.503827, 37.098365], [114.504043, 37.098486], [114.504177, 37.09849], [114.504243, 37.098374], [114.505034, 37.098382], [114.505217, 37.098471], [114.506455, 37.098505], [114.506536, 37.098672], [114.5089, 37.098594], [114.509163, 37.098595], [114.50927, 37.099224], [114.509382, 37.100853], [114.510147, 37.10095], [114.510255, 37.10104], [114.511822, 37.101032], [114.511822, 37.100104], [114.510212, 37.100095], [114.510071, 37.100189], [114.509458, 37.100213], [114.509323, 37.099207], [114.509162, 37.098013], [114.509081, 37.097914], [114.508613, 37.097892], [114.508521, 37.097353], [114.506637, 37.097403], [114.505916, 37.097349], [114.505576, 37.097348], [114.504354, 37.097473], [114.504311, 37.097417], [114.504215, 37.097417], [114.504053, 37.097583], [114.503891, 37.097822], [114.503698, 37.097975], [114.503676, 37.098335]]]}, "properties": {"display_name": "豫让桥街道, 翟村, 襄都区, 河北省, 054000, 中国", "type": "administrative", "osm_type": "relation", "osm_id": 9828726, "class": null, "keyword": "subdistrict"}}, {"type": "Feature", "geometry": {"type": "Polygon", "coordinates": [[[114.485255, 37.001398], [114.485709, 36.997932], [114.48654, 36.997308], [114.493816, 36.997127], [114.494748, 36.993287], [114.497366, 36.992925], [114.500111, 36.993628], [114.503258, 36.993749], [114.503645, 36.99535], [114.503557, 36.997727], [114.503382, 36.998357], [114.503032, 37.003741], [114.501149, 37.003881], [114.501018, 37.005909], [114.502813, 37.006118], [114.503076, 37.008006], [114.503127, 37.00992], [114.509744, 37.010164], [114.508005, 37.010669], [114.50658, 37.011184], [114.506812, 37.01367], [114.510037, 37.01339], [114.509993, 37.015767], [114.507122, 37.016061], [114.507805, 37.022028], [114.510507, 37.023204], [114.515305, 37.023882], [114.529797, 37.023211], [114.529737, 37.024423], [114.529823, 37.025469], [114.522126, 37.026636], [114.521707, 37.028972], [114.517824, 37.028951], [114.517803, 37.031607], [114.521707, 37.032186], [114.521551, 37.036704], [114.517173, 37.036669], [114.5173, 37.038115], [114.521704, 37.038703], [114.521779, 37.040581], [114.523545, 37.040658], [114.523471, 37.044501], [114.522088, 37.044573], [114.520041, 37.044653], [114.520035, 37.044811], [114.52002, 37.045252], [114.519696, 37.045303], [114.519632, 37.048092], [114.519093, 37.048107], [114.519093, 37.049101], [114.517456, 37.049147], [114.51733, 37.048255], [114.517287, 37.047852], [114.516242, 37.047815], [114.515412, 37.047804], [114.515326, 37.04771], [114.513603, 37.047688], [114.513603, 37.048141], [114.513711, 37.048159], [114.5137, 37.048287], [114.513603, 37.048295], [114.513656, 37.049066], [114.512324, 37.049034], [114.50887, 37.048931], [114.50887, 37.04728], [114.508009, 37.047287], [114.507879, 37.047689], [114.507131, 37.047675], [114.507131, 37.047869], [114.50687, 37.047904], [114.506888, 37.048972], [114.504854, 37.048993], [114.505567, 37.046274], [114.506088, 37.046364], [114.506114, 37.046149], [114.505636, 37.046059], [114.505636, 37.045989], [114.503959, 37.045858], [114.50395, 37.045982], [114.501873, 37.045948], [114.50209, 37.047405], [114.50249, 37.048966], [114.498716, 37.048972], [114.498647, 37.050367], [114.498743, 37.050721], [114.499508, 37.050728], [114.49949, 37.052033], [114.499299, 37.052025], [114.49929, 37.052969], [114.499542, 37.052983], [114.499542, 37.053965], [114.498108, 37.053947], [114.497838, 37.054031], [114.497351, 37.054412], [114.497152, 37.054454], [114.49716, 37.0512], [114.497238, 37.045905], [114.496256, 37.045892], [114.496204, 37.044656], [114.493474, 37.044726], [114.493596, 37.038813], [114.490839, 37.038819], [114.489866, 37.036123], [114.488814, 37.035831], [114.488011, 37.03252], [114.4898, 37.029379], [114.490518, 37.028118], [114.49173, 37.02599], [114.49429, 37.018983], [114.494977, 37.019033], [114.496484, 37.015322], [114.495753, 37.015322], [114.496264, 37.014142], [114.496295, 37.014071], [114.497351, 37.011702], [114.496996, 37.011709], [114.496012, 37.011725], [114.494899, 37.011742], [114.492756, 37.011776], [114.492676, 37.012189], [114.490972, 37.012174], [114.489973, 37.011669], [114.490383, 37.010031], [114.48876, 37.009874], [114.488423, 37.004999], [114.487868, 37.003706], [114.487092, 37.002708], [114.485255, 37.001398]], [[114.496189, 37.037057], [114.496193, 37.037241], [114.497131, 37.03724], [114.497131, 37.036581], [114.496695, 37.036597], [114.49642, 37.036818], [114.496189, 37.037057]], [[114.501567, 37.040905], [114.502838, 37.040899], [114.502855, 37.039158], [114.502284, 37.039156], [114.502262, 37.039396], [114.501594, 37.039399], [114.501567, 37.040905]], [[114.504417, 37.037655], [114.505274, 37.037654], [114.505274, 37.037457], [114.504422, 37.037459], [114.504417, 37.037655]], [[114.506528, 37.040384], [114.506539, 37.040918], [114.50748, 37.040955], [114.507507, 37.040994], [114.508806, 37.041088], [114.509065, 37.040866], [114.510238, 37.040866], [114.510282, 37.040301], [114.510266, 37.040001], [114.508924, 37.039993], [114.508817, 37.040523], [114.508337, 37.040504], [114.507508, 37.04043], [114.506528, 37.040384]], [[114.50991, 37.044306], [114.510868, 37.044284], [114.51089, 37.044036], [114.511827, 37.044073], [114.511833, 37.044753], [114.512599, 37.04479], [114.512565, 37.045405], [114.515173, 37.045448], [114.515625, 37.045072], [114.516045, 37.044629], [114.516843, 37.043707], [114.517299, 37.043188], [114.519476, 37.043134], [114.519723, 37.042339], [114.517968, 37.042299], [114.515711, 37.042471], [114.513363, 37.042482], [114.513288, 37.042755], [114.512577, 37.042761], [114.512577, 37.043728], [114.511838, 37.043714], [114.511805, 37.043987], [114.5109, 37.043958], [114.51089, 37.043839], [114.510837, 37.043514], [114.50992, 37.043382], [114.50991, 37.044306]], [[114.510952, 37.046813], [114.510974, 37.047079], [114.512482, 37.047075], [114.512492, 37.046835], [114.510952, 37.046813]]]}, "properties": {"display_name": "东郭村镇, 襄都区, 河北省, 054000, 中国", "type": "administrative", "osm_type": "relation", "osm_id": 9831421, "class": null, "keyword": "subdistrict"}}, {"type": "Feature", "geometry": {"type": "Polygon", "coordinates": [[[114.492928, 37.088653], [114.495428, 37.089071], [114.495967, 37.089125], [114.496354, 37.089331], [114.496355, 37.088827], [114.496272, 37.088829], [114.495601, 37.088842], [114.494345, 37.088658], [114.494454, 37.088351], [114.495445, 37.088354], [114.49553, 37.087601], [114.495499, 37.087239], [114.497873, 37.086715], [114.500055, 37.086785], [114.500038, 37.086098], [114.500473, 37.086105], [114.500481, 37.085557], [114.500255, 37.085509], [114.500212, 37.065658], [114.502003, 37.065686], [114.507392, 37.066082], [114.507731, 37.066082], [114.508314, 37.066054], [114.510835, 37.065686], [114.511313, 37.065658], [114.521484, 37.065728], [114.521505, 37.068747], [114.524349, 37.069372], [114.5245, 37.068782], [114.525432, 37.068854], [114.525432, 37.068952], [114.525603, 37.068969], [114.526154, 37.06904], [114.52611, 37.069694], [114.528198, 37.069853], [114.529935, 37.069982], [114.529989, 37.069532], [114.531081, 37.069565], [114.531022, 37.070092], [114.532232, 37.070198], [114.532146, 37.070869], [114.531543, 37.070918], [114.53094, 37.070917], [114.53094, 37.070643], [114.530057, 37.070658], [114.530056, 37.071976], [114.52391, 37.071722], [114.522596, 37.071649], [114.522575, 37.072052], [114.521486, 37.072023], [114.521228, 37.068977], [114.52028, 37.068615], [114.520086, 37.070274], [114.517911, 37.070285], [114.517822, 37.071573], [114.51763, 37.074381], [114.51763, 37.075382], [114.517684, 37.077221], [114.517889, 37.077248], [114.517889, 37.077743], [114.518406, 37.077779], [114.518494, 37.077832], [114.518656, 37.079099], [114.515047, 37.079192], [114.515057, 37.079296], [114.514149, 37.07914], [114.514117, 37.077771], [114.512017, 37.077825], [114.511951, 37.077132], [114.508645, 37.077216], [114.508698, 37.079141], [114.51416, 37.07926], [114.514181, 37.082014], [114.514212, 37.083831], [114.514214, 37.083965], [114.513977, 37.084092], [114.515826, 37.085003], [114.515833, 37.085079], [114.516673, 37.085252], [114.519603, 37.084396], [114.520562, 37.084348], [114.52078, 37.085403], [114.520595, 37.085337], [114.519797, 37.085446], [114.518742, 37.085726], [114.519248, 37.089011], [114.517945, 37.089144], [114.517913, 37.088964], [114.516059, 37.089138], [114.515736, 37.087376], [114.514627, 37.087483], [114.514509, 37.08668], [114.515133, 37.086425], [114.515381, 37.086272], [114.514648, 37.085662], [114.51455, 37.085668], [114.514584, 37.085535], [114.514347, 37.085106], [114.514218, 37.085192], [114.511826, 37.08574], [114.511815, 37.085074], [114.511923, 37.085014], [114.511923, 37.084868], [114.512138, 37.084818], [114.512106, 37.084082], [114.51118, 37.084063], [114.511245, 37.085089], [114.508917, 37.085167], [114.508896, 37.08657], [114.507786, 37.086652], [114.507753, 37.086165], [114.50617, 37.086365], [114.505093, 37.086473], [114.504705, 37.086472], [114.504188, 37.08653], [114.503865, 37.086589], [114.504048, 37.087351], [114.504058, 37.087787], [114.504167, 37.088455], [114.504155, 37.088849], [114.504199, 37.08925], [114.503983, 37.089719], [114.503352, 37.091347], [114.49728, 37.091425], [114.497044, 37.092552], [114.497386, 37.093376], [114.495833, 37.093474], [114.495878, 37.091432], [114.494911, 37.091457], [114.494329, 37.091121], [114.493962, 37.091018], [114.493144, 37.09098], [114.492928, 37.088653]]]}, "properties": {"display_name": "南长街街道, 襄都区, 河北省, 054000, 中国", "type": "administrative", "osm_type": "relation", "osm_id": 9831422, "class": null, "keyword": "subdistrict"}}, {"type": "Feature", "geometry": {"type": "Polygon", "coordinates": [[[114.481775, 37.048288], [114.481857, 37.045955], [114.482008, 37.044987], [114.484505, 37.04525], [114.484568, 37.045841], [114.485852, 37.045862], [114.485879, 37.04572], [114.4862, 37.045649], [114.486147, 37.045129], [114.48447, 37.044958], [114.484452, 37.041171], [114.484604, 37.040245], [114.485183, 37.038857], [114.489072, 37.038835], [114.48909, 37.040124], [114.490981, 37.039213], [114.490839, 37.038819], [114.493596, 37.038813], [114.493474, 37.044726], [114.496204, 37.044656], [114.496256, 37.045892], [114.497238, 37.045905], [114.49716, 37.0512], [114.497152, 37.054454], [114.497351, 37.054412], [114.497838, 37.054031], [114.498108, 37.053947], [114.499542, 37.053965], [114.500386, 37.053975], [114.50016, 37.062683], [114.497395, 37.062523], [114.495682, 37.06237], [114.492717, 37.062169], [114.484113, 37.061956], [114.482254, 37.054008], [114.481984, 37.052257], [114.481775, 37.048288]]]}, "properties": {"display_name": "西大街街道, 襄都区, 河北省, 054000, 中国", "type": "administrative", "osm_type": "relation", "osm_id": 9831423, "class": null, "keyword": "subdistrict"}}, {"type": "Feature", "geometry": {"type": "Polygon", "coordinates": [[[114.448411, 37.063461], [114.449864, 37.063336], [114.449864, 37.061955], [114.449359, 37.061976], [114.449333, 37.061178], [114.448446, 37.061136], [114.44842, 37.059235], [114.459535, 37.059428], [114.462933, 37.059532], [114.464671, 37.059649], [114.469556, 37.060406], [114.469017, 37.066697], [114.468765, 37.069916], [114.466479, 37.069867], [114.46646, 37.071502], [114.466453, 37.072087], [114.468591, 37.0721], [114.468192, 37.077067], [114.460429, 37.076484], [114.458272, 37.076297], [114.458316, 37.073993], [114.454072, 37.074673], [114.454081, 37.075818], [114.448429, 37.07595], [114.448446, 37.069685], [114.453316, 37.069747], [114.453264, 37.068873], [114.448464, 37.06888], [114.448411, 37.063461]]]}, "properties": {"display_name": "中华大街街道, 邢台市, 河北省, 054000, 中国", "type": "administrative", "osm_type": "relation", "osm_id": 9831060, "class": null, "keyword": "subdistrict"}}, {"type": "Feature", "geometry": {"type": "Polygon", "coordinates": [[[114.484113, 37.061956], [114.492717, 37.062169], [114.495682, 37.06237], [114.497395, 37.062523], [114.50016, 37.062683], [114.500212, 37.065658], [114.500255, 37.085509], [114.500481, 37.085557], [114.500473, 37.086105], [114.500038, 37.086098], [114.500055, 37.086785], [114.497873, 37.086715], [114.495499, 37.087239], [114.495483, 37.087055], [114.495019, 37.087027], [114.49487, 37.084988], [114.497025, 37.084922], [114.497046, 37.084037], [114.497913, 37.083946], [114.498624, 37.083948], [114.49857, 37.082956], [114.497752, 37.083069], [114.497773, 37.083432], [114.49787, 37.083467], [114.497886, 37.083783], [114.494332, 37.083863], [114.49407, 37.082718], [114.49121, 37.082734], [114.490704, 37.082766], [114.490762, 37.083944], [114.489764, 37.083983], [114.489545, 37.083129], [114.48752, 37.075443], [114.484837, 37.064623], [114.484461, 37.063445], [114.484113, 37.061956]]]}, "properties": {"display_name": "西门里街道, 襄都区, 河北省, 054000, 中国", "type": "administrative", "osm_type": "relation", "osm_id": 9831424, "class": null, "keyword": "subdistrict"}}, {"type": "Feature", "geometry": {"type": "MultiPolygon", "coordinates": [[[[114.496189, 37.037057], [114.49642, 37.036818], [114.496695, 37.036597], [114.497131, 37.036581], [114.497131, 37.03724], [114.496193, 37.037241], [114.496189, 37.037057]]], [[[114.498647, 37.050367], [114.498716, 37.048972], [114.50249, 37.048966], [114.50209, 37.047405], [114.501873, 37.045948], [114.50395, 37.045982], [114.503959, 37.045858], [114.505636, 37.045989], [114.505636, 37.046059], [114.506114, 37.046149], [114.506088, 37.046364], [114.505567, 37.046274], [114.504854, 37.048993], [114.506888, 37.048972], [114.50687, 37.047904], [114.507131, 37.047869], [114.507131, 37.047675], [114.507879, 37.047689], [114.508009, 37.047287], [114.50887, 37.04728], [114.50887, 37.048931], [114.512324, 37.049034], [114.512428, 37.050824], [114.511901, 37.050874], [114.510707, 37.050875], [114.510786, 37.049114], [114.506982, 37.049068], [114.506991, 37.049624], [114.507789, 37.049634], [114.507756, 37.051389], [114.507121, 37.051378], [114.507131, 37.051267], [114.506172, 37.051238], [114.506138, 37.052081], [114.506064, 37.053882], [114.507023, 37.053825], [114.507486, 37.054048], [114.508639, 37.055258], [114.508951, 37.055396], [114.508962, 37.055131], [114.509856, 37.055133], [114.510578, 37.055161], [114.510461, 37.056669], [114.510364, 37.056789], [114.509923, 37.057147], [114.508975, 37.057136], [114.508956, 37.05797], [114.508941, 37.058693], [114.509986, 37.058661], [114.509986, 37.058841], [114.510148, 37.058876], [114.510148, 37.059278], [114.510353, 37.059339], [114.510374, 37.05951], [114.512906, 37.059526], [114.513745, 37.059615], [114.513768, 37.059701], [114.514208, 37.059693], [114.514187, 37.060438], [114.512871, 37.060438], [114.512451, 37.060437], [114.511311, 37.060438], [114.511322, 37.06114], [114.511279, 37.061413], [114.511871, 37.061381], [114.51241, 37.06134], [114.512313, 37.060783], [114.512991, 37.060751], [114.512991, 37.060931], [114.513121, 37.061325], [114.513347, 37.061334], [114.513778, 37.061378], [114.513853, 37.061857], [114.513853, 37.062576], [114.515943, 37.062445], [114.517483, 37.06233], [114.518421, 37.062272], [114.518248, 37.060834], [114.51799, 37.060799], [114.51799, 37.060611], [114.518679, 37.060544], [114.519774, 37.060558], [114.519766, 37.062202], [114.521542, 37.062205], [114.521574, 37.062189], [114.521492, 37.065724], [114.521484, 37.065728], [114.511313, 37.065658], [114.510835, 37.065686], [114.508314, 37.066054], [114.507731, 37.066082], [114.507392, 37.066082], [114.502003, 37.065686], [114.500212, 37.065658], [114.50016, 37.062683], [114.500386, 37.053975], [114.499542, 37.053965], [114.499542, 37.052983], [114.49929, 37.052969], [114.499299, 37.052025], [114.49949, 37.052033], [114.499508, 37.050728], [114.498743, 37.050721], [114.498647, 37.050367]]], [[[114.501567, 37.040905], [114.501594, 37.039399], [114.502262, 37.039396], [114.502284, 37.039156], [114.502855, 37.039158], [114.502838, 37.040899], [114.501567, 37.040905]]], [[[114.504417, 37.037655], [114.504422, 37.037459], [114.505274, 37.037457], [114.505274, 37.037654], [114.504417, 37.037655]]], [[[114.506528, 37.040384], [114.507508, 37.04043], [114.508337, 37.040504], [114.508817, 37.040523], [114.508924, 37.039993], [114.510266, 37.040001], [114.510282, 37.040301], [114.510238, 37.040866], [114.509065, 37.040866], [114.508806, 37.041088], [114.507507, 37.040994], [114.50748, 37.040955], [114.506539, 37.040918], [114.506528, 37.040384]]], [[[114.50991, 37.044306], [114.50992, 37.043382], [114.510837, 37.043514], [114.51089, 37.043839], [114.5109, 37.043958], [114.511805, 37.043987], [114.511838, 37.043714], [114.512577, 37.043728], [114.512577, 37.042761], [114.513288, 37.042755], [114.513363, 37.042482], [114.515711, 37.042471], [114.517968, 37.042299], [114.519723, 37.042339], [114.519476, 37.043134], [114.517299, 37.043188], [114.516843, 37.043707], [114.516045, 37.044629], [114.515625, 37.045072], [114.515173, 37.045448], [114.512565, 37.045405], [114.512599, 37.04479], [114.511833, 37.044753], [114.511827, 37.044073], [114.51089, 37.044036], [114.510868, 37.044284], [114.50991, 37.044306]]], [[[114.510952, 37.046813], [114.512492, 37.046835], [114.512482, 37.047075], [114.510974, 37.047079], [114.510952, 37.046813]]]]}, "properties": {"display_name": "北大街街道, 襄都区, 河北省, 054000, 中国", "type": "administrative", "osm_type": "relation", "osm_id": 9831419, "class": null, "keyword": "subdistrict"}}, {"type": "Feature", "geometry": {"type": "Polygon", "coordinates": [[[114.513153, 36.871594], [114.513242, 36.869169], [114.515901, 36.869223], [114.515898, 36.869316], [114.515795, 36.871663], [114.513153, 36.871594]], [[114.513345, 36.869932], [114.513361, 36.869951], [114.513375, 36.869958], [114.513387, 36.86996], [114.513523, 36.869962], [114.51354, 36.869956], [114.513553, 36.869934], [114.513561, 36.869405], [114.513552, 36.869395], [114.513545, 36.86939], [114.513517, 36.869381], [114.5134, 36.86938], [114.513389, 36.86938], [114.513372, 36.869389], [114.513353, 36.869403], [114.513345, 36.869932]], [[114.513902, 36.870661], [114.51396, 36.870689], [114.513952, 36.871128], [114.514909, 36.87114], [114.515066, 36.871228], [114.515079, 36.870784], [114.514884, 36.870693], [114.514937, 36.870679], [114.514984, 36.870656], [114.515024, 36.870625], [114.515051, 36.870593], [114.515069, 36.870557], [114.515078, 36.870519], [114.515078, 36.87048], [114.515066, 36.870437], [114.515041, 36.870396], [114.515006, 36.870362], [114.514962, 36.870334], [114.514911, 36.870316], [114.514856, 36.870307], [114.514801, 36.870308], [114.514746, 36.870319], [114.514697, 36.87034], [114.514655, 36.87037], [114.514622, 36.870406], [114.514601, 36.870447], [114.514591, 36.870491], [114.514595, 36.870535], [114.514603, 36.870558], [114.514585, 36.870548], [114.514354, 36.870437], [114.51391, 36.870225], [114.513902, 36.870661]], [[114.515505, 36.869992], [114.515521, 36.870011], [114.515535, 36.870018], [114.515548, 36.870021], [114.515683, 36.870022], [114.5157, 36.870017], [114.515713, 36.869994], [114.515721, 36.869465], [114.515712, 36.869455], [114.515705, 36.86945], [114.515677, 36.869442], [114.51556, 36.869441], [114.515549, 36.86944], [114.515532, 36.869449], [114.515513, 36.869463], [114.515505, 36.869992]]]}, "properties": {"display_name": "沙河市文化艺术中心, 桥东街道, 邢台市, 河北省, 054100, 中国", "type": "pedestrian", "osm_type": "relation", "osm_id": 8791229, "class": null, "keyword": "市中心"}}, {"type": "Feature", "geometry": {"type": "Polygon", "coordinates": [[[114.506732, 37.06194], [114.506738, 37.060728], [114.508223, 37.060733], [114.508222, 37.060893], [114.50858, 37.060895], [114.508584, 37.062462], [114.50856, 37.062537], [114.508484, 37.062566], [114.508216, 37.062648], [114.507295, 37.062662], [114.507265, 37.062054], [114.506951, 37.062068], [114.506952, 37.061941], [114.506732, 37.06194]]]}, "properties": {"display_name": "邢台二中, 中兴西大街, 大梁庄社区, 北大街街道, 襄都区, 河北省, 054000, 中国", "type": "school", "osm_type": "way", "osm_id": 657174030, "class": null, "keyword": "中心城区"}}, {"type": "Feature", "geometry": {"type": "Polygon", "coordinates": [[[114.471932, 37.225065], [114.473672, 37.22493], [114.473627, 37.224557], [114.474939, 37.224455], [114.475064, 37.225522], [114.472018, 37.225759], [114.471932, 37.225065]]]}, "properties": {"display_name": "邢台二十九中, G107, 梁原店村, 内丘县, 河北省, 054000, 中国", "type": "school", "osm_type": "way", "osm_id": 582394490, "class": null, "keyword": "中心城区"}}, {"type": "Feature", "geometry": {"type": "Polygon", "coordinates": [[[114.201953, 36.887246], [114.203612, 36.886965], [114.203978, 36.88838], [114.202315, 36.888656], [114.201953, 36.887246]]]}, "properties": {"display_name": "刘石岗中心学校, S329, 中关村, 沙河市, 河北省, 054100, 中国", "type": "school", "osm_type": "way", "osm_id": 800231269, "class": null, "keyword": "市中心"}}, {"type": "Feature", "geometry": {"type": "Polygon", "coordinates": [[[114.513902, 36.870661], [114.51391, 36.870225], [114.514354, 36.870437], [114.514585, 36.870548], [114.514603, 36.870558], [114.514595, 36.870535], [114.514591, 36.870491], [114.514601, 36.870447], [114.514622, 36.870406], [114.514655, 36.87037], [114.514697, 36.87034], [114.514746, 36.870319], [114.514801, 36.870308], [114.514856, 36.870307], [114.514911, 36.870316], [114.514962, 36.870334], [114.515006, 36.870362], [114.515041, 36.870396], [114.515066, 36.870437], [114.515078, 36.87048], [114.515078, 36.870519], [114.515069, 36.870557], [114.515051, 36.870593], [114.515024, 36.870625], [114.514984, 36.870656], [114.514937, 36.870679], [114.514884, 36.870693], [114.515079, 36.870784], [114.515066, 36.871228], [114.514909, 36.87114], [114.513952, 36.871128], [114.51396, 36.870689], [114.513902, 36.870661]]]}, "properties": {"display_name": "沙河市文化艺术中心, 桥东街道, 邢台市, 河北省, 054100, 中国", "type": "arts_centre", "osm_type": "way", "osm_id": 632035987, "class": null, "keyword": "市中心"}}, {"type": "Feature", "geometry": {"type": "Polygon", "coordinates": [[[114.486104, 37.068703], [114.48634, 37.068663], [114.486318, 37.068579], [114.486567, 37.068537], [114.486613, 37.068713], [114.486823, 37.068679], [114.48707, 37.069635], [114.487105, 37.069771], [114.486646, 37.069847], [114.486581, 37.069858], [114.486518, 37.069614], [114.486319, 37.069646], [114.486295, 37.069552], [114.486467, 37.069523], [114.486272, 37.068769], [114.486298, 37.068765], [114.486364, 37.068754], [114.486359, 37.068734], [114.486122, 37.068773], [114.486104, 37.068703]]]}, "properties": {"display_name": "邢台, 车站北路, 西门里街道, 襄都区, 河北省, 054000, 中国", "type": "station", "osm_type": "way", "osm_id": 623201986, "class": null, "keyword": "district"}}]}