{"type": "FeatureCollection", "features": [{"type": "Feature", "geometry": {"type": "Polygon", "coordinates": [[[114.58213, 35.171959], [114.587751, 35.170585], [114.586439, 35.168098], [114.587693, 35.167732], [114.584314, 35.160807], [114.587004, 35.158147], [114.584694, 35.157283], [114.584648, 35.156241], [114.588414, 35.155251], [114.587817, 35.152305], [114.589533, 35.148796], [114.58998, 35.146807], [114.586204, 35.136229], [114.58673, 35.13618], [114.58716, 35.13665], [114.58949, 35.1364], [114.59011, 35.13627], [114.590845, 35.137587], [114.59206, 35.13723], [114.59298, 35.13812], [114.59456, 35.13762], [114.59524, 35.13722], [114.596483, 35.136862], [114.598951, 35.13635], [114.60141, 35.13615], [114.603631, 35.13567], [114.606021, 35.13498], [114.60695, 35.13486], [114.60786, 35.13499], [114.60805, 35.13518], [114.60837, 35.13576], [114.60875, 35.13597], [114.60962, 35.13606], [114.61009, 35.13607], [114.610151, 35.136012], [114.61012, 35.13524], [114.610021, 35.13483], [114.61013, 35.1347], [114.61143, 35.13435], [114.611601, 35.13422], [114.61153, 35.13365], [114.6112, 35.13249], [114.61124, 35.13222], [114.61138, 35.13208], [114.614501, 35.13118], [114.61459, 35.13107], [114.614571, 35.13084], [114.61514, 35.13062], [114.61531, 35.13046], [114.615291, 35.13019], [114.614931, 35.12913], [114.61497, 35.12851], [114.61514, 35.12838], [114.62139, 35.12655], [114.623651, 35.12552], [114.62403, 35.1252], [114.62456, 35.12496], [114.625901, 35.12414], [114.62751, 35.12335], [114.62784, 35.12354], [114.62868, 35.12442], [114.63195, 35.12607], [114.63606, 35.12191], [114.63792, 35.11951], [114.639271, 35.11727], [114.63828, 35.11565], [114.63834, 35.1154], [114.64018, 35.11447], [114.64033, 35.11427], [114.640361, 35.113933], [114.64027, 35.11358], [114.63556, 35.11044], [114.636, 35.109722], [114.63935, 35.10551], [114.6393, 35.10535], [114.6387, 35.10518], [114.638371, 35.10497], [114.63753, 35.10396], [114.637, 35.10313], [114.6365, 35.10216], [114.63642, 35.10186], [114.63652, 35.10167], [114.6371, 35.10151], [114.63853, 35.10084], [114.639631, 35.10019], [114.64002, 35.10024], [114.640622, 35.099851], [114.64169, 35.09891], [114.64178, 35.09875], [114.641571, 35.09797], [114.641791, 35.09759], [114.64326, 35.09694], [114.644398, 35.096296], [114.64479, 35.0961], [114.64502, 35.09586], [114.64509, 35.09538], [114.64531, 35.0954], [114.646008, 35.095713], [114.646658, 35.097607], [114.65126, 35.101969], [114.659549, 35.105122], [114.662998, 35.104578], [114.663525, 35.11038], [114.676756, 35.11942], [114.676895, 35.124902], [114.682048, 35.124199], [114.686175, 35.126818], [114.687441, 35.134222], [114.687475, 35.134241], [114.691839, 35.13389], [114.693645, 35.147227], [114.696069, 35.1529], [114.701423, 35.159613], [114.704088, 35.159422], [114.705573, 35.165634], [114.703996, 35.16623], [114.705303, 35.168496], [114.706104, 35.171435], [114.698713, 35.176491], [114.693205, 35.175891], [114.689397, 35.171507], [114.684032, 35.177049], [114.661045, 35.178694], [114.637129, 35.182297], [114.633448, 35.179018], [114.630906, 35.178985], [114.631259, 35.183084], [114.613049, 35.185758], [114.60904, 35.186216], [114.60608, 35.186332], [114.603515, 35.186397], [114.600966, 35.186344], [114.588183, 35.185667], [114.588624, 35.17978], [114.587073, 35.17796], [114.586223, 35.17535], [114.583671, 35.175097], [114.582557, 35.174087], [114.58213, 35.171959]]]}, "properties": {"display_name": "南蒲街道, 长垣市, 新乡市, 河南省, 中国", "type": "administrative", "osm_type": "relation", "osm_id": 9960375, "class": null, "keyword": "subdistrict"}}, {"type": "Feature", "geometry": {"type": "Polygon", "coordinates": [[[114.582982, 35.217531], [114.59283, 35.216646], [114.630653, 35.209458], [114.64323, 35.208701], [114.656187, 35.21298], [114.667245, 35.216053], [114.673351, 35.219023], [114.678725, 35.221637], [114.683151, 35.224279], [114.707898, 35.237406], [114.711248, 35.238552], [114.709356, 35.239002], [114.709937, 35.241635], [114.694728, 35.245509], [114.693498, 35.242138], [114.6877, 35.243199], [114.68786, 35.246728], [114.683911, 35.247858], [114.683393, 35.246612], [114.682715, 35.247907], [114.680907, 35.243996], [114.679631, 35.244185], [114.6759, 35.245668], [114.66913, 35.248416], [114.667715, 35.248184], [114.660055, 35.248965], [114.644283, 35.250869], [114.644186, 35.251695], [114.640533, 35.252299], [114.639678, 35.249635], [114.632345, 35.251722], [114.626768, 35.252713], [114.624214, 35.25246], [114.623425, 35.251276], [114.61969, 35.251553], [114.615365, 35.253603], [114.606874, 35.253747], [114.603971, 35.253175], [114.60283, 35.2531], [114.600597, 35.254044], [114.599395, 35.252598], [114.597308, 35.253813], [114.591621, 35.255354], [114.590682, 35.253791], [114.589944, 35.252221], [114.58925, 35.248619], [114.588673, 35.249184], [114.588601, 35.247568], [114.587985, 35.247256], [114.587558, 35.243647], [114.586687, 35.243618], [114.583599, 35.221912], [114.582982, 35.217531]]]}, "properties": {"display_name": "蒲北街道, 长垣市, 新乡市, 河南省, 中国", "type": "administrative", "osm_type": "relation", "osm_id": 9960376, "class": null, "keyword": "subdistrict"}}, {"type": "Feature", "geometry": {"type": "Polygon", "coordinates": [[[114.661045, 35.178694], [114.684032, 35.177049], [114.689397, 35.171507], [114.693205, 35.175891], [114.698713, 35.176491], [114.706104, 35.171435], [114.711274, 35.170679], [114.716211, 35.169931], [114.716661, 35.169863], [114.720402, 35.17101], [114.722251, 35.170804], [114.724708, 35.170528], [114.729731, 35.169966], [114.731703, 35.170017], [114.734195, 35.170081], [114.734336, 35.177571], [114.734412, 35.181542], [114.740559, 35.181496], [114.740845, 35.18439], [114.741601, 35.184746], [114.742103, 35.184982], [114.742731, 35.190122], [114.743145, 35.193506], [114.743333, 35.195041], [114.747012, 35.194801], [114.747106, 35.195838], [114.747603, 35.201372], [114.748117, 35.207096], [114.748484, 35.211169], [114.748884, 35.215618], [114.748902, 35.215821], [114.740478, 35.216586], [114.733772, 35.22108], [114.733769, 35.221279], [114.733928, 35.227346], [114.733968, 35.228904], [114.734887, 35.232157], [114.733739, 35.23396], [114.735198, 35.236077], [114.732321, 35.238359], [114.726767, 35.242764], [114.72661, 35.242889], [114.724868, 35.241807], [114.713784, 35.238669], [114.712399, 35.238278], [114.711248, 35.238552], [114.707898, 35.237406], [114.683151, 35.224279], [114.678725, 35.221637], [114.673351, 35.219023], [114.675675, 35.218953], [114.678446, 35.218868], [114.681426, 35.217765], [114.68253, 35.217356], [114.682177, 35.216356], [114.686939, 35.216211], [114.68661, 35.213735], [114.686238, 35.210932], [114.688661, 35.210101], [114.690383, 35.208341], [114.690565, 35.208138], [114.689226, 35.20621], [114.688694, 35.205445], [114.688598, 35.205306], [114.685822, 35.205138], [114.685323, 35.204758], [114.685309, 35.204747], [114.681543, 35.201877], [114.681246, 35.201652], [114.680432, 35.200339], [114.680345, 35.200197], [114.679708, 35.19914], [114.679818, 35.197845], [114.6799, 35.196874], [114.679953, 35.196252], [114.680072, 35.194863], [114.680296, 35.192216], [114.68031, 35.192053], [114.679451, 35.19006], [114.678623, 35.190315], [114.678541, 35.19034], [114.678517, 35.190216], [114.67815, 35.188362], [114.678144, 35.188333], [114.674931, 35.188683], [114.674532, 35.185339], [114.674436, 35.184532], [114.669984, 35.182591], [114.665415, 35.180599], [114.661045, 35.178694]]]}, "properties": {"display_name": "蒲东街道, 长垣市, 新乡市, 河南省, 中国", "type": "administrative", "osm_type": "relation", "osm_id": 9960377, "class": null, "keyword": "subdistrict"}}, {"type": "Feature", "geometry": {"type": "Polygon", "coordinates": [[[113.925347, 35.048653], [113.925422, 35.039093], [113.930805, 35.039277], [113.930819, 35.037708], [113.930257, 35.036552], [113.93123, 35.036585], [113.93039, 35.035407], [113.934444, 35.034339], [113.931943, 35.031318], [113.930038, 35.029453], [113.933255, 35.027264], [113.936188, 35.02588], [113.935199, 35.024392], [113.938904, 35.022306], [113.939886, 35.023594], [113.940595, 35.023035], [113.940995, 35.023567], [113.941882, 35.023147], [113.94177, 35.022807], [113.943852, 35.021082], [113.943925, 35.020044], [113.944302, 35.02069], [113.945233, 35.020158], [113.945823, 35.019381], [113.945934, 35.018778], [113.947641, 35.017719], [113.948319, 35.018738], [113.953543, 35.016576], [113.954039, 35.016854], [113.954176, 35.020032], [113.95838, 35.018984], [113.958762, 35.022857], [113.95999, 35.025033], [113.954353, 35.028024], [113.954392, 35.028496], [113.954545, 35.028456], [113.9545, 35.029057], [113.954804, 35.030122], [113.955261, 35.030528], [113.955495, 35.031504], [113.955099, 35.03155], [113.955152, 35.031822], [113.955241, 35.031838], [113.955799, 35.033223], [113.956377, 35.033918], [113.955684, 35.034298], [113.956036, 35.034872], [113.956862, 35.034488], [113.957518, 35.034308], [113.960054, 35.034174], [113.960518, 35.03478], [113.96131, 35.037741], [113.960945, 35.038041], [113.962218, 35.039352], [113.966197, 35.03904], [113.966926, 35.035987], [113.974684, 35.034815], [113.975032, 35.035897], [113.977571, 35.035835], [113.978574, 35.039718], [113.98162, 35.038407], [113.982473, 35.043039], [113.983832, 35.042732], [113.984718, 35.045819], [113.984872, 35.045797], [113.985538, 35.048888], [113.987672, 35.048636], [113.988249, 35.05053], [113.988445, 35.050452], [113.989082, 35.052745], [113.994064, 35.054997], [113.994328, 35.056124], [113.994989, 35.05956], [113.992622, 35.059509], [113.994407, 35.062991], [113.997211, 35.062286], [113.998246, 35.065094], [113.998904, 35.067478], [113.998792, 35.067463], [113.999466, 35.070772], [114.001003, 35.070552], [114.00154, 35.072465], [114.001104, 35.072622], [114.0012, 35.074037], [114.000987, 35.07426], [114.000102, 35.074246], [113.994774, 35.075468], [113.993657, 35.073915], [113.993814, 35.074601], [113.993727, 35.07464], [113.993988, 35.075724], [113.996866, 35.075217], [113.99694, 35.075433], [113.994179, 35.076101], [113.993634, 35.076314], [113.993601, 35.076624], [113.991097, 35.077068], [113.991174, 35.077357], [113.989551, 35.077705], [113.990133, 35.079727], [113.989807, 35.07988], [113.98955, 35.078905], [113.988891, 35.079012], [113.989102, 35.079952], [113.987279, 35.08027], [113.987871, 35.081963], [113.987388, 35.082066], [113.986757, 35.080519], [113.98647, 35.080544], [113.986042, 35.0791], [113.985666, 35.079092], [113.98635, 35.081663], [113.987102, 35.082316], [113.985857, 35.08241], [113.985449, 35.082633], [113.985801, 35.083736], [113.985336, 35.08379], [113.984876, 35.082605], [113.984519, 35.082785], [113.984603, 35.08368], [113.982217, 35.083824], [113.982413, 35.084931], [113.981584, 35.084994], [113.981057, 35.084836], [113.980882, 35.084284], [113.977996, 35.084996], [113.978002, 35.085167], [113.97692, 35.085451], [113.977093, 35.085916], [113.974983, 35.086523], [113.975395, 35.087839], [113.971932, 35.088437], [113.97188, 35.089848], [113.967539, 35.090596], [113.966186, 35.091997], [113.96651, 35.093784], [113.966877, 35.09386], [113.96723, 35.095393], [113.964506, 35.095884], [113.964756, 35.097032], [113.966049, 35.09683], [113.966162, 35.097083], [113.964616, 35.097463], [113.965244, 35.10044], [113.964003, 35.100641], [113.96378, 35.100219], [113.963164, 35.100448], [113.963281, 35.10083], [113.963026, 35.100964], [113.963673, 35.105354], [113.962307, 35.105513], [113.962286, 35.106368], [113.957993, 35.107028], [113.957979, 35.108097], [113.957616, 35.108106], [113.957426, 35.108624], [113.955386, 35.108289], [113.954905, 35.109369], [113.952517, 35.110059], [113.950845, 35.109297], [113.951065, 35.108181], [113.950223, 35.107901], [113.950463, 35.10593], [113.947836, 35.106635], [113.947845, 35.105438], [113.942621, 35.104796], [113.944306, 35.100951], [113.941744, 35.100671], [113.940658, 35.103732], [113.939166, 35.104196], [113.939283, 35.104535], [113.938151, 35.104861], [113.938231, 35.105671], [113.93463, 35.106784], [113.933843, 35.105136], [113.933687, 35.10514], [113.933085, 35.101394], [113.932353, 35.101283], [113.932232, 35.100816], [113.929945, 35.100829], [113.93084, 35.099695], [113.928775, 35.10013], [113.928612, 35.099921], [113.927317, 35.10008], [113.926059, 35.096979], [113.926919, 35.096545], [113.927269, 35.096622], [113.927005, 35.095059], [113.927283, 35.095081], [113.927061, 35.093717], [113.92755, 35.093819], [113.927348, 35.092026], [113.929098, 35.090501], [113.92847, 35.087492], [113.926795, 35.081427], [113.931032, 35.080525], [113.93139, 35.081801], [113.933905, 35.081283], [113.933384, 35.080326], [113.935468, 35.080361], [113.935922, 35.081406], [113.935071, 35.082853], [113.938473, 35.081886], [113.938165, 35.081038], [113.940504, 35.080467], [113.939499, 35.07955], [113.938542, 35.078004], [113.941594, 35.076047], [113.941692, 35.075845], [113.941935, 35.075839], [113.949707, 35.07003], [113.945521, 35.065567], [113.944759, 35.065586], [113.942904, 35.066116], [113.941969, 35.066167], [113.938638, 35.063281], [113.942416, 35.06219], [113.942118, 35.061627], [113.941805, 35.061606], [113.941687, 35.06121], [113.940494, 35.059869], [113.950177, 35.057066], [113.949589, 35.056674], [113.948389, 35.056539], [113.950413, 35.055891], [113.948911, 35.052732], [113.944679, 35.052749], [113.940435, 35.048573], [113.925347, 35.048653]]]}, "properties": {"display_name": "原兴街道, 原阳县, 新乡市, 河南省, 中国", "type": "administrative", "osm_type": "relation", "osm_id": 9958999, "class": null, "keyword": "subdistrict"}}, {"type": "Feature", "geometry": {"type": "Polygon", "coordinates": [[[114.577619, 35.18514], [114.588183, 35.185667], [114.600966, 35.186344], [114.603515, 35.186397], [114.60608, 35.186332], [114.60904, 35.186216], [114.613049, 35.185758], [114.631259, 35.183084], [114.630906, 35.178985], [114.633448, 35.179018], [114.637129, 35.182297], [114.661045, 35.178694], [114.665415, 35.180599], [114.669984, 35.182591], [114.674436, 35.184532], [114.674532, 35.185339], [114.674931, 35.188683], [114.678144, 35.188333], [114.67815, 35.188362], [114.678517, 35.190216], [114.678541, 35.19034], [114.678623, 35.190315], [114.679451, 35.19006], [114.68031, 35.192053], [114.680296, 35.192216], [114.680072, 35.194863], [114.679953, 35.196252], [114.6799, 35.196874], [114.679818, 35.197845], [114.679708, 35.19914], [114.680345, 35.200197], [114.680432, 35.200339], [114.681246, 35.201652], [114.681543, 35.201877], [114.685309, 35.204747], [114.685323, 35.204758], [114.685822, 35.205138], [114.688598, 35.205306], [114.688694, 35.205445], [114.689226, 35.20621], [114.690565, 35.208138], [114.690383, 35.208341], [114.688661, 35.210101], [114.686238, 35.210932], [114.68661, 35.213735], [114.686939, 35.216211], [114.682177, 35.216356], [114.68253, 35.217356], [114.681426, 35.217765], [114.678446, 35.218868], [114.675675, 35.218953], [114.673351, 35.219023], [114.667245, 35.216053], [114.656187, 35.21298], [114.64323, 35.208701], [114.630653, 35.209458], [114.59283, 35.216646], [114.582982, 35.217531], [114.581108, 35.204673], [114.578171, 35.188567], [114.577619, 35.18514]]]}, "properties": {"display_name": "蒲西街道, 长垣市, 新乡市, 河南省, 中国", "type": "administrative", "osm_type": "relation", "osm_id": 9960378, "class": null, "keyword": "subdistrict"}}, {"type": "Feature", "geometry": {"type": "Polygon", "coordinates": [[[114.160184, 35.157508], [114.161244, 35.157194], [114.160761, 35.156285], [114.165602, 35.155135], [114.165596, 35.154971], [114.166631, 35.154678], [114.166422, 35.153782], [114.167039, 35.153602], [114.16697, 35.153113], [114.167044, 35.153111], [114.166668, 35.151749], [114.16716, 35.151613], [114.167061, 35.150981], [114.166757, 35.150825], [114.166388, 35.150958], [114.166428, 35.151366], [114.166107, 35.151436], [114.166162, 35.151578], [114.165841, 35.151647], [114.165309, 35.149491], [114.1606, 35.148938], [114.16066, 35.148841], [114.162732, 35.145402], [114.162691, 35.145072], [114.163511, 35.144911], [114.163481, 35.144768], [114.167682, 35.144474], [114.167497, 35.143578], [114.16896, 35.143356], [114.168946, 35.143311], [114.168729, 35.142563], [114.168135, 35.142661], [114.167107, 35.139289], [114.167956, 35.139328], [114.167978, 35.139266], [114.169255, 35.139396], [114.169864, 35.138166], [114.169902, 35.138089], [114.163163, 35.135297], [114.162384, 35.132994], [114.162263, 35.132638], [114.162089, 35.132643], [114.161798, 35.13193], [114.161758, 35.131832], [114.16205, 35.13164], [114.161539, 35.130036], [114.165987, 35.128405], [114.165521, 35.127311], [114.166014, 35.127175], [114.165389, 35.125841], [114.165883, 35.125725], [114.165316, 35.123959], [114.16635, 35.123624], [114.166326, 35.122991], [114.16977, 35.121836], [114.169028, 35.120635], [114.16923, 35.12053], [114.16903, 35.11982], [114.17106, 35.11932], [114.17079, 35.11839], [114.171801, 35.11823], [114.1717, 35.1178], [114.172269, 35.11774], [114.173275, 35.122573], [114.175864, 35.122505], [114.176194, 35.123315], [114.177575, 35.12549], [114.18153, 35.12465], [114.182579, 35.128553], [114.184172, 35.128741], [114.184281, 35.128754], [114.184053, 35.128023], [114.187131, 35.127696], [114.188014, 35.127345], [114.18911, 35.127317], [114.187999, 35.124398], [114.188141, 35.124358], [114.189281, 35.124036], [114.189271, 35.123791], [114.190656, 35.123509], [114.190636, 35.123018], [114.191556, 35.123028], [114.192589, 35.124522], [114.194363, 35.123984], [114.194392, 35.12472], [114.19469, 35.124713], [114.194812, 35.125283], [114.198767, 35.124441], [114.19822, 35.125766], [114.203141, 35.124774], [114.203363, 35.124729], [114.203842, 35.126764], [114.204436, 35.126666], [114.205017, 35.12878], [114.203565, 35.132422], [114.203583, 35.132866], [114.202961, 35.134813], [114.206113, 35.137319], [114.208915, 35.136621], [114.208943, 35.137358], [114.210636, 35.137032], [114.210922, 35.136978], [114.210944, 35.13755], [114.211828, 35.137199], [114.211549, 35.137698], [114.21187, 35.138102], [114.21543, 35.142591], [114.21444, 35.142781], [114.215859, 35.147013], [114.215909, 35.147165], [114.213837, 35.147711], [114.214794, 35.14993], [114.215374, 35.151274], [114.216755, 35.150909], [114.217196, 35.151962], [114.218175, 35.151527], [114.219513, 35.155095], [114.22039, 35.15458], [114.221377, 35.156847], [114.222549, 35.156242], [114.223194, 35.157963], [114.223219, 35.158026], [114.225188, 35.1574], [114.225529, 35.158456], [114.226031, 35.158525], [114.225911, 35.158036], [114.226801, 35.157781], [114.226923, 35.158419], [114.227511, 35.158158], [114.227564, 35.159467], [114.227162, 35.159396], [114.228188, 35.162644], [114.227192, 35.16267], [114.227757, 35.164375], [114.227356, 35.164304], [114.227684, 35.165032], [114.227302, 35.165452], [114.22797, 35.167236], [114.227592, 35.167737], [114.228939, 35.171551], [114.228832, 35.171554], [114.228242, 35.171569], [114.228267, 35.172208], [114.228271, 35.172306], [114.226178, 35.172362], [114.225638, 35.171311], [114.221181, 35.172085], [114.221653, 35.173956], [114.221604, 35.173963], [114.218565, 35.174393], [114.218082, 35.174461], [114.217625, 35.172998], [114.21022, 35.174916], [114.209867, 35.173532], [114.208791, 35.17383], [114.211391, 35.179307], [114.209401, 35.179442], [114.2107, 35.184567], [114.21014, 35.184647], [114.210006, 35.184667], [114.210408, 35.187277], [114.208865, 35.191167], [114.206387, 35.191561], [114.206785, 35.194089], [114.206806, 35.196252], [114.203798, 35.195202], [114.197193, 35.191486], [114.194184, 35.188484], [114.192417, 35.186719], [114.19101, 35.187104], [114.1866, 35.182122], [114.185681, 35.181573], [114.186164, 35.179247], [114.187258, 35.179177], [114.186949, 35.17765], [114.187223, 35.177622], [114.186984, 35.175868], [114.186282, 35.173961], [114.186287, 35.173449], [114.184855, 35.169986], [114.184777, 35.170008], [114.177061, 35.172197], [114.177011, 35.172833], [114.177203, 35.173279], [114.175692, 35.173698], [114.174761, 35.173957], [114.174397, 35.172943], [114.171246, 35.173988], [114.171713, 35.175736], [114.163951, 35.175208], [114.163887, 35.175204], [114.165043, 35.172205], [114.161756, 35.168462], [114.162341, 35.168119], [114.162222, 35.167631], [114.162539, 35.167438], [114.161341, 35.166118], [114.162264, 35.165557], [114.162229, 35.165235], [114.160777, 35.161219], [114.160198, 35.158954], [114.16019, 35.158921], [114.160363, 35.158261], [114.160184, 35.157508]]]}, "properties": {"display_name": "万寿街道, 延津县, 新乡市, 河南省, 中国", "type": "administrative", "osm_type": "relation", "osm_id": 9952754, "class": null, "keyword": "subdistrict"}}, {"type": "Feature", "geometry": {"type": "Polygon", "coordinates": [[[113.743573, 35.406335], [113.743754, 35.40638], [113.744868, 35.406655], [113.747595, 35.405017], [113.74728, 35.402045], [113.747661, 35.401878], [113.748546, 35.40149], [113.748545, 35.398831], [113.750161, 35.39879], [113.74985, 35.39605], [113.75268, 35.39598], [113.75276, 35.39427], [113.75766, 35.39392], [113.75814, 35.39379], [113.758154, 35.393845], [113.75842, 35.39492], [113.758621, 35.39674], [113.758921, 35.39796], [113.75924, 35.39792], [113.76664, 35.3964], [113.76709, 35.3976], [113.771871, 35.396686], [113.77551, 35.39599], [113.776067, 35.397104], [113.77763, 35.39674], [113.77727, 35.39493], [113.777408, 35.394892], [113.77824, 35.39466], [113.77916, 35.39466], [113.779411, 35.39474], [113.77978, 35.39503], [113.780431, 35.39511], [113.780851, 35.39494], [113.78145, 35.39484], [113.783432, 35.39483], [113.78455, 35.39479], [113.78493, 35.39469], [113.7859, 35.39375], [113.79534, 35.39292], [113.795551, 35.39419], [113.807093, 35.393467], [113.803687, 35.394614], [113.804278, 35.398188], [113.804431, 35.399109], [113.806512, 35.400507], [113.806143, 35.402104], [113.806014, 35.402657], [113.805768, 35.403722], [113.807811, 35.410158], [113.807468, 35.410212], [113.799188, 35.411498], [113.800227, 35.415241], [113.799907, 35.41536], [113.798643, 35.415828], [113.794045, 35.417531], [113.793544, 35.416973], [113.788842, 35.418746], [113.788932, 35.418938], [113.79021, 35.421686], [113.791444, 35.424338], [113.790141, 35.425375], [113.792981, 35.427018], [113.797214, 35.431783], [113.797041, 35.431807], [113.794285, 35.432201], [113.79184, 35.435806], [113.791881, 35.435892], [113.792018, 35.436174], [113.792868, 35.437936], [113.79381, 35.439888], [113.793961, 35.4402], [113.790265, 35.438252], [113.788118, 35.441193], [113.787724, 35.443743], [113.786631, 35.444645], [113.787731, 35.444817], [113.787507, 35.444973], [113.783838, 35.447532], [113.782751, 35.44829], [113.781853, 35.448917], [113.781943, 35.449429], [113.782652, 35.453454], [113.778978, 35.45366], [113.777308, 35.453753], [113.776518, 35.455698], [113.777582, 35.455499], [113.778694, 35.4567], [113.774878, 35.457839], [113.775246, 35.456078], [113.772262, 35.456497], [113.772536, 35.458244], [113.769974, 35.458478], [113.769694, 35.456556], [113.76734, 35.45661], [113.767265, 35.457531], [113.767038, 35.460297], [113.766859, 35.460301], [113.76554, 35.460332], [113.765278, 35.458936], [113.762918, 35.458815], [113.762442, 35.457423], [113.761586, 35.457443], [113.76117, 35.457803], [113.759898, 35.458183], [113.760802, 35.459564], [113.75978, 35.460989], [113.757217, 35.461223], [113.756937, 35.459302], [113.755225, 35.459341], [113.754524, 35.457605], [113.753014, 35.457289], [113.7517, 35.456443], [113.749594, 35.455689], [113.749833, 35.451929], [113.752103, 35.449424], [113.751233, 35.445522], [113.750081, 35.440358], [113.749421, 35.439471], [113.749184, 35.439152], [113.749047, 35.435124], [113.750822, 35.435516], [113.751204, 35.435601], [113.752226, 35.434176], [113.751923, 35.431554], [113.75449, 35.431495], [113.755192, 35.428891], [113.75582, 35.426558], [113.75933, 35.426318], [113.759665, 35.426295], [113.758281, 35.420922], [113.758185, 35.420546], [113.756051, 35.42077], [113.756009, 35.419545], [113.754744, 35.420099], [113.75513, 35.418864], [113.752527, 35.417872], [113.752022, 35.415605], [113.750287, 35.414944], [113.750284, 35.414863], [113.750282, 35.414786], [113.75015, 35.410916], [113.748433, 35.41078], [113.748374, 35.409029], [113.746461, 35.409423], [113.745427, 35.410498], [113.743936, 35.410707], [113.743573, 35.406335]]]}, "properties": {"display_name": "胡桥街道, 辉县市, 新乡市, 河南省, 中国", "type": "administrative", "osm_type": "relation", "osm_id": 9950549, "class": null, "keyword": "subdistrict"}}, {"type": "Feature", "geometry": {"type": "Polygon", "coordinates": [[[113.882485, 35.264777], [113.882525, 35.259545], [113.883505, 35.257495], [113.885024, 35.254406], [113.888809, 35.254392], [113.891101, 35.254377], [113.894606, 35.254354], [113.894582, 35.246294], [113.890935, 35.246333], [113.888663, 35.246357], [113.886563, 35.251279], [113.885297, 35.250298], [113.885178, 35.244813], [113.884213, 35.244725], [113.88696, 35.237663], [113.887689, 35.237505], [113.888007, 35.234829], [113.89183, 35.23556], [113.894277, 35.236147], [113.896068, 35.23272], [113.897104, 35.230811], [113.903321, 35.230775], [113.903299, 35.233627], [113.900746, 35.233659], [113.900757, 35.234467], [113.900248, 35.234276], [113.899999, 35.234907], [113.900747, 35.235039], [113.900717, 35.238486], [113.901008, 35.238486], [113.903218, 35.238484], [113.903222, 35.238905], [113.905185, 35.238898], [113.906018, 35.238896], [113.906005, 35.238548], [113.90725, 35.238556], [113.907258, 35.240454], [113.906977, 35.244449], [113.908147, 35.244343], [113.911788, 35.24533], [113.911715, 35.245923], [113.912092, 35.245923], [113.912101, 35.253919], [113.915092, 35.253895], [113.915339, 35.254194], [113.916536, 35.254171], [113.916483, 35.256306], [113.917849, 35.256289], [113.922551, 35.256231], [113.924292, 35.25621], [113.925198, 35.254484], [113.929706, 35.258578], [113.930349, 35.259126], [113.916825, 35.259181], [113.916738, 35.282877], [113.915116, 35.282879], [113.915094, 35.283997], [113.913998, 35.283991], [113.912714, 35.284964], [113.908148, 35.287834], [113.901053, 35.287869], [113.882566, 35.287833], [113.882507, 35.275194], [113.882499, 35.271115], [113.882491, 35.267587], [113.884213, 35.267352], [113.884362, 35.268275], [113.884445, 35.268278], [113.884403, 35.268544], [113.884474, 35.269094], [113.884976, 35.26909], [113.884894, 35.268397], [113.886195, 35.268403], [113.886279, 35.26908], [113.888628, 35.269064], [113.888641, 35.264207], [113.886882, 35.264237], [113.886887, 35.264154], [113.885553, 35.264205], [113.885578, 35.264689], [113.882485, 35.264777]], [[113.883871, 35.286141], [113.885613, 35.286169], [113.88563, 35.286404], [113.887253, 35.286397], [113.887202, 35.284462], [113.88393, 35.284497], [113.883871, 35.286141]], [[113.889442, 35.263726], [113.889983, 35.263732], [113.889996, 35.263915], [113.890174, 35.263923], [113.890216, 35.264436], [113.890618, 35.264445], [113.890612, 35.264769], [113.891411, 35.264768], [113.891414, 35.265389], [113.890946, 35.265412], [113.890956, 35.265755], [113.891134, 35.26577], [113.891124, 35.265909], [113.891371, 35.265922], [113.891181, 35.268179], [113.892178, 35.268552], [113.892183, 35.268931], [113.892376, 35.268932], [113.892385, 35.2679], [113.894816, 35.267886], [113.894812, 35.267113], [113.898334, 35.267076], [113.898343, 35.267244], [113.898586, 35.267238], [113.898585, 35.265142], [113.898547, 35.262667], [113.894841, 35.262357], [113.894809, 35.259391], [113.890488, 35.259431], [113.890488, 35.262055], [113.890186, 35.262074], [113.890122, 35.26269], [113.88946, 35.262713], [113.889442, 35.263726]], [[113.905848, 35.272678], [113.912021, 35.272425], [113.91205, 35.26889], [113.90585, 35.268921], [113.905848, 35.272678]]]}, "properties": {"display_name": "开发区街道, 东台头村, 红旗区, 新乡市, 河南省, 中国", "type": "administrative", "osm_type": "relation", "osm_id": 9954178, "class": null, "keyword": "subdistrict"}}, {"type": "Feature", "geometry": {"type": "MultiPolygon", "coordinates": [[[[113.877106, 35.313939], [113.877667, 35.313925], [113.877684, 35.314133], [113.877123, 35.314133], [113.877106, 35.313939]]], [[[113.878433, 35.313169], [113.878909, 35.313183], [113.878926, 35.313488], [113.879317, 35.313481], [113.879317, 35.313696], [113.878458, 35.313703], [113.878433, 35.313169]]], [[[113.925311, 35.338379], [113.925517, 35.3264], [113.925434, 35.324207], [113.925465, 35.32355], [113.925455, 35.320869], [113.925435, 35.318886], [113.926366, 35.318846], [113.928546, 35.318789], [113.928974, 35.318797], [113.928972, 35.314956], [113.940359, 35.314973], [113.939338, 35.309382], [113.938801, 35.307771], [113.9407, 35.307246], [113.940636, 35.305871], [113.941408, 35.306668], [113.944412, 35.306204], [113.945582, 35.305827], [113.951944, 35.305652], [113.95188, 35.301738], [113.952674, 35.301695], [113.953446, 35.303271], [113.955067, 35.303186], [113.956, 35.305503], [113.958725, 35.305013], [113.959873, 35.307193], [113.963628, 35.306002], [113.96381, 35.306195], [113.964121, 35.30609], [113.964315, 35.306852], [113.966267, 35.306685], [113.966482, 35.307684], [113.967501, 35.307395], [113.968123, 35.309049], [113.967201, 35.308935], [113.967254, 35.309452], [113.970172, 35.316088], [113.970838, 35.315896], [113.970966, 35.317209], [113.973434, 35.318242], [113.975344, 35.320623], [113.977248, 35.324827], [113.979555, 35.324212], [113.98026, 35.324482], [113.984291, 35.324072], [113.984672, 35.325465], [113.985986, 35.324941], [113.988626, 35.324895], [113.988948, 35.326313], [113.990836, 35.325945], [113.991909, 35.328589], [113.99089, 35.328974], [113.986956, 35.329641], [113.989518, 35.333157], [113.987103, 35.335048], [113.979813, 35.336004], [113.979397, 35.33656], [113.977134, 35.337241], [113.977004, 35.337472], [113.975971, 35.337668], [113.975612, 35.337335], [113.974907, 35.337012], [113.974544, 35.336567], [113.97302, 35.336604], [113.97293, 35.336038], [113.970793, 35.336375], [113.966561, 35.338183], [113.968444, 35.338478], [113.966757, 35.339769], [113.967642, 35.341029], [113.967855, 35.341333], [113.965463, 35.342301], [113.963934, 35.340293], [113.96457, 35.340066], [113.96633, 35.339439], [113.965866, 35.338143], [113.96722, 35.337258], [113.966572, 35.336592], [113.970752, 35.335239], [113.970559, 35.333767], [113.972551, 35.333263], [113.971718, 35.331353], [113.9782, 35.330397], [113.977124, 35.32668], [113.969658, 35.328108], [113.969826, 35.328899], [113.966931, 35.329368], [113.966017, 35.327118], [113.964972, 35.327354], [113.95811, 35.328903], [113.958256, 35.331001], [113.959945, 35.331698], [113.955719, 35.333677], [113.957134, 35.336369], [113.956429, 35.336523], [113.954795, 35.336881], [113.954805, 35.335233], [113.952992, 35.335161], [113.951962, 35.333645], [113.949044, 35.333721], [113.947542, 35.333811], [113.945113, 35.333864], [113.940587, 35.333694], [113.940628, 35.335986], [113.94067, 35.337432], [113.940699, 35.338197], [113.938084, 35.33824], [113.935321, 35.33821], [113.930581, 35.338209], [113.925311, 35.338379]]]]}, "properties": {"display_name": "和平路街道, 下焦庄村, 定国村, 牧野区, 新乡市, 河南省, 中国", "type": "administrative", "osm_type": "relation", "osm_id": 9957935, "class": null, "keyword": "subdistrict"}}, {"type": "Feature", "geometry": {"type": "Polygon", "coordinates": [[[113.778334, 35.465892], [113.778355, 35.465766], [113.778367, 35.465694], [113.77846, 35.465143], [113.779345, 35.464377], [113.780223, 35.463426], [113.780759, 35.463538], [113.780915, 35.463151], [113.781038, 35.462848], [113.782119, 35.462668], [113.782337, 35.462363], [113.783183, 35.461184], [113.783366, 35.461062], [113.784148, 35.46054], [113.784977, 35.460397], [113.785845, 35.459134], [113.785826, 35.458606], [113.785798, 35.457769], [113.785195, 35.457137], [113.785157, 35.457098], [113.784695, 35.456614], [113.783492, 35.456953], [113.780603, 35.454597], [113.778978, 35.45366], [113.782652, 35.453454], [113.781943, 35.449429], [113.781853, 35.448917], [113.782751, 35.44829], [113.783838, 35.447532], [113.787507, 35.444973], [113.787731, 35.444817], [113.790291, 35.445217], [113.791436, 35.444784], [113.792276, 35.444466], [113.792511, 35.444377], [113.79397, 35.44419], [113.795567, 35.443985], [113.796625, 35.443849], [113.797155, 35.443781], [113.798502, 35.443608], [113.799173, 35.443522], [113.799636, 35.444519], [113.800629, 35.444914], [113.800825, 35.444992], [113.803382, 35.446009], [113.804474, 35.44547], [113.807013, 35.444216], [113.809208, 35.443864], [113.810838, 35.443602], [113.811165, 35.44355], [113.811787, 35.446032], [113.815325, 35.446169], [113.814081, 35.44887], [113.814098, 35.449352], [113.818675, 35.448588], [113.816821, 35.45069], [113.81723, 35.451644], [113.818306, 35.451794], [113.820149, 35.450919], [113.82017, 35.449998], [113.821845, 35.448908], [113.823706, 35.448864], [113.824143, 35.448854], [113.824734, 35.448841], [113.826505, 35.450157], [113.824442, 35.454513], [113.824274, 35.454924], [113.823759, 35.456179], [113.824668, 35.458354], [113.824811, 35.458695], [113.828403, 35.460364], [113.83015, 35.462461], [113.830192, 35.462512], [113.827541, 35.463275], [113.828137, 35.463678], [113.827994, 35.46393], [113.826555, 35.464026], [113.823419, 35.463354], [113.819622, 35.463318], [113.817877, 35.463359], [113.817055, 35.463751], [113.817075, 35.464309], [113.815098, 35.464232], [113.812968, 35.461921], [113.811626, 35.462578], [113.811102, 35.462834], [113.813115, 35.470575], [113.813205, 35.470922], [113.811545, 35.471209], [113.809956, 35.47137], [113.808518, 35.471347], [113.808058, 35.471352], [113.807417, 35.470373], [113.806432, 35.470458], [113.806692, 35.471384], [113.806109, 35.471826], [113.805572, 35.471157], [113.805385, 35.470918], [113.805231, 35.470931], [113.796479, 35.471711], [113.794109, 35.471987], [113.792887, 35.470807], [113.792852, 35.470774], [113.788773, 35.471365], [113.789269, 35.47036], [113.78844, 35.470503], [113.788351, 35.470132], [113.786765, 35.470518], [113.786092, 35.470681], [113.785828, 35.469632], [113.786597, 35.469359], [113.786953, 35.469233], [113.786687, 35.468121], [113.785551, 35.46821], [113.782803, 35.467776], [113.782478, 35.46696], [113.782387, 35.46673], [113.781763, 35.466885], [113.781559, 35.466935], [113.781022, 35.466761], [113.780571, 35.466896], [113.779719, 35.466419], [113.778808, 35.46644], [113.778334, 35.465892]]]}, "properties": {"display_name": "城关街道, 辉县市, 新乡市, 河南省, 中国", "type": "administrative", "osm_type": "relation", "osm_id": 9950548, "class": null, "keyword": "subdistrict"}}, {"type": "Feature", "geometry": {"type": "Polygon", "coordinates": [[[113.847372, 35.268425], [113.851929, 35.265335], [113.853672, 35.264358], [113.8554, 35.263568], [113.857315, 35.262893], [113.864934, 35.260856], [113.865988, 35.260562], [113.86874, 35.260019], [113.872172, 35.259691], [113.882525, 35.259545], [113.882485, 35.264777], [113.882491, 35.267587], [113.882499, 35.271115], [113.882507, 35.275194], [113.86537, 35.275168], [113.865371, 35.280539], [113.855055, 35.273459], [113.848101, 35.268939], [113.847372, 35.268425]]]}, "properties": {"display_name": "胜利路街道, 卫滨区, 新乡市, 河南省, 中国", "type": "administrative", "osm_type": "relation", "osm_id": 9954940, "class": null, "keyword": "subdistrict"}}, {"type": "Feature", "geometry": {"type": "Polygon", "coordinates": [[[113.814147, 35.300649], [113.814347, 35.294931], [113.816351, 35.294925], [113.816298, 35.300596], [113.817907, 35.300764], [113.817861, 35.296533], [113.823473, 35.296526], [113.823093, 35.301465], [113.823802, 35.301654], [113.825446, 35.297143], [113.825524, 35.299312], [113.832066, 35.299349], [113.831798, 35.302643], [113.832084, 35.302666], [113.832355, 35.299379], [113.834348, 35.299394], [113.834339, 35.299147], [113.832335, 35.299153], [113.832371, 35.298048], [113.83671, 35.298152], [113.834352, 35.293595], [113.833323, 35.292644], [113.830745, 35.289828], [113.834548, 35.287351], [113.835199, 35.2873], [113.838241, 35.290156], [113.845417, 35.292067], [113.845407, 35.290342], [113.847818, 35.29049], [113.847871, 35.290587], [113.848271, 35.290577], [113.848224, 35.290311], [113.850108, 35.290246], [113.85058, 35.290328], [113.851938, 35.29031], [113.851934, 35.295499], [113.85184, 35.297726], [113.851577, 35.299543], [113.851543, 35.300112], [113.851517, 35.302214], [113.851568, 35.302582], [113.851815, 35.303587], [113.855087, 35.314074], [113.856033, 35.316897], [113.855737, 35.316859], [113.854756, 35.316148], [113.853053, 35.31522], [113.851618, 35.314283], [113.851285, 35.314137], [113.850517, 35.314169], [113.848933, 35.316005], [113.848257, 35.316245], [113.847128, 35.309961], [113.846168, 35.305174], [113.845972, 35.304987], [113.845802, 35.304876], [113.84275, 35.304341], [113.838134, 35.303516], [113.836493, 35.303287], [113.835609, 35.303148], [113.834755, 35.303051], [113.830669, 35.302805], [113.829289, 35.302686], [113.828354, 35.302644], [113.827793, 35.302609], [113.827266, 35.302519], [113.823725, 35.301805], [113.814147, 35.300649]]]}, "properties": {"display_name": "铁西街道, 卫滨区, 新乡市, 河南省, 中国", "type": "administrative", "osm_type": "relation", "osm_id": 9954941, "class": null, "keyword": "subdistrict"}}, {"type": "Feature", "geometry": {"type": "Polygon", "coordinates": [[[113.881588, 35.33489], [113.882514, 35.333416], [113.882904, 35.333411], [113.882902, 35.333391], [113.882804, 35.332542], [113.882688, 35.332511], [113.882608, 35.326947], [113.882599, 35.326294], [113.883677, 35.326238], [113.883732, 35.327529], [113.884641, 35.327401], [113.88479, 35.328205], [113.885624, 35.328191], [113.885656, 35.329426], [113.88646, 35.329399], [113.886504, 35.329889], [113.887501, 35.329753], [113.887474, 35.328014], [113.887188, 35.327745], [113.887106, 35.327483], [113.886589, 35.327163], [113.886405, 35.326888], [113.885112, 35.323367], [113.886916, 35.32346], [113.886733, 35.322405], [113.886599, 35.321913], [113.885705, 35.322076], [113.88567, 35.323042], [113.88463, 35.32301], [113.884573, 35.322387], [113.88257, 35.322361], [113.882594, 35.317685], [113.894827, 35.317953], [113.90153, 35.31822], [113.901551, 35.320675], [113.90201, 35.320681], [113.90453, 35.320744], [113.90446, 35.323585], [113.904945, 35.323573], [113.904844, 35.320773], [113.909755, 35.320723], [113.912149, 35.320703], [113.912065, 35.318349], [113.91546, 35.318381], [113.915343, 35.32091], [113.916625, 35.320936], [113.917769, 35.323016], [113.914097, 35.323835], [113.910663, 35.323691], [113.910663, 35.324052], [113.910651, 35.332666], [113.91065, 35.332973], [113.910544, 35.333076], [113.910542, 35.333434], [113.906547, 35.333424], [113.906107, 35.332558], [113.902346, 35.333321], [113.90163, 35.332565], [113.901457, 35.329674], [113.90141, 35.329675], [113.895077, 35.329744], [113.894914, 35.329746], [113.895117, 35.334481], [113.895709, 35.334581], [113.895728, 35.335091], [113.89604, 35.335084], [113.896046, 35.335277], [113.896061, 35.335708], [113.894936, 35.336831], [113.890106, 35.336759], [113.890155, 35.335196], [113.891198, 35.335313], [113.891204, 35.335483], [113.892067, 35.335406], [113.892198, 35.335176], [113.892416, 35.335483], [113.894086, 35.33567], [113.894167, 35.336009], [113.894757, 35.336023], [113.894636, 35.329724], [113.893423, 35.329725], [113.893667, 35.328783], [113.892215, 35.328846], [113.892273, 35.329497], [113.892756, 35.329457], [113.892796, 35.329626], [113.892493, 35.329861], [113.890794, 35.329788], [113.890786, 35.329728], [113.890293, 35.32591], [113.891178, 35.325817], [113.892235, 35.325553], [113.892321, 35.326494], [113.894196, 35.326355], [113.894092, 35.325652], [113.89466, 35.325552], [113.894676, 35.324861], [113.893749, 35.325084], [113.893654, 35.324525], [113.893191, 35.324534], [113.893228, 35.324223], [113.892639, 35.324237], [113.89268, 35.324407], [113.892265, 35.324445], [113.891788, 35.32369], [113.891133, 35.323668], [113.890912, 35.323399], [113.891063, 35.323408], [113.891151, 35.323413], [113.8923, 35.323479], [113.890699, 35.322269], [113.891578, 35.32168], [113.891293, 35.32146], [113.89075, 35.321757], [113.890568, 35.321505], [113.890051, 35.321574], [113.890013, 35.320525], [113.89064, 35.320624], [113.890625, 35.320198], [113.890141, 35.320238], [113.890136, 35.320096], [113.890517, 35.320087], [113.890545, 35.319888], [113.88999, 35.319873], [113.889865, 35.320273], [113.887445, 35.320359], [113.887545, 35.321237], [113.887302, 35.321215], [113.887214, 35.32167], [113.886973, 35.321705], [113.886916, 35.321082], [113.886865, 35.321089], [113.886675, 35.321116], [113.886873, 35.322584], [113.887845, 35.322599], [113.887928, 35.322994], [113.888205, 35.322988], [113.888283, 35.323242], [113.888873, 35.323256], [113.888881, 35.323511], [113.889946, 35.323507], [113.890505, 35.329705], [113.890518, 35.329851], [113.887427, 35.329953], [113.887333, 35.332794], [113.883084, 35.332727], [113.883036, 35.332727], [113.88308, 35.333975], [113.884709, 35.334021], [113.885496, 35.333746], [113.886145, 35.334441], [113.883159, 35.335222], [113.883059, 35.336303], [113.883961, 35.336338], [113.88778, 35.335622], [113.889888, 35.337417], [113.88978, 35.338271], [113.882775, 35.33809], [113.88236, 35.338079], [113.881872, 35.335082], [113.881588, 35.33489]]]}, "properties": {"display_name": "东干道街道, 白小屯村, 牧野区, 新乡市, 河南省, 中国", "type": "administrative", "osm_type": "relation", "osm_id": 9957934, "class": null, "keyword": "subdistrict"}}, {"type": "Feature", "geometry": {"type": "MultiPolygon", "coordinates": [[[[113.882566, 35.287833], [113.901053, 35.287869], [113.901002, 35.292384], [113.899693, 35.293202], [113.898325, 35.293119], [113.898359, 35.296469], [113.905871, 35.296518], [113.906147, 35.309883], [113.905885, 35.309706], [113.904433, 35.309039], [113.904056, 35.308353], [113.903645, 35.307589], [113.902828, 35.307044], [113.901572, 35.306694], [113.90012, 35.30686], [113.898504, 35.307044], [113.897577, 35.307718], [113.896676, 35.308499], [113.895776, 35.308561], [113.893479, 35.30746], [113.888105, 35.301065], [113.8844, 35.296508], [113.882588, 35.294414], [113.882566, 35.287833]]], [[[113.883871, 35.286141], [113.88393, 35.284497], [113.887202, 35.284462], [113.887253, 35.286397], [113.88563, 35.286404], [113.885613, 35.286169], [113.883871, 35.286141]]]]}, "properties": {"display_name": "渠东街道, 红旗区, 新乡市, 河南省, 中国", "type": "administrative", "osm_type": "relation", "osm_id": 9954172, "class": null, "keyword": "subdistrict"}}, {"type": "Feature", "geometry": {"type": "Polygon", "coordinates": [[[113.851762, 35.284024], [113.851849, 35.281685], [113.851893, 35.275254], [113.852925, 35.275214], [113.852961, 35.274109], [113.853417, 35.274078], [113.853393, 35.273442], [113.855055, 35.273459], [113.865371, 35.280539], [113.865373, 35.288052], [113.865359, 35.296524], [113.858113, 35.296526], [113.855801, 35.296574], [113.854688, 35.296699], [113.854654, 35.296561], [113.854365, 35.29647], [113.854373, 35.29636], [113.854025, 35.29629], [113.854084, 35.296103], [113.854101, 35.295492], [113.851934, 35.295499], [113.851938, 35.29031], [113.851972, 35.286438], [113.851762, 35.284024]]]}, "properties": {"display_name": "南桥街道, 卫滨区, 新乡市, 河南省, 中国", "type": "administrative", "osm_type": "relation", "osm_id": 9954938, "class": null, "keyword": "subdistrict"}}, {"type": "Feature", "geometry": {"type": "Polygon", "coordinates": [[[113.867251, 35.317293], [113.873679, 35.31746], [113.882594, 35.317685], [113.88257, 35.322361], [113.882587, 35.323261], [113.87975, 35.323153], [113.879672, 35.325708], [113.877348, 35.325632], [113.877409, 35.325975], [113.877648, 35.32733], [113.877048, 35.327312], [113.877142, 35.327703], [113.875298, 35.327616], [113.875278, 35.328207], [113.877393, 35.328025], [113.877462, 35.327696], [113.877976, 35.327552], [113.878043, 35.326042], [113.877724, 35.326082], [113.877679, 35.325919], [113.878794, 35.325762], [113.878846, 35.326121], [113.880128, 35.326157], [113.880118, 35.325862], [113.879796, 35.325836], [113.879943, 35.325439], [113.882542, 35.325283], [113.882658, 35.325276], [113.882559, 35.325783], [113.882462, 35.326277], [113.882383, 35.32668], [113.882352, 35.332433], [113.875588, 35.331282], [113.874752, 35.333075], [113.874294, 35.332858], [113.873403, 35.332169], [113.871502, 35.331322], [113.870261, 35.330743], [113.868441, 35.330252], [113.868308, 35.330216], [113.867876, 35.322601], [113.867251, 35.317293]]]}, "properties": {"display_name": "北干道街道, 牧野区, 新乡市, 河南省, 中国", "type": "administrative", "osm_type": "relation", "osm_id": 9957933, "class": null, "keyword": "subdistrict"}}, {"type": "Feature", "geometry": {"type": "Polygon", "coordinates": [[[113.86537, 35.275168], [113.882507, 35.275194], [113.882566, 35.287833], [113.882588, 35.294414], [113.87868, 35.289897], [113.878213, 35.289363], [113.877711, 35.288912], [113.87619, 35.287844], [113.865371, 35.280539], [113.86537, 35.275168]]]}, "properties": {"display_name": "向阳小区街道, 新乡市, 红旗区, 新乡市, 河南省, 中国", "type": "administrative", "osm_type": "relation", "osm_id": 9954174, "class": null, "keyword": "subdistrict"}}, {"type": "Feature", "geometry": {"type": "Polygon", "coordinates": [[[113.872191, 35.299747], [113.872213, 35.299386], [113.872782, 35.296563], [113.8844, 35.296508], [113.888105, 35.301065], [113.893479, 35.30746], [113.892769, 35.307687], [113.890284, 35.309228], [113.889887, 35.30932], [113.887635, 35.309091], [113.887207, 35.308809], [113.88634, 35.307543], [113.885047, 35.306874], [113.884276, 35.306807], [113.882539, 35.307354], [113.880353, 35.308043], [113.879868, 35.30828], [113.877357, 35.309595], [113.876413, 35.30968], [113.874321, 35.308927], [113.873377, 35.308731], [113.873203, 35.306032], [113.872446, 35.302653], [113.872191, 35.299747]]]}, "properties": {"display_name": "东街街道, 红旗区, 新乡市, 河南省, 中国", "type": "administrative", "osm_type": "relation", "osm_id": 9954170, "class": null, "keyword": "subdistrict"}}, {"type": "Feature", "geometry": {"type": "Polygon", "coordinates": [[[113.865359, 35.296524], [113.865373, 35.288052], [113.865371, 35.280539], [113.87619, 35.287844], [113.877711, 35.288912], [113.878213, 35.289363], [113.87868, 35.289897], [113.882588, 35.294414], [113.8844, 35.296508], [113.872782, 35.296563], [113.872213, 35.299386], [113.865559, 35.299798], [113.865359, 35.296524]]]}, "properties": {"display_name": "文化街街道, 红旗区, 新乡市, 河南省, 453000, 中国", "type": "administrative", "osm_type": "relation", "osm_id": 9954173, "class": null, "keyword": "subdistrict"}}, {"type": "Feature", "geometry": {"type": "MultiPolygon", "coordinates": [[[[113.806604, 35.309633], [113.806689, 35.306011], [113.810907, 35.306089], [113.810778, 35.309132], [113.810821, 35.30957], [113.813726, 35.309627], [113.814522, 35.309402], [113.815924, 35.309456], [113.815896, 35.307954], [113.818264, 35.308133], [113.818264, 35.307381], [113.820028, 35.307401], [113.820028, 35.308241], [113.819533, 35.308275], [113.81949, 35.30943], [113.819231, 35.309481], [113.81921, 35.310443], [113.81822, 35.31046], [113.818134, 35.310057], [113.816412, 35.309984], [113.816412, 35.309721], [113.815943, 35.309736], [113.814479, 35.309734], [113.813985, 35.309925], [113.813745, 35.309924], [113.811014, 35.309885], [113.810456, 35.309936], [113.806604, 35.309633]]], [[[113.822892, 35.305261], [113.823021, 35.303792], [113.823725, 35.301805], [113.827266, 35.302519], [113.827793, 35.302609], [113.828354, 35.302644], [113.829289, 35.302686], [113.830669, 35.302805], [113.830497, 35.304248], [113.830324, 35.306312], [113.8247, 35.306069], [113.824571, 35.306244], [113.823753, 35.306067], [113.822892, 35.305261]]], [[[113.83316, 35.310838], [113.8338, 35.310648], [113.836767, 35.310511], [113.836748, 35.309105], [113.836961, 35.309116], [113.836995, 35.309002], [113.837189, 35.308992], [113.83723, 35.308909], [113.837574, 35.308911], [113.837598, 35.307606], [113.838462, 35.307591], [113.8384, 35.307089], [113.836432, 35.307043], [113.836404, 35.307152], [113.836154, 35.307162], [113.836304, 35.306799], [113.836041, 35.306816], [113.836121, 35.305869], [113.836113, 35.305609], [113.834725, 35.305536], [113.834755, 35.303051], [113.835609, 35.303148], [113.836493, 35.303287], [113.836298, 35.305895], [113.837454, 35.305958], [113.837463, 35.305868], [113.837615, 35.305847], [113.837607, 35.304778], [113.838083, 35.304758], [113.838134, 35.303516], [113.84275, 35.304341], [113.845802, 35.304876], [113.845972, 35.304987], [113.846168, 35.305174], [113.847128, 35.309961], [113.848257, 35.316245], [113.844901, 35.316695], [113.844177, 35.316792], [113.841008, 35.317705], [113.840124, 35.317473], [113.835802, 35.314119], [113.83316, 35.310838]]]]}, "properties": {"display_name": "中同街街道, 卫滨区, 新乡市, 河南省, 中国", "type": "administrative", "osm_type": "relation", "osm_id": 9954942, "class": null, "keyword": "subdistrict"}}, {"type": "Feature", "geometry": {"type": "Polygon", "coordinates": [[[113.882539, 35.307354], [113.884276, 35.306807], [113.885047, 35.306874], [113.88634, 35.307543], [113.887207, 35.308809], [113.887635, 35.309091], [113.889887, 35.30932], [113.890284, 35.309228], [113.892769, 35.307687], [113.893479, 35.30746], [113.895776, 35.308561], [113.896676, 35.308499], [113.897577, 35.307718], [113.898504, 35.307044], [113.90012, 35.30686], [113.899932, 35.31069], [113.905226, 35.310819], [113.905244, 35.312158], [113.904472, 35.312189], [113.904459, 35.312664], [113.903376, 35.312703], [113.903322, 35.311596], [113.902801, 35.311559], [113.902998, 35.312919], [113.903845, 35.312922], [113.903857, 35.31492], [113.904577, 35.315121], [113.905179, 35.317811], [113.903362, 35.317696], [113.903254, 35.317175], [113.903104, 35.317142], [113.903015, 35.316742], [113.904022, 35.316633], [113.90403, 35.315183], [113.901606, 35.315132], [113.901652, 35.311014], [113.900028, 35.310883], [113.899976, 35.31483], [113.897138, 35.314837], [113.896967, 35.314622], [113.895214, 35.31464], [113.895319, 35.315892], [113.901395, 35.315868], [113.901609, 35.317714], [113.895114, 35.317554], [113.89508, 35.314631], [113.894976, 35.314671], [113.894743, 35.314761], [113.894903, 35.315086], [113.894721, 35.315394], [113.894121, 35.315239], [113.893947, 35.315352], [113.893881, 35.314343], [113.893555, 35.314351], [113.893519, 35.314181], [113.893237, 35.314188], [113.893256, 35.313883], [113.891119, 35.313958], [113.891064, 35.313667], [113.890463, 35.313688], [113.888467, 35.313754], [113.888956, 35.315399], [113.888767, 35.315513], [113.888893, 35.315692], [113.890273, 35.31566], [113.890336, 35.316998], [113.890536, 35.317212], [113.891175, 35.317209], [113.891317, 35.317437], [113.891721, 35.3175], [113.891713, 35.317059], [113.892296, 35.316963], [113.892476, 35.317007], [113.892359, 35.317071], [113.892323, 35.317291], [113.892933, 35.317325], [113.892997, 35.317043], [113.894593, 35.317212], [113.894827, 35.317953], [113.882594, 35.317685], [113.882539, 35.307354]]]}, "properties": {"display_name": "荣校路街道, 牧野区, 新乡市, 河南省, 中国", "type": "administrative", "osm_type": "relation", "osm_id": 9957938, "class": null, "keyword": "subdistrict"}}, {"type": "Feature", "geometry": {"type": "Polygon", "coordinates": [[[113.842872, 35.321059], [113.845261, 35.32103], [113.845366, 35.321029], [113.844901, 35.316695], [113.848257, 35.316245], [113.848933, 35.316005], [113.850517, 35.314169], [113.851285, 35.314137], [113.851618, 35.314283], [113.853053, 35.31522], [113.854756, 35.316148], [113.855737, 35.316859], [113.856033, 35.316897], [113.860473, 35.33105], [113.857197, 35.331139], [113.856236, 35.330957], [113.855656, 35.330768], [113.852558, 35.328679], [113.851994, 35.328115], [113.851578, 35.327465], [113.849667, 35.327007], [113.849685, 35.328512], [113.848509, 35.328597], [113.848187, 35.327326], [113.849221, 35.327159], [113.850053, 35.324214], [113.847703, 35.324383], [113.847792, 35.324949], [113.846822, 35.324972], [113.846661, 35.324322], [113.848559, 35.324169], [113.851638, 35.323921], [113.85264, 35.326795], [113.851807, 35.326757], [113.851862, 35.327353], [113.855467, 35.327324], [113.856451, 35.325041], [113.8537, 35.324686], [113.852093, 35.323847], [113.850058, 35.3236], [113.849267, 35.323522], [113.849133, 35.322673], [113.849614, 35.322548], [113.848931, 35.320859], [113.849628, 35.320752], [113.850241, 35.320658], [113.850157, 35.320234], [113.849321, 35.320383], [113.847952, 35.320627], [113.847741, 35.322421], [113.847813, 35.323585], [113.845606, 35.32372], [113.845578, 35.323779], [113.845976, 35.32556], [113.844971, 35.325651], [113.844283, 35.325713], [113.844486, 35.327555], [113.844249, 35.327571], [113.843137, 35.327644], [113.842989, 35.323942], [113.842875, 35.321134], [113.842872, 35.321059]]]}, "properties": {"display_name": "新辉路街道, 牧野区, 新乡市, 河南省, 中国", "type": "administrative", "osm_type": "relation", "osm_id": 9957941, "class": null, "keyword": "subdistrict"}}, {"type": "Feature", "geometry": {"type": "Polygon", "coordinates": [[[113.856033, 35.316897], [113.856438, 35.316828], [113.857072, 35.31651], [113.857856, 35.315007], [113.860048, 35.313662], [113.860688, 35.31327], [113.861314, 35.313136], [113.86177, 35.31324], [113.862741, 35.313968], [113.865577, 35.313488], [113.866382, 35.313293], [113.866809, 35.313181], [113.867251, 35.317293], [113.867876, 35.322601], [113.864963, 35.323237], [113.86601, 35.326507], [113.859968, 35.327744], [113.860453, 35.328172], [113.861062, 35.328517], [113.862143, 35.328899], [113.86511, 35.329482], [113.86526, 35.330663], [113.860473, 35.33105], [113.856033, 35.316897]]]}, "properties": {"display_name": "卫北街道, 牧野区, 新乡市, 河南省, 中国", "type": "administrative", "osm_type": "relation", "osm_id": 9957940, "class": null, "keyword": "subdistrict"}}, {"type": "Feature", "geometry": {"type": "Polygon", "coordinates": [[[113.866809, 35.313181], [113.867261, 35.312963], [113.86742, 35.312743], [113.867292, 35.311723], [113.86739, 35.310975], [113.867626, 35.31031], [113.871542, 35.308865], [113.873012, 35.308655], [113.873377, 35.308731], [113.874321, 35.308927], [113.876413, 35.30968], [113.877357, 35.309595], [113.879868, 35.30828], [113.880353, 35.308043], [113.882539, 35.307354], [113.882594, 35.317685], [113.873679, 35.31746], [113.867251, 35.317293], [113.866809, 35.313181]], [[113.877106, 35.313939], [113.877123, 35.314133], [113.877684, 35.314133], [113.877667, 35.313925], [113.877106, 35.313939]], [[113.878433, 35.313169], [113.878458, 35.313703], [113.879317, 35.313696], [113.879317, 35.313481], [113.878926, 35.313488], [113.878909, 35.313183], [113.878433, 35.313169]]]}, "properties": {"display_name": "花园街道, 牧野区, 新乡市, 河南省, 中国", "type": "administrative", "osm_type": "relation", "osm_id": 9957936, "class": null, "keyword": "subdistrict"}}, {"type": "Feature", "geometry": {"type": "Polygon", "coordinates": [[[113.851517, 35.302214], [113.851543, 35.300112], [113.851577, 35.299543], [113.85184, 35.297726], [113.851934, 35.295499], [113.854101, 35.295492], [113.854084, 35.296103], [113.854025, 35.29629], [113.854373, 35.29636], [113.854365, 35.29647], [113.854654, 35.296561], [113.854688, 35.296699], [113.855801, 35.296574], [113.858113, 35.296526], [113.865359, 35.296524], [113.865559, 35.299798], [113.865802, 35.302588], [113.865994, 35.304095], [113.863408, 35.304336], [113.863034, 35.304434], [113.860986, 35.304683], [113.858827, 35.304975], [113.858597, 35.303046], [113.855903, 35.303164], [113.853591, 35.303296], [113.852741, 35.303379], [113.851815, 35.303587], [113.851568, 35.302582], [113.851517, 35.302214]]]}, "properties": {"display_name": "健康路街道, 卫滨区, 新乡市, 河南省, 中国", "type": "administrative", "osm_type": "relation", "osm_id": 9954936, "class": null, "keyword": "subdistrict"}}, {"type": "Feature", "geometry": {"type": "Polygon", "coordinates": [[[113.851815, 35.303587], [113.852741, 35.303379], [113.853591, 35.303296], [113.855903, 35.303164], [113.858597, 35.303046], [113.858827, 35.304975], [113.859362, 35.310946], [113.860048, 35.313662], [113.857856, 35.315007], [113.857072, 35.31651], [113.856438, 35.316828], [113.856033, 35.316897], [113.855087, 35.314074], [113.851815, 35.303587]]]}, "properties": {"display_name": "自由路街道, 卫滨区, 新乡市, 河南省, 中国", "type": "administrative", "osm_type": "relation", "osm_id": 9954943, "class": null, "keyword": "subdistrict"}}, {"type": "Feature", "geometry": {"type": "Polygon", "coordinates": [[[113.865559, 35.299798], [113.872213, 35.299386], [113.872191, 35.299747], [113.872446, 35.302653], [113.873203, 35.306032], [113.873377, 35.308731], [113.873012, 35.308655], [113.871542, 35.308865], [113.867626, 35.31031], [113.86739, 35.310975], [113.867292, 35.311723], [113.86742, 35.312743], [113.867261, 35.312963], [113.866809, 35.313181], [113.86669, 35.309557], [113.865994, 35.304095], [113.865802, 35.302588], [113.865559, 35.299798]]]}, "properties": {"display_name": "西街街道, 红旗区, 新乡市, 河南省, 中国", "type": "administrative", "osm_type": "relation", "osm_id": 9954176, "class": null, "keyword": "subdistrict"}}, {"type": "Feature", "geometry": {"type": "Polygon", "coordinates": [[[113.858827, 35.304975], [113.860986, 35.304683], [113.863034, 35.304434], [113.863408, 35.304336], [113.865994, 35.304095], [113.86669, 35.309557], [113.866809, 35.313181], [113.866382, 35.313293], [113.865577, 35.313488], [113.862741, 35.313968], [113.86177, 35.31324], [113.861314, 35.313136], [113.860688, 35.31327], [113.860048, 35.313662], [113.859362, 35.310946], [113.858827, 35.304975]]]}, "properties": {"display_name": "解放路街道, 卫滨区, 新乡市, 河南省, 中国", "type": "administrative", "osm_type": "relation", "osm_id": 9954937, "class": null, "keyword": "subdistrict"}}, {"type": "Feature", "geometry": {"type": "MultiPolygon", "coordinates": [[[[113.925456, 35.288048], [113.930597, 35.288038], [113.930623, 35.295055], [113.930615, 35.295234], [113.930545, 35.295967], [113.925472, 35.295989], [113.925456, 35.288048]]], [[[113.925476, 35.283006], [113.927379, 35.282998], [113.930399, 35.28528], [113.930414, 35.287608], [113.925483, 35.287625], [113.925476, 35.283006]]]]}, "properties": {"display_name": "河南医药大学, 向阳路, 公村, 洪门镇, 红旗区, 新乡市, 河南省, 中国", "type": "university", "osm_type": "relation", "osm_id": 9818491, "class": null, "keyword": "中央区"}}, {"type": "Feature", "geometry": {"type": "Polygon", "coordinates": [[[113.81118, 35.186432], [113.812221, 35.183121], [113.812238, 35.183068], [113.81771, 35.184217], [113.816615, 35.187699], [113.811834, 35.186695], [113.811871, 35.186577], [113.81118, 35.186432]]]}, "properties": {"display_name": "河南省新乡县第一中学, 新城大道, 新乡经济开发区, 新乡县, 新乡市, 河南省, 中国", "type": "school", "osm_type": "relation", "osm_id": 9873779, "class": null, "keyword": "中央区"}}, {"type": "Feature", "geometry": {"type": "Polygon", "coordinates": [[[113.90116, 35.254723], [113.901368, 35.254542], [113.905349, 35.254523], [113.905556, 35.254674], [113.90558, 35.25889], [113.902229, 35.258899], [113.902226, 35.25851], [113.902172, 35.25851], [113.902128, 35.258496], [113.902111, 35.258485], [113.902099, 35.258455], [113.902098, 35.258241], [113.902097, 35.25817], [113.901323, 35.258174], [113.901185, 35.25814], [113.90116, 35.254723]]]}, "properties": {"display_name": "新乡市一中实验学校, 柳青路, 开发区街道, 东杨村, 关堤乡, 红旗区, 新乡市, 河南省, 453000, 中国", "type": "school", "osm_type": "relation", "osm_id": 9820809, "class": null, "keyword": "中央区"}}, {"type": "Feature", "geometry": {"type": "Polygon", "coordinates": [[[113.805378, 35.172265], [113.805639, 35.169557], [113.806212, 35.169681], [113.81152, 35.170826], [113.811209, 35.173523], [113.805378, 35.172265]]]}, "properties": {"display_name": "新乡县政府, 中央大道, 新乡经济开发区, 新乡县, 新乡市, 河南省, 中国", "type": "townhall", "osm_type": "relation", "osm_id": 9873765, "class": null, "keyword": "中央区"}}, {"type": "Feature", "geometry": {"type": "Polygon", "coordinates": [[[113.882807, 35.296859], [113.882858, 35.296793], [113.882942, 35.296749], [113.883017, 35.296734], [113.88389, 35.296729], [113.884, 35.296737], [113.88405, 35.296749], [113.884115, 35.296776], [113.88674, 35.299854], [113.886256, 35.30013], [113.886326, 35.300212], [113.886329, 35.300703], [113.883978, 35.300717], [113.883052, 35.300723], [113.883002, 35.300716], [113.882945, 35.30069], [113.882874, 35.300643], [113.882836, 35.300596], [113.882816, 35.300532], [113.882813, 35.299531], [113.882812, 35.298732], [113.882807, 35.296859]]]}, "properties": {"display_name": "新乡市体育中心, 人民东路, 东街街道, 张庄村, 红旗区, 新乡市, 河南省, 453000, 中国", "type": "sports_centre", "osm_type": "relation", "osm_id": 9818494, "class": null, "keyword": "city center"}}, {"type": "Feature", "geometry": {"type": "Polygon", "coordinates": [[[113.919547, 35.28613], [113.920013, 35.285843], [113.920012, 35.285033], [113.921453, 35.285032], [113.921453, 35.284951], [113.924366, 35.284948], [113.924368, 35.28758], [113.922174, 35.287582], [113.922173, 35.286506], [113.920312, 35.286507], [113.920047, 35.28667], [113.919547, 35.28613]]]}, "properties": {"display_name": "河南医药大学(西校区), 向阳路, 公村, 洪门镇, 红旗区, 新乡市, 河南省, 中国", "type": "university", "osm_type": "way", "osm_id": 706215698, "class": null, "keyword": "中央区"}}, {"type": "Feature", "geometry": {"type": "Polygon", "coordinates": [[[113.796674, 35.16402], [113.797595, 35.162351], [113.798979, 35.162832], [113.802267, 35.163449], [113.801602, 35.165253], [113.796674, 35.16402]]]}, "properties": {"display_name": "新乡县龙华医院, 中央大道, 新乡经济开发区, 新乡县, 新乡市, 河南省, 中国", "type": "hospital", "osm_type": "way", "osm_id": 718028433, "class": null, "keyword": "中央区"}}, {"type": "Feature", "geometry": {"type": "Polygon", "coordinates": [[[113.865743, 35.29306], [113.865745, 35.292403], [113.865804, 35.292403], [113.865806, 35.291612], [113.868066, 35.291657], [113.867712, 35.295241], [113.867436, 35.295206], [113.866288, 35.294876], [113.866113, 35.294838], [113.866309, 35.293102], [113.865743, 35.29306]]]}, "properties": {"display_name": "新乡市职业教育中心, 文化街, 文化街街道, 新乡市, 红旗区, 新乡市, 河南省, 453000, 中国", "type": "school", "osm_type": "way", "osm_id": 706480408, "class": null, "keyword": "city center"}}, {"type": "Feature", "geometry": {"type": "Polygon", "coordinates": [[[113.937899, 35.313345], [113.937931, 35.310524], [113.939867, 35.310534], [113.940039, 35.310609], [113.940026, 35.313312], [113.937899, 35.313345]]]}, "properties": {"display_name": "新乡市中心医院东院区, 荣校东路, 和平路街道, 新牧村, 牧野乡, 牧野区, 新乡市, 河南省, 中国", "type": "hospital", "osm_type": "way", "osm_id": 879603421, "class": null, "keyword": "市中心"}}, {"type": "Feature", "geometry": {"type": "Polygon", "coordinates": [[[113.884277, 35.295776], [113.885217, 35.295773], [113.885207, 35.293788], [113.886887, 35.293782], [113.886888, 35.294], [113.886823, 35.294], [113.886825, 35.294533], [113.887069, 35.294532], [113.887069, 35.294691], [113.887078, 35.29635], [113.884647, 35.296358], [113.884278, 35.295896], [113.884277, 35.295776]]]}, "properties": {"display_name": "新乡国际饭店, 友谊路, 渠东街道, 张庄村, 洪门镇, 红旗区, 新乡市, 河南省, 453000, 中国", "type": "hotel", "osm_type": "relation", "osm_id": 9823665, "class": null, "keyword": "中央区"}}, {"type": "Feature", "geometry": {"type": "Polygon", "coordinates": [[[113.791382, 35.235001], [113.791477, 35.233925], [113.791453, 35.233924], [113.791602, 35.23223], [113.793351, 35.232332], [113.793219, 35.233825], [113.793107, 35.235102], [113.791382, 35.235001]]]}, "properties": {"display_name": "新乡县翟坡中学, 中央大道, 新乡经济开发区, 新乡县, 新乡市, 河南省, 中国", "type": "school", "osm_type": "relation", "osm_id": 9885474, "class": null, "keyword": "中央区"}}, {"type": "Feature", "geometry": {"type": "Polygon", "coordinates": [[[113.858346, 35.296837], [113.858418, 35.296785], [113.861594, 35.29676], [113.861607, 35.297689], [113.860322, 35.29775], [113.860305, 35.297503], [113.859906, 35.297522], [113.859939, 35.297976], [113.859883, 35.297979], [113.859972, 35.299212], [113.859378, 35.299254], [113.859283, 35.29866], [113.858511, 35.298714], [113.858359, 35.297286], [113.858346, 35.296837]]]}, "properties": {"display_name": "新乡市中心医院, 解放大道, 健康路街道, 八里铺村, 卫滨区, 新乡市, 河南省, 453000, 中国", "type": "hospital", "osm_type": "relation", "osm_id": 9823692, "class": null, "keyword": "市中心"}}, {"type": "Feature", "geometry": {"type": "Polygon", "coordinates": [[[113.773561, 35.274539], [113.773646, 35.273097], [113.77368, 35.273079], [113.77592, 35.273251], [113.775868, 35.274647], [113.773561, 35.274539]]]}, "properties": {"display_name": "新乡县大召营中学, 兴阳线, 大召营镇, 新乡县, 卫滨区, 新乡市, 河南省, 中国", "type": "school", "osm_type": "way", "osm_id": 710880375, "class": null, "keyword": "中央区"}}, {"type": "Feature", "geometry": {"type": "Polygon", "coordinates": [[[113.86334, 35.489525], [113.863555, 35.489319], [113.863764, 35.489446], [113.864088, 35.48916], [113.865673, 35.490023], [113.865424, 35.490372], [113.865314, 35.49033], [113.865083, 35.490516], [113.865314, 35.490758], [113.86552, 35.49157], [113.865566, 35.491752], [113.864678, 35.49187], [113.864593, 35.491005], [113.864402, 35.490811], [113.863858, 35.490599], [113.863552, 35.490184], [113.86334, 35.489525]]]}, "properties": {"display_name": "常村镇中心学校, 兴阳线, 古章村, 辉县市, 新乡市, 河南省, 中国", "type": "school", "osm_type": "relation", "osm_id": 9789227, "class": null, "keyword": "town center"}}, {"type": "Feature", "geometry": {"type": "Polygon", "coordinates": [[[113.585595, 35.363318], [113.587177, 35.363095], [113.587242, 35.363572], [113.587445, 35.364943], [113.587, 35.364995], [113.585747, 35.365011], [113.585595, 35.363318]]]}, "properties": {"display_name": "峪河镇中心学校, S230, 赵庄, 何庄村, 辉县市, 新乡市, 河南省, 中国", "type": "school", "osm_type": "way", "osm_id": 704722058, "class": null, "keyword": "town center"}}, {"type": "Feature", "geometry": {"type": "Polygon", "coordinates": [[[113.793219, 35.233825], [113.793351, 35.232332], [113.795311, 35.232447], [113.795187, 35.233848], [113.794905, 35.233831], [113.794901, 35.233878], [113.794191, 35.233837], [113.794187, 35.233882], [113.793219, 35.233825]]]}, "properties": {"display_name": "新乡县高级中学, 中央大道, 新乡经济开发区, 新乡县, 新乡市, 河南省, 中国", "type": "school", "osm_type": "relation", "osm_id": 9885473, "class": null, "keyword": "中央区"}}, {"type": "Feature", "geometry": {"type": "Polygon", "coordinates": [[[113.895078, 35.282957], [113.895223, 35.282807], [113.897832, 35.282805], [113.897833, 35.283756], [113.895079, 35.283758], [113.895078, 35.282957]]]}, "properties": {"display_name": "新乡市公安局, 新飞大道, 开发区街道, 东台头村, 关堤乡, 红旗区, 新乡市, 河南省, 453000, 中国", "type": "police", "osm_type": "way", "osm_id": 718060100, "class": null, "keyword": "中央区"}}, {"type": "Feature", "geometry": {"type": "Polygon", "coordinates": [[[113.895258, 35.294048], [113.896082, 35.293996], [113.896117, 35.293996], [113.897168, 35.293998], [113.89727, 35.294635], [113.897263, 35.294777], [113.896401, 35.29527], [113.895259, 35.295269], [113.895258, 35.294048]]]}, "properties": {"display_name": "新乡汽车东站, 新飞大道, 渠东街道, 东台头村, 关堤乡, 红旗区, 新乡市, 河南省, 453000, 中国", "type": "bus_station", "osm_type": "relation", "osm_id": 9824569, "class": null, "keyword": "中央区"}}, {"type": "Feature", "geometry": {"type": "Polygon", "coordinates": [[[113.879039, 35.282795], [113.880406, 35.282788], [113.880415, 35.283986], [113.879047, 35.283992], [113.879039, 35.282795]]]}, "properties": {"display_name": "新乡市三十中, 五一路, 向阳小区街道, 张庄村, 红旗区, 新乡市, 河南省, 453000, 中国", "type": "school", "osm_type": "way", "osm_id": 718060098, "class": null, "keyword": "中央区"}}, {"type": "Feature", "geometry": {"type": "Polygon", "coordinates": [[[113.854575, 35.301966], [113.85572, 35.301888], [113.855829, 35.302968], [113.855227, 35.303008], [113.855223, 35.302968], [113.854864, 35.302993], [113.854857, 35.302921], [113.854673, 35.302934], [113.854575, 35.301966]]]}, "properties": {"display_name": "新乡市铁路高级中学, 自由街, 健康路街道, 金家营村, 卫滨区, 新乡市, 河南省, 453000, 中国", "type": "school", "osm_type": "relation", "osm_id": 9818501, "class": null, "keyword": "市中心"}}, {"type": "Feature", "geometry": {"type": "Polygon", "coordinates": [[[113.901185, 35.258288], [113.901297, 35.258243], [113.902098, 35.258241], [113.902099, 35.258455], [113.902111, 35.258485], [113.902128, 35.258496], [113.902172, 35.25851], [113.902226, 35.25851], [113.902229, 35.258899], [113.901188, 35.258901], [113.901185, 35.258288]]]}, "properties": {"display_name": "新乡市教育局, 丰华路, 开发区街道, 东台头村, 红旗区, 新乡市, 河南省, 453000, 中国", "type": "government", "osm_type": "relation", "osm_id": 9820808, "class": null, "keyword": "中央区"}}, {"type": "Feature", "geometry": {"type": "Polygon", "coordinates": [[[113.862877, 35.311889], [113.86289, 35.311758], [113.863083, 35.31177], [113.863086, 35.311742], [113.863249, 35.311752], [113.863246, 35.311781], [113.863426, 35.311792], [113.863414, 35.311923], [113.863234, 35.311912], [113.863232, 35.311926], [113.863069, 35.311915], [113.863071, 35.311901], [113.862877, 35.311889]]]}, "properties": {"display_name": "新乡市群众艺术馆, 中同路, 解放路街道, 卫滨区, 新乡市, 河南省, 453000, 中国", "type": "arts_centre", "osm_type": "way", "osm_id": 706046545, "class": null, "keyword": "市中心"}}]}