{"type": "FeatureCollection", "features": [{"type": "Feature", "geometry": {"type": "Polygon", "coordinates": [[[117.118464, 34.398164], [117.129375, 34.397792], [117.129525, 34.396395], [117.130888, 34.396318], [117.131397, 34.396234], [117.132218, 34.395685], [117.132728, 34.39553], [117.133586, 34.3948], [117.133715, 34.394202], [117.134004, 34.393193], [117.134213, 34.392383], [117.134235, 34.387513], [117.140522, 34.387], [117.140522, 34.384512], [117.151508, 34.385379], [117.151401, 34.386778], [117.159265, 34.387026], [117.158461, 34.389195], [117.157795, 34.39179], [117.157173, 34.394915], [117.156819, 34.396783], [117.156637, 34.398952], [117.156422, 34.400545], [117.15646, 34.40147], [117.156454, 34.40205], [117.152839, 34.403316], [117.149212, 34.403847], [117.139685, 34.404838], [117.137132, 34.405546], [117.123871, 34.409583], [117.121618, 34.410273], [117.120974, 34.410583], [117.120051, 34.411194], [117.119944, 34.410025], [117.118464, 34.398164]]]}, "properties": {"display_name": "垞城街道, 铜山区, 徐州市, 江苏省, 221000, 中国", "type": "administrative", "osm_type": "relation", "osm_id": 17536853, "class": null, "keyword": "subdistrict"}}, {"type": "Feature", "geometry": {"type": "Polygon", "coordinates": [[[117.534345, 34.058632], [117.534392, 34.057971], [117.53449, 34.057217], [117.535481, 34.057286], [117.535571, 34.057287], [117.535663, 34.057274], [117.535712, 34.057262], [117.535765, 34.057241], [117.535818, 34.057212], [117.535846, 34.057194], [117.535885, 34.057161], [117.535932, 34.057106], [117.535973, 34.057052], [117.536003, 34.057008], [117.536026, 34.056943], [117.536073, 34.056517], [117.536152, 34.055709], [117.536644, 34.055736], [117.537181, 34.055776], [117.537847, 34.055814], [117.538725, 34.055882], [117.53992, 34.055958], [117.540607, 34.055987], [117.541653, 34.056049], [117.541692, 34.055567], [117.542271, 34.055604], [117.542632, 34.055635], [117.542588, 34.056113], [117.543603, 34.056179], [117.545093, 34.056276], [117.546992, 34.056403], [117.547048, 34.055729], [117.547101, 34.055143], [117.547192, 34.054093], [117.549811, 34.054272], [117.5498, 34.054358], [117.549751, 34.054918], [117.549923, 34.05498], [117.549935, 34.054874], [117.550327, 34.054877], [117.550427, 34.054869], [117.550543, 34.05486], [117.550643, 34.054843], [117.550765, 34.054813], [117.550866, 34.054781], [117.551003, 34.054728], [117.551115, 34.05467], [117.551203, 34.054618], [117.551313, 34.054548], [117.551397, 34.054492], [117.551555, 34.054404], [117.551676, 34.054375], [117.551807, 34.054353], [117.551913, 34.054343], [117.55206, 34.054342], [117.552164, 34.054348], [117.552297, 34.054368], [117.552406, 34.054397], [117.552573, 34.054453], [117.552697, 34.05453], [117.55278, 34.054627], [117.552876, 34.054719], [117.55297, 34.054806], [117.55309, 34.054892], [117.553213, 34.054958], [117.553353, 34.055022], [117.553504, 34.055066], [117.55364, 34.055092], [117.553758, 34.055117], [117.553856, 34.055139], [117.553887, 34.054819], [117.553899, 34.054696], [117.555519, 34.054804], [117.555786, 34.054779], [117.556734, 34.054858], [117.55723, 34.054882], [117.557497, 34.054891], [117.557485, 34.055052], [117.55766, 34.055059], [117.55766, 34.05508], [117.558762, 34.055132], [117.558729, 34.055531], [117.558823, 34.055533], [117.559738, 34.055602], [117.5605, 34.055655], [117.560547, 34.055178], [117.560835, 34.055185], [117.56084, 34.055124], [117.560851, 34.055022], [117.561391, 34.055055], [117.562252, 34.055111], [117.562179, 34.055935], [117.562077, 34.056952], [117.562037, 34.057414], [117.562825, 34.057451], [117.564319, 34.057553], [117.565665, 34.057633], [117.567605, 34.057767], [117.569122, 34.057862], [117.5704, 34.057952], [117.57157, 34.058023], [117.57168, 34.054168], [117.5764, 34.054482], [117.576164, 34.05688], [117.576023, 34.058309], [117.577111, 34.058379], [117.577056, 34.059117], [117.577027, 34.059487], [117.577035, 34.05963], [117.577044, 34.05968], [117.577052, 34.059738], [117.577073, 34.059786], [117.577093, 34.059816], [117.577125, 34.059857], [117.577157, 34.059895], [117.577196, 34.05993], [117.577251, 34.059966], [117.577302, 34.059996], [117.577361, 34.060016], [117.577426, 34.060033], [117.577486, 34.060045], [117.577697, 34.060063], [117.578086, 34.060086], [117.578497, 34.060104], [117.578445, 34.060752], [117.578443, 34.060803], [117.57844, 34.060831], [117.578438, 34.060861], [117.578383, 34.061509], [117.577386, 34.061444], [117.577316, 34.061446], [117.577247, 34.061457], [117.577153, 34.061482], [117.577082, 34.061511], [117.577029, 34.06154], [117.576978, 34.061581], [117.576927, 34.06164], [117.57688, 34.061703], [117.57685, 34.061763], [117.57683, 34.061816], [117.576821, 34.061879], [117.576813, 34.061966], [117.576724, 34.062941], [117.575571, 34.06271], [117.573997, 34.062384], [117.572701, 34.062119], [117.571489, 34.061868], [117.571156, 34.061848], [117.570338, 34.061795], [117.569112, 34.061708], [117.567597, 34.061624], [117.566258, 34.061528], [117.565649, 34.061492], [117.565105, 34.061461], [117.563952, 34.061375], [117.562627, 34.061293], [117.561476, 34.061217], [117.560626, 34.061159], [117.559711, 34.061099], [117.55888, 34.061055], [117.558147, 34.061001], [117.557614, 34.060957], [117.55693, 34.060919], [117.555763, 34.06085], [117.555001, 34.060806], [117.554226, 34.060744], [117.553464, 34.060695], [117.551082, 34.060541], [117.548988, 34.060401], [117.548931, 34.061008], [117.548371, 34.060981], [117.548432, 34.060366], [117.546169, 34.060215], [117.545063, 34.060148], [117.544008, 34.06008], [117.542927, 34.060003], [117.54203, 34.059942], [117.541498, 34.059918], [117.541358, 34.059904], [117.541291, 34.059897], [117.541208, 34.059891], [117.541072, 34.059895], [117.540842, 34.059908], [117.539581, 34.059986], [117.538261, 34.060079], [117.536658, 34.060199], [117.535712, 34.060258], [117.535759, 34.059749], [117.535815, 34.059133], [117.535814, 34.059081], [117.535788, 34.059005], [117.535756, 34.058939], [117.535705, 34.058875], [117.535637, 34.058809], [117.535568, 34.058765], [117.535464, 34.058723], [117.535381, 34.058707], [117.535217, 34.058689], [117.534345, 34.058632]]]}, "properties": {"display_name": "徐州观音国际机场, X307, 大龙湖街道, 睢宁县, 徐州市, 江苏省, 221000, 中国", "type": "aerodrome", "osm_type": "way", "osm_id": 320472307, "class": null, "keyword": "district"}}, {"type": "Feature", "geometry": {"type": "Polygon", "coordinates": [[[117.287585, 34.217742], [117.289606, 34.217593], [117.290779, 34.217384], [117.290923, 34.220413], [117.287585, 34.220502], [117.287585, 34.217742]]]}, "properties": {"display_name": "徐州市中心医院新城区分院, 太行路, 汉风街道, 云龙区, 徐州市, 江苏省, 221000, 中国", "type": "hospital", "osm_type": "way", "osm_id": 795085733, "class": null, "keyword": "中心城区"}}, {"type": "Feature", "geometry": {"type": "Polygon", "coordinates": [[[117.201208, 34.215782], [117.204995, 34.215718], [117.204622, 34.216817], [117.204513, 34.217942], [117.201944, 34.218287], [117.201208, 34.215782]]]}, "properties": {"display_name": "徐州工程学院老校区, 三环南路, 翟山街道, 泉山区, 徐州市, 江苏省, 221000, 中国", "type": "university", "osm_type": "way", "osm_id": 795103163, "class": null, "keyword": "老城区"}}, {"type": "Feature", "geometry": {"type": "Polygon", "coordinates": [[[117.24131, 34.307729], [117.241421, 34.305689], [117.24321, 34.305756], [117.243098, 34.307796], [117.24131, 34.307729]]]}, "properties": {"display_name": "行星齿轮转动工程技术研究中心, 下淀路, 东环街道, 徐州经济技术开发区, 鼓楼区, 徐州市, 江苏省, 221000, 中国", "type": "works", "osm_type": "way", "osm_id": 738309185, "class": null, "keyword": "中心城区"}}, {"type": "Feature", "geometry": {"type": "Polygon", "coordinates": [[[117.271864, 34.209698], [117.271998, 34.20971], [117.272572, 34.209985], [117.273315, 34.210447], [117.273959, 34.211138], [117.273966, 34.211255], [117.272019, 34.211261], [117.271871, 34.211162], [117.271864, 34.209698]]]}, "properties": {"display_name": "永嘉新城中心, 汉风路, 汉风街道, 云龙区, 徐州市, 江苏省, 221000, 中国", "type": "commercial", "osm_type": "way", "osm_id": 1340342244, "class": null, "keyword": "中心城区"}}, {"type": "Feature", "geometry": {"type": "Polygon", "coordinates": [[[117.180211, 34.268299], [117.18023, 34.267595], [117.182779, 34.267671], [117.182737, 34.268357], [117.180211, 34.268299]]]}, "properties": {"display_name": "金鹰国际购物中心（彭城广场店）, 2号, 中山北路, 黄楼街道, 鼓楼区, 徐州市, 江苏省, 221000, 中国", "type": "retail", "osm_type": "way", "osm_id": 395910454, "class": null, "keyword": "中心城区"}}, {"type": "Feature", "geometry": {"type": "Polygon", "coordinates": [[[117.266673, 34.291414], [117.26671, 34.290514], [117.267864, 34.290545], [117.267778, 34.291467], [117.266673, 34.291414]]]}, "properties": {"display_name": "徐州市建设工程检测中心, 东环街道, 徐州经济技术开发区, 鼓楼区, 徐州市, 江苏省, 221000, 中国", "type": "governmental", "osm_type": "way", "osm_id": 795710526, "class": null, "keyword": "中心城区"}}, {"type": "Feature", "geometry": {"type": "Polygon", "coordinates": [[[117.179699, 34.265039], [117.179702, 34.26492], [117.179707, 34.264812], [117.179709, 34.264669], [117.179871, 34.264671], [117.179975, 34.264674], [117.180198, 34.264677], [117.180193, 34.264821], [117.180191, 34.264928], [117.180188, 34.265048], [117.179961, 34.265045], [117.179858, 34.265043], [117.179699, 34.265039]]]}, "properties": {"display_name": "中心时尚大道, 中山北路, 中心时尚大道, 王陵街道, 泉山区, 徐州市, 江苏省, 221000, 中国", "type": "corridor", "osm_type": "way", "osm_id": 452588825, "class": null, "keyword": "中心商圈"}}]}