{"type": "FeatureCollection", "features": [{"type": "Feature", "geometry": {"type": "Polygon", "coordinates": [[[120.189734, 33.41218], [120.189862, 33.412109], [120.189933, 33.412192], [120.190192, 33.412466], [120.190377, 33.412661], [120.190758, 33.413059], [120.191033, 33.413337], [120.191454, 33.413786], [120.191961, 33.414317], [120.192337, 33.414711], [120.192963, 33.415379], [120.193231, 33.415665], [120.193529, 33.415455], [120.193812, 33.415251], [120.194083, 33.415066], [120.194332, 33.41489], [120.194554, 33.414737], [120.194596, 33.414734], [120.195172, 33.415313], [120.19586, 33.416036], [120.19597, 33.415925], [120.196018, 33.415886], [120.19608, 33.415831], [120.196322, 33.416071], [120.196715, 33.416463], [120.196808, 33.416556], [120.19697, 33.416719], [120.197091, 33.416831], [120.197344, 33.417044], [120.197513, 33.417194], [120.197681, 33.417357], [120.197806, 33.417481], [120.198003, 33.417699], [120.198655, 33.418384], [120.199087, 33.418837], [120.199245, 33.418997], [120.19947, 33.419238], [120.199787, 33.419573], [120.199944, 33.419738], [120.200783, 33.420645], [120.200863, 33.420728], [120.200937, 33.420799], [120.201049, 33.420881], [120.20122, 33.421021], [120.201311, 33.421099], [120.201472, 33.421235], [120.201617, 33.42135], [120.201746, 33.421466], [120.201985, 33.421719], [120.202262, 33.422025], [120.202548, 33.422327], [120.20272, 33.422503], [120.202968, 33.422765], [120.203194, 33.423026], [120.203542, 33.423394], [120.203733, 33.423578], [120.20394, 33.423802], [120.204177, 33.424051], [120.204468, 33.424356], [120.204853, 33.424749], [120.205054, 33.42496], [120.205125, 33.42505], [120.205185, 33.425132], [120.205261, 33.425222], [120.205337, 33.425318], [120.205409, 33.425399], [120.205459, 33.425469], [120.20553, 33.425583], [120.205587, 33.425655], [120.205654, 33.425736], [120.205787, 33.425875], [120.205875, 33.425979], [120.206172, 33.426298], [120.20633, 33.42647], [120.206449, 33.426585], [120.206826, 33.426961], [120.207357, 33.427536], [120.207455, 33.427638], [120.207546, 33.427741], [120.20765, 33.427865], [120.207805, 33.428065], [120.207887, 33.428179], [120.208009, 33.428371], [120.208072, 33.428454], [120.208173, 33.428594], [120.208226, 33.428662], [120.208294, 33.428735], [120.208578, 33.42901], [120.208787, 33.429248], [120.209173, 33.429675], [120.2093, 33.429814], [120.209821, 33.430334], [120.210336, 33.430884], [120.210833, 33.431403], [120.211399, 33.432003], [120.21189, 33.432521], [120.212372, 33.432999], [120.212432, 33.433056], [120.21248, 33.433094], [120.212531, 33.433124], [120.212587, 33.433155], [120.212654, 33.433185], [120.212711, 33.433212], [120.212763, 33.433238], [120.212815, 33.433263], [120.212848, 33.433289], [120.212931, 33.433358], [120.212982, 33.433397], [120.213133, 33.433526], [120.213336, 33.433475], [120.213534, 33.433548], [120.213592, 33.433485], [120.213679, 33.433527], [120.213788, 33.433573], [120.213912, 33.433623], [120.214008, 33.433658], [120.214091, 33.433688], [120.214161, 33.433704], [120.214242, 33.43372], [120.213596, 33.434262], [120.213686, 33.434354], [120.213769, 33.434447], [120.213859, 33.434553], [120.213912, 33.434614], [120.213958, 33.434671], [120.214039, 33.434793], [120.214097, 33.434874], [120.214173, 33.434964], [120.214246, 33.435044], [120.214922, 33.435722], [120.215464, 33.436303], [120.215732, 33.436582], [120.216752, 33.437636], [120.217787, 33.43873], [120.217339, 33.439273], [120.218408, 33.44041], [120.217352, 33.441121], [120.218013, 33.441779], [120.218341, 33.442119], [120.218845, 33.442635], [120.219195, 33.44301], [120.219513, 33.443357], [120.219847, 33.44369], [120.220729, 33.444626], [120.220564, 33.444734], [120.22035, 33.444512], [120.219895, 33.444017], [120.21941, 33.443531], [120.2192, 33.443308], [120.21894, 33.443035], [120.218172, 33.442236], [120.217834, 33.441862], [120.217202, 33.441226], [120.216682, 33.441567], [120.215807, 33.441317], [120.2146, 33.440954], [120.212876, 33.440476], [120.21176, 33.440172], [120.2118, 33.440019], [120.211819, 33.439974], [120.212007, 33.43951], [120.212004, 33.439484], [120.211999, 33.439458], [120.211993, 33.439442], [120.211984, 33.43943], [120.211969, 33.439422], [120.211945, 33.43941], [120.211923, 33.4394], [120.211898, 33.439387], [120.211878, 33.439374], [120.211859, 33.439357], [120.211742, 33.439246], [120.211481, 33.43897], [120.211055, 33.43854], [120.210346, 33.437794], [120.209807, 33.437226], [120.209479, 33.437445], [120.20861, 33.43653], [120.208592, 33.436515], [120.208572, 33.436499], [120.208543, 33.436492], [120.208517, 33.436489], [120.208502, 33.43649], [120.208488, 33.436496], [120.208472, 33.436506], [120.207998, 33.436825], [120.207777, 33.436588], [120.207677, 33.436655], [120.207239, 33.436952], [120.207194, 33.436904], [120.207099, 33.436971], [120.207084, 33.436979], [120.207066, 33.436985], [120.207045, 33.436988], [120.207025, 33.436988], [120.207, 33.436986], [120.206977, 33.43698], [120.206958, 33.43697], [120.206941, 33.436952], [120.206893, 33.436901], [120.206675, 33.436676], [120.20644, 33.436419], [120.205954, 33.435917], [120.205931, 33.435897], [120.205909, 33.435887], [120.205883, 33.435881], [120.205848, 33.43588], [120.205823, 33.435889], [120.205797, 33.435906], [120.205732, 33.435953], [120.205048, 33.436408], [120.204324, 33.436894], [120.203705, 33.437299], [120.203383, 33.43752], [120.203354, 33.437537], [120.203339, 33.437551], [120.203327, 33.437573], [120.203318, 33.437614], [120.203229, 33.437552], [120.203185, 33.437567], [120.203151, 33.43757], [120.203107, 33.437564], [120.203074, 33.437548], [120.202984, 33.437495], [120.201987, 33.43684], [120.201376, 33.436411], [120.201014, 33.436119], [120.200509, 33.435688], [120.200106, 33.4353], [120.199606, 33.434791], [120.199076, 33.434204], [120.198616, 33.43375], [120.198592, 33.433717], [120.198578, 33.433678], [120.198585, 33.433635], [120.19861, 33.433608], [120.198645, 33.433585], [120.198541, 33.433461], [120.198909, 33.43323], [120.199951, 33.432536], [120.201173, 33.431717], [120.200858, 33.431401], [120.20065, 33.431291], [120.200382, 33.431174], [120.200098, 33.431042], [120.199736, 33.430864], [120.199569, 33.430779], [120.199286, 33.430639], [120.198533, 33.43032], [120.198965, 33.429813], [120.199178, 33.429622], [120.19934, 33.42945], [120.199533, 33.4292], [120.199634, 33.429082], [120.199353, 33.428994], [120.199163, 33.428928], [120.19905, 33.42885], [120.19888, 33.428737], [120.198486, 33.428475], [120.198427, 33.428438], [120.198397, 33.428423], [120.198337, 33.428396], [120.19836, 33.428357], [120.19833, 33.428341], [120.198295, 33.428322], [120.19827, 33.428311], [120.198245, 33.428303], [120.197761, 33.427867], [120.197879, 33.427766], [120.197512, 33.427655], [120.197517, 33.427632], [120.197543, 33.427581], [120.197405, 33.427539], [120.197423, 33.4275], [120.197352, 33.427475], [120.197362, 33.427453], [120.197276, 33.427365], [120.197116, 33.427206], [120.196973, 33.427086], [120.196659, 33.426873], [120.196347, 33.426695], [120.196274, 33.426715], [120.1959, 33.426428], [120.196112, 33.426252], [120.196517, 33.426563], [120.196717, 33.426544], [120.196998, 33.426241], [120.19725, 33.425898], [120.196972, 33.425704], [120.197029, 33.425667], [120.196816, 33.425429], [120.196679, 33.425516], [120.196524, 33.425617], [120.196395, 33.425711], [120.196329, 33.425597], [120.196243, 33.425419], [120.196221, 33.425338], [120.196188, 33.425176], [120.196172, 33.425028], [120.196158, 33.424928], [120.196149, 33.424829], [120.196146, 33.42476], [120.19614, 33.424687], [120.19691, 33.424178], [120.196773, 33.424039], [120.196913, 33.423938], [120.196301, 33.423264], [120.195482, 33.422412], [120.195365, 33.422304], [120.195302, 33.422248], [120.195239, 33.422206], [120.195187, 33.422182], [120.195102, 33.422147], [120.194627, 33.421988], [120.194299, 33.42187], [120.193671, 33.421648], [120.193694, 33.421516], [120.193723, 33.421254], [120.194259, 33.421221], [120.194297, 33.421222], [120.194383, 33.421241], [120.194666, 33.421301], [120.194725, 33.421313], [120.19474, 33.421315], [120.194759, 33.421314], [120.194776, 33.421309], [120.194788, 33.421296], [120.194826, 33.421233], [120.195011, 33.420824], [120.194992, 33.42066], [120.194965, 33.420524], [120.194968, 33.420367], [120.194971, 33.420206], [120.194987, 33.420056], [120.195005, 33.419807], [120.194947, 33.419552], [120.194914, 33.419402], [120.194877, 33.419313], [120.194633, 33.419042], [120.194436, 33.418831], [120.194131, 33.418504], [120.193576, 33.417909], [120.193247, 33.417549], [120.192905, 33.417162], [120.192755, 33.416996], [120.192706, 33.416946], [120.192668, 33.416897], [120.192646, 33.416852], [120.19261, 33.416764], [120.192569, 33.416659], [120.192531, 33.416601], [120.1925, 33.416552], [120.192465, 33.416485], [120.192537, 33.416116], [120.19293, 33.415862], [120.193123, 33.415731], [120.192872, 33.415443], [120.192412, 33.414952], [120.192103, 33.414634], [120.191631, 33.41415], [120.191233, 33.413757], [120.190904, 33.413422], [120.190615, 33.413117], [120.190273, 33.412763], [120.19012, 33.412588], [120.189916, 33.412378], [120.189734, 33.41218]]]}, "properties": {"display_name": "盐城南洋国际机场, 太湖路, 东亭湖街道, 亭湖区, 盐城市, 江苏省, 中国", "type": "aerodrome", "osm_type": "way", "osm_id": 153970106, "class": null, "keyword": "district"}}, {"type": "Feature", "geometry": {"type": "Polygon", "coordinates": [[[120.113726, 33.402052], [120.11386, 33.401153], [120.114167, 33.400907], [120.115327, 33.400261], [120.115752, 33.399726], [120.116294, 33.399433], [120.116923, 33.399242], [120.119254, 33.399409], [120.119104, 33.40061], [120.119048, 33.400961], [120.119665, 33.40107], [120.12035, 33.401913], [120.118607, 33.402875], [120.11755, 33.402186], [120.117261, 33.403027], [120.116739, 33.40329], [120.115525, 33.403182], [120.113726, 33.402052]]]}, "properties": {"display_name": "江苏国信盐城发电公司(已停运), 新洋街道, 亭湖区, 盐城市, 江苏省, 中国", "type": "industrial", "osm_type": "way", "osm_id": 911642563, "class": null, "keyword": "district"}}, {"type": "Feature", "geometry": {"type": "Polygon", "coordinates": [[[120.17288, 33.318821], [120.17289, 33.318499], [120.172962, 33.318163], [120.173108, 33.317884], [120.173339, 33.317646], [120.173656, 33.317472], [120.173999, 33.317386], [120.174342, 33.317369], [120.174627, 33.317436], [120.175002, 33.317606], [120.17519, 33.317826], [120.175308, 33.318077], [120.175367, 33.318395], [120.175367, 33.31865], [120.175297, 33.318982], [120.175168, 33.319247], [120.175002, 33.319449], [120.174777, 33.31961], [120.174509, 33.319753], [120.174171, 33.319807], [120.173865, 33.319798], [120.173548, 33.319717], [120.173323, 33.319574], [120.173103, 33.319368], [120.172969, 33.319121], [120.17288, 33.318821]]]}, "properties": {"display_name": "盐城体育中心体育馆, 解放南路, 盐渎街道, 科城街道, 盐都区, 盐城市, 江苏省, 中国", "type": "stadium", "osm_type": "way", "osm_id": 780155805, "class": null, "keyword": "city centre"}}]}