{"type": "FeatureCollection", "features": [{"type": "Feature", "geometry": {"type": "Polygon", "coordinates": [[[121.468192, 37.436906], [121.47177, 37.436448], [121.476156, 37.435853], [121.478753, 37.437456], [121.486081, 37.438144], [121.485504, 37.434936], [121.487005, 37.434432], [121.486024, 37.432324], [121.487207, 37.430583], [121.488822, 37.427284], [121.488813, 37.426842], [121.488805, 37.426458], [121.488799, 37.426181], [121.488765, 37.424534], [121.488101, 37.424672], [121.487149, 37.420891], [121.485677, 37.420134], [121.482799, 37.417441], [121.485421, 37.415774], [121.487458, 37.415394], [121.488349, 37.414737], [121.487671, 37.414161], [121.485994, 37.413448], [121.484084, 37.411299], [121.482048, 37.409707], [121.484084, 37.408468], [121.484243, 37.406876], [121.485389, 37.40632], [121.488603, 37.407002], [121.491499, 37.405738], [121.492963, 37.403665], [121.493536, 37.402022], [121.492549, 37.400328], [121.492358, 37.399064], [121.494586, 37.398028], [121.498405, 37.397598], [121.500155, 37.398331], [121.503465, 37.397345], [121.506251, 37.397464], [121.503366, 37.392696], [121.500375, 37.388472], [121.501279, 37.385463], [121.498221, 37.383995], [121.497365, 37.386056], [121.495692, 37.385552], [121.495923, 37.382067], [121.493961, 37.380049], [121.49274, 37.376914], [121.494997, 37.373985], [121.497132, 37.36972], [121.498094, 37.366599], [121.502033, 37.369277], [121.503751, 37.373121], [121.50407, 37.377066], [121.505533, 37.379241], [121.509862, 37.380758], [121.517499, 37.382225], [121.521382, 37.384197], [121.521127, 37.385765], [121.526664, 37.388597], [121.530149, 37.388369], [121.531448, 37.390345], [121.538143, 37.390618], [121.540667, 37.39239], [121.540158, 37.395929], [121.538143, 37.397301], [121.535863, 37.397765], [121.537991, 37.40018], [121.543159, 37.408551], [121.546807, 37.411771], [121.554108, 37.415147], [121.555202, 37.413187], [121.554451, 37.412215], [121.561092, 37.41213], [121.561575, 37.414065], [121.567873, 37.413545], [121.569289, 37.413485], [121.571589, 37.422097], [121.572733, 37.426377], [121.569943, 37.426582], [121.57166, 37.438747], [121.545524, 37.526609], [121.478868, 37.465951], [121.478593, 37.465667], [121.476387, 37.463386], [121.475877, 37.461139], [121.475719, 37.460534], [121.475266, 37.458597], [121.475073, 37.457775], [121.474873, 37.456918], [121.474842, 37.456789], [121.474767, 37.456469], [121.474425, 37.455003], [121.472116, 37.452667], [121.474309, 37.451888], [121.47304, 37.450376], [121.470327, 37.448956], [121.47252, 37.447857], [121.472232, 37.444696], [121.468596, 37.443734], [121.469462, 37.441855], [121.46906, 37.440288], [121.468192, 37.436906]]]}, "properties": {"display_name": "烟台高新区, 莱山区, 烟台市, 山东省, 264000, 中国", "type": "administrative", "osm_type": "relation", "osm_id": 13967782, "class": null, "keyword": "district"}}, {"type": "Feature", "geometry": {"type": "Polygon", "coordinates": [[[121.355113, 37.383824], [121.355836, 37.383323], [121.355937, 37.382771], [121.356101, 37.382652], [121.356445, 37.382674], [121.357405, 37.382065], [121.358903, 37.38272], [121.359756, 37.383574], [121.362844, 37.386796], [121.363417, 37.387394], [121.363718, 37.387451], [121.363947, 37.387656], [121.365947, 37.389711], [121.368748, 37.392615], [121.371227, 37.395182], [121.373269, 37.397328], [121.376401, 37.400555], [121.378471, 37.402684], [121.380026, 37.404335], [121.38009, 37.404753], [121.380721, 37.405365], [121.382319, 37.407095], [121.384784, 37.409668], [121.385328, 37.410243], [121.385844, 37.410772], [121.385801, 37.410892], [121.385493, 37.411034], [121.385178, 37.410732], [121.383243, 37.411882], [121.382942, 37.412024], [121.382491, 37.412098], [121.381359, 37.412793], [121.380592, 37.412007], [121.379417, 37.410721], [121.3786, 37.411478], [121.378249, 37.411939], [121.377515, 37.412735], [121.375612, 37.412124], [121.374483, 37.411775], [121.374722, 37.41222], [121.375124, 37.413082], [121.374094, 37.415063], [121.373858, 37.415859], [121.373754, 37.416088], [121.365862, 37.415915], [121.365751, 37.411591], [121.364596, 37.410661], [121.364853, 37.408019], [121.368188, 37.407316], [121.368053, 37.406862], [121.364902, 37.40752], [121.363869, 37.404739], [121.362765, 37.401785], [121.362049, 37.399753], [121.36174, 37.398939], [121.359677, 37.396264], [121.357405, 37.393377], [121.356603, 37.39229], [121.356768, 37.391681], [121.358351, 37.390696], [121.358423, 37.389984], [121.357219, 37.388641], [121.355886, 37.387286], [121.355686, 37.386335], [121.355113, 37.383824]]]}, "properties": {"display_name": "烟台莱山军用机场, 益生路, 门楼街道, 福山区, 烟台市, 山东省, 265500, 中国", "type": "airfield", "osm_type": "way", "osm_id": 106998709, "class": null, "keyword": "district"}}, {"type": "Feature", "geometry": {"type": "Polygon", "coordinates": [[[120.95804, 37.642234], [120.958231, 37.642089], [120.96289, 37.646054], [120.963364, 37.646027], [120.963874, 37.645704], [120.964802, 37.646513], [120.965328, 37.646966], [120.96698, 37.645761], [120.967093, 37.645713], [120.967213, 37.645698], [120.967313, 37.645708], [120.967452, 37.645776], [120.968179, 37.646398], [120.969686, 37.64772], [120.97036, 37.64831], [120.970604, 37.648858], [120.971669, 37.649794], [120.971846, 37.649905], [120.972841, 37.650763], [120.973857, 37.651667], [120.980309, 37.646642], [120.98073, 37.646422], [120.98101, 37.646362], [120.981447, 37.646346], [120.982009, 37.646441], [120.988805, 37.652435], [120.98568, 37.654676], [120.985393, 37.654859], [120.986295, 37.655685], [120.985674, 37.656097], [120.98538, 37.656088], [120.985131, 37.65608], [120.984999, 37.65615], [120.984672, 37.656191], [120.984492, 37.656159], [120.984589, 37.656269], [120.984727, 37.656392], [120.98483, 37.656487], [120.984964, 37.656592], [120.985138, 37.656713], [120.9853, 37.656805], [120.985489, 37.656886], [120.985648, 37.656934], [120.985717, 37.65695], [120.985809, 37.656963], [120.985928, 37.656965], [120.986016, 37.656963], [120.986125, 37.656952], [120.986269, 37.656927], [120.986414, 37.656898], [120.986582, 37.65687], [120.986696, 37.656866], [120.986827, 37.656871], [120.986933, 37.656885], [120.987034, 37.656914], [120.987146, 37.656956], [120.987239, 37.656995], [120.987354, 37.657063], [120.987476, 37.657142], [120.98761, 37.65725], [120.987706, 37.657333], [120.987785, 37.657414], [120.987877, 37.657521], [120.987957, 37.657651], [120.988001, 37.657743], [120.988021, 37.657829], [120.988025, 37.657915], [120.988023, 37.657991], [120.988003, 37.658066], [120.987972, 37.658146], [120.98808, 37.658156], [120.988309, 37.658184], [120.988557, 37.658197], [120.988674, 37.658194], [120.989394, 37.658829], [120.989464, 37.658776], [120.990177, 37.658291], [120.99082, 37.657831], [120.991366, 37.658315], [120.991789, 37.658684], [120.992171, 37.659006], [120.992699, 37.659468], [120.992332, 37.659755], [120.992083, 37.659951], [120.991788, 37.660155], [120.991219, 37.660588], [120.991347, 37.6607], [120.991418, 37.660656], [120.991473, 37.660708], [120.991406, 37.660753], [120.991489, 37.660831], [120.99131, 37.660938], [120.991383, 37.661009], [120.991622, 37.661191], [120.99164, 37.661208], [120.991671, 37.661234], [120.991718, 37.661203], [120.991746, 37.661227], [120.991821, 37.66118], [120.992324, 37.661611], [120.993031, 37.662216], [120.994043, 37.663072], [120.993062, 37.663753], [120.992981, 37.6638], [120.99285, 37.66389], [120.993062, 37.664094], [120.993424, 37.664414], [120.993743, 37.664678], [120.993059, 37.665164], [120.992426, 37.665597], [120.991466, 37.666285], [120.991096, 37.666557], [120.992236, 37.66754], [120.993505, 37.668648], [120.993539, 37.668616], [120.994583, 37.669542], [120.995514, 37.670351], [120.995551, 37.670695], [120.993915, 37.671833], [120.993899, 37.672111], [120.994838, 37.672911], [120.994296, 37.673272], [120.994264, 37.67355], [120.999357, 37.677987], [120.999762, 37.678352], [120.999639, 37.678443], [120.999126, 37.678002], [120.998311, 37.677301], [120.997007, 37.67611], [120.995302, 37.674658], [120.994749, 37.674174], [120.994127, 37.673656], [120.993805, 37.673618], [120.993231, 37.674043], [120.992314, 37.673257], [120.991986, 37.673251], [120.990994, 37.674026], [120.990028, 37.673198], [120.989682, 37.672739], [120.988768, 37.671552], [120.987665, 37.670121], [120.986102, 37.668752], [120.984382, 37.667336], [120.982749, 37.66582], [120.981799, 37.664947], [120.967066, 37.652115], [120.966428, 37.652175], [120.962997, 37.649089], [120.963727, 37.648529], [120.963437, 37.647959], [120.962195, 37.646917], [120.962788, 37.64645], [120.95804, 37.642234]]]}, "properties": {"display_name": "烟台蓬莱国际机场, 新机场路, 潮水镇, 烟台经济技术开发区, 蓬莱区, 烟台市, 山东省, 264000, 中国", "type": "aerodrome", "osm_type": "way", "osm_id": 395921771, "class": null, "keyword": "district"}}, {"type": "Feature", "geometry": {"type": "Polygon", "coordinates": [[[120.931883, 38.395891], [120.932016, 38.39592], [120.932125, 38.396017], [120.932253, 38.396299], [120.932161, 38.396304], [120.93204, 38.396217], [120.932001, 38.396169], [120.931961, 38.39609], [120.931951, 38.396018], [120.931883, 38.395891]]]}, "properties": {"display_name": "老母猪礁, 山后村, 北隍城乡, 蓬莱区, 烟台市, 山东省, 264000, 中国", "type": "islet", "osm_type": "way", "osm_id": 907577013, "class": null, "keyword": "老城区"}}, {"type": "Feature", "geometry": {"type": "Polygon", "coordinates": [[[120.899963, 38.391207], [120.899965, 38.391178], [120.899981, 38.391157], [120.900027, 38.391142], [120.900054, 38.391096], [120.900094, 38.391092], [120.900145, 38.391136], [120.900142, 38.39118], [120.90011, 38.391213], [120.90007, 38.391213], [120.899997, 38.391209], [120.899963, 38.391207]]]}, "properties": {"display_name": "老鹰窝岛, 北隍山前村, 北隍城乡, 蓬莱区, 烟台市, 山东省, 264000, 中国", "type": "islet", "osm_type": "way", "osm_id": 888582510, "class": null, "keyword": "老城区"}}, {"type": "Feature", "geometry": {"type": "Polygon", "coordinates": [[[120.89411, 38.388491], [120.894117, 38.388467], [120.894152, 38.388458], [120.894182, 38.388468], [120.894218, 38.388504], [120.894225, 38.388524], [120.894263, 38.388547], [120.89424, 38.388568], [120.894186, 38.388567], [120.894162, 38.388551], [120.894135, 38.388529], [120.894119, 38.388526], [120.89411, 38.388491]]]}, "properties": {"display_name": "北隍老蛙岛, 北隍山前村, 北隍城乡, 蓬莱区, 烟台市, 山东省, 264000, 中国", "type": "islet", "osm_type": "way", "osm_id": 888582513, "class": null, "keyword": "老城区"}}, {"type": "Feature", "geometry": {"type": "Polygon", "coordinates": [[[120.897199, 38.382303], [120.897215, 38.38227], [120.897245, 38.382258], [120.897261, 38.382253], [120.897302, 38.382252], [120.897314, 38.382267], [120.897285, 38.382299], [120.897245, 38.382317], [120.897219, 38.382316], [120.897199, 38.382303]]]}, "properties": {"display_name": "老凹礁, 北隍山前村, 北隍城乡, 蓬莱区, 烟台市, 山东省, 264000, 中国", "type": "islet", "osm_type": "way", "osm_id": 907577012, "class": null, "keyword": "老城区"}}]}