{"type": "FeatureCollection", "features": [{"type": "Feature", "geometry": {"type": "Polygon", "coordinates": [[[111.466452, 30.567241], [111.467471, 30.566392], [111.467011, 30.565948], [111.467431, 30.565572], [111.468899, 30.564335], [111.468459, 30.563923], [111.4686, 30.563789], [111.468223, 30.563425], [111.468287, 30.56309], [111.468729, 30.562723], [111.468531, 30.562554], [111.468698, 30.562392], [111.467904, 30.561656], [111.467129, 30.560947], [111.467343, 30.560775], [111.467966, 30.560276], [111.468847, 30.559569], [111.470336, 30.558346], [111.471378, 30.559276], [111.470706, 30.559838], [111.471372, 30.560433], [111.471496, 30.560545], [111.473831, 30.558635], [111.476507, 30.556449], [111.476965, 30.556077], [111.47606, 30.555291], [111.475876, 30.555129], [111.474324, 30.553751], [111.476799, 30.551704], [111.477649, 30.551037], [111.478707, 30.550173], [111.479908, 30.549196], [111.480023, 30.549102], [111.480093, 30.549029], [111.480142, 30.548973], [111.480184, 30.548914], [111.480216, 30.548867], [111.480248, 30.548806], [111.480269, 30.54875], [111.480296, 30.548661], [111.480315, 30.5486], [111.480332, 30.548528], [111.480356, 30.548471], [111.48038, 30.548422], [111.480413, 30.548381], [111.480456, 30.548341], [111.480492, 30.548309], [111.480531, 30.548282], [111.480569, 30.548261], [111.480612, 30.548244], [111.48066, 30.548228], [111.480717, 30.548212], [111.480815, 30.548194], [111.4809, 30.548177], [111.480997, 30.548155], [111.481054, 30.54814], [111.481105, 30.548124], [111.481178, 30.548095], [111.481248, 30.548062], [111.48132, 30.548023], [111.481429, 30.547947], [111.481458, 30.547925], [111.481536, 30.547863], [111.481636, 30.547776], [111.481714, 30.547711], [111.48238, 30.547193], [111.482713, 30.546917], [111.484988, 30.548933], [111.487361, 30.546945], [111.483339, 30.543386], [111.484398, 30.542555], [111.486259, 30.54422], [111.488203, 30.542598], [111.491758, 30.539711], [111.493198, 30.541026], [111.494341, 30.542068], [111.494675, 30.54178], [111.495267, 30.542326], [111.495385, 30.54233], [111.495786, 30.541996], [111.496126, 30.542319], [111.49621, 30.542316], [111.496458, 30.54215], [111.496881, 30.542524], [111.501242, 30.538936], [111.501553, 30.539232], [111.497203, 30.542826], [111.4988, 30.544308], [111.49376, 30.548393], [111.493166, 30.547822], [111.474181, 30.563257], [111.474837, 30.563802], [111.47009, 30.567659], [111.469006, 30.566642], [111.468924, 30.566653], [111.468236, 30.567137], [111.467789, 30.566692], [111.466783, 30.567522], [111.466452, 30.567241]]]}, "properties": {"display_name": "宜昌三峡机场, 机场路, 云池街道, 猇亭区, 宜昌市, 湖北省, 中国", "type": "aerodrome", "osm_type": "relation", "osm_id": 13814855, "class": null, "keyword": "district"}}, {"type": "Feature", "geometry": {"type": "Polygon", "coordinates": [[[111.720702, 30.431383], [111.728963, 30.431355], [111.728971, 30.432291], [111.728975, 30.432791], [111.729006, 30.436489], [111.72877, 30.436702], [111.72852, 30.436702], [111.728271, 30.436702], [111.727983, 30.436702], [111.727877, 30.436702], [111.72729, 30.436703], [111.727221, 30.436703], [111.721783, 30.436706], [111.72183, 30.435996], [111.721776, 30.435344], [111.721549, 30.43498], [111.720702, 30.431383]]]}, "properties": {"display_name": "枝江市体育中心, 南岗路, 枝江市, 宜昌市, 湖北省, 443200, 中国", "type": "stadium", "osm_type": "way", "osm_id": 705313786, "class": null, "keyword": "市中心"}}, {"type": "Feature", "geometry": {"type": "Polygon", "coordinates": [[[111.432395, 30.539545], [111.433985, 30.535905], [111.434197, 30.535382], [111.434307, 30.53538], [111.434348, 30.535435], [111.434541, 30.535685], [111.434635, 30.535988], [111.434819, 30.536238], [111.435688, 30.536441], [111.436385, 30.536392], [111.436459, 30.536311], [111.43678, 30.53596], [111.437163, 30.536004], [111.437274, 30.536332], [111.437476, 30.536516], [111.438296, 30.536661], [111.438489, 30.536677], [111.438763, 30.536699], [111.437459, 30.539786], [111.4374, 30.539918], [111.436443, 30.539715], [111.436288, 30.540056], [111.436877, 30.540417], [111.437174, 30.541198], [111.437139, 30.541826], [111.436918, 30.542261], [111.437209, 30.542458], [111.437662, 30.542649], [111.437983, 30.542824], [111.438328, 30.543037], [111.438744, 30.543444], [111.439007, 30.543902], [111.439314, 30.544034], [111.439636, 30.544054], [111.440105, 30.54376], [111.440552, 30.543428], [111.44097, 30.543109], [111.441455, 30.542749], [111.441538, 30.54283], [111.441644, 30.542904], [111.441833, 30.54307], [111.44195, 30.542956], [111.44227, 30.542612], [111.44227, 30.542398], [111.441815, 30.542144], [111.441271, 30.542116], [111.440846, 30.542017], [111.440718, 30.541843], [111.440966, 30.541761], [111.441065, 30.541846], [111.441458, 30.54194], [111.441904, 30.541943], [111.442228, 30.542061], [111.442525, 30.542229], [111.442576, 30.54241], [111.442547, 30.542603], [111.442411, 30.542769], [111.442258, 30.542932], [111.441965, 30.543248], [111.441763, 30.543404], [111.441549, 30.543544], [111.441127, 30.54379], [111.440725, 30.544111], [111.440678, 30.544311], [111.440495, 30.544464], [111.440314, 30.544428], [111.440115, 30.544467], [111.439805, 30.544857], [111.43968, 30.545103], [111.439462, 30.545748], [111.439398, 30.546361], [111.439372, 30.546918], [111.439212, 30.546793], [111.43902, 30.546643], [111.438986, 30.546247], [111.439052, 30.545673], [111.43941, 30.544745], [111.439636, 30.544512], [111.439336, 30.544529], [111.439039, 30.544528], [111.438426, 30.544273], [111.438017, 30.543879], [111.437722, 30.543437], [111.436678, 30.542986], [111.435825, 30.54252], [111.435076, 30.542199], [111.434374, 30.54174], [111.433819, 30.541372], [111.433358, 30.541442], [111.432488, 30.540413], [111.432395, 30.539545]]]}, "properties": {"display_name": "六泉湖市民活动中心, 虎牙街道, 猇亭区, 宜昌市, 湖北省, 中国", "type": "park", "osm_type": "way", "osm_id": 1001607739, "class": null, "keyword": "市中心"}}, {"type": "Feature", "geometry": {"type": "Polygon", "coordinates": [[[111.423797, 30.388506], [111.42381, 30.388431], [111.423829, 30.388375], [111.423841, 30.388346], [111.424013, 30.387948], [111.424283, 30.387351], [111.425164, 30.387521], [111.425457, 30.387717], [111.425928, 30.388025], [111.426275, 30.388153], [111.42664, 30.388158], [111.426762, 30.388168], [111.427247, 30.388539], [111.428267, 30.38874], [111.428718, 30.388829], [111.4284, 30.390192], [111.425824, 30.389919], [111.42576, 30.389912], [111.425747, 30.38999], [111.424529, 30.389802], [111.423995, 30.389712], [111.42402, 30.389137], [111.424028, 30.388959], [111.423979, 30.38878], [111.423871, 30.388618], [111.423797, 30.388506]]]}, "properties": {"display_name": "宜都市职业教育中心, 宜华一级路, 宜都市, 宜昌市, 湖北省, 443300, 中国", "type": "school", "osm_type": "way", "osm_id": 1053585781, "class": null, "keyword": "市中心"}}, {"type": "Feature", "geometry": {"type": "Polygon", "coordinates": [[[111.371511, 30.664665], [111.371701, 30.664009], [111.372665, 30.662983], [111.373151, 30.66261], [111.373852, 30.662364], [111.374875, 30.665104], [111.372084, 30.666363], [111.371511, 30.664665]]]}, "properties": {"display_name": "阳光城中梁·国悦府, 伍家岗区, 宜昌市, 湖北省, 中国", "type": "residential", "osm_type": "way", "osm_id": 968362326, "class": null, "keyword": "中央区"}}, {"type": "Feature", "geometry": {"type": "Polygon", "coordinates": [[[111.299391, 30.686348], [111.300404, 30.685631], [111.301446, 30.684615], [111.301724, 30.684983], [111.301897, 30.685137], [111.302605, 30.685754], [111.302148, 30.686125], [111.3023, 30.686613], [111.302344, 30.686923], [111.302433, 30.687296], [111.302846, 30.68778], [111.302343, 30.688159], [111.30149, 30.688808], [111.300717, 30.688258], [111.300554, 30.688163], [111.300105, 30.688063], [111.300142, 30.687848], [111.299926, 30.687139], [111.299687, 30.686654], [111.299391, 30.686348]]]}, "properties": {"display_name": "宜昌市中心人民医院, 183号, 夷陵大道, 万寿桥街道, 伍家岗区, 宜昌市, 湖北省, 443003, 中国", "type": "hospital", "osm_type": "way", "osm_id": 517890988, "class": null, "keyword": "市中心"}}, {"type": "Feature", "geometry": {"type": "Polygon", "coordinates": [[[111.038155, 30.81867], [111.038361, 30.818208], [111.038458, 30.817991], [111.03867, 30.817856], [111.039297, 30.818062], [111.039464, 30.817731], [111.040087, 30.81802], [111.041756, 30.818687], [111.04181, 30.818824], [111.041959, 30.81886], [111.042104, 30.81883], [111.044259, 30.819682], [111.044259, 30.819773], [111.044258, 30.819906], [111.044257, 30.820285], [111.043369, 30.819988], [111.043306, 30.820126], [111.043192, 30.820374], [111.042452, 30.820135], [111.041427, 30.819804], [111.038155, 30.81867]]]}, "properties": {"display_name": "三峡大学生实习培训中心, 西陵大道, 夷陵区, 宜昌市, 湖北省, 中国", "type": "school", "osm_type": "way", "osm_id": 1227091306, "class": null, "keyword": "市中心"}}, {"type": "Feature", "geometry": {"type": "Polygon", "coordinates": [[[111.274081, 30.676531], [111.274524, 30.675512], [111.277674, 30.676613], [111.276824, 30.678277], [111.276282, 30.678089], [111.27566, 30.677857], [111.275251, 30.677678], [111.275103, 30.677395], [111.274446, 30.676682], [111.274081, 30.676531]]]}, "properties": {"display_name": "宜昌市中心人民医院（江南院区）, 医院路, 点军区, 宜昌市, 湖北省, 443003, 中国", "type": "hospital", "osm_type": "way", "osm_id": 981886318, "class": null, "keyword": "市中心"}}, {"type": "Feature", "geometry": {"type": "Polygon", "coordinates": [[[111.322086, 30.724862], [111.322099, 30.724669], [111.322105, 30.724581], [111.322479, 30.723928], [111.323069, 30.722856], [111.323341, 30.722308], [111.323923, 30.721931], [111.324218, 30.721898], [111.325397, 30.722981], [111.32554, 30.723112], [111.32444, 30.723921], [111.324292, 30.724092], [111.324049, 30.724141], [111.323703, 30.724111], [111.323363, 30.724184], [111.323028, 30.724477], [111.322472, 30.724925], [111.322229, 30.725118], [111.322118, 30.725131], [111.322086, 30.724862]]]}, "properties": {"display_name": "恒信中央公园, 北苑街道, 西陵区, 宜昌市, 湖北省, 中国", "type": "residential", "osm_type": "way", "osm_id": 991412252, "class": null, "keyword": "中央区"}}, {"type": "Feature", "geometry": {"type": "Polygon", "coordinates": [[[111.315112, 30.715375], [111.317086, 30.713842], [111.318621, 30.715295], [111.317209, 30.716462], [111.315785, 30.715632], [111.315542, 30.715651], [111.315112, 30.715375]]]}, "properties": {"display_name": "中国人民银行（宜昌市中心支行）, 东苑街道, 西陵区, 宜昌市, 湖北省, 中国", "type": "institutional", "osm_type": "way", "osm_id": 1025487923, "class": null, "keyword": "市中心"}}, {"type": "Feature", "geometry": {"type": "Polygon", "coordinates": [[[111.314849, 30.756885], [111.314935, 30.756787], [111.315073, 30.75648], [111.315116, 30.755931], [111.315216, 30.755672], [111.315617, 30.755144], [111.317527, 30.756284], [111.317271, 30.756666], [111.316913, 30.756724], [111.316827, 30.757039], [111.316616, 30.757808], [111.316313, 30.757727], [111.316353, 30.757507], [111.315099, 30.757171], [111.314849, 30.756885]]]}, "properties": {"display_name": "中环城市物流中心, 夜明珠街道, 西陵区, 宜昌市, 湖北省, 中国", "type": "industrial", "osm_type": "way", "osm_id": 991412258, "class": null, "keyword": "中心城区"}}, {"type": "Feature", "geometry": {"type": "Polygon", "coordinates": [[[111.329746, 30.705305], [111.330408, 30.705314], [111.330709, 30.705318], [111.330784, 30.705353], [111.330896, 30.705456], [111.330996, 30.705633], [111.331297, 30.705783], [111.332025, 30.706019], [111.332185, 30.706129], [111.331948, 30.707002], [111.331389, 30.707399], [111.331119, 30.707217], [111.330891, 30.707104], [111.330623, 30.707039], [111.329998, 30.706995], [111.329799, 30.706815], [111.329746, 30.705305]]]}, "properties": {"display_name": "宜昌市公共卫生中心（在建）, 南玻路, 东苑街道, 西陵区, 宜昌市, 湖北省, 443000, 中国", "type": "hospital", "osm_type": "way", "osm_id": 1028992202, "class": null, "keyword": "市中心"}}, {"type": "Feature", "geometry": {"type": "Polygon", "coordinates": [[[111.281632, 30.706342], [111.281738, 30.705519], [111.284554, 30.70575], [111.284497, 30.707051], [111.283947, 30.707034], [111.283951, 30.706723], [111.283238, 30.706708], [111.283236, 30.706793], [111.28211, 30.706754], [111.282106, 30.706674], [111.281748, 30.706677], [111.281801, 30.706363], [111.281632, 30.706342]]]}, "properties": {"display_name": "中央商务区三期, 学院街道, 西陵区, 宜昌市, 湖北省, 中国", "type": "commercial", "osm_type": "way", "osm_id": 1022486155, "class": null, "keyword": "中央区"}}, {"type": "Feature", "geometry": {"type": "Polygon", "coordinates": [[[111.28452, 30.708914], [111.284641, 30.706852], [111.286123, 30.706922], [111.285938, 30.708978], [111.28452, 30.708914]]]}, "properties": {"display_name": "CBD, 西陵街道, 西陵区, 宜昌市, 湖北省, 中国", "type": "retail", "osm_type": "way", "osm_id": 473590597, "class": null, "keyword": "CBD"}}, {"type": "Feature", "geometry": {"type": "Polygon", "coordinates": [[[111.754459, 30.477718], [111.755349, 30.477586], [111.755394, 30.477486], [111.755341, 30.477179], [111.755413, 30.477177], [111.755449, 30.477325], [111.755534, 30.477322], [111.755541, 30.477384], [111.756392, 30.477267], [111.756872, 30.477193], [111.75707, 30.477156], [111.757093, 30.477451], [111.756853, 30.477547], [111.75702, 30.478329], [111.755203, 30.478605], [111.755188, 30.478564], [111.754801, 30.478622], [111.754724, 30.478611], [111.754687, 30.478574], [111.75463, 30.478336], [111.754546, 30.477965], [111.754528, 30.477883], [111.754482, 30.47789], [111.754459, 30.477718]]]}, "properties": {"display_name": "枝江市创新创业中心, 仙女新城, 枝江市, 宜昌市, 湖北省, 中国", "type": "commercial", "osm_type": "way", "osm_id": 1014525368, "class": null, "keyword": "市中心"}}, {"type": "Feature", "geometry": {"type": "Polygon", "coordinates": [[[111.719443, 30.423379], [111.71982, 30.422708], [111.720504, 30.423056], [111.721156, 30.423388], [111.721698, 30.423004], [111.722363, 30.423226], [111.721935, 30.424487], [111.719443, 30.423379]]]}, "properties": {"display_name": "枝江市老年干部活动中心, 枝江市, 宜昌市, 湖北省, 中国", "type": "recreation_ground", "osm_type": "way", "osm_id": 1020762028, "class": null, "keyword": "市中心"}}, {"type": "Feature", "geometry": {"type": "Polygon", "coordinates": [[[111.421417, 30.535446], [111.422052, 30.534183], [111.423686, 30.534859], [111.423018, 30.536066], [111.421417, 30.535446]]]}, "properties": {"display_name": "猇亭区中心市场, 金岭一街, 古老背街道, 猇亭区, 宜昌市, 湖北省, 443007, 中国", "type": "marketplace", "osm_type": "way", "osm_id": 1001607736, "class": null, "keyword": "市中心"}}, {"type": "Feature", "geometry": {"type": "Polygon", "coordinates": [[[111.329527, 30.78066], [111.329898, 30.780545], [111.329804, 30.780382], [111.330535, 30.780139], [111.331114, 30.780217], [111.331721, 30.781445], [111.331188, 30.781621], [111.330017, 30.781517], [111.32973, 30.781199], [111.329527, 30.78066]]]}, "properties": {"display_name": "夷陵区实验初中新校区, 金发路, 夷陵区, 宜昌市, 湖北省, 443100, 中国", "type": "school", "osm_type": "way", "osm_id": 968051078, "class": null, "keyword": "市中心"}}, {"type": "Feature", "geometry": {"type": "Polygon", "coordinates": [[[111.288562, 30.703957], [111.288683, 30.702598], [111.288691, 30.702525], [111.288713, 30.70242], [111.288743, 30.702357], [111.290276, 30.703077], [111.290041, 30.703406], [111.290458, 30.703623], [111.290289, 30.704117], [111.288562, 30.703957]]]}, "properties": {"display_name": "国贸中心城, 云集街道, 西陵区, 宜昌市, 湖北省, 中国", "type": "construction", "osm_type": "way", "osm_id": 1035955183, "class": null, "keyword": "中心城区"}}, {"type": "Feature", "geometry": {"type": "Polygon", "coordinates": [[[111.757334, 30.430597], [111.757412, 30.4305], [111.757412, 30.430152], [111.759336, 30.430152], [111.759402, 30.430185], [111.759407, 30.431133], [111.757453, 30.431131], [111.757343, 30.431131], [111.757334, 30.430597]]]}, "properties": {"display_name": "枝江市足球训练中心, 迎宾大道, 枝江市, 宜昌市, 湖北省, 443200, 中国", "type": "pitch", "osm_type": "way", "osm_id": 1014015174, "class": null, "keyword": "市中心"}}, {"type": "Feature", "geometry": {"type": "Polygon", "coordinates": [[[111.312183, 30.702883], [111.312221, 30.702332], [111.312234, 30.70175], [111.31249, 30.701562], [111.312967, 30.701572], [111.313514, 30.701637], [111.313896, 30.701729], [111.314279, 30.701864], [111.314344, 30.70196], [111.314362, 30.70253], [111.313323, 30.702522], [111.313335, 30.702142], [111.31285, 30.702139], [111.312835, 30.702877], [111.312183, 30.702883]]]}, "properties": {"display_name": "宜昌市疾病预防控制中心, 大连路, 南苑街道, 西陵区, 宜昌市, 湖北省, 443005, 中国", "type": "hospital", "osm_type": "way", "osm_id": 1005748997, "class": null, "keyword": "市中心"}}, {"type": "Feature", "geometry": {"type": "Polygon", "coordinates": [[[111.234064, 30.711541], [111.234512, 30.711344], [111.234894, 30.711156], [111.235208, 30.710975], [111.235494, 30.710856], [111.235895, 30.710901], [111.236238, 30.710934], [111.236381, 30.711041], [111.236505, 30.711233], [111.236486, 30.711357], [111.236129, 30.711525], [111.235871, 30.711676], [111.235585, 30.711721], [111.235347, 30.71182], [111.23517, 30.711963], [111.23476, 30.712127], [111.234445, 30.71223], [111.234064, 30.711541]]]}, "properties": {"display_name": "宜昌市妇女儿童活动中心, 点军大道辅路, 点军区, 宜昌市, 湖北省, 中国", "type": "school", "osm_type": "way", "osm_id": 1002541095, "class": null, "keyword": "市中心"}}, {"type": "Feature", "geometry": {"type": "Polygon", "coordinates": [[[111.338071, 30.728556], [111.338196, 30.7284], [111.338327, 30.727962], [111.338419, 30.727778], [111.338495, 30.727725], [111.338892, 30.72773], [111.339082, 30.727691], [111.339179, 30.727665], [111.339171, 30.727526], [111.339307, 30.727426], [111.339311, 30.727218], [111.339439, 30.727307], [111.339641, 30.727417], [111.339799, 30.727569], [111.339954, 30.727761], [111.339856, 30.728474], [111.339803, 30.728586], [111.339697, 30.728612], [111.339454, 30.728619], [111.338722, 30.728591], [111.33847, 30.728811], [111.338071, 30.728556]]]}, "properties": {"display_name": "宜昌市流浪未成年人保护中心, 峡州大道, 北苑街道, 西陵区, 宜昌市, 湖北省, 443100, 中国", "type": "social_facility", "osm_type": "way", "osm_id": 1157259330, "class": null, "keyword": "中心城区"}}, {"type": "Feature", "geometry": {"type": "Polygon", "coordinates": [[[111.757133, 30.469347], [111.758978, 30.469103], [111.75911, 30.469943], [111.757268, 30.470181], [111.757133, 30.469347]]]}, "properties": {"display_name": "枝江市职业教育中心现代服务公共实训基地, 四季港路, 仙女新城, 枝江市, 宜昌市, 湖北省, 443200, 中国", "type": "school", "osm_type": "way", "osm_id": 1056460106, "class": null, "keyword": "市中心"}}, {"type": "Feature", "geometry": {"type": "Polygon", "coordinates": [[[111.05276, 30.843249], [111.053106, 30.842425], [111.053214, 30.842357], [111.054514, 30.842737], [111.054524, 30.842786], [111.054126, 30.843746], [111.05282, 30.843365], [111.05276, 30.843249]]]}, "properties": {"display_name": "宜昌市中心人民医院三峡坝区分院, 坝河路, 八河口, 夷陵区, 宜昌市, 湖北省, 中国", "type": "hospital", "osm_type": "way", "osm_id": 1227086255, "class": null, "keyword": "市中心"}}, {"type": "Feature", "geometry": {"type": "Polygon", "coordinates": [[[111.058534, 30.84264], [111.058681, 30.842541], [111.058903, 30.842229], [111.05977, 30.842433], [111.060711, 30.842916], [111.060559, 30.843197], [111.060443, 30.84322], [111.060354, 30.843111], [111.059552, 30.843194], [111.059567, 30.843601], [111.059203, 30.843644], [111.059098, 30.842973], [111.058586, 30.842937], [111.058534, 30.84264]]]}, "properties": {"display_name": "三峡集团实验中心, 八河口, 夷陵区, 宜昌市, 湖北省, 中国", "type": "industrial", "osm_type": "way", "osm_id": 1227086256, "class": null, "keyword": "市中心"}}, {"type": "Feature", "geometry": {"type": "Polygon", "coordinates": [[[111.342045, 30.764833], [111.342491, 30.763585], [111.343427, 30.763776], [111.343394, 30.764005], [111.343066, 30.765091], [111.342045, 30.764833]]]}, "properties": {"display_name": "夷陵区市民服务中心, 夷陵区, 宜昌市, 湖北省, 中国", "type": "commercial", "osm_type": "way", "osm_id": 963119802, "class": null, "keyword": "市中心"}}, {"type": "Feature", "geometry": {"type": "Polygon", "coordinates": [[[111.780726, 30.420924], [111.780742, 30.420609], [111.780764, 30.420233], [111.782228, 30.420131], [111.782215, 30.42048], [111.782194, 30.421029], [111.780726, 30.420924]]]}, "properties": {"display_name": "枝江市青少年户外活动中心, 当枝松高速, 坝陵街道, 当阳市, 宜昌市, 湖北省, 443200, 中国", "type": "school", "osm_type": "way", "osm_id": 1046146059, "class": null, "keyword": "市中心"}}, {"type": "Feature", "geometry": {"type": "Polygon", "coordinates": [[[111.31088, 30.722044], [111.311611, 30.722032], [111.311623, 30.722553], [111.311965, 30.722548], [111.311991, 30.723751], [111.311585, 30.723757], [111.311571, 30.723143], [111.311233, 30.723148], [111.311224, 30.722735], [111.31128, 30.722735], [111.311277, 30.722601], [111.310893, 30.722607], [111.31088, 30.722044]]]}, "properties": {"display_name": "生物制药与材料化工教学实验中心楼, S生命科学楼环楼路, 窑湾街道, 西陵区, 宜昌市, 湖北省, 443005, 中国", "type": "yes", "osm_type": "way", "osm_id": 1040750201, "class": null, "keyword": "市中心"}}, {"type": "Feature", "geometry": {"type": "Polygon", "coordinates": [[[111.336839, 30.674686], [111.337922, 30.67412], [111.338309, 30.674716], [111.337271, 30.675242], [111.336839, 30.674686]]]}, "properties": {"display_name": "城东社区卫生服务中心, 城东大道, 宝塔河街道, 伍家岗区, 宜昌市, 湖北省, 443000, 中国", "type": "hospital", "osm_type": "way", "osm_id": 990651177, "class": null, "keyword": "中心城区"}}, {"type": "Feature", "geometry": {"type": "Polygon", "coordinates": [[[111.313091, 30.674663], [111.313564, 30.674187], [111.314159, 30.674678], [111.313711, 30.675101], [111.313091, 30.674663]]]}, "properties": {"display_name": "宜昌市疾病预防控制中心皮肤病性病专科, 港前路, 宝塔河街道, 伍家岗区, 宜昌市, 湖北省, 443003, 中国", "type": "hospital", "osm_type": "way", "osm_id": 1093028375, "class": null, "keyword": "市中心"}}, {"type": "Feature", "geometry": {"type": "Polygon", "coordinates": [[[111.754912, 30.477923], [111.755769, 30.477788], [111.755806, 30.477967], [111.75557, 30.478004], [111.755368, 30.478038], [111.754951, 30.478104], [111.754912, 30.477923]]]}, "properties": {"display_name": "枝江市政务服务中心, 民主大道, 仙女新城, 枝江市, 宜昌市, 湖北省, 443200, 中国", "type": "yes", "osm_type": "way", "osm_id": 1045129845, "class": null, "keyword": "市中心"}}, {"type": "Feature", "geometry": {"type": "Polygon", "coordinates": [[[111.315287, 30.770248], [111.315359, 30.770135], [111.315399, 30.770031], [111.315786, 30.770111], [111.315727, 30.770267], [111.315436, 30.770362], [111.315287, 30.770248]]]}, "properties": {"display_name": "夷陵老街广场, 小溪塔街道, 夷陵区, 宜昌市, 湖北省, 中国", "type": "park", "osm_type": "way", "osm_id": 1359850305, "class": null, "keyword": "老城"}}, {"type": "Feature", "geometry": {"type": "Polygon", "coordinates": [[[111.447249, 30.387333], [111.447352, 30.387092], [111.447596, 30.387165], [111.447497, 30.387407], [111.447249, 30.387333]]]}, "properties": {"display_name": "中心加油站, 长江大道, 陆城街道, 宜都市, 宜昌市, 湖北省, 443300, 中国", "type": "fuel", "osm_type": "way", "osm_id": 723923887, "class": null, "keyword": "市中心"}}, {"type": "Feature", "geometry": {"type": "Polygon", "coordinates": [[[111.720704, 30.423718], [111.720766, 30.423607], [111.721125, 30.423755], [111.721063, 30.423866], [111.720704, 30.423718]]]}, "properties": {"display_name": "枝江市老年干部活动中心, 迎宾大道, 枝江市, 宜昌市, 湖北省, 443200, 中国", "type": "community_centre", "osm_type": "way", "osm_id": 1021072096, "class": null, "keyword": "市中心"}}]}