{"type": "FeatureCollection", "features": [{"type": "Feature", "geometry": {"type": "Polygon", "coordinates": [[[106.273048, 38.457672], [106.274571, 38.457386], [106.275644, 38.458428], [106.276202, 38.459705], [106.280172, 38.45868], [106.281738, 38.463906], [106.281652, 38.464376], [106.28058, 38.464645], [106.280923, 38.465804], [106.279721, 38.466073], [106.279357, 38.465082], [106.278992, 38.464981], [106.277919, 38.465216], [106.275237, 38.465838], [106.274464, 38.463586], [106.275301, 38.463351], [106.27367, 38.459251], [106.273048, 38.457672]]]}, "properties": {"display_name": "兴庆老城, 新华街街道, 兴庆区, 银川市, 宁夏回族自治区, 中国", "type": "commercial", "osm_type": "way", "osm_id": 632872589, "class": null, "keyword": "老城"}}, {"type": "Feature", "geometry": {"type": "Polygon", "coordinates": [[[106.305376, 38.102875], [106.310189, 38.10124], [106.310461, 38.101299], [106.310658, 38.101797], [106.310966, 38.102381], [106.310845, 38.102875], [106.310575, 38.10339], [106.310087, 38.103839], [106.309496, 38.104092], [106.306818, 38.105015], [106.306619, 38.104977], [106.305376, 38.102875]]]}, "properties": {"display_name": "灵武市体育中心, 永安路, 城区街道, 灵武市, 银川市, 宁夏回族自治区, 中国", "type": "stadium", "osm_type": "way", "osm_id": 1063783432, "class": null, "keyword": "市中心"}}, {"type": "Feature", "geometry": {"type": "Polygon", "coordinates": [[[106.294506, 38.511536], [106.296826, 38.510726], [106.298263, 38.51322], [106.295607, 38.513505], [106.294506, 38.511536]]]}, "properties": {"display_name": "中方·苏荷阳光, 贺兰县, 银川市, 宁夏回族自治区, 中国", "type": "residential", "osm_type": "way", "osm_id": 1061075661, "class": null, "keyword": "中央区"}}, {"type": "Feature", "geometry": {"type": "Polygon", "coordinates": [[[106.311114, 38.440516], [106.311356, 38.4403], [106.311425, 38.440348], [106.311484, 38.440381], [106.311547, 38.44041], [106.311614, 38.440434], [106.311683, 38.440453], [106.311754, 38.440466], [106.311826, 38.440474], [106.311899, 38.440477], [106.311972, 38.440474], [106.312045, 38.440465], [106.312114, 38.440452], [106.312182, 38.440433], [106.312247, 38.440409], [106.312284, 38.440465], [106.312352, 38.440434], [106.312416, 38.440398], [106.312476, 38.440357], [106.31253, 38.440312], [106.312579, 38.440263], [106.312629, 38.440202], [106.312871, 38.440323], [106.312813, 38.440393], [106.312748, 38.440459], [106.312686, 38.440534], [106.3127, 38.440559], [106.312686, 38.440575], [106.312628, 38.440623], [106.312581, 38.440655], [106.312504, 38.440705], [106.312415, 38.44076], [106.312312, 38.440801], [106.312128, 38.440867], [106.311966, 38.440885], [106.311822, 38.440866], [106.311741, 38.44087], [106.311672, 38.440936], [106.311626, 38.440922], [106.311582, 38.440902], [106.311543, 38.440878], [106.311504, 38.440845], [106.311472, 38.440809], [106.311448, 38.440769], [106.311432, 38.440726], [106.311425, 38.440682], [106.311378, 38.440665], [106.311284, 38.440622], [106.311195, 38.440573], [106.311114, 38.440516]]]}, "properties": {"display_name": "中国石油长庆油田银川生产指挥中心, X102, 掌政镇, 兴庆区, 银川市, 宁夏回族自治区, 中国", "type": "company", "osm_type": "way", "osm_id": 905044808, "class": null, "keyword": "市中心"}}, {"type": "Feature", "geometry": {"type": "Polygon", "coordinates": [[[106.223743, 38.487608], [106.223888, 38.487593], [106.223968, 38.48805], [106.224238, 38.48801], [106.224257, 38.488145], [106.223818, 38.488192], [106.223743, 38.487608]]]}, "properties": {"display_name": "银川市信访法律事务服务中心, 人民广场西街, 上海西路街道, 金凤区, 银川市, 宁夏回族自治区, 750000, 中国", "type": "government", "osm_type": "way", "osm_id": 1206873109, "class": null, "keyword": "市中心"}}]}