{"type": "FeatureCollection", "features": [{"type": "Feature", "geometry": {"type": "Polygon", "coordinates": [[[120.103763, 29.341703], [120.104358, 29.341529], [120.104269, 29.341285], [120.104448, 29.34124], [120.105, 29.341104], [120.105047, 29.341092], [120.105125, 29.341332], [120.10536, 29.34126], [120.105485, 29.34164], [120.105848, 29.342249], [120.106343, 29.342786], [120.106918, 29.343176], [120.10733, 29.343363], [120.107201, 29.343569], [120.107448, 29.343692], [120.107178, 29.344127], [120.107325, 29.344185], [120.107304, 29.344249], [120.108203, 29.344488], [120.108196, 29.344521], [120.108552, 29.344612], [120.109646, 29.34457], [120.10958, 29.343447], [120.10949, 29.341634], [120.109472, 29.341308], [120.107846, 29.341365], [120.107678, 29.340998], [120.107694, 29.340946], [120.107766, 29.340941], [120.108087, 29.340932], [120.108084, 29.340829], [120.107998, 29.34083], [120.107996, 29.340576], [120.108301, 29.340574], [120.108303, 29.340828], [120.108225, 29.340829], [120.108226, 29.340928], [120.109448, 29.340895], [120.11057, 29.340855], [120.110563, 29.340381], [120.111906, 29.3403], [120.111941, 29.340804], [120.112456, 29.340783], [120.113498, 29.340741], [120.114762, 29.340695], [120.116202, 29.340647], [120.117593, 29.340587], [120.117535, 29.341048], [120.116898, 29.341082], [120.116936, 29.341525], [120.116891, 29.342361], [120.11679, 29.343315], [120.116652, 29.344162], [120.116461, 29.344769], [120.116839, 29.344856], [120.11677, 29.34511], [120.116032, 29.345031], [120.116002, 29.345123], [120.115767, 29.345096], [120.115505, 29.345069], [120.115525, 29.344985], [120.114087, 29.344876], [120.113547, 29.344853], [120.113356, 29.344853], [120.112152, 29.34488], [120.112162, 29.345203], [120.110826, 29.345264], [120.110798, 29.345025], [120.110393, 29.345107], [120.110063, 29.345147], [120.109479, 29.345182], [120.109109, 29.345194], [120.108781, 29.345187], [120.108173, 29.345112], [120.108133, 29.345219], [120.107007, 29.344902], [120.106832, 29.344838], [120.106534, 29.344694], [120.106445, 29.344843], [120.106509, 29.344911], [120.106553, 29.344988], [120.106576, 29.345072], [120.106573, 29.345173], [120.106552, 29.345264], [120.106507, 29.345341], [120.106439, 29.345415], [120.106356, 29.345464], [120.106264, 29.345496], [120.106138, 29.345513], [120.106027, 29.345502], [120.105902, 29.345463], [120.105808, 29.345409], [120.105746, 29.345333], [120.105705, 29.345261], [120.105679, 29.345169], [120.105678, 29.345079], [120.105702, 29.344978], [120.105747, 29.344894], [120.105814, 29.344831], [120.105903, 29.344777], [120.105993, 29.344743], [120.106102, 29.344728], [120.106198, 29.344729], [120.106299, 29.344577], [120.105978, 29.344423], [120.105144, 29.343816], [120.104451, 29.343054], [120.103954, 29.342237], [120.103763, 29.341703]], [[120.113102, 29.341334], [120.113158, 29.343193], [120.113246, 29.344265], [120.115051, 29.344181], [120.115306, 29.343151], [120.115402, 29.34233], [120.115386, 29.341244], [120.113102, 29.341334]]]}, "properties": {"display_name": "District 4 & 5, 稠州北路, 义乌市, 金华市, 浙江省, 中国", "type": "yes", "osm_type": "relation", "osm_id": 5857204, "class": null, "keyword": "district"}}, {"type": "Feature", "geometry": {"type": "Polygon", "coordinates": [[[120.075394, 29.289669], [120.075405, 29.289591], [120.07643, 29.287218], [120.076549, 29.287208], [120.081735, 29.289185], [120.081796, 29.289238], [120.081766, 29.289351], [120.079259, 29.290851], [120.078618, 29.291828], [120.078516, 29.29184], [120.075478, 29.289825], [120.075427, 29.289785], [120.0754, 29.289721], [120.075394, 29.289669]]]}, "properties": {"display_name": "义乌市中心医院, 南门街, 义乌市, 金华市, 浙江省, 中国", "type": "hospital", "osm_type": "way", "osm_id": 507562261, "class": null, "keyword": "市中心"}}, {"type": "Feature", "geometry": {"type": "Polygon", "coordinates": [[[120.023627, 29.203856], [120.026334, 29.203168], [120.026755, 29.204553], [120.024374, 29.205166], [120.023627, 29.203856]]]}, "properties": {"display_name": "佛堂镇文体中心, 佛堂大道, 向阳村, 义乌市, 金华市, 浙江省, 322002, 中国", "type": "sports_centre", "osm_type": "way", "osm_id": 1265553498, "class": null, "keyword": "中心城区"}}, {"type": "Feature", "geometry": {"type": "Polygon", "coordinates": [[[120.07511, 29.306926], [120.0757, 29.306828], [120.076149, 29.307792], [120.075363, 29.30788], [120.07511, 29.306926]]]}, "properties": {"display_name": "义乌市稠城中心幼儿园, 县前街, 义乌市, 金华市, 浙江省, 中国", "type": "school", "osm_type": "way", "osm_id": 1241895488, "class": null, "keyword": "市中心"}}, {"type": "Feature", "geometry": {"type": "Polygon", "coordinates": [[[120.01605, 29.203165], [120.016252, 29.202832], [120.017247, 29.203299], [120.017053, 29.203634], [120.01605, 29.203165]]]}, "properties": {"display_name": "义乌印悦里生活购物中心(世纪联华佛堂店), 大成路, 向阳村, 义乌市, 金华市, 浙江省, 322002, 中国", "type": "yes", "osm_type": "way", "osm_id": 1356180758, "class": null, "keyword": "中心城区"}}]}