{"type": "FeatureCollection", "features": [{"type": "Feature", "geometry": {"type": "Polygon", "coordinates": [[[117.125239, 35.114327], [117.125655, 35.112564], [117.126453, 35.108734], [117.130405, 35.109169], [117.131563, 35.110551], [117.131684, 35.110637], [117.131816, 35.110835], [117.131874, 35.110867], [117.13048, 35.113141], [117.128705, 35.11299], [117.128492, 35.11404], [117.129538, 35.114128], [117.12916, 35.114746], [117.125239, 35.114327]]]}, "properties": {"display_name": "滕州市农副产品物流中心（鲁华农副城）, 荆河街道, 滕州市, 枣庄市, 山东省, 中国", "type": "retail", "osm_type": "way", "osm_id": 359509707, "class": null, "keyword": "市中心"}}, {"type": "Feature", "geometry": {"type": "Polygon", "coordinates": [[[117.148153, 35.12925], [117.148277, 35.126368], [117.154425, 35.126639], [117.154345, 35.129453], [117.148153, 35.12925]]]}, "properties": {"display_name": "滕州市中心人民医院新院区, 北辛街道, 滕州市, 枣庄市, 山东省, 中国", "type": "construction", "osm_type": "way", "osm_id": 1030296807, "class": null, "keyword": "市中心"}}, {"type": "Feature", "geometry": {"type": "Polygon", "coordinates": [[[117.155421, 35.113676], [117.155439, 35.112007], [117.158287, 35.112028], [117.158269, 35.113697], [117.155421, 35.113676]]]}, "properties": {"display_name": "滕州市综合文化中心, 善北社区, 北辛街道, 滕州市, 枣庄市, 山东省, 中国", "type": "construction", "osm_type": "way", "osm_id": 1050793874, "class": null, "keyword": "市中心"}}, {"type": "Feature", "geometry": {"type": "Polygon", "coordinates": [[[117.163347, 35.090707], [117.163559, 35.089216], [117.16461, 35.089304], [117.16538, 35.089343], [117.165372, 35.089629], [117.165897, 35.089634], [117.165893, 35.089901], [117.165537, 35.089889], [117.165382, 35.09118], [117.164522, 35.09109], [117.163622, 35.090978], [117.163347, 35.090707]]]}, "properties": {"display_name": "中央城B区, 龙泉街道, 滕州市, 枣庄市, 山东省, 中国", "type": "residential", "osm_type": "way", "osm_id": 421620110, "class": null, "keyword": "中央区"}}, {"type": "Feature", "geometry": {"type": "Polygon", "coordinates": [[[117.163825, 35.09239], [117.16383, 35.092281], [117.166469, 35.092571], [117.166549, 35.092663], [117.166319, 35.094332], [117.166208, 35.094392], [117.163825, 35.09239]]]}, "properties": {"display_name": "中央城C区, 北辛街道, 滕州市, 枣庄市, 山东省, 中国", "type": "residential", "osm_type": "way", "osm_id": 421620113, "class": null, "keyword": "中央区"}}, {"type": "Feature", "geometry": {"type": "Polygon", "coordinates": [[[117.353319, 35.279888], [117.354975, 35.279811], [117.354937, 35.281377], [117.353332, 35.281461], [117.353319, 35.279888]]]}, "properties": {"display_name": "山亭区店子镇中心小学北校, S313, 店子镇, 山亭区, 枣庄市, 山东省, 中国", "type": "school", "osm_type": "way", "osm_id": 1304670042, "class": null, "keyword": "中心商圈"}}, {"type": "Feature", "geometry": {"type": "Polygon", "coordinates": [[[117.160477, 35.090448], [117.160743, 35.090135], [117.161744, 35.090234], [117.162178, 35.089049], [117.163053, 35.089146], [117.162799, 35.090722], [117.162616, 35.090869], [117.16067, 35.090645], [117.160477, 35.090448]]]}, "properties": {"display_name": "中央城A区, 龙泉街道, 滕州市, 枣庄市, 山东省, 中国", "type": "residential", "osm_type": "way", "osm_id": 421620112, "class": null, "keyword": "中央区"}}, {"type": "Feature", "geometry": {"type": "Polygon", "coordinates": [[[117.362591, 34.82397], [117.363795, 34.823959], [117.363804, 34.825283], [117.363226, 34.825932], [117.362609, 34.825945], [117.362591, 34.82397]]]}, "properties": {"display_name": "枣庄市精神卫生中心医养康复医院, 兴城街道, 薛城区, 枣庄市, 山东省, 中国", "type": "construction", "osm_type": "way", "osm_id": 510955760, "class": null, "keyword": "市中心"}}, {"type": "Feature", "geometry": {"type": "Polygon", "coordinates": [[[117.144465, 34.983034], [117.146457, 34.98284], [117.146569, 34.983861], [117.145055, 34.984001], [117.14454, 34.983869], [117.144465, 34.983034]]]}, "properties": {"display_name": "鲍沟镇中心小学, 笃西路, 鲍沟镇, 滕州市, 枣庄市, 山东省, 中国", "type": "school", "osm_type": "way", "osm_id": 1071311556, "class": null, "keyword": "中心商圈"}}, {"type": "Feature", "geometry": {"type": "Polygon", "coordinates": [[[117.353903, 35.269779], [117.354864, 35.269765], [117.355006, 35.270981], [117.353976, 35.271009], [117.353903, 35.269779]]]}, "properties": {"display_name": "山亭区店子镇中心小学, S313, 店子镇, 山亭区, 枣庄市, 山东省, 中国", "type": "school", "osm_type": "way", "osm_id": 1304670045, "class": null, "keyword": "中心商圈"}}, {"type": "Feature", "geometry": {"type": "Polygon", "coordinates": [[[117.308596, 34.799321], [117.308627, 34.798599], [117.309799, 34.798601], [117.309791, 34.799206], [117.309619, 34.799286], [117.309506, 34.799314], [117.308596, 34.799321]]]}, "properties": {"display_name": "枣庄市食品药品检验检测中心, 新城街道, 薛城区, 枣庄市, 山东省, 中国", "type": "construction", "osm_type": "way", "osm_id": 670925467, "class": null, "keyword": "市中心"}}]}