{"type": "FeatureCollection", "features": [{"type": "Feature", "geometry": {"type": "Polygon", "coordinates": [[[114.788993, 40.791992], [114.790075, 40.788427], [114.794065, 40.788982], [114.793195, 40.792547], [114.788993, 40.791992]]]}, "properties": {"display_name": "张家口市职业教育中心建设区, 万全区, 张家口市, 河北省, 中国", "type": "construction", "osm_type": "way", "osm_id": 1093046921, "class": null, "keyword": "市中心"}}, {"type": "Feature", "geometry": {"type": "Polygon", "coordinates": [[[114.927041, 40.759482], [114.929467, 40.759487], [114.929468, 40.762413], [114.927189, 40.762404], [114.927078, 40.762317], [114.927041, 40.759482]]]}, "properties": {"display_name": "张家口市公安局综合警务中心, 朝阳东大街辅路, 姚家庄镇, 桥东区, 张家口市, 河北省, 075000, 中国", "type": "police", "osm_type": "way", "osm_id": 539781105, "class": null, "keyword": "市中心"}}, {"type": "Feature", "geometry": {"type": "Polygon", "coordinates": [[[114.886411, 40.833224], [114.886839, 40.83316], [114.887115, 40.833143], [114.887108, 40.833031], [114.887214, 40.833002], [114.887175, 40.832865], [114.887334, 40.832844], [114.887168, 40.832244], [114.887473, 40.832188], [114.887564, 40.832423], [114.888209, 40.832297], [114.888226, 40.832348], [114.888322, 40.832335], [114.888407, 40.832576], [114.888839, 40.832544], [114.889122, 40.834456], [114.889239, 40.835309], [114.888244, 40.835446], [114.888279, 40.835559], [114.888025, 40.835505], [114.887508, 40.834083], [114.887373, 40.834116], [114.887421, 40.834268], [114.886892, 40.834378], [114.886524, 40.833518], [114.886411, 40.833224]]]}, "properties": {"display_name": "张家口市职业技术教育中心, 长青路, 营城子社区, 明德北街街道, 桥西区, 张家口市, 河北省, 075000, 中国", "type": "school", "osm_type": "way", "osm_id": 503710575, "class": null, "keyword": "市中心"}}, {"type": "Feature", "geometry": {"type": "Polygon", "coordinates": [[[114.911241, 40.748621], [114.913184, 40.748601], [114.913152, 40.750991], [114.913041, 40.750991], [114.911263, 40.750693], [114.911241, 40.748621]]]}, "properties": {"display_name": "张家口市中心血站, 胜利中路辅路, 马路东街道, 桥东区, 张家口市, 河北省, 075000, 中国", "type": "hospital", "osm_type": "way", "osm_id": 969463564, "class": null, "keyword": "市中心"}}, {"type": "Feature", "geometry": {"type": "Polygon", "coordinates": [[[114.918676, 40.750904], [114.918707, 40.748674], [114.919515, 40.749011], [114.920018, 40.749348], [114.920328, 40.749659], [114.920547, 40.749984], [114.920692, 40.750408], [114.920681, 40.750928], [114.919968, 40.750919], [114.918676, 40.750904]]]}, "properties": {"display_name": "张家口市卷烟配送中心, 姚家庄镇, 桥东区, 张家口市, 河北省, 075000, 中国", "type": "industrial", "osm_type": "way", "osm_id": 1083139491, "class": null, "keyword": "市中心"}}, {"type": "Feature", "geometry": {"type": "Polygon", "coordinates": [[[114.881826, 40.750851], [114.881867, 40.75074], [114.883379, 40.750365], [114.88368, 40.751061], [114.88207, 40.751443], [114.881826, 40.750851]]]}, "properties": {"display_name": "张家口市民中心, 崇光路, 南站街道, 桥东区, 张家口市, 河北省, 075000, 中国", "type": "yes", "osm_type": "way", "osm_id": 499880720, "class": null, "keyword": "市中心"}}, {"type": "Feature", "geometry": {"type": "Polygon", "coordinates": [[[114.883197, 40.760782], [114.883216, 40.759421], [114.884023, 40.759423], [114.883982, 40.760555], [114.883797, 40.760568], [114.883649, 40.760671], [114.88363, 40.760785], [114.883197, 40.760782]]]}, "properties": {"display_name": "张家口市残疾人康复中心, 崇光路, 南站街道, 桥东区, 张家口市, 河北省, 075000, 中国", "type": "hospital", "osm_type": "way", "osm_id": 505214365, "class": null, "keyword": "市中心"}}, {"type": "Feature", "geometry": {"type": "Polygon", "coordinates": [[[114.860366, 40.773126], [114.860417, 40.773126], [114.861585, 40.773118], [114.861581, 40.774014], [114.861086, 40.774172], [114.860557, 40.773402], [114.860366, 40.773126]]]}, "properties": {"display_name": "张家口市疾病预防控制中心, 西苑南路, 桥西区, 张家口市, 河北省, 075000, 中国", "type": "doctors", "osm_type": "way", "osm_id": 501869965, "class": null, "keyword": "市中心"}}, {"type": "Feature", "geometry": {"type": "Polygon", "coordinates": [[[114.899047, 40.817443], [114.899972, 40.817435], [114.899987, 40.817862], [114.89905, 40.817865], [114.899047, 40.817443]]]}, "properties": {"display_name": "张家口市中心血站, 林园路, 五一路街道, 桥东区, 张家口市, 河北省, 075000, 中国", "type": "hospital", "osm_type": "way", "osm_id": 958761119, "class": null, "keyword": "市中心"}}, {"type": "Feature", "geometry": {"type": "Polygon", "coordinates": [[[114.878805, 40.805872], [114.879603, 40.805867], [114.879601, 40.806152], [114.878811, 40.806154], [114.878805, 40.805872]]]}, "properties": {"display_name": "工业路社区健康服务中心, 商务南横街, 花园街街道, 桥东区, 张家口市, 河北省, 075000, 中国", "type": "hospital", "osm_type": "way", "osm_id": 959680139, "class": null, "keyword": "中心商務區"}}, {"type": "Feature", "geometry": {"type": "Polygon", "coordinates": [[[114.897087, 40.825073], [114.897088, 40.824934], [114.897722, 40.824938], [114.89772, 40.825077], [114.897087, 40.825073]]]}, "properties": {"display_name": "张家口市公安局经济犯罪举报中心, 林园路, 五一路街道, 桥东区, 张家口市, 河北省, 075000, 中国", "type": "office", "osm_type": "way", "osm_id": 1096196560, "class": null, "keyword": "市中心"}}, {"type": "Feature", "geometry": {"type": "Polygon", "coordinates": [[[114.887484, 40.788676], [114.887521, 40.788558], [114.88797, 40.788638], [114.887934, 40.788755], [114.887484, 40.788676]]]}, "properties": {"display_name": "张家口市食品药品检验中心, 胜利中路辅路, 红旗楼街道, 桥东区, 张家口市, 河北省, 075000, 中国", "type": "yes", "osm_type": "way", "osm_id": 1105969149, "class": null, "keyword": "市中心"}}, {"type": "Feature", "geometry": {"type": "Polygon", "coordinates": [[[114.867749, 40.799203], [114.868044, 40.799187], [114.86806, 40.799364], [114.867765, 40.79938], [114.867749, 40.799203]]]}, "properties": {"display_name": "金凤市政供热服务中心, 西苑北路, 天宝南苑社区, 南营坊街道, 桥西区, 张家口市, 河北省, 075000, 中国", "type": "industrial", "osm_type": "way", "osm_id": 1085801748, "class": null, "keyword": "市中心"}}, {"type": "Feature", "geometry": {"type": "Polygon", "coordinates": [[[114.875845, 40.806603], [114.875863, 40.806335], [114.876027, 40.806341], [114.876009, 40.806609], [114.875845, 40.806603]]]}, "properties": {"display_name": "张家口市夜景照明管理中心, 南菜园小巷, 花园街街道, 桥东区, 张家口市, 河北省, 075000, 中国", "type": "office", "osm_type": "way", "osm_id": 1088328058, "class": null, "keyword": "市中心"}}, {"type": "Feature", "geometry": {"type": "Polygon", "coordinates": [[[114.880936, 40.830584], [114.881103, 40.830558], [114.881164, 40.830784], [114.880996, 40.83081], [114.880936, 40.830584]]]}, "properties": {"display_name": "乡老砍饭店, 蒙古营大街, 中学街社区, 明德北街街道, 桥西区, 张家口市, 河北省, 075000, 中国", "type": "restaurant", "osm_type": "way", "osm_id": 1081095511, "class": null, "keyword": "老城区"}}, {"type": "Feature", "geometry": {"type": "Polygon", "coordinates": [[[114.883667, 40.803953], [114.883667, 40.803851], [114.883893, 40.803852], [114.883893, 40.80387], [114.883893, 40.803954], [114.883667, 40.803953]]]}, "properties": {"display_name": "张家口市社会保障卡便民服务中心, 建设东街, 花园街街道, 桥东区, 张家口市, 河北省, 075000, 中国", "type": "office", "osm_type": "way", "osm_id": 1088686372, "class": null, "keyword": "市中心"}}, {"type": "Feature", "geometry": {"type": "Polygon", "coordinates": [[[114.887726, 40.811668], [114.88773, 40.81136], [114.88778, 40.811361], [114.887774, 40.811667], [114.887726, 40.811668]]]}, "properties": {"display_name": "张家口市流浪未成年人保护中心, 德胜北街, 胜利北路街道, 桥东区, 张家口市, 河北省, 075000, 中国", "type": "office", "osm_type": "way", "osm_id": 1107298598, "class": null, "keyword": "市中心"}}]}