{"type": "FeatureCollection", "features": [{"type": "Feature", "geometry": {"type": "Polygon", "coordinates": [[[113.408234, 22.533821], [113.408461, 22.532389], [113.409066, 22.530957], [113.409799, 22.530005], [113.409671, 22.529315], [113.409509, 22.529137], [113.409424, 22.528914], [113.409461, 22.528722], [113.40978, 22.528057], [113.409877, 22.527611], [113.409873, 22.526739], [113.410456, 22.526726], [113.410564, 22.52663], [113.410936, 22.525771], [113.41117, 22.525422], [113.41124, 22.525216], [113.411541, 22.524798], [113.411728, 22.524582], [113.411734, 22.524362], [113.41169, 22.524012], [113.411472, 22.523656], [113.411472, 22.523559], [113.41163, 22.523447], [113.412632, 22.52376], [113.412862, 22.523788], [113.413174, 22.523712], [113.413923, 22.522772], [113.414264, 22.522302], [113.414458, 22.522462], [113.41453, 22.52279], [113.41522, 22.524336], [113.415368, 22.524476], [113.415431, 22.524478], [113.417437, 22.52207], [113.418098, 22.522221], [113.418272, 22.522248], [113.418367, 22.522172], [113.41839, 22.52162], [113.418312, 22.521304], [113.418126, 22.520633], [113.418164, 22.520453], [113.418587, 22.519534], [113.419055, 22.518436], [113.41974, 22.517692], [113.419976, 22.517526], [113.420368, 22.51728], [113.420455, 22.517092], [113.420381, 22.516699], [113.420558, 22.516322], [113.420965, 22.515125], [113.421116, 22.514863], [113.42128, 22.514782], [113.421406, 22.514777], [113.421663, 22.514922], [113.422578, 22.516238], [113.422714, 22.516315], [113.423352, 22.516547], [113.423473, 22.516638], [113.423567, 22.516851], [113.425854, 22.517824], [113.426433, 22.517528], [113.427037, 22.51725], [113.427684, 22.517156], [113.428244, 22.517369], [113.428578, 22.517572], [113.429482, 22.518687], [113.430709, 22.517127], [113.430794, 22.516811], [113.430778, 22.516649], [113.430588, 22.516568], [113.430518, 22.516388], [113.430573, 22.516106], [113.430824, 22.515628], [113.431297, 22.51491], [113.431462, 22.514627], [113.431523, 22.514288], [113.432431, 22.514288], [113.4333, 22.514078], [113.433943, 22.513834], [113.434586, 22.51317], [113.435471, 22.512508], [113.434306, 22.511984], [113.43421, 22.510232], [113.433852, 22.509849], [113.433697, 22.50933], [113.433804, 22.508397], [113.434246, 22.507721], [113.43451, 22.507232], [113.435834, 22.50814], [113.436325, 22.50821], [113.438027, 22.507581], [113.439015, 22.508024], [113.441052, 22.507337], [113.442408, 22.506182], [113.442732, 22.50613], [113.443076, 22.50622], [113.44336, 22.506307], [113.44474, 22.506811], [113.445047, 22.506643], [113.445287, 22.505136], [113.44545, 22.503762], [113.445769, 22.503615], [113.446206, 22.503738], [113.446248, 22.504444], [113.447366, 22.505171], [113.447638, 22.505798], [113.447598, 22.50614], [113.447314, 22.506288], [113.446976, 22.506215], [113.446691, 22.506301], [113.446544, 22.506514], [113.446648, 22.506718], [113.447241, 22.506628], [113.447506, 22.506981], [113.447918, 22.506238], [113.447937, 22.505558], [113.447682, 22.504443], [113.447141, 22.503736], [113.447987, 22.503143], [113.449478, 22.502372], [113.44912, 22.5021], [113.448458, 22.502273], [113.448065, 22.501978], [113.448011, 22.50162], [113.448531, 22.501399], [113.449007, 22.500841], [113.449645, 22.500832], [113.449704, 22.50065], [113.449611, 22.500491], [113.449027, 22.500501], [113.448752, 22.500333], [113.448163, 22.500881], [113.447746, 22.500968], [113.447452, 22.500846], [113.447015, 22.500515], [113.447437, 22.500106], [113.447916, 22.499809], [113.448833, 22.498332], [113.449206, 22.497819], [113.449183, 22.497178], [113.448917, 22.496733], [113.450308, 22.49641], [113.451286, 22.496442], [113.452166, 22.496146], [113.452362, 22.49601], [113.452328, 22.495846], [113.45334, 22.495633], [113.453758, 22.495196], [113.454711, 22.495142], [113.455702, 22.495522], [113.455968, 22.494396], [113.455639, 22.494382], [113.455339, 22.493651], [113.455714, 22.492918], [113.456643, 22.493055], [113.45816, 22.493878], [113.458765, 22.494587], [113.460215, 22.495856], [113.462003, 22.496996], [113.463257, 22.497254], [113.464415, 22.49833], [113.465285, 22.499972], [113.465058, 22.501509], [113.467478, 22.503465], [113.468509, 22.504481], [113.470739, 22.505669], [113.472441, 22.506402], [113.473122, 22.507066], [113.474029, 22.507136], [113.474748, 22.508044], [113.475655, 22.508079], [113.475655, 22.508743], [113.476184, 22.509232], [113.477054, 22.509476], [113.477967, 22.510085], [113.47878, 22.510847], [113.478314, 22.511552], [113.478456, 22.512155], [113.478863, 22.512502], [113.479415, 22.512491], [113.480095, 22.51225], [113.480198, 22.51304], [113.481251, 22.513773], [113.481213, 22.514401], [113.48197, 22.514925], [113.481702, 22.515174], [113.481253, 22.515107], [113.480797, 22.514786], [113.480234, 22.514755], [113.479941, 22.515082], [113.47989, 22.516148], [113.479512, 22.516707], [113.479323, 22.517196], [113.478821, 22.517678], [113.478982, 22.518139], [113.478869, 22.518802], [113.478302, 22.519361], [113.478203, 22.51951], [113.477271, 22.519462], [113.476395, 22.520061], [113.476903, 22.521247], [113.476827, 22.521806], [113.475844, 22.522156], [113.475731, 22.523169], [113.477054, 22.524775], [113.476346, 22.525641], [113.476587, 22.526809], [113.477054, 22.527499], [113.477012, 22.528138], [113.476847, 22.528283], [113.475435, 22.528266], [113.475309, 22.529428], [113.476892, 22.529661], [113.476869, 22.530036], [113.47746, 22.530111], [113.477486, 22.529797], [113.480041, 22.530119], [113.483671, 22.526172], [113.484622, 22.526809], [113.484452, 22.527123], [113.484054, 22.526842], [113.483076, 22.527651], [113.483671, 22.530398], [113.485221, 22.530782], [113.487036, 22.532773], [113.487566, 22.533088], [113.487755, 22.533821], [113.489645, 22.533821], [113.490137, 22.533437], [113.491196, 22.533611], [113.492179, 22.534484], [113.492935, 22.535078], [113.494334, 22.536091], [113.495392, 22.535847], [113.496111, 22.53438], [113.496149, 22.533716], [113.496943, 22.532284], [113.497434, 22.532529], [113.498039, 22.533157], [113.498947, 22.533297], [113.499363, 22.533786], [113.500081, 22.533995], [113.500913, 22.533821], [113.501102, 22.53431], [113.501934, 22.533995], [113.503295, 22.534484], [113.505526, 22.535916], [113.506509, 22.537104], [113.507001, 22.538605], [113.506585, 22.539653], [113.506887, 22.540352], [113.506396, 22.541434], [113.50666, 22.542168], [113.507984, 22.542901], [113.508702, 22.543809], [113.510328, 22.543879], [113.510668, 22.542971], [113.512219, 22.542656], [113.51237, 22.541294], [113.512975, 22.539304], [113.51392, 22.539793], [113.514449, 22.540631], [113.515584, 22.541784], [113.516113, 22.541888], [113.515886, 22.541155], [113.515055, 22.539793], [113.514903, 22.539129], [113.51513, 22.538605], [113.51842, 22.540875], [113.518684, 22.540561], [113.514676, 22.537383], [113.514979, 22.536475], [113.516113, 22.535986], [113.517247, 22.536266], [113.517626, 22.537069], [113.519176, 22.537453], [113.520159, 22.539548], [113.52084, 22.539758], [113.522012, 22.540526], [113.524129, 22.541294], [113.524566, 22.541831], [113.52428, 22.542307], [113.525906, 22.544926], [113.526245, 22.54494], [113.526625, 22.544647], [113.526066, 22.543815], [113.526333, 22.543614], [113.526628, 22.542797], [113.526786, 22.542776], [113.526818, 22.543206], [113.526953, 22.543154], [113.527211, 22.542804], [113.527367, 22.542854], [113.527283, 22.543245], [113.52727, 22.543611], [113.526687, 22.543851], [113.527138, 22.544554], [113.527041, 22.544926], [113.526095, 22.545485], [113.526243, 22.546335], [113.526644, 22.546965], [113.527057, 22.54721], [113.529536, 22.546393], [113.530103, 22.548907], [113.532486, 22.548907], [113.533166, 22.548069], [113.533998, 22.54786], [113.534376, 22.548244], [113.535359, 22.54779], [113.53517, 22.546917], [113.53638, 22.546568], [113.537098, 22.546638], [113.537477, 22.545939], [113.538535, 22.546009], [113.538762, 22.547196], [113.5388, 22.548384], [113.540615, 22.549781], [113.541447, 22.54985], [113.543186, 22.55006], [113.543489, 22.551038], [113.543461, 22.55145], [113.543375, 22.552749], [113.543904, 22.553238], [113.543904, 22.554215], [113.545001, 22.554914], [113.545871, 22.555577], [113.547459, 22.555472], [113.549349, 22.554984], [113.551202, 22.555682], [113.551089, 22.556834], [113.550295, 22.557917], [113.551353, 22.557847], [113.551996, 22.558964], [113.552526, 22.559907], [113.553736, 22.560361], [113.554265, 22.561688], [113.555324, 22.563015], [113.557403, 22.561548], [113.559105, 22.561478], [113.560731, 22.56085], [113.56213, 22.560606], [113.563037, 22.561059], [113.565306, 22.561164], [113.566743, 22.562386], [113.567083, 22.563224], [113.566138, 22.564691], [113.566327, 22.565564], [113.568028, 22.566605], [113.565376, 22.569548], [113.557277, 22.574236], [113.552165, 22.580473], [113.545055, 22.57905], [113.524094, 22.578712], [113.511269, 22.576885], [113.487816, 22.574855], [113.479901, 22.574449], [113.477106, 22.5752], [113.474111, 22.576005], [113.470081, 22.578858], [113.467515, 22.580675], [113.465754, 22.577847], [113.4628, 22.578812], [113.462164, 22.578141], [113.460619, 22.577847], [113.460482, 22.576798], [113.457428, 22.577524], [113.449894, 22.579316], [113.447165, 22.579643], [113.44351, 22.580128], [113.438632, 22.580026], [113.437484, 22.579746], [113.433066, 22.579476], [113.430443, 22.580113], [113.42545, 22.581331], [113.422651, 22.58194], [113.419811, 22.582231], [113.421064, 22.576424], [113.420354, 22.576463], [113.4184, 22.576085], [113.416648, 22.574611], [113.415875, 22.57393], [113.416099, 22.572686], [113.415721, 22.57122], [113.415318, 22.565822], [113.414057, 22.560291], [113.413641, 22.554425], [113.413528, 22.55198], [113.412778, 22.544777], [113.412809, 22.543809], [113.412129, 22.542866], [113.412053, 22.540875], [113.411599, 22.539129], [113.411637, 22.538466], [113.411902, 22.537872], [113.410049, 22.536021], [113.409406, 22.53637], [113.409558, 22.535706], [113.40908, 22.534992], [113.408877, 22.534554], [113.409142, 22.5341], [113.40871, 22.533849], [113.408612, 22.533471], [113.408234, 22.533821]]]}, "properties": {"display_name": "中山港街道, 中山市, 广东省, 中国", "type": "administrative", "osm_type": "relation", "osm_id": 5668305, "class": null, "keyword": "subdistrict"}}, {"type": "Feature", "geometry": {"type": "Polygon", "coordinates": [[[113.361738, 22.491809], [113.362336, 22.49175], [113.36337, 22.491078], [113.364244, 22.489172], [113.364107, 22.486291], [113.363725, 22.486004], [113.363589, 22.484731], [113.363739, 22.484596], [113.363312, 22.483717], [113.364154, 22.482544], [113.36453, 22.482772], [113.365249, 22.48211], [113.367047, 22.48082], [113.367675, 22.481055], [113.36838, 22.481142], [113.368843, 22.480404], [113.369675, 22.480168], [113.370608, 22.479103], [113.371407, 22.478826], [113.371606, 22.478042], [113.371862, 22.477268], [113.372122, 22.476617], [113.371582, 22.475985], [113.371123, 22.475409], [113.369932, 22.474937], [113.369353, 22.474509], [113.369217, 22.47368], [113.368598, 22.473233], [113.36744, 22.471989], [113.367513, 22.471254], [113.366332, 22.470253], [113.366168, 22.469707], [113.366029, 22.46895], [113.364924, 22.467005], [113.364655, 22.466567], [113.364628, 22.466263], [113.364879, 22.465465], [113.365587, 22.464796], [113.366391, 22.464611], [113.366922, 22.464795], [113.36734, 22.464931], [113.368229, 22.464885], [113.369285, 22.464673], [113.370631, 22.464765], [113.37191, 22.465219], [113.374109, 22.465492], [113.37529, 22.465917], [113.375777, 22.465128], [113.37631, 22.464194], [113.376862, 22.462911], [113.377752, 22.462429], [113.378107, 22.461821], [113.378251, 22.461583], [113.378921, 22.460477], [113.378824, 22.459063], [113.379064, 22.458711], [113.379178, 22.458543], [113.379674, 22.457753], [113.380146, 22.457362], [113.380298, 22.457043], [113.380384, 22.456481], [113.381897, 22.457499], [113.382175, 22.457971], [113.382867, 22.458321], [113.384159, 22.460346], [113.384983, 22.460802], [113.385911, 22.460952], [113.387509, 22.460506], [113.387486, 22.461263], [113.387221, 22.461941], [113.38638, 22.462901], [113.386071, 22.463708], [113.386675, 22.464246], [113.386568, 22.464979], [113.385797, 22.466431], [113.38563, 22.467264], [113.385565, 22.46759], [113.386177, 22.467885], [113.386627, 22.468274], [113.387112, 22.469015], [113.388, 22.469744], [113.389067, 22.470644], [113.38909, 22.471352], [113.389577, 22.472102], [113.39025, 22.472446], [113.390645, 22.473175], [113.390537, 22.473548], [113.391867, 22.474805], [113.392094, 22.475378], [113.391937, 22.475872], [113.392208, 22.476182], [113.392834, 22.476733], [113.393708, 22.478406], [113.39394, 22.47935], [113.394474, 22.479779], [113.394871, 22.479868], [113.395128, 22.480657], [113.3951, 22.481344], [113.393996, 22.481968], [113.393517, 22.481937], [113.393338, 22.482082], [113.393754, 22.482445], [113.393602, 22.483109], [113.393615, 22.484367], [113.394148, 22.486181], [113.393675, 22.487082], [113.393838, 22.487385], [113.394687, 22.487483], [113.395242, 22.48725], [113.396098, 22.487755], [113.396446, 22.48694], [113.39633, 22.48649], [113.396794, 22.486061], [113.399788, 22.486147], [113.400437, 22.48664], [113.400925, 22.486769], [113.401342, 22.487154], [113.401853, 22.488055], [113.403542, 22.488513], [113.403905, 22.488675], [113.404127, 22.488924], [113.404164, 22.489157], [113.40428, 22.489401], [113.404411, 22.489743], [113.40443, 22.48987], [113.404527, 22.490412], [113.404421, 22.491361], [113.404516, 22.491563], [113.404985, 22.491813], [113.405137, 22.491703], [113.405413, 22.491157], [113.405664, 22.490742], [113.405907, 22.490589], [113.406063, 22.490733], [113.406168, 22.49128], [113.406268, 22.491403], [113.406441, 22.491367], [113.40666, 22.491117], [113.406925, 22.491256], [113.40696, 22.491397], [113.406545, 22.491975], [113.406317, 22.492103], [113.406821, 22.493597], [113.406526, 22.493655], [113.406225, 22.494012], [113.40839, 22.495518], [113.408445, 22.495793], [113.408611, 22.495927], [113.409041, 22.495943], [113.409541, 22.496042], [113.409574, 22.496049], [113.409862, 22.496053], [113.41002, 22.496009], [113.410173, 22.495888], [113.41013, 22.495718], [113.409677, 22.49541], [113.409721, 22.495259], [113.41065, 22.49518], [113.41076, 22.495174], [113.410904, 22.495838], [113.410964, 22.49603], [113.411042, 22.496392], [113.411116, 22.496952], [113.411504, 22.497128], [113.411847, 22.49688], [113.412416, 22.496914], [113.413042, 22.49721], [113.413267, 22.497095], [113.413251, 22.496844], [113.413029, 22.496238], [113.412841, 22.495712], [113.412778, 22.495585], [113.41288, 22.495302], [113.412911, 22.4947], [113.412837, 22.494533], [113.412342, 22.49422], [113.412863, 22.492557], [113.414203, 22.49238], [113.414948, 22.492049], [113.415634, 22.491754], [113.416141, 22.491297], [113.416618, 22.490954], [113.41711, 22.490599], [113.417366, 22.490445], [113.417655, 22.490563], [113.417771, 22.490285], [113.418444, 22.489856], [113.418514, 22.48947], [113.42095, 22.489406], [113.421113, 22.489106], [113.42037, 22.48887], [113.420138, 22.48857], [113.420416, 22.488291], [113.421066, 22.488205], [113.421832, 22.487433], [113.422969, 22.487262], [113.423363, 22.486854], [113.423572, 22.48619], [113.424477, 22.485696], [113.425266, 22.484796], [113.426542, 22.483295], [113.426384, 22.482468], [113.426223, 22.481362], [113.424848, 22.4798], [113.424477, 22.478793], [113.423085, 22.478535], [113.420798, 22.477356], [113.419767, 22.476841], [113.419257, 22.476399], [113.419013, 22.475012], [113.418529, 22.474566], [113.416552, 22.473377], [113.416324, 22.472651], [113.416236, 22.471403], [113.416041, 22.470497], [113.417414, 22.469433], [113.417394, 22.468592], [113.41755, 22.468399], [113.418239, 22.468458], [113.419154, 22.467837], [113.42012, 22.467718], [113.420252, 22.467574], [113.419575, 22.467158], [113.420625, 22.465728], [113.423352, 22.463572], [113.425474, 22.46242], [113.425745, 22.461189], [113.425533, 22.460973], [113.424593, 22.460287], [113.424106, 22.459344], [113.423851, 22.459], [113.422982, 22.458335], [113.42191, 22.458647], [113.421186, 22.459285], [113.420499, 22.459503], [113.419775, 22.459427], [113.419349, 22.459002], [113.418579, 22.457526], [113.418096, 22.456599], [113.417851, 22.45632], [113.417584, 22.455896], [113.417103, 22.454704], [113.416867, 22.454284], [113.416405, 22.454109], [113.415048, 22.453994], [113.414725, 22.453659], [113.414941, 22.453169], [113.415589, 22.452939], [113.416141, 22.452234], [113.416601, 22.451525], [113.417411, 22.450653], [113.418363, 22.448861], [113.419209, 22.447243], [113.419629, 22.446019], [113.419898, 22.445755], [113.419965, 22.444751], [113.420513, 22.443948], [113.420365, 22.443473], [113.420459, 22.442711], [113.420718, 22.442616], [113.421136, 22.442551], [113.421821, 22.44246], [113.42231, 22.442342], [113.422899, 22.442466], [113.42392, 22.441801], [113.423879, 22.440893], [113.424624, 22.440847], [113.42506, 22.440524], [113.425568, 22.440278], [113.426148, 22.440493], [113.426522, 22.440919], [113.426613, 22.442172], [113.42664, 22.442806], [113.42686, 22.442908], [113.427722, 22.443052], [113.428366, 22.443225], [113.428627, 22.443982], [113.428466, 22.44526], [113.42847, 22.445655], [113.429178, 22.445937], [113.429492, 22.446939], [113.43, 22.447398], [113.430878, 22.447658], [113.431148, 22.448041], [113.431607, 22.448228], [113.431467, 22.449076], [113.431616, 22.449388], [113.431971, 22.449883], [113.432189, 22.450972], [113.432981, 22.451325], [113.433683, 22.452098], [113.434326, 22.45236], [113.435324, 22.452537], [113.436002, 22.452043], [113.436028, 22.451982], [113.43599, 22.451726], [113.436092, 22.451495], [113.435767, 22.451426], [113.435963, 22.451175], [113.436119, 22.451051], [113.436068, 22.450867], [113.435611, 22.450908], [113.435094, 22.450805], [113.435116, 22.450696], [113.435793, 22.450206], [113.43599, 22.449848], [113.436175, 22.449868], [113.43646, 22.45024], [113.436736, 22.450363], [113.437538, 22.450277], [113.43785, 22.450175], [113.437972, 22.450064], [113.437847, 22.449944], [113.437134, 22.449889], [113.436823, 22.449801], [113.436724, 22.449599], [113.436474, 22.449403], [113.436207, 22.449291], [113.436025, 22.449068], [113.435972, 22.448853], [113.435992, 22.448641], [113.436079, 22.448453], [113.436047, 22.448266], [113.43609, 22.448201], [113.436548, 22.448017], [113.436679, 22.44791], [113.436635, 22.447808], [113.43579, 22.447694], [113.435578, 22.447509], [113.435685, 22.447087], [113.436288, 22.447055], [113.437205, 22.446666], [113.439512, 22.446154], [113.440512, 22.446455], [113.441695, 22.44594], [113.443064, 22.445146], [113.443574, 22.443712], [113.443649, 22.44335], [113.443402, 22.442984], [113.443667, 22.442354], [113.443043, 22.44136], [113.443155, 22.440856], [113.443668, 22.440621], [113.443714, 22.440171], [113.445315, 22.439291], [113.44564, 22.439163], [113.445756, 22.438669], [113.446823, 22.43734], [113.44738, 22.437211], [113.448355, 22.437618], [113.449469, 22.438348], [113.449469, 22.438991], [113.450118, 22.440106], [113.450745, 22.440385], [113.451743, 22.441736], [113.452996, 22.442766], [113.453089, 22.443474], [113.453358, 22.445249], [113.453019, 22.446069], [113.453274, 22.446605], [113.453942, 22.446874], [113.45396, 22.447139], [113.45331, 22.447462], [113.453065, 22.44784], [113.453012, 22.448371], [113.453149, 22.448706], [113.451682, 22.449288], [113.451191, 22.44924], [113.450595, 22.448761], [113.44928, 22.448659], [113.448713, 22.448951], [113.448521, 22.449497], [113.44844, 22.450018], [113.449399, 22.451152], [113.449469, 22.452674], [113.450072, 22.453146], [113.450188, 22.453746], [113.451209, 22.454175], [113.452624, 22.455848], [113.452833, 22.456749], [113.452764, 22.457456], [113.453158, 22.457885], [113.454063, 22.456942], [113.454759, 22.456663], [113.455084, 22.456148], [113.454968, 22.454111], [113.455641, 22.453596], [113.456355, 22.452915], [113.457874, 22.452511], [113.458486, 22.452122], [113.459251, 22.451819], [113.459494, 22.451715], [113.459609, 22.451481], [113.459461, 22.451121], [113.459181, 22.450796], [113.459109, 22.450531], [113.45916, 22.450376], [113.459346, 22.450133], [113.459517, 22.45002], [113.459999, 22.449855], [113.46028, 22.449646], [113.460119, 22.449194], [113.460211, 22.44828], [113.460962, 22.448169], [113.461399, 22.446999], [113.462104, 22.446747], [113.462401, 22.446976], [113.463115, 22.446537], [113.46309, 22.445744], [113.463317, 22.445553], [113.463825, 22.445245], [113.464002, 22.444997], [113.464003, 22.444879], [113.46391, 22.444756], [113.463342, 22.444582], [113.463322, 22.444326], [113.463771, 22.444002], [113.464683, 22.444093], [113.465011, 22.444016], [113.465618, 22.44374], [113.466491, 22.443167], [113.466887, 22.443948], [113.467849, 22.44435], [113.468821, 22.444954], [113.469146, 22.44564], [113.46968, 22.445919], [113.470698, 22.445864], [113.470049, 22.446968], [113.468385, 22.447737], [113.468423, 22.448122], [113.468914, 22.448401], [113.469708, 22.448855], [113.474321, 22.450794], [113.474746, 22.451717], [113.474586, 22.452385], [113.474431, 22.452672], [113.473868, 22.453713], [113.473301, 22.454132], [113.473641, 22.454936], [113.474208, 22.45553], [113.474246, 22.456019], [113.47396, 22.456727], [113.474851, 22.456613], [113.4778, 22.457906], [113.4777, 22.458808], [113.477115, 22.460038], [113.478238, 22.461794], [113.478689, 22.46233], [113.478502, 22.463088], [113.479451, 22.463221], [113.479671, 22.463828], [113.480228, 22.464223], [113.481211, 22.464316], [113.480031, 22.465803], [113.479974, 22.466292], [113.479918, 22.466782], [113.479577, 22.467131], [113.478821, 22.467166], [113.478934, 22.4679], [113.479502, 22.467935], [113.479804, 22.468598], [113.480523, 22.468424], [113.481128, 22.468703], [113.481052, 22.469227], [113.482224, 22.47087], [113.483358, 22.471044], [113.484795, 22.472337], [113.484758, 22.473385], [113.484379, 22.47384], [113.484379, 22.474434], [113.483963, 22.474783], [113.484606, 22.475587], [113.484379, 22.476111], [113.483321, 22.47674], [113.482413, 22.476425], [113.481279, 22.477229], [113.480296, 22.477473], [113.479577, 22.477962], [113.479691, 22.478941], [113.479464, 22.47964], [113.480296, 22.479849], [113.480107, 22.480967], [113.480901, 22.481911], [113.48056, 22.482889], [113.480523, 22.484181], [113.481128, 22.484915], [113.481203, 22.485544], [113.481052, 22.486417], [113.48022, 22.486557], [113.478103, 22.488723], [113.477346, 22.488723], [113.476628, 22.487885], [113.476136, 22.487745], [113.475796, 22.488024], [113.475078, 22.488374], [113.474624, 22.489527], [113.474095, 22.489562], [113.473603, 22.489352], [113.473414, 22.489771], [113.472544, 22.490121], [113.472053, 22.491763], [113.472393, 22.492636], [113.472431, 22.493894], [113.472809, 22.494627], [113.472166, 22.495081], [113.472544, 22.496374], [113.472235, 22.496841], [113.471826, 22.497457], [113.472015, 22.49826], [113.471448, 22.498819], [113.471297, 22.499518], [113.470578, 22.500775], [113.469746, 22.501125], [113.469255, 22.502382], [113.467478, 22.503465], [113.465058, 22.501509], [113.465285, 22.499972], [113.464415, 22.49833], [113.463257, 22.497254], [113.462003, 22.496996], [113.460215, 22.495856], [113.458765, 22.494587], [113.45816, 22.493878], [113.456643, 22.493055], [113.455714, 22.492918], [113.455339, 22.493651], [113.455639, 22.494382], [113.455968, 22.494396], [113.455702, 22.495522], [113.454711, 22.495142], [113.453758, 22.495196], [113.45334, 22.495633], [113.452328, 22.495846], [113.452362, 22.49601], [113.452166, 22.496146], [113.451286, 22.496442], [113.450308, 22.49641], [113.448917, 22.496733], [113.449183, 22.497178], [113.449206, 22.497819], [113.448833, 22.498332], [113.447916, 22.499809], [113.447437, 22.500106], [113.447015, 22.500515], [113.447452, 22.500846], [113.447746, 22.500968], [113.448163, 22.500881], [113.448752, 22.500333], [113.449027, 22.500501], [113.449611, 22.500491], [113.449704, 22.50065], [113.449645, 22.500832], [113.449007, 22.500841], [113.448531, 22.501399], [113.448011, 22.50162], [113.448065, 22.501978], [113.448458, 22.502273], [113.44912, 22.5021], [113.449478, 22.502372], [113.447987, 22.503143], [113.447141, 22.503736], [113.447682, 22.504443], [113.447937, 22.505558], [113.447918, 22.506238], [113.447506, 22.506981], [113.447241, 22.506628], [113.446648, 22.506718], [113.446544, 22.506514], [113.446691, 22.506301], [113.446976, 22.506215], [113.447314, 22.506288], [113.447598, 22.50614], [113.447638, 22.505798], [113.447366, 22.505171], [113.446248, 22.504444], [113.446206, 22.503738], [113.445769, 22.503615], [113.44545, 22.503762], [113.445287, 22.505136], [113.445047, 22.506643], [113.44474, 22.506811], [113.44336, 22.506307], [113.443076, 22.50622], [113.442732, 22.50613], [113.442408, 22.506182], [113.441052, 22.507337], [113.439015, 22.508024], [113.438027, 22.507581], [113.436325, 22.50821], [113.435834, 22.50814], [113.43451, 22.507232], [113.434246, 22.507721], [113.433804, 22.508397], [113.433697, 22.50933], [113.433852, 22.509849], [113.43421, 22.510232], [113.434306, 22.511984], [113.435471, 22.512508], [113.434586, 22.51317], [113.433943, 22.513834], [113.4333, 22.514078], [113.432431, 22.514288], [113.431523, 22.514288], [113.431462, 22.514627], [113.431297, 22.51491], [113.430824, 22.515628], [113.430573, 22.516106], [113.430518, 22.516388], [113.430588, 22.516568], [113.430778, 22.516649], [113.430794, 22.516811], [113.430709, 22.517127], [113.429482, 22.518687], [113.428578, 22.517572], [113.428244, 22.517369], [113.427684, 22.517156], [113.427037, 22.51725], [113.426433, 22.517528], [113.425854, 22.517824], [113.423567, 22.516851], [113.423473, 22.516638], [113.423352, 22.516547], [113.422714, 22.516315], [113.422578, 22.516238], [113.421663, 22.514922], [113.421406, 22.514777], [113.42128, 22.514782], [113.421116, 22.514863], [113.420965, 22.515125], [113.420558, 22.516322], [113.420381, 22.516699], [113.420455, 22.517092], [113.420368, 22.51728], [113.419976, 22.517526], [113.41974, 22.517692], [113.419055, 22.518436], [113.418587, 22.519534], [113.418164, 22.520453], [113.418126, 22.520633], [113.418312, 22.521304], [113.41839, 22.52162], [113.418367, 22.522172], [113.418272, 22.522248], [113.418098, 22.522221], [113.417437, 22.52207], [113.415431, 22.524478], [113.415368, 22.524476], [113.41522, 22.524336], [113.41453, 22.52279], [113.414458, 22.522462], [113.414264, 22.522302], [113.413923, 22.522772], [113.413174, 22.523712], [113.412862, 22.523788], [113.412632, 22.52376], [113.41163, 22.523447], [113.411472, 22.523559], [113.411472, 22.523656], [113.41169, 22.524012], [113.411734, 22.524362], [113.411728, 22.524582], [113.411541, 22.524798], [113.41124, 22.525216], [113.41117, 22.525422], [113.410936, 22.525771], [113.410564, 22.52663], [113.410456, 22.526726], [113.409873, 22.526739], [113.409877, 22.527611], [113.40978, 22.528057], [113.409461, 22.528722], [113.409424, 22.528914], [113.409509, 22.529137], [113.409671, 22.529315], [113.409799, 22.530005], [113.409066, 22.530957], [113.408461, 22.532389], [113.408234, 22.533821], [113.408612, 22.533471], [113.40871, 22.533849], [113.409142, 22.5341], [113.408877, 22.534554], [113.40908, 22.534992], [113.409558, 22.535706], [113.409406, 22.53637], [113.410049, 22.536021], [113.411902, 22.537872], [113.411637, 22.538466], [113.411599, 22.539129], [113.412053, 22.540875], [113.412129, 22.542866], [113.412809, 22.543809], [113.412778, 22.544777], [113.413528, 22.55198], [113.413641, 22.554425], [113.414057, 22.560291], [113.415318, 22.565822], [113.415721, 22.57122], [113.416099, 22.572686], [113.415875, 22.57393], [113.416648, 22.574611], [113.415409, 22.575469], [113.415029, 22.575217], [113.414361, 22.575945], [113.412081, 22.573293], [113.410815, 22.574136], [113.411256, 22.574828], [113.410432, 22.575402], [113.41103, 22.576137], [113.4095, 22.57713], [113.409343, 22.577043], [113.409176, 22.577074], [113.408921, 22.576759], [113.407691, 22.573967], [113.407766, 22.573633], [113.407329, 22.573063], [113.406959, 22.572991], [113.406597, 22.572467], [113.406371, 22.57253], [113.40563, 22.571763], [113.401862, 22.565802], [113.401589, 22.565585], [113.4013, 22.565386], [113.400899, 22.56526], [113.400598, 22.565214], [113.400192, 22.565303], [113.399896, 22.565463], [113.399482, 22.565945], [113.398823, 22.564901], [113.398183, 22.564916], [113.397803, 22.565042], [113.396663, 22.56309], [113.396282, 22.563164], [113.39604, 22.562819], [113.397295, 22.562561], [113.397701, 22.562425], [113.397715, 22.561636], [113.397905, 22.561278], [113.398244, 22.56106], [113.399389, 22.561325], [113.400013, 22.561387], [113.399856, 22.56044], [113.399634, 22.559101], [113.399245, 22.555961], [113.398742, 22.551175], [113.398386, 22.549796], [113.397472, 22.54786], [113.395202, 22.543874], [113.394863, 22.543086], [113.394685, 22.54226], [113.39456, 22.540312], [113.39444, 22.538224], [113.394353, 22.532668], [113.394345, 22.53228], [113.394302, 22.530432], [113.394203, 22.529575], [113.393903, 22.529122], [113.393092, 22.526669], [113.392907, 22.52575], [113.392989, 22.524772], [113.39308, 22.524002], [113.393646, 22.522126], [113.392557, 22.521826], [113.390945, 22.521551], [113.390305, 22.521539], [113.387862, 22.52239], [113.385346, 22.522509], [113.384247, 22.522521], [113.382514, 22.522508], [113.380624, 22.522893], [113.379876, 22.523293], [113.37848, 22.524244], [113.377766, 22.521781], [113.377253, 22.520359], [113.375938, 22.516715], [113.375687, 22.516242], [113.375611, 22.515981], [113.375517, 22.515659], [113.374662, 22.512054], [113.373382, 22.507034], [113.372974, 22.506532], [113.362893, 22.501469], [113.362928, 22.500616], [113.362896, 22.49455], [113.362835, 22.494192], [113.362707, 22.493548], [113.36239, 22.492828], [113.362138, 22.492364], [113.361738, 22.491809]]]}, "properties": {"display_name": "东区街道, 中山市, 广东省, 528403, 中国", "type": "administrative", "osm_type": "relation", "osm_id": 5668290, "class": null, "keyword": "subdistrict"}}, {"type": "Feature", "geometry": {"type": "Polygon", "coordinates": [[[113.292078, 22.455177], [113.29211, 22.447841], [113.29301, 22.44407], [113.295259, 22.438783], [113.297894, 22.430733], [113.303077, 22.426018], [113.304561, 22.428203], [113.306045, 22.430897], [113.307145, 22.432015], [113.309234, 22.432625], [113.310938, 22.433641], [113.311744, 22.433817], [113.312257, 22.433826], [113.312693, 22.433646], [113.313227, 22.433524], [113.314145, 22.433489], [113.315023, 22.4333], [113.314969, 22.432851], [113.314851, 22.432187], [113.314738, 22.431075], [113.315012, 22.43088], [113.315597, 22.430988], [113.316534, 22.43151], [113.317692, 22.432539], [113.318379, 22.433158], [113.319954, 22.433285], [113.320449, 22.433793], [113.320256, 22.434479], [113.32146, 22.435006], [113.323253, 22.432015], [113.323638, 22.429626], [113.324407, 22.428102], [113.325947, 22.427187], [113.327486, 22.426984], [113.328311, 22.425307], [113.330455, 22.424392], [113.331994, 22.424595], [113.333589, 22.424341], [113.336612, 22.425358], [113.336942, 22.424291], [113.336942, 22.423071], [113.335568, 22.420835], [113.335513, 22.419717], [113.334963, 22.418395], [113.336227, 22.417328], [113.335898, 22.415295], [113.336172, 22.413516], [113.336997, 22.412297], [113.338097, 22.411839], [113.338756, 22.412042], [113.340186, 22.411788], [113.341175, 22.411941], [113.34178, 22.411128], [113.34266, 22.411026], [113.343649, 22.411331], [113.344694, 22.410264], [113.345024, 22.409247], [113.345793, 22.408637], [113.346178, 22.407163], [113.347717, 22.408383], [113.349862, 22.408332], [113.351676, 22.409247], [113.353765, 22.409654], [113.355414, 22.409908], [113.357998, 22.409349], [113.358933, 22.408942], [113.358823, 22.407773], [113.359812, 22.407977], [113.359977, 22.409196], [113.360637, 22.409501], [113.360857, 22.410264], [113.361177, 22.410374], [113.36113, 22.410934], [113.36065, 22.411014], [113.360474, 22.411885], [113.360506, 22.412671], [113.360485, 22.413454], [113.360683, 22.41429], [113.358877, 22.41405], [113.358111, 22.413725], [113.356569, 22.41321], [113.355322, 22.413786], [113.354764, 22.413665], [113.354403, 22.413938], [113.353976, 22.413695], [113.35286, 22.41418], [113.352631, 22.414726], [113.35227, 22.415212], [113.351843, 22.415454], [113.351548, 22.416486], [113.351679, 22.417123], [113.35158, 22.417912], [113.350957, 22.41867], [113.350453, 22.418803], [113.349774, 22.419243], [113.350334, 22.420134], [113.3507, 22.422524], [113.351106, 22.42512], [113.351659, 22.425922], [113.351959, 22.427553], [113.351442, 22.427401], [113.35103, 22.427609], [113.350726, 22.427944], [113.350233, 22.428991], [113.349297, 22.430483], [113.349156, 22.431615], [113.349139, 22.432967], [113.349247, 22.433508], [113.349759, 22.433998], [113.350748, 22.435627], [113.351365, 22.436126], [113.350816, 22.437169], [113.350744, 22.437824], [113.350334, 22.438203], [113.350251, 22.438764], [113.349449, 22.440079], [113.348544, 22.440829], [113.349959, 22.441409], [113.352025, 22.442953], [113.35402, 22.443617], [113.354739, 22.443617], [113.355807, 22.443382], [113.356225, 22.44484], [113.355784, 22.445097], [113.356364, 22.445848], [113.356016, 22.446641], [113.356039, 22.447971], [113.355644, 22.44885], [113.355877, 22.449601], [113.357153, 22.45121], [113.357547, 22.452432], [113.358754, 22.452453], [113.360541, 22.453161], [113.363325, 22.453805], [113.364216, 22.452658], [113.364755, 22.451598], [113.365257, 22.452248], [113.365989, 22.452667], [113.366899, 22.453204], [113.367813, 22.453053], [113.368741, 22.453053], [113.369782, 22.452638], [113.370611, 22.45314], [113.371408, 22.453272], [113.372236, 22.453912], [113.372561, 22.454255], [113.373187, 22.454792], [113.373359, 22.455298], [113.374154, 22.455392], [113.375163, 22.455183], [113.375635, 22.455354], [113.376256, 22.455478], [113.376784, 22.455585], [113.37745, 22.455308], [113.378358, 22.455256], [113.379035, 22.455692], [113.379336, 22.455949], [113.379847, 22.456206], [113.380384, 22.456481], [113.380298, 22.457043], [113.380146, 22.457362], [113.379674, 22.457753], [113.379178, 22.458543], [113.379064, 22.458711], [113.378824, 22.459063], [113.378921, 22.460477], [113.378251, 22.461583], [113.378107, 22.461821], [113.377752, 22.462429], [113.376862, 22.462911], [113.37631, 22.464194], [113.375777, 22.465128], [113.37529, 22.465917], [113.374109, 22.465492], [113.37191, 22.465219], [113.370631, 22.464765], [113.369285, 22.464673], [113.368229, 22.464885], [113.36734, 22.464931], [113.366922, 22.464795], [113.366391, 22.464611], [113.365587, 22.464796], [113.364879, 22.465465], [113.364628, 22.466263], [113.364655, 22.466567], [113.364924, 22.467005], [113.366029, 22.46895], [113.366168, 22.469707], [113.366332, 22.470253], [113.367513, 22.471254], [113.36744, 22.471989], [113.368598, 22.473233], [113.369217, 22.47368], [113.369353, 22.474509], [113.369932, 22.474937], [113.371123, 22.475409], [113.371582, 22.475985], [113.372122, 22.476617], [113.371862, 22.477268], [113.371606, 22.478042], [113.371407, 22.478826], [113.370608, 22.479103], [113.369675, 22.480168], [113.368843, 22.480404], [113.36838, 22.481142], [113.367675, 22.481055], [113.367047, 22.48082], [113.365249, 22.48211], [113.36453, 22.482772], [113.364154, 22.482544], [113.363312, 22.483717], [113.363739, 22.484596], [113.363589, 22.484731], [113.363725, 22.486004], [113.364107, 22.486291], [113.364244, 22.489172], [113.36337, 22.491078], [113.362336, 22.49175], [113.361738, 22.491809], [113.362138, 22.492364], [113.36239, 22.492828], [113.362707, 22.493548], [113.362835, 22.494192], [113.362896, 22.49455], [113.362928, 22.500616], [113.362893, 22.501469], [113.362921, 22.502421], [113.362949, 22.505813], [113.361756, 22.505505], [113.352412, 22.503046], [113.350932, 22.502476], [113.35054, 22.502325], [113.34993, 22.502225], [113.349464, 22.502212], [113.347534, 22.498016], [113.34245, 22.488675], [113.341674, 22.487889], [113.340627, 22.487012], [113.339192, 22.486203], [113.336731, 22.485415], [113.334106, 22.485203], [113.331677, 22.485203], [113.328954, 22.485627], [113.325378, 22.486562], [113.323095, 22.486918], [113.321658, 22.486927], [113.32195, 22.483429], [113.320843, 22.483215], [113.320009, 22.482998], [113.31969, 22.484245], [113.319552, 22.484208], [113.319323, 22.485135], [113.31755, 22.484521], [113.317628, 22.484407], [113.316557, 22.483597], [113.316824, 22.483114], [113.31608, 22.482759], [113.31586, 22.483108], [113.315578, 22.482892], [113.316469, 22.481511], [113.314318, 22.480109], [113.312585, 22.478315], [113.311489, 22.479525], [113.310317, 22.478563], [113.309611, 22.479302], [113.309308, 22.478853], [113.308086, 22.479648], [113.305116, 22.474791], [113.297316, 22.465215], [113.296587, 22.464201], [113.299157, 22.462851], [113.298755, 22.461995], [113.299213, 22.461786], [113.299062, 22.461529], [113.298349, 22.461871], [113.298095, 22.461349], [113.298418, 22.46122], [113.29798, 22.459828], [113.29638, 22.460204], [113.295917, 22.459338], [113.294169, 22.460498], [113.293266, 22.458961], [113.295157, 22.458044], [113.294725, 22.457122], [113.292769, 22.457947], [113.292078, 22.455177]]]}, "properties": {"display_name": "南区街道, 中山市, 广东省, 中国", "type": "administrative", "osm_type": "relation", "osm_id": 5668298, "class": null, "keyword": "subdistrict"}}, {"type": "Feature", "geometry": {"type": "Polygon", "coordinates": [[[113.29671, 22.563472], [113.297848, 22.563189], [113.299479, 22.562945], [113.301605, 22.562537], [113.302513, 22.562402], [113.302631, 22.562504], [113.302839, 22.562738], [113.306808, 22.564997], [113.308031, 22.565869], [113.308557, 22.566405], [113.309029, 22.567633], [113.309501, 22.568327], [113.310016, 22.568505], [113.310467, 22.568247], [113.311679, 22.567731], [113.311417, 22.566665], [113.312223, 22.565916], [113.313798, 22.567077], [113.315978, 22.564822], [113.315783, 22.564401], [113.315321, 22.563643], [113.314675, 22.563022], [113.31431, 22.562491], [113.313956, 22.56189], [113.313597, 22.561004], [113.31212, 22.558536], [113.311427, 22.557612], [113.314073, 22.555148], [113.313505, 22.554508], [113.312843, 22.554071], [113.314924, 22.55247], [113.314735, 22.551945], [113.318455, 22.5495], [113.318171, 22.54915], [113.318518, 22.548888], [113.31814, 22.548481], [113.318518, 22.548102], [113.316879, 22.546559], [113.315224, 22.545705], [113.312733, 22.547447], [113.311577, 22.546399], [113.310781, 22.547031], [113.309396, 22.54591], [113.308117, 22.546929], [113.307781, 22.546642], [113.307356, 22.546435], [113.307053, 22.546319], [113.306874, 22.545891], [113.306663, 22.545391], [113.305939, 22.545452], [113.306287, 22.540366], [113.306425, 22.54028], [113.306539, 22.538932], [113.307066, 22.539002], [113.307309, 22.538814], [113.308263, 22.538906], [113.308397, 22.537966], [113.30988, 22.538173], [113.310328, 22.538394], [113.310858, 22.538518], [113.310998, 22.537204], [113.31412, 22.537566], [113.314532, 22.537727], [113.316232, 22.537995], [113.316288, 22.538138], [113.316727, 22.538217], [113.316485, 22.545719], [113.317959, 22.546943], [113.318994, 22.547802], [113.319061, 22.547813], [113.319866, 22.547949], [113.319592, 22.548847], [113.320062, 22.548914], [113.319871, 22.549593], [113.319937, 22.550148], [113.320125, 22.55064], [113.321179, 22.548137], [113.322506, 22.548229], [113.324617, 22.549228], [113.325551, 22.549701], [113.324108, 22.552078], [113.323701, 22.551889], [113.322509, 22.553834], [113.322548, 22.554216], [113.322665, 22.55488], [113.322459, 22.555367], [113.323279, 22.556893], [113.324341, 22.558355], [113.32825, 22.557629], [113.330786, 22.557105], [113.332725, 22.556736], [113.333596, 22.556162], [113.332462, 22.555689], [113.331663, 22.55509], [113.33192, 22.554733], [113.331892, 22.552796], [113.331857, 22.552476], [113.335723, 22.552347], [113.335298, 22.551219], [113.334701, 22.55068], [113.334054, 22.550367], [113.333317, 22.550185], [113.333328, 22.549741], [113.334162, 22.549647], [113.335164, 22.549263], [113.335832, 22.54883], [113.336659, 22.547895], [113.337052, 22.546938], [113.337233, 22.545876], [113.33763, 22.540874], [113.337957, 22.532581], [113.338302, 22.526024], [113.337724, 22.526011], [113.335763, 22.525913], [113.335858, 22.523613], [113.334754, 22.523409], [113.334691, 22.522914], [113.335763, 22.520934], [113.336583, 22.521399], [113.337276, 22.521341], [113.337686, 22.520788], [113.33848, 22.521061], [113.338869, 22.512828], [113.338606, 22.512612], [113.33813, 22.512604], [113.337582, 22.512507], [113.337525, 22.512403], [113.337509, 22.512306], [113.337536, 22.512194], [113.337611, 22.512106], [113.33778, 22.511939], [113.338543, 22.511878], [113.338841, 22.511854], [113.339727, 22.511796], [113.346962, 22.510655], [113.345201, 22.502962], [113.34729, 22.503001], [113.349761, 22.503197], [113.352221, 22.509385], [113.353766, 22.512938], [113.355594, 22.515151], [113.357453, 22.516813], [113.358526, 22.517772], [113.359913, 22.519607], [113.360481, 22.521355], [113.360733, 22.524005], [113.360694, 22.524494], [113.360481, 22.527179], [113.360652, 22.53141], [113.36067, 22.531867], [113.360165, 22.533265], [113.359314, 22.535274], [113.359436, 22.537617], [113.361017, 22.540428], [113.361578, 22.541392], [113.360702, 22.541943], [113.357451, 22.546673], [113.357231, 22.546994], [113.357146, 22.547117], [113.35468, 22.550707], [113.351401, 22.553735], [113.350045, 22.553793], [113.350014, 22.55554], [113.348406, 22.555627], [113.346325, 22.555919], [113.346418, 22.557707], [113.34642, 22.557753], [113.347523, 22.557869], [113.34787, 22.558393], [113.350707, 22.558772], [113.351874, 22.558422], [113.352043, 22.557921], [113.351857, 22.557404], [113.352377, 22.557376], [113.353033, 22.557606], [113.353099, 22.558556], [113.353406, 22.558596], [113.353576, 22.559295], [113.354739, 22.559581], [113.355631, 22.560091], [113.357643, 22.561014], [113.35775, 22.562129], [113.35801, 22.563071], [113.358014, 22.563716], [113.358734, 22.563599], [113.358856, 22.563633], [113.359022, 22.563742], [113.359165, 22.563926], [113.35935, 22.564333], [113.357939, 22.567219], [113.357994, 22.567352], [113.358656, 22.567777], [113.355276, 22.575623], [113.35573, 22.576127], [113.354776, 22.57726], [113.353821, 22.578267], [113.352685, 22.578351], [113.350186, 22.580911], [113.350504, 22.581372], [113.349731, 22.58196], [113.349004, 22.583009], [113.348368, 22.582757], [113.346414, 22.584813], [113.344323, 22.5841], [113.341772, 22.582463], [113.340006, 22.58133], [113.338415, 22.578141], [113.338415, 22.577176], [113.337824, 22.575959], [113.33687, 22.57193], [113.335689, 22.57], [113.330917, 22.574532], [113.332144, 22.576127], [113.333053, 22.576504], [113.333371, 22.577386], [113.332916, 22.577889], [113.33328, 22.578812], [113.329326, 22.581288], [113.330008, 22.582505], [113.331021, 22.584065], [113.329729, 22.586255], [113.329417, 22.586086], [113.326236, 22.583727], [113.324861, 22.582667], [113.323584, 22.582054], [113.320856, 22.5805], [113.319836, 22.579956], [113.318753, 22.579283], [113.318238, 22.578942], [113.317641, 22.578623], [113.316826, 22.578359], [113.316137, 22.578136], [113.315563, 22.577717], [113.314221, 22.577084], [113.312802, 22.576382], [113.312378, 22.575959], [113.311534, 22.575629], [113.310706, 22.574947], [113.308584, 22.573706], [113.307177, 22.572777], [113.306456, 22.572127], [113.305577, 22.571632], [113.304669, 22.570841], [113.303605, 22.570191], [113.302864, 22.569975], [113.301873, 22.569421], [113.300143, 22.568071], [113.299274, 22.566998], [113.298013, 22.565546], [113.297548, 22.564711], [113.29671, 22.563472]]]}, "properties": {"display_name": "西区街道, 北村, 中山市, 广东省, 528471, 中国", "type": "administrative", "osm_type": "relation", "osm_id": 5668308, "class": null, "keyword": "subdistrict"}}, {"type": "Feature", "geometry": {"type": "Polygon", "coordinates": [[[113.346325, 22.555919], [113.348406, 22.555627], [113.350014, 22.55554], [113.350045, 22.553793], [113.351401, 22.553735], [113.35468, 22.550707], [113.357146, 22.547117], [113.357231, 22.546994], [113.357451, 22.546673], [113.360702, 22.541943], [113.361578, 22.541392], [113.361017, 22.540428], [113.359436, 22.537617], [113.359314, 22.535274], [113.360165, 22.533265], [113.36067, 22.531867], [113.360652, 22.53141], [113.360481, 22.527179], [113.360694, 22.524494], [113.360733, 22.524005], [113.360481, 22.521355], [113.359913, 22.519607], [113.358526, 22.517772], [113.357453, 22.516813], [113.355594, 22.515151], [113.353766, 22.512938], [113.352221, 22.509385], [113.349761, 22.503197], [113.349464, 22.502212], [113.34993, 22.502225], [113.35054, 22.502325], [113.350932, 22.502476], [113.352412, 22.503046], [113.361756, 22.505505], [113.362949, 22.505813], [113.362921, 22.502421], [113.362893, 22.501469], [113.372974, 22.506532], [113.373382, 22.507034], [113.374662, 22.512054], [113.375517, 22.515659], [113.375611, 22.515981], [113.375687, 22.516242], [113.375938, 22.516715], [113.377253, 22.520359], [113.377766, 22.521781], [113.37848, 22.524244], [113.379876, 22.523293], [113.380624, 22.522893], [113.382514, 22.522508], [113.384247, 22.522521], [113.385346, 22.522509], [113.387862, 22.52239], [113.390305, 22.521539], [113.390945, 22.521551], [113.392557, 22.521826], [113.393646, 22.522126], [113.39308, 22.524002], [113.392989, 22.524772], [113.392907, 22.52575], [113.393092, 22.526669], [113.393903, 22.529122], [113.394203, 22.529575], [113.394302, 22.530432], [113.394345, 22.53228], [113.394353, 22.532668], [113.39444, 22.538224], [113.39456, 22.540312], [113.394685, 22.54226], [113.394863, 22.543086], [113.395202, 22.543874], [113.397472, 22.54786], [113.398386, 22.549796], [113.398742, 22.551175], [113.399245, 22.555961], [113.399634, 22.559101], [113.399856, 22.56044], [113.400013, 22.561387], [113.399389, 22.561325], [113.398244, 22.56106], [113.397905, 22.561278], [113.397715, 22.561636], [113.397701, 22.562425], [113.397295, 22.562561], [113.39604, 22.562819], [113.394954, 22.563025], [113.391251, 22.564571], [113.391632, 22.565552], [113.392406, 22.567556], [113.391459, 22.567911], [113.390614, 22.568303], [113.388867, 22.568999], [113.388622, 22.569085], [113.388456, 22.569277], [113.387705, 22.568841], [113.385276, 22.568324], [113.383867, 22.567585], [113.382769, 22.566107], [113.380535, 22.564032], [113.379848, 22.563794], [113.379272, 22.564046], [113.378603, 22.565241], [113.37693, 22.566945], [113.376286, 22.566945], [113.375066, 22.56577], [113.374508, 22.563848], [113.374827, 22.561674], [113.374422, 22.560776], [113.373651, 22.559761], [113.370958, 22.561159], [113.368123, 22.562491], [113.367827, 22.560871], [113.367672, 22.559476], [113.367607, 22.558611], [113.366321, 22.558633], [113.364322, 22.55876], [113.363558, 22.558799], [113.363161, 22.559664], [113.360879, 22.564551], [113.360153, 22.564669], [113.35984, 22.564654], [113.359653, 22.564564], [113.35935, 22.564333], [113.359165, 22.563926], [113.359022, 22.563742], [113.358856, 22.563633], [113.358734, 22.563599], [113.358014, 22.563716], [113.35801, 22.563071], [113.35775, 22.562129], [113.357643, 22.561014], [113.355631, 22.560091], [113.354739, 22.559581], [113.353576, 22.559295], [113.353406, 22.558596], [113.353099, 22.558556], [113.353033, 22.557606], [113.352377, 22.557376], [113.351857, 22.557404], [113.352043, 22.557921], [113.351874, 22.558422], [113.350707, 22.558772], [113.34787, 22.558393], [113.347523, 22.557869], [113.34642, 22.557753], [113.346418, 22.557707], [113.346325, 22.555919]]]}, "properties": {"display_name": "石岐街道, 中山市, 广东省, 528400, 中国", "type": "administrative", "osm_type": "relation", "osm_id": 12300068, "class": null, "keyword": "subdistrict"}}, {"type": "Feature", "geometry": {"type": "Polygon", "coordinates": [[[113.406175, 22.505343], [113.406686, 22.501825], [113.406709, 22.501778], [113.406729, 22.501748], [113.406792, 22.501728], [113.406832, 22.501733], [113.407103, 22.50181], [113.41023, 22.502824], [113.410346, 22.502851], [113.41048, 22.502876], [113.410678, 22.502897], [113.412712, 22.503098], [113.412115, 22.506437], [113.41045, 22.506186], [113.406257, 22.505554], [113.406209, 22.505507], [113.406179, 22.505421], [113.406175, 22.505343]]]}, "properties": {"display_name": "中山博览中心, 东区街道, 中山市, 广东省, 中国", "type": "commercial", "osm_type": "way", "osm_id": 620224817, "class": null, "keyword": "city center"}}, {"type": "Feature", "geometry": {"type": "Polygon", "coordinates": [[[113.481738, 22.555991], [113.481759, 22.554348], [113.485124, 22.554659], [113.485102, 22.556263], [113.481738, 22.555991]]]}, "properties": {"display_name": "太阳城购物中心, 中山港街道, 中山市, 广东省, 中国", "type": "retail", "osm_type": "way", "osm_id": 1299947817, "class": null, "keyword": "中心城区"}}, {"type": "Feature", "geometry": {"type": "Polygon", "coordinates": [[[113.38243, 22.509988], [113.382433, 22.509821], [113.382452, 22.509662], [113.382502, 22.50952], [113.382559, 22.50938], [113.382605, 22.509297], [113.382654, 22.509319], [113.382734, 22.50923], [113.382856, 22.509137], [113.382969, 22.509082], [113.383132, 22.509044], [113.383291, 22.509043], [113.383447, 22.509075], [113.383595, 22.509141], [113.383703, 22.509226], [113.383785, 22.509317], [113.383825, 22.509292], [113.383892, 22.509387], [113.383948, 22.50952], [113.383984, 22.509654], [113.384003, 22.509806], [113.384002, 22.509984], [113.383984, 22.510142], [113.383942, 22.510281], [113.383894, 22.510414], [113.383839, 22.510527], [113.38379, 22.510502], [113.383738, 22.510587], [113.383661, 22.510675], [113.38355, 22.510756], [113.383424, 22.510802], [113.383286, 22.510824], [113.38314, 22.510825], [113.382995, 22.510789], [113.38288, 22.510733], [113.382783, 22.51067], [113.3827, 22.510592], [113.382654, 22.510517], [113.382611, 22.510533], [113.382546, 22.510417], [113.382488, 22.510282], [113.382447, 22.510137], [113.38243, 22.509988]]]}, "properties": {"display_name": "中山市体育场, 体育路, 夏洋社区, 东区街道, 中山市, 广东省, 528403, 中国", "type": "stadium", "osm_type": "way", "osm_id": 394532207, "class": null, "keyword": "city centre"}}, {"type": "Feature", "geometry": {"type": "Polygon", "coordinates": [[[113.417446, 22.510381], [113.417637, 22.509962], [113.419328, 22.510583], [113.419062, 22.511356], [113.417768, 22.511472], [113.417698, 22.511006], [113.41809, 22.510678], [113.417446, 22.510381]]]}, "properties": {"display_name": "中山市东区艳阳学校, 春花墩正街, 新鳌岭社区, 东区街道, 中山市, 广东省, 528403, 中国", "type": "school", "osm_type": "way", "osm_id": 385942627, "class": null, "keyword": "中央区"}}, {"type": "Feature", "geometry": {"type": "Polygon", "coordinates": [[[113.404027, 22.519657], [113.404373, 22.518612], [113.404661, 22.518694], [113.404817, 22.518221], [113.405612, 22.518445], [113.40511, 22.519962], [113.404027, 22.519657]]]}, "properties": {"display_name": "中山市石岐中心小学, 东文路, 桃苑社区, 东区街道, 中山市, 广东省, 528403, 中国", "type": "school", "osm_type": "way", "osm_id": 386314029, "class": null, "keyword": "city center"}}, {"type": "Feature", "geometry": {"type": "Polygon", "coordinates": [[[113.581459, 22.556779], [113.582014, 22.556293], [113.582453, 22.556853], [113.581918, 22.557262], [113.581459, 22.556779]]]}, "properties": {"display_name": "马鞍岛粤海城销售中心, 经五路, 翠亨新区, 南朗街道, 横门社区, 中山市, 广东省, 中国", "type": "service", "osm_type": "way", "osm_id": 1239156548, "class": null, "keyword": "中心城区"}}]}