{"type": "FeatureCollection", "features": [{"type": "Feature", "geometry": {"type": "Polygon", "coordinates": [[[113.297152, 22.14164], [113.302882, 22.138599], [113.304319, 22.138559], [113.309898, 22.144144], [113.307699, 22.145505], [113.306626, 22.145933], [113.307549, 22.147095], [113.312441, 22.143577], [113.313364, 22.142941], [113.313986, 22.142961], [113.318404, 22.140084], [113.323857, 22.136532], [113.325128, 22.135761], [113.325514, 22.136343], [113.326662, 22.135742], [113.327349, 22.135443], [113.334435, 22.139195], [113.332177, 22.142455], [113.333411, 22.143349], [113.333357, 22.143563], [113.334204, 22.144069], [113.334878, 22.143376], [113.335218, 22.143192], [113.336307, 22.142117], [113.337911, 22.140785], [113.338426, 22.141297], [113.339505, 22.142663], [113.339821, 22.142907], [113.337836, 22.146251], [113.338721, 22.14695], [113.342289, 22.149768], [113.34488, 22.147374], [113.346189, 22.148198], [113.346763, 22.147354], [113.347433, 22.146551], [113.347884, 22.146683], [113.348468, 22.146121], [113.349187, 22.144283], [113.347685, 22.143746], [113.347814, 22.143508], [113.349059, 22.142981], [113.350078, 22.142087], [113.350496, 22.140437], [113.351355, 22.140427], [113.352363, 22.139414], [113.353533, 22.140199], [113.3532, 22.14323], [113.353618, 22.144531], [113.354369, 22.145565], [113.35453, 22.146907], [113.354896, 22.147176], [113.357443, 22.149053], [113.357223, 22.149535], [113.356869, 22.150742], [113.358216, 22.151761], [113.358554, 22.152123], [113.360136, 22.153082], [113.360292, 22.152908], [113.363253, 22.153475], [113.363211, 22.154089], [113.363007, 22.156339], [113.362854, 22.157818], [113.362781, 22.158704], [113.363014, 22.159605], [113.361076, 22.160323], [113.35956, 22.160885], [113.358116, 22.15806], [113.355267, 22.160649], [113.35264, 22.163036], [113.34941, 22.165787], [113.347836, 22.16718], [113.344381, 22.17068], [113.343622, 22.171448], [113.339571, 22.175351], [113.337073, 22.177608], [113.33461, 22.179603], [113.333496, 22.180157], [113.332696, 22.181153], [113.331908, 22.182153], [113.329109, 22.184479], [113.328636, 22.185103], [113.326704, 22.186775], [113.325143, 22.188425], [113.321933, 22.191047], [113.321073, 22.189466], [113.319864, 22.189932], [113.318448, 22.190545], [113.316402, 22.190826], [113.31508, 22.190699], [113.314926, 22.188919], [113.315355, 22.185994], [113.315938, 22.183245], [113.316694, 22.180685], [113.318015, 22.176107], [113.318702, 22.173198], [113.318445, 22.171561], [113.315818, 22.16606], [113.312153, 22.160072], [113.30945, 22.155454], [113.307587, 22.152044], [113.305399, 22.148991], [113.302995, 22.146256], [113.3003, 22.144006], [113.297152, 22.14164]]]}, "properties": {"display_name": "白藤街道, 斗门区, 珠海市, 广东省, 中国", "type": "administrative", "osm_type": "relation", "osm_id": 16763765, "class": null, "keyword": "subdistrict"}}, {"type": "Feature", "geometry": {"type": "MultiPolygon", "coordinates": [[[[113.536663, 22.31148], [113.537393, 22.309704], [113.537597, 22.308314], [113.543733, 22.308255], [113.548057, 22.30757], [113.549076, 22.307431], [113.550139, 22.305346], [113.553153, 22.304999], [113.555288, 22.301723], [113.55679, 22.299321], [113.556812, 22.298626], [113.556994, 22.297634], [113.55679, 22.296492], [113.556715, 22.294765], [113.55679, 22.293881], [113.557799, 22.293325], [113.558797, 22.29271], [113.559269, 22.291638], [113.560191, 22.291667], [113.561211, 22.290893], [113.561747, 22.289831], [113.565363, 22.291906], [113.568771, 22.286405], [113.574042, 22.277898], [113.57416, 22.27759], [113.57416, 22.277084], [113.572448, 22.27306], [113.574021, 22.271645], [113.575726, 22.270343], [113.575851, 22.270214], [113.575919, 22.270146], [113.576167, 22.268734], [113.577766, 22.26865], [113.577658, 22.269112], [113.577572, 22.269519], [113.577545, 22.270032], [113.57752, 22.270496], [113.577521, 22.27088], [113.577531, 22.271197], [113.577524, 22.271869], [113.577518, 22.272095], [113.577543, 22.272308], [113.577581, 22.272632], [113.577658, 22.27285], [113.577719, 22.27299], [113.577789, 22.273141], [113.577932, 22.273247], [113.577991, 22.273316], [113.578087, 22.273337], [113.578447, 22.273237], [113.578481, 22.273207], [113.578497, 22.273185], [113.578535, 22.273195], [113.578597, 22.273217], [113.578621, 22.273257], [113.578589, 22.273293], [113.578552, 22.273319], [113.578517, 22.273317], [113.578462, 22.273306], [113.577231, 22.273669], [113.577443, 22.27411], [113.577463, 22.274163], [113.57748, 22.274217], [113.577467, 22.274267], [113.577424, 22.274316], [113.577127, 22.274446], [113.577008, 22.274555], [113.577133, 22.27615], [113.577187, 22.276191], [113.577197, 22.27629], [113.577145, 22.276292], [113.57722, 22.27722], [113.5772, 22.277862], [113.577196, 22.277987], [113.577176, 22.278081], [113.577139, 22.27849], [113.576836, 22.279723], [113.576957, 22.27979], [113.577051, 22.279771], [113.576957, 22.279944], [113.576906, 22.279847], [113.576809, 22.279795], [113.576818, 22.279907], [113.576792, 22.280005], [113.576743, 22.279986], [113.576689, 22.280226], [113.576549, 22.280693], [113.576481, 22.280759], [113.576287, 22.28135], [113.577024, 22.281635], [113.577106, 22.281609], [113.577286, 22.281171], [113.577656, 22.281302], [113.577338, 22.282023], [113.577291, 22.282129], [113.576924, 22.281956], [113.576794, 22.281895], [113.576865, 22.281694], [113.576234, 22.281443], [113.576197, 22.281539], [113.576171, 22.281606], [113.575925, 22.28216], [113.575394, 22.283346], [113.57533, 22.283504], [113.574792, 22.284824], [113.574746, 22.284936], [113.574696, 22.28506], [113.574766, 22.285122], [113.574742, 22.285274], [113.574656, 22.285329], [113.57462, 22.285334], [113.574194, 22.286764], [113.57423, 22.286822], [113.574236, 22.286892], [113.574195, 22.286939], [113.574121, 22.286956], [113.57388, 22.288024], [113.57376, 22.288593], [113.573745, 22.288666], [113.573667, 22.289033], [113.57354, 22.290119], [113.573426, 22.291104], [113.573338, 22.292835], [113.57526, 22.292609], [113.575333, 22.292538], [113.575236, 22.291853], [113.576805, 22.291654], [113.576856, 22.292019], [113.576801, 22.292027], [113.576885, 22.292561], [113.578162, 22.292404], [113.578253, 22.29239], [113.578456, 22.29231], [113.578424, 22.292038], [113.578543, 22.292026], [113.578694, 22.292011], [113.578928, 22.291974], [113.579152, 22.291955], [113.579367, 22.291936], [113.57979, 22.2919], [113.583179, 22.291569], [113.583178, 22.291532], [113.583198, 22.291512], [113.583409, 22.291489], [113.583405, 22.291424], [113.58318, 22.291443], [113.58316, 22.291421], [113.583163, 22.291385], [113.583709, 22.291336], [113.583752, 22.291712], [113.58262, 22.291831], [113.580545, 22.29204], [113.580321, 22.292191], [113.579807, 22.292231], [113.579834, 22.292453], [113.579935, 22.292463], [113.584641, 22.291986], [113.587984, 22.290211], [113.588053, 22.290333], [113.584722, 22.292119], [113.579955, 22.29256], [113.579875, 22.292586], [113.5795, 22.292672], [113.576994, 22.292878], [113.576857, 22.29283], [113.573578, 22.293254], [113.573432, 22.293495], [113.573346, 22.293547], [113.573339, 22.293803], [113.573412, 22.295654], [113.573461, 22.295681], [113.573476, 22.295793], [113.573428, 22.29581], [113.573534, 22.296876], [113.573749, 22.297915], [113.573935, 22.299273], [113.574442, 22.301444], [113.574817, 22.303209], [113.575277, 22.30333], [113.575398, 22.303304], [113.575514, 22.303329], [113.575553, 22.303352], [113.575793, 22.303193], [113.576187, 22.303232], [113.576658, 22.303499], [113.576629, 22.304341], [113.576623, 22.304623], [113.576538, 22.304726], [113.576588, 22.305147], [113.576702, 22.305515], [113.5768, 22.305844], [113.577026, 22.306371], [113.577614, 22.307134], [113.577989, 22.30781], [113.578846, 22.309353], [113.579374, 22.310338], [113.579986, 22.310992], [113.580818, 22.312257], [113.58098, 22.312507], [113.581552, 22.313017], [113.581769, 22.313183], [113.58197, 22.313231], [113.582422, 22.313212], [113.58301, 22.31405], [113.583692, 22.3144], [113.584151, 22.314908], [113.58441, 22.315122], [113.584908, 22.315299], [113.585027, 22.31529], [113.585131, 22.315574], [113.585244, 22.315588], [113.583569, 22.319242], [113.582346, 22.320245], [113.581949, 22.321207], [113.581273, 22.321684], [113.580619, 22.323172], [113.579192, 22.323569], [113.577937, 22.322626], [113.577079, 22.322974], [113.576467, 22.322636], [113.576124, 22.321664], [113.575759, 22.321386], [113.574783, 22.321336], [113.574343, 22.321535], [113.573881, 22.321783], [113.573967, 22.322339], [113.573635, 22.323013], [113.573313, 22.323143], [113.572819, 22.323212], [113.572723, 22.323043], [113.572358, 22.323103], [113.572004, 22.322865], [113.571478, 22.322577], [113.570448, 22.321614], [113.569987, 22.322229], [113.569461, 22.32219], [113.569247, 22.322259], [113.569193, 22.322557], [113.568817, 22.322726], [113.568463, 22.322626], [113.568334, 22.32268], [113.567916, 22.322855], [113.567637, 22.322438], [113.566811, 22.3222], [113.566199, 22.321813], [113.565674, 22.321803], [113.565524, 22.321465], [113.565223, 22.321296], [113.564579, 22.321306], [113.564236, 22.321128], [113.563721, 22.321098], [113.563035, 22.321326], [113.562241, 22.321168], [113.561726, 22.320651], [113.560191, 22.320354], [113.55973, 22.320393], [113.559258, 22.320254], [113.558507, 22.320215], [113.557509, 22.31957], [113.557048, 22.318706], [113.556629, 22.318587], [113.554451, 22.31954], [113.55325, 22.319312], [113.552338, 22.31953], [113.551662, 22.319242], [113.550675, 22.320016], [113.548604, 22.321971], [113.548186, 22.322001], [113.546931, 22.321336], [113.546244, 22.321138], [113.544978, 22.321247], [113.543326, 22.320036], [113.54251, 22.319391], [113.542585, 22.318269], [113.541748, 22.317406], [113.541652, 22.316453], [113.541105, 22.316165], [113.540609, 22.315159], [113.540386, 22.314706], [113.538305, 22.314458], [113.537339, 22.312622], [113.536663, 22.312562], [113.536663, 22.31148]]], [[[113.578578, 22.30218], [113.578639, 22.302001], [113.578817, 22.301956], [113.578994, 22.301875], [113.579069, 22.301942], [113.579133, 22.301924], [113.579187, 22.301882], [113.579397, 22.301928], [113.579506, 22.301984], [113.579509, 22.302072], [113.579558, 22.302175], [113.579525, 22.302274], [113.579654, 22.302375], [113.579627, 22.302613], [113.57983, 22.302731], [113.579806, 22.302835], [113.579721, 22.302905], [113.579289, 22.302795], [113.579026, 22.30271], [113.578825, 22.302624], [113.578602, 22.302475], [113.578578, 22.30218]]], [[[113.57981, 22.27914], [113.5799, 22.278767], [113.58001, 22.278348], [113.580105, 22.278256], [113.580309, 22.277537], [113.580362, 22.277302], [113.580402, 22.277245], [113.580514, 22.277088], [113.580663, 22.276951], [113.580895, 22.276847], [113.581188, 22.276833], [113.58159, 22.276943], [113.581611, 22.276867], [113.581835, 22.276862], [113.582131, 22.276921], [113.581819, 22.276965], [113.581788, 22.277017], [113.582185, 22.277165], [113.582401, 22.277183], [113.582666, 22.277078], [113.582769, 22.277], [113.582826, 22.277045], [113.582668, 22.277197], [113.583008, 22.277287], [113.583107, 22.277351], [113.583104, 22.27742], [113.583415, 22.277481], [113.584177, 22.277414], [113.584446, 22.277442], [113.584936, 22.277593], [113.585166, 22.277777], [113.585217, 22.27785], [113.585548, 22.278327], [113.585601, 22.278404], [113.585882, 22.278543], [113.586142, 22.278744], [113.586277, 22.278906], [113.586519, 22.279325], [113.586699, 22.279698], [113.586916, 22.279813], [113.587248, 22.280046], [113.587527, 22.280178], [113.588511, 22.280521], [113.588899, 22.280903], [113.589064, 22.281171], [113.589376, 22.281485], [113.589614, 22.281845], [113.589775, 22.281981], [113.589855, 22.282274], [113.589877, 22.28251], [113.589881, 22.282968], [113.589764, 22.283251], [113.589629, 22.28349], [113.588956, 22.284081], [113.588436, 22.284249], [113.588033, 22.284303], [113.587585, 22.284274], [113.587201, 22.284368], [113.586425, 22.284727], [113.586256, 22.284941], [113.584541, 22.289561], [113.584488, 22.289704], [113.584337, 22.289848], [113.584153, 22.289911], [113.583921, 22.289872], [113.583794, 22.289749], [113.58374, 22.289697], [113.583647, 22.289522], [113.582637, 22.28763], [113.582135, 22.286691], [113.582109, 22.286641], [113.582069, 22.286368], [113.582143, 22.286068], [113.582412, 22.285762], [113.582963, 22.285136], [113.583739, 22.284254], [113.583791, 22.284194], [113.584204, 22.283725], [113.584643, 22.283226], [113.584796, 22.282849], [113.584839, 22.282775], [113.584877, 22.282708], [113.584834, 22.282602], [113.584369, 22.282185], [113.584077, 22.281666], [113.583694, 22.281144], [113.583465, 22.280959], [113.583163, 22.280963], [113.582688, 22.280932], [113.582406, 22.280878], [113.582107, 22.280642], [113.58151, 22.280466], [113.581339, 22.28075], [113.581235, 22.280766], [113.581198, 22.280735], [113.581186, 22.280728], [113.580571, 22.280401], [113.580304, 22.280357], [113.580169, 22.280118], [113.579814, 22.279493], [113.579825, 22.279198], [113.57981, 22.27914]]]]}, "properties": {"display_name": "香湾街道, 香洲区, 珠海市, 广东省, 519000, 中国", "type": "administrative", "osm_type": "relation", "osm_id": 12302926, "class": null, "keyword": "subdistrict"}}, {"type": "Feature", "geometry": {"type": "Polygon", "coordinates": [[[113.530301, 22.299083], [113.531116, 22.296214], [113.531363, 22.295688], [113.531739, 22.29535], [113.532919, 22.29534], [113.533455, 22.29542], [113.533831, 22.295311], [113.534335, 22.295172], [113.535429, 22.294884], [113.535794, 22.295053], [113.536116, 22.294953], [113.536609, 22.295063], [113.537296, 22.294427], [113.538015, 22.294517], [113.538562, 22.293703], [113.539152, 22.293603], [113.539077, 22.292918], [113.53883, 22.29275], [113.538165, 22.292789], [113.537865, 22.29264], [113.537393, 22.29266], [113.536652, 22.292978], [113.535869, 22.293196], [113.535601, 22.293117], [113.534689, 22.29274], [113.534067, 22.292591], [113.53397, 22.292124], [113.533734, 22.291916], [113.533434, 22.291916], [113.533069, 22.291797], [113.532779, 22.291419], [113.532371, 22.291231], [113.532168, 22.290655], [113.532017, 22.290387], [113.532221, 22.289881], [113.532994, 22.289742], [113.533691, 22.289454], [113.533841, 22.288223], [113.533423, 22.288253], [113.533273, 22.288421], [113.53191, 22.288143], [113.53235, 22.286704], [113.532726, 22.286734], [113.533624, 22.283847], [113.534014, 22.282442], [113.541984, 22.284431], [113.543036, 22.27898], [113.544077, 22.274116], [113.544195, 22.272269], [113.543572, 22.260414], [113.543572, 22.259818], [113.54383, 22.257028], [113.544077, 22.255558], [113.544774, 22.249193], [113.545386, 22.249511], [113.54545, 22.250335], [113.546094, 22.250991], [113.546877, 22.25102], [113.547821, 22.251855], [113.548121, 22.252977], [113.548636, 22.253304], [113.548819, 22.253821], [113.549355, 22.254049], [113.550965, 22.25535], [113.551576, 22.255489], [113.552102, 22.255817], [113.553121, 22.256025], [113.553443, 22.255995], [113.553808, 22.256134], [113.554688, 22.255946], [113.555202, 22.256283], [113.555793, 22.256422], [113.556157, 22.257415], [113.556029, 22.257842], [113.554924, 22.25819], [113.554344, 22.260106], [113.554548, 22.261397], [113.556093, 22.263134], [113.557842, 22.263154], [113.558561, 22.263323], [113.559118, 22.263879], [113.559204, 22.264822], [113.559419, 22.2652], [113.559558, 22.265468], [113.55944, 22.266113], [113.558185, 22.266808], [113.557928, 22.267185], [113.554569, 22.27069], [113.554643, 22.270757], [113.557627, 22.273301], [113.558271, 22.274046], [113.560556, 22.277729], [113.560749, 22.278285], [113.560996, 22.281393], [113.561125, 22.281969], [113.561382, 22.282683], [113.561844, 22.283696], [113.568771, 22.286405], [113.565363, 22.291906], [113.561747, 22.289831], [113.561211, 22.290893], [113.560191, 22.291667], [113.559269, 22.291638], [113.558797, 22.29271], [113.557799, 22.293325], [113.55679, 22.293881], [113.556715, 22.294765], [113.55679, 22.296492], [113.556994, 22.297634], [113.556812, 22.298626], [113.55679, 22.299321], [113.555288, 22.301723], [113.553153, 22.304999], [113.550139, 22.305346], [113.549076, 22.307431], [113.548057, 22.30757], [113.543733, 22.308255], [113.537597, 22.308314], [113.537199, 22.307381], [113.536363, 22.306885], [113.535708, 22.307143], [113.535376, 22.307064], [113.534775, 22.306577], [113.534678, 22.306041], [113.534228, 22.305614], [113.534442, 22.304513], [113.534174, 22.303014], [113.533809, 22.302607], [113.532404, 22.30218], [113.531792, 22.301624], [113.531213, 22.301614], [113.530934, 22.301495], [113.53073, 22.299996], [113.530301, 22.299083]]]}, "properties": {"display_name": "翠香街道, 香洲区, 珠海市, 广东省, 519000, 中国", "type": "administrative", "osm_type": "relation", "osm_id": 12302930, "class": null, "keyword": "subdistrict"}}, {"type": "Feature", "geometry": {"type": "Polygon", "coordinates": [[[113.504423, 22.276578], [113.507599, 22.273947], [113.508918, 22.272865], [113.511708, 22.269926], [113.512631, 22.268903], [113.513202, 22.267815], [113.513532, 22.2679], [113.514894, 22.268178], [113.519872, 22.268953], [113.520495, 22.263959], [113.520548, 22.262936], [113.520473, 22.257544], [113.526739, 22.255846], [113.527479, 22.255737], [113.532693, 22.255866], [113.532672, 22.255211], [113.533241, 22.254853], [113.533745, 22.25384], [113.534378, 22.253324], [113.536384, 22.253364], [113.537006, 22.253553], [113.53795, 22.253016], [113.539045, 22.253304], [113.539388, 22.252679], [113.539914, 22.252192], [113.54206, 22.251229], [113.5428, 22.250345], [113.543197, 22.2497], [113.543733, 22.249263], [113.544774, 22.249193], [113.544077, 22.255558], [113.54383, 22.257028], [113.543572, 22.259818], [113.543572, 22.260414], [113.544195, 22.272269], [113.544077, 22.274116], [113.543036, 22.27898], [113.541984, 22.284431], [113.534014, 22.282442], [113.526707, 22.280618], [113.525526, 22.28037], [113.50821, 22.277243], [113.504423, 22.276578]]]}, "properties": {"display_name": "梅华街道, 香洲区, 珠海市, 广东省, 519000, 中国", "type": "administrative", "osm_type": "relation", "osm_id": 12302931, "class": null, "keyword": "subdistrict"}}, {"type": "Feature", "geometry": {"type": "Polygon", "coordinates": [[[113.554569, 22.27069], [113.557928, 22.267185], [113.558185, 22.266808], [113.55944, 22.266113], [113.559558, 22.265468], [113.559762, 22.265607], [113.56032, 22.265686], [113.560588, 22.265696], [113.560782, 22.266113], [113.561178, 22.26661], [113.561908, 22.266798], [113.562959, 22.267245], [113.563582, 22.267136], [113.563904, 22.266868], [113.564526, 22.266719], [113.565738, 22.266778], [113.566328, 22.266937], [113.567594, 22.266838], [113.567991, 22.267215], [113.568517, 22.267295], [113.568828, 22.267483], [113.569236, 22.267513], [113.569955, 22.267126], [113.570502, 22.267732], [113.57136, 22.268506], [113.571886, 22.268734], [113.572937, 22.268694], [113.57342, 22.268893], [113.575137, 22.268655], [113.576167, 22.268734], [113.575919, 22.270146], [113.575851, 22.270214], [113.575726, 22.270343], [113.574021, 22.271645], [113.572448, 22.27306], [113.57416, 22.277084], [113.57416, 22.27759], [113.574042, 22.277898], [113.568771, 22.286405], [113.561844, 22.283696], [113.561382, 22.282683], [113.561125, 22.281969], [113.560996, 22.281393], [113.560749, 22.278285], [113.560556, 22.277729], [113.558271, 22.274046], [113.557627, 22.273301], [113.554643, 22.270757], [113.554569, 22.27069]]]}, "properties": {"display_name": "狮山街道, 香洲区, 珠海市, 广东省, 519000, 中国", "type": "administrative", "osm_type": "relation", "osm_id": 12302929, "class": null, "keyword": "subdistrict"}}, {"type": "Feature", "geometry": {"type": "Polygon", "coordinates": [[[113.526524, 22.28002], [113.526568, 22.279705], [113.526758, 22.278727], [113.52697, 22.277464], [113.527197, 22.276265], [113.527439, 22.276046], [113.527562, 22.275295], [113.527284, 22.27518], [113.527448, 22.274284], [113.527572, 22.273595], [113.527713, 22.273532], [113.527816, 22.273502], [113.530774, 22.274087], [113.530875, 22.274185], [113.530933, 22.274194], [113.530927, 22.274227], [113.531395, 22.274298], [113.5314, 22.274276], [113.531573, 22.274303], [113.531631, 22.274243], [113.533519, 22.274617], [113.535153, 22.274912], [113.534617, 22.277825], [113.534331, 22.27938], [113.533855, 22.281964], [113.533745, 22.282055], [113.533624, 22.282045], [113.533219, 22.281949], [113.532213, 22.2817], [113.530714, 22.281356], [113.529402, 22.280968], [113.528847, 22.280827], [113.527633, 22.28054], [113.526653, 22.28032], [113.526578, 22.280261], [113.526524, 22.280167], [113.526524, 22.28002]]]}, "properties": {"display_name": "珠海市体育中心, 银桦路, 梅华街道, 香洲区, 珠海市, 广东省, 519000, 中国", "type": "sports_centre", "osm_type": "way", "osm_id": 180687508, "class": null, "keyword": "city centre"}}, {"type": "Feature", "geometry": {"type": "Polygon", "coordinates": [[[113.814554, 22.156388], [113.817328, 22.151391], [113.818609, 22.148559], [113.818781, 22.147315], [113.821967, 22.147276], [113.821871, 22.150207], [113.820508, 22.14978], [113.820444, 22.150386], [113.821957, 22.155195], [113.817976, 22.156408], [113.815906, 22.157461], [113.814554, 22.156388]]]}, "properties": {"display_name": "中心洲石矿场, 珠海万山海洋开发试验区, 香洲区, 珠海市, 广东省, 519000, 中国", "type": "quarry", "osm_type": "way", "osm_id": 617754735, "class": null, "keyword": "市中心"}}, {"type": "Feature", "geometry": {"type": "Polygon", "coordinates": [[[113.34786, 22.11102], [113.347951, 22.110399], [113.347978, 22.110218], [113.360054, 22.113121], [113.362824, 22.113754], [113.363723, 22.114026], [113.364064, 22.113951], [113.364964, 22.114265], [113.365663, 22.114498], [113.366108, 22.114538], [113.366157, 22.114542], [113.36623, 22.114802], [113.367072, 22.115418], [113.367609, 22.115599], [113.370193, 22.116132], [113.370382, 22.11614], [113.370324, 22.116346], [113.370234, 22.116591], [113.368942, 22.116283], [113.36718, 22.115899], [113.366925, 22.115826], [113.366705, 22.11568], [113.366496, 22.115514], [113.366107, 22.11516], [113.365866, 22.115006], [113.365605, 22.114944], [113.363749, 22.114513], [113.363494, 22.114465], [113.363221, 22.114441], [113.36295, 22.114433], [113.362692, 22.114443], [113.3624, 22.114492], [113.362142, 22.114561], [113.361866, 22.114659], [113.361474, 22.114849], [113.360128, 22.115656], [113.360188, 22.11573], [113.360041, 22.115865], [113.358424, 22.115459], [113.358734, 22.115163], [113.358049, 22.114597], [113.357836, 22.114207], [113.357744, 22.113881], [113.357693, 22.113701], [113.356998, 22.113186], [113.356795, 22.113074], [113.356008, 22.113023], [113.353971, 22.11247], [113.352545, 22.112011], [113.352286, 22.111981], [113.351637, 22.111899], [113.349202, 22.111295], [113.34786, 22.11102]]]}, "properties": {"display_name": "中心河湿地公园, 三灶镇, 金湾区, 珠海市, 广东省, 中国", "type": "park", "osm_type": "way", "osm_id": 1000618560, "class": null, "keyword": "市中心"}}, {"type": "Feature", "geometry": {"type": "Polygon", "coordinates": [[[113.355291, 22.122541], [113.355342, 22.122444], [113.355503, 22.121019], [113.355642, 22.119881], [113.355756, 22.118893], [113.355789, 22.118652], [113.355698, 22.118632], [113.355782, 22.118212], [113.355822, 22.117572], [113.355946, 22.117569], [113.356006, 22.117384], [113.356198, 22.117229], [113.356291, 22.117105], [113.35665, 22.117006], [113.356852, 22.116661], [113.357158, 22.116651], [113.357233, 22.116454], [113.357556, 22.116178], [113.35746, 22.115979], [113.35752, 22.11579], [113.358285, 22.115955], [113.359072, 22.116134], [113.359768, 22.116289], [113.359756, 22.116343], [113.359441, 22.11642], [113.359392, 22.116365], [113.359312, 22.116356], [113.35917, 22.116452], [113.35903, 22.116392], [113.3587, 22.11659], [113.358624, 22.116692], [113.358586, 22.116784], [113.358584, 22.116876], [113.358653, 22.117531], [113.358845, 22.119348], [113.358735, 22.11933], [113.358746, 22.119559], [113.358808, 22.119572], [113.358665, 22.120064], [113.358704, 22.120523], [113.359172, 22.120629], [113.358947, 22.121492], [113.358899, 22.121693], [113.358762, 22.121823], [113.35858, 22.121976], [113.35819, 22.12208], [113.358105, 22.122145], [113.357765, 22.121963], [113.357447, 22.122035], [113.35705, 22.121993], [113.35698, 22.12165], [113.355913, 22.121654], [113.355865, 22.12171], [113.355924, 22.122834], [113.35552, 22.122672], [113.355291, 22.122541]]]}, "properties": {"display_name": "金湾航空城中心湖公园, 三灶镇, 金湾区, 珠海市, 广东省, 中国", "type": "park", "osm_type": "way", "osm_id": 1158221175, "class": null, "keyword": "中心城区"}}, {"type": "Feature", "geometry": {"type": "Polygon", "coordinates": [[[113.553635, 22.285808], [113.553877, 22.28387], [113.55415, 22.282076], [113.555631, 22.282081], [113.557494, 22.282006], [113.557692, 22.283345], [113.557968, 22.28465], [113.558124, 22.285437], [113.557057, 22.285315], [113.556973, 22.286249], [113.556812, 22.286618], [113.55615, 22.286558], [113.556027, 22.287004], [113.555543, 22.286891], [113.555499, 22.286847], [113.555243, 22.286792], [113.555339, 22.286238], [113.553809, 22.28602], [113.553701, 22.285962], [113.553666, 22.285904], [113.553635, 22.285808]]]}, "properties": {"display_name": "香洲北中央商务区（建设中）, 翠香街道, 香洲区, 珠海市, 广东省, 519000, 中国", "type": "industrial", "osm_type": "way", "osm_id": 1272187096, "class": null, "keyword": "中央区"}}, {"type": "Feature", "geometry": {"type": "Polygon", "coordinates": [[[113.543622, 22.404904], [113.54403, 22.402039], [113.545947, 22.402272], [113.546147, 22.402468], [113.546034, 22.403543], [113.545389, 22.403485], [113.54535, 22.403853], [113.545692, 22.403884], [113.545643, 22.40434], [113.545996, 22.404372], [113.545927, 22.405023], [113.545761, 22.405164], [113.543622, 22.404904]]]}, "properties": {"display_name": "北站宝龙城购物中心, 唐家湾镇, 香洲区, 珠海市, 广东省, 519000, 中国", "type": "construction", "osm_type": "way", "osm_id": 1117408734, "class": null, "keyword": "中心城区"}}, {"type": "Feature", "geometry": {"type": "Polygon", "coordinates": [[[113.504716, 22.306596], [113.504727, 22.305237], [113.504831, 22.305048], [113.50485, 22.304641], [113.504952, 22.304547], [113.505228, 22.304502], [113.507296, 22.304506], [113.5074, 22.304574], [113.507403, 22.306038], [113.50738, 22.306376], [113.507097, 22.306724], [113.504793, 22.306798], [113.504716, 22.306596]]]}, "properties": {"display_name": "珠海市殡葬服务中心, 青松路, 凤山街道, 香洲区, 珠海市, 广东省, 519000, 中国", "type": "funeral_directors", "osm_type": "way", "osm_id": 1116875904, "class": null, "keyword": "市中心"}}, {"type": "Feature", "geometry": {"type": "Polygon", "coordinates": [[[113.536068, 22.27464], [113.536085, 22.274565], [113.536121, 22.274506], [113.536198, 22.274444], [113.537728, 22.27349], [113.537846, 22.273446], [113.538759, 22.273578], [113.538798, 22.273562], [113.539154, 22.273275], [113.53962, 22.27334], [113.539159, 22.275518], [113.536095, 22.274912], [113.536077, 22.274821], [113.536068, 22.274715], [113.536068, 22.27464]]]}, "properties": {"display_name": "新城市中心广场, 梅华街道, 香洲区, 珠海市, 广东省, 519000, 中国", "type": "residential", "osm_type": "way", "osm_id": 1222767987, "class": null, "keyword": "市中心"}}, {"type": "Feature", "geometry": {"type": "Polygon", "coordinates": [[[113.538495, 22.283518], [113.538819, 22.282165], [113.542177, 22.282848], [113.542002, 22.283668], [113.541846, 22.283926], [113.541791, 22.283986], [113.54174, 22.284027], [113.541702, 22.284049], [113.541611, 22.284084], [113.541523, 22.284102], [113.54144, 22.284107], [113.541363, 22.284108], [113.541261, 22.284101], [113.540936, 22.284063], [113.538495, 22.283518]]]}, "properties": {"display_name": "珠海市民服务中心, 梅华街道, 香洲区, 珠海市, 广东省, 519000, 中国", "type": "commercial", "osm_type": "way", "osm_id": 192919870, "class": null, "keyword": "市中心"}}, {"type": "Feature", "geometry": {"type": "Polygon", "coordinates": [[[113.500403, 22.306466], [113.500548, 22.306366], [113.500773, 22.306267], [113.501031, 22.306024], [113.501122, 22.305537], [113.501234, 22.305389], [113.501454, 22.30522], [113.501621, 22.305011], [113.501658, 22.304808], [113.50169, 22.304401], [113.501723, 22.304202], [113.50185, 22.303922], [113.502018, 22.303805], [113.502179, 22.303751], [113.502382, 22.303746], [113.502597, 22.303776], [113.502903, 22.303567], [113.502495, 22.304585], [113.502259, 22.305111], [113.502248, 22.305379], [113.502152, 22.305498], [113.502104, 22.30649], [113.502168, 22.30783], [113.501755, 22.307801], [113.501642, 22.307647], [113.501412, 22.307314], [113.501181, 22.307255], [113.50117, 22.307136], [113.500993, 22.30714], [113.500644, 22.307533], [113.500446, 22.307413], [113.500585, 22.307185], [113.500639, 22.307001], [113.500607, 22.306778], [113.500521, 22.306634], [113.500403, 22.306466]]]}, "properties": {"display_name": "珠海市城市固体废弃物处理中心(已停运), 凤山街道, 香洲区, 珠海市, 广东省, 519000, 中国", "type": "industrial", "osm_type": "way", "osm_id": 1091187490, "class": null, "keyword": "市中心"}}, {"type": "Feature", "geometry": {"type": "Polygon", "coordinates": [[[113.51791, 22.23811], [113.517926, 22.238066], [113.517953, 22.238036], [113.517988, 22.238007], [113.518013, 22.237994], [113.518034, 22.237949], [113.518057, 22.23792], [113.518091, 22.2379], [113.518124, 22.237895], [113.518236, 22.237886], [113.518671, 22.237509], [113.519004, 22.237008], [113.519047, 22.236968], [113.519374, 22.236762], [113.519436, 22.236755], [113.519593, 22.236749], [113.519726, 22.236588], [113.519786, 22.236495], [113.51979, 22.236308], [113.519802, 22.236179], [113.519945, 22.23592], [113.520035, 22.235855], [113.520061, 22.23579], [113.520082, 22.235742], [113.520133, 22.235727], [113.520199, 22.235703], [113.520297, 22.235608], [113.520388, 22.235554], [113.52032, 22.235444], [113.520432, 22.235375], [113.520512, 22.235492], [113.520647, 22.235453], [113.520719, 22.235457], [113.520951, 22.235511], [113.521546, 22.235989], [113.521377, 22.236157], [113.521416, 22.236214], [113.520367, 22.237081], [113.520135, 22.237309], [113.519885, 22.237449], [113.519752, 22.237615], [113.519522, 22.237841], [113.519272, 22.237981], [113.519055, 22.238232], [113.518791, 22.238424], [113.518321, 22.238604], [113.518229, 22.238482], [113.518172, 22.238495], [113.518114, 22.238497], [113.518082, 22.238475], [113.518036, 22.238431], [113.518015, 22.238383], [113.517967, 22.238374], [113.517932, 22.238352], [113.517912, 22.238325], [113.51791, 22.238269], [113.517928, 22.238211], [113.51791, 22.238157], [113.51791, 22.23811]]]}, "properties": {"display_name": "环宇城购物中心, 前河北路, 前山街道, 香洲区, 珠海市, 广东省, 519000, 中国", "type": "mall", "osm_type": "way", "osm_id": 1137106448, "class": null, "keyword": "中心城区"}}, {"type": "Feature", "geometry": {"type": "Polygon", "coordinates": [[[113.529638, 22.276101], [113.529715, 22.275862], [113.529848, 22.275632], [113.529999, 22.27546], [113.530185, 22.275297], [113.53019, 22.275352], [113.530448, 22.275246], [113.530712, 22.275203], [113.531019, 22.275217], [113.531375, 22.275326], [113.531595, 22.275472], [113.531714, 22.27565], [113.531731, 22.275613], [113.531877, 22.275794], [113.531965, 22.276002], [113.531985, 22.276358], [113.531888, 22.276693], [113.531678, 22.276952], [113.531403, 22.277119], [113.531403, 22.277073], [113.531158, 22.277176], [113.530921, 22.277214], [113.530675, 22.277197], [113.530379, 22.277135], [113.530153, 22.277004], [113.529949, 22.276848], [113.529922, 22.276915], [113.529755, 22.276693], [113.529647, 22.276438], [113.529638, 22.276101]]]}, "properties": {"display_name": "珠海体育中心体育场, 健走步道, 梅华街道, 香洲区, 珠海市, 广东省, 519000, 中国", "type": "stadium", "osm_type": "way", "osm_id": 154533966, "class": null, "keyword": "city centre"}}, {"type": "Feature", "geometry": {"type": "Polygon", "coordinates": [[[113.358653, 22.117531], [113.360846, 22.118024], [113.360454, 22.11954], [113.360403, 22.119608], [113.360251, 22.119661], [113.358845, 22.119348], [113.358653, 22.117531]]]}, "properties": {"display_name": "金湾区市民服务中心, 三灶镇, 金湾区, 珠海市, 广东省, 中国", "type": "commercial", "osm_type": "way", "osm_id": 1158221176, "class": null, "keyword": "市中心"}}, {"type": "Feature", "geometry": {"type": "Polygon", "coordinates": [[[113.490156, 22.282348], [113.493335, 22.277937], [113.493812, 22.278307], [113.491018, 22.2816], [113.490259, 22.282433], [113.490156, 22.282348]]]}, "properties": {"display_name": "汇晟达二手车中心, 凤山街道, 香洲区, 珠海市, 广东省, 519000, 中国", "type": "industrial", "osm_type": "way", "osm_id": 1244562018, "class": null, "keyword": "中心城区"}}, {"type": "Feature", "geometry": {"type": "Polygon", "coordinates": [[[113.53014, 22.350129], [113.530224, 22.348914], [113.530711, 22.348814], [113.531109, 22.349045], [113.531398, 22.349124], [113.531603, 22.349211], [113.531746, 22.349305], [113.531763, 22.349394], [113.531768, 22.349458], [113.531803, 22.349519], [113.531816, 22.349538], [113.531811, 22.349558], [113.531837, 22.349707], [113.531797, 22.349823], [113.531778, 22.349881], [113.531767, 22.350024], [113.531731, 22.350098], [113.531717, 22.350146], [113.531224, 22.350123], [113.530699, 22.350099], [113.530617, 22.350096], [113.530159, 22.35018], [113.53014, 22.350129]]]}, "properties": {"display_name": "北京师范大学珠海校区游泳馆, 体育路, 唐家湾镇, 香洲区, 珠海市, 广东省, 519000, 中国", "type": "sports_centre", "osm_type": "way", "osm_id": 900510415, "class": null, "keyword": "city centre"}}, {"type": "Feature", "geometry": {"type": "Polygon", "coordinates": [[[113.526883, 22.278227], [113.527269, 22.27651], [113.527891, 22.276599], [113.527714, 22.277448], [113.528213, 22.277771], [113.528235, 22.278024], [113.528476, 22.278193], [113.528471, 22.278456], [113.526883, 22.278227]]]}, "properties": {"display_name": "珠海市全民健身中心, 梅华街道, 香洲区, 珠海市, 广东省, 519000, 中国", "type": "commercial", "osm_type": "way", "osm_id": 1116898523, "class": null, "keyword": "市中心"}}, {"type": "Feature", "geometry": {"type": "Polygon", "coordinates": [[[113.550588, 22.222354], [113.552178, 22.222016], [113.552494, 22.222733], [113.552573, 22.222931], [113.552366, 22.222985], [113.550907, 22.22318], [113.550728, 22.22287], [113.550615, 22.222526], [113.550588, 22.222354]]]}, "properties": {"display_name": "万菱环球中心（前莲花万景城）, 拱北街道, 香洲区, 珠海市, 广东省, 519000, 中国", "type": "construction", "osm_type": "way", "osm_id": 1047710832, "class": null, "keyword": "中心城区"}}, {"type": "Feature", "geometry": {"type": "Polygon", "coordinates": [[[113.518755, 22.254993], [113.518811, 22.25448], [113.519886, 22.25435], [113.519965, 22.254805], [113.5201, 22.255501], [113.519957, 22.255515], [113.51927, 22.25573], [113.519247, 22.255673], [113.519022, 22.255747], [113.518831, 22.255438], [113.518755, 22.254993]]]}, "properties": {"display_name": "香洲区颐合康养中心, 翠前南路, 前山街道, 香洲区, 珠海市, 广东省, 519000, 中国", "type": "social_facility", "osm_type": "way", "osm_id": 1235823639, "class": null, "keyword": "中央区"}}, {"type": "Feature", "geometry": {"type": "Polygon", "coordinates": [[[113.544414, 22.274507], [113.544494, 22.274019], [113.544565, 22.273685], [113.544674, 22.273526], [113.544829, 22.273409], [113.545018, 22.27334], [113.545242, 22.273337], [113.545468, 22.273346], [113.545739, 22.273391], [113.545694, 22.273624], [113.545844, 22.273922], [113.544924, 22.274503], [113.544612, 22.274536], [113.544414, 22.274507]]]}, "properties": {"display_name": "珠海市少年儿童保护教育中心, 人民东路, 翠香街道, 香洲区, 珠海市, 广东省, 519000, 中国", "type": "social_facility", "osm_type": "way", "osm_id": 1223310625, "class": null, "keyword": "市中心"}}, {"type": "Feature", "geometry": {"type": "Polygon", "coordinates": [[[113.483897, 22.301184], [113.484496, 22.300499], [113.485461, 22.30122], [113.484862, 22.301906], [113.483897, 22.301184]], [[113.484648, 22.301318], [113.484838, 22.301457], [113.484979, 22.301293], [113.484789, 22.301153], [113.484648, 22.301318]]]}, "properties": {"display_name": "珠海市农产品物流与安全监测中心, 香洲大道, 凤山街道, 香洲区, 珠海市, 广东省, 519000, 中国", "type": "government", "osm_type": "relation", "osm_id": 18952590, "class": null, "keyword": "市中心"}}, {"type": "Feature", "geometry": {"type": "Polygon", "coordinates": [[[113.545703, 22.244105], [113.545791, 22.244097], [113.545984, 22.244076], [113.547, 22.244237], [113.546929, 22.244881], [113.546607, 22.244855], [113.546507, 22.244954], [113.546262, 22.244953], [113.546105, 22.245037], [113.545794, 22.245022], [113.545704, 22.245013], [113.545703, 22.244105]]]}, "properties": {"display_name": "珠海城建设施管理中心, 吉大街道, 香洲区, 珠海市, 广东省, 519000, 中国", "type": "industrial", "osm_type": "way", "osm_id": 1285631440, "class": null, "keyword": "市中心"}}, {"type": "Feature", "geometry": {"type": "Polygon", "coordinates": [[[113.50019, 22.221068], [113.500484, 22.220381], [113.500812, 22.219919], [113.501528, 22.220356], [113.501338, 22.220564], [113.501173, 22.220864], [113.500963, 22.221352], [113.50019, 22.221068]]]}, "properties": {"display_name": "珠海市养老中心, 南园街, 南屏镇, 香洲区, 珠海市, 广东省, 519000, 中国", "type": "social_facility", "osm_type": "way", "osm_id": 1267937338, "class": null, "keyword": "市中心"}}, {"type": "Feature", "geometry": {"type": "Polygon", "coordinates": [[[113.526421, 22.260802], [113.526448, 22.259681], [113.527095, 22.259673], [113.527128, 22.260821], [113.526421, 22.260802]]]}, "properties": {"display_name": "珠海市社会福利中心, 翠峰街, 杏花苑, 梅华街道, 香洲区, 珠海市, 广东省, 519000, 中国", "type": "social_facility", "osm_type": "way", "osm_id": 1235603812, "class": null, "keyword": "市中心"}}, {"type": "Feature", "geometry": {"type": "Polygon", "coordinates": [[[113.568408, 22.29691], [113.569413, 22.296785], [113.569563, 22.297145], [113.569435, 22.297208], [113.569165, 22.297541], [113.568514, 22.297714], [113.568408, 22.29691]]]}, "properties": {"display_name": "香湾市民艺术中心, 梅华东路, 香湾街道, 香洲区, 珠海市, 广东省, 519000, 中国", "type": "school", "osm_type": "way", "osm_id": 1227172584, "class": null, "keyword": "市中心"}}, {"type": "Feature", "geometry": {"type": "Polygon", "coordinates": [[[113.361989, 22.13476], [113.362495, 22.134219], [113.362871, 22.134523], [113.363169, 22.134769], [113.362656, 22.1353], [113.361989, 22.13476]]]}, "properties": {"display_name": "珠海市路灯服务中心, 211, 金瀚路, 三灶镇, 金湾区, 珠海市, 广东省, 519090, 中国", "type": "government", "osm_type": "way", "osm_id": 1347767531, "class": null, "keyword": "市中心"}}, {"type": "Feature", "geometry": {"type": "Polygon", "coordinates": [[[113.309787, 22.215661], [113.310369, 22.215145], [113.310942, 22.21572], [113.31035, 22.216226], [113.309787, 22.215661]]]}, "properties": {"display_name": "白蕉中心市场, 南沙路, 白蕉镇, 斗门区, 珠海市, 广东省, 中国", "type": "marketplace", "osm_type": "way", "osm_id": 1414082393, "class": null, "keyword": "市中心"}}, {"type": "Feature", "geometry": {"type": "Polygon", "coordinates": [[[113.510775, 22.266314], [113.51082, 22.265856], [113.511822, 22.265955], [113.511743, 22.266676], [113.510775, 22.266314]]]}, "properties": {"display_name": "交通运输安全事务中心, 前山街道, 香洲区, 珠海市, 广东省, 519000, 中国", "type": "commercial", "osm_type": "way", "osm_id": 1230165919, "class": null, "keyword": "市中心"}}, {"type": "Feature", "geometry": {"type": "Polygon", "coordinates": [[[113.560909, 22.247109], [113.5611, 22.24663], [113.562, 22.246931], [113.562033, 22.24704], [113.561884, 22.247416], [113.560909, 22.247109]]]}, "properties": {"display_name": "珠海市房屋登记中心, 吉大街道, 香洲区, 珠海市, 广东省, 519000, 中国", "type": "commercial", "osm_type": "way", "osm_id": 1285631454, "class": null, "keyword": "市中心"}}, {"type": "Feature", "geometry": {"type": "Polygon", "coordinates": [[[113.544582, 22.272625], [113.545227, 22.272567], [113.545266, 22.272347], [113.545856, 22.27243], [113.545747, 22.272996], [113.545205, 22.272892], [113.544849, 22.27278], [113.544667, 22.272705], [113.544582, 22.272625]]]}, "properties": {"display_name": "珠海市慢性病防治中心, 南村隧道, 翠香街道, 香洲区, 珠海市, 广东省, 519000, 中国", "type": "hospital", "osm_type": "way", "osm_id": 1222762863, "class": null, "keyword": "市中心"}}, {"type": "Feature", "geometry": {"type": "Polygon", "coordinates": [[[113.530183, 22.254334], [113.530759, 22.254098], [113.530821, 22.254261], [113.530837, 22.254303], [113.53076, 22.254327], [113.530871, 22.254554], [113.53109, 22.254491], [113.531156, 22.254652], [113.530942, 22.254718], [113.530389, 22.254893], [113.530183, 22.254334]]]}, "properties": {"display_name": "饮食服务中心, 致远路, 前山街道, 香洲区, 珠海市, 广东省, 519000, 中国", "type": "restaurant", "osm_type": "relation", "osm_id": 7714334, "class": null, "keyword": "市中心"}}, {"type": "Feature", "geometry": {"type": "Polygon", "coordinates": [[[113.551034, 22.285245], [113.551115, 22.284672], [113.551711, 22.28474], [113.551624, 22.285318], [113.551034, 22.285245]]]}, "properties": {"display_name": "香洲政府投建工程中心, 翠香街道, 香洲区, 珠海市, 广东省, 519000, 中国", "type": "commercial", "osm_type": "way", "osm_id": 1347739572, "class": null, "keyword": "中心城区"}}, {"type": "Feature", "geometry": {"type": "Polygon", "coordinates": [[[113.548957, 22.238462], [113.548984, 22.238139], [113.550052, 22.238546], [113.549913, 22.23884], [113.548957, 22.238462]]]}, "properties": {"display_name": "珠海数字化城市管理中心, 吉大街道, 香洲区, 珠海市, 广东省, 519000, 中国", "type": "commercial", "osm_type": "way", "osm_id": 1285631468, "class": null, "keyword": "市中心"}}, {"type": "Feature", "geometry": {"type": "Polygon", "coordinates": [[[113.583733, 22.251443], [113.583739, 22.251287], [113.583833, 22.251171], [113.584066, 22.251333], [113.58412, 22.251269], [113.584466, 22.251511], [113.584381, 22.25161], [113.584253, 22.251852], [113.583969, 22.251719], [113.58386, 22.251652], [113.58379, 22.251561], [113.583733, 22.251443]]]}, "properties": {"display_name": "城市中心酒店, 吉大街道, 香洲区, 珠海市, 广东省, 519000, 中国", "type": "commercial", "osm_type": "way", "osm_id": 1313563311, "class": null, "keyword": "市中心"}}, {"type": "Feature", "geometry": {"type": "Polygon", "coordinates": [[[113.514881, 22.352029], [113.514883, 22.351943], [113.514961, 22.351927], [113.51496, 22.351882], [113.514985, 22.351883], [113.51499, 22.351817], [113.515305, 22.351841], [113.515306, 22.351704], [113.515378, 22.351654], [113.51557, 22.351857], [113.515563, 22.351993], [113.515485, 22.351993], [113.515484, 22.352006], [113.515342, 22.352001], [113.515162, 22.351989], [113.515179, 22.352139], [113.515126, 22.352146], [113.514901, 22.352176], [113.514881, 22.352029]]]}, "properties": {"display_name": "T1 厚德楼, 大学道, 唐家湾镇, 香洲区, 珠海市, 广东省, 519000, 中国", "type": "university", "osm_type": "way", "osm_id": 664082910, "class": null, "keyword": "business district"}}, {"type": "Feature", "geometry": {"type": "Polygon", "coordinates": [[[113.591866, 22.36846], [113.59188, 22.368402], [113.592046, 22.368432], [113.592043, 22.368514], [113.592062, 22.368583], [113.592102, 22.368631], [113.592169, 22.368678], [113.592247, 22.368692], [113.592338, 22.368692], [113.592389, 22.368661], [113.592435, 22.368618], [113.592462, 22.368576], [113.592397, 22.368504], [113.592462, 22.36841], [113.592494, 22.368395], [113.592566, 22.368559], [113.592596, 22.368576], [113.592577, 22.368618], [113.59262, 22.368643], [113.592558, 22.368735], [113.592462, 22.368812], [113.592314, 22.368856], [113.592167, 22.368849], [113.59203, 22.368792], [113.591952, 22.368727], [113.591898, 22.368638], [113.591869, 22.368539], [113.591866, 22.36846]]]}, "properties": {"display_name": "珠海市高新区政务服务中心, 港乐路, 唐家湾镇, 香洲区, 珠海市, 广东省, 519000, 中国", "type": "office", "osm_type": "way", "osm_id": 226146597, "class": null, "keyword": "市中心"}}, {"type": "Feature", "geometry": {"type": "Polygon", "coordinates": [[[113.532757, 22.255506], [113.532762, 22.255333], [113.532976, 22.255316], [113.533507, 22.255342], [113.533519, 22.255635], [113.533378, 22.255649], [113.533375, 22.255511], [113.532757, 22.255506]]]}, "properties": {"display_name": "珠海市中心血站, 翠微东路, 梅华街道, 香洲区, 珠海市, 广东省, 519000, 中国", "type": "blood_donation", "osm_type": "way", "osm_id": 538784863, "class": null, "keyword": "市中心"}}, {"type": "Feature", "geometry": {"type": "Polygon", "coordinates": [[[113.544435, 22.259853], [113.544609, 22.25975], [113.54484, 22.260081], [113.544882, 22.260056], [113.544941, 22.26014], [113.544562, 22.260366], [113.54446, 22.26022], [113.544623, 22.260123], [113.544435, 22.259853]]]}, "properties": {"display_name": "珠海公共工程建设中心, 锦柠路, 锦绣柠溪, 翠香街道, 香洲区, 珠海市, 广东省, 519000, 中国", "type": "yes", "osm_type": "way", "osm_id": 1209750481, "class": null, "keyword": "中心城区"}}, {"type": "Feature", "geometry": {"type": "Polygon", "coordinates": [[[113.315704, 22.201031], [113.315781, 22.200987], [113.315933, 22.201168], [113.315982, 22.201159], [113.316063, 22.201261], [113.316096, 22.201246], [113.316094, 22.201162], [113.316242, 22.20111], [113.316374, 22.20131], [113.316012, 22.201487], [113.315704, 22.201031]]]}, "properties": {"display_name": "白蕉市民艺术中心, 25号, 虹桥一路, 白蕉镇, 斗门区, 珠海市, 广东省, 中国", "type": "community_centre", "osm_type": "way", "osm_id": 1411613498, "class": null, "keyword": "市中心"}}, {"type": "Feature", "geometry": {"type": "Polygon", "coordinates": [[[113.51062, 22.262503], [113.510639, 22.262306], [113.511025, 22.262338], [113.511006, 22.262534], [113.51062, 22.262503]]]}, "properties": {"display_name": "交通事故快处快赔中心, 翠珠路, 翠珠工业区, 前山街道, 香洲区, 珠海市, 广东省, 519000, 中国", "type": "industrial", "osm_type": "way", "osm_id": 740510614, "class": null, "keyword": "市中心"}}, {"type": "Feature", "geometry": {"type": "Polygon", "coordinates": [[[113.529578, 22.272565], [113.529633, 22.272233], [113.529848, 22.272264], [113.529793, 22.272595], [113.529578, 22.272565]]]}, "properties": {"display_name": "珠海市环境监测中心, 红宝路, 宝地康泰, 梅华街道, 香洲区, 珠海市, 广东省, 519000, 中国", "type": "yes", "osm_type": "way", "osm_id": 192926502, "class": null, "keyword": "市中心"}}, {"type": "Feature", "geometry": {"type": "Polygon", "coordinates": [[[113.503114, 22.238748], [113.503169, 22.238642], [113.503601, 22.23883], [113.503542, 22.238945], [113.503473, 22.238956], [113.503392, 22.238921], [113.503417, 22.238872], [113.503283, 22.238814], [113.503258, 22.238864], [113.50315, 22.238817], [113.503114, 22.238748]]]}, "properties": {"display_name": "福石社区党群服务中心, 岱山路, 前山街道, 香洲区, 珠海市, 广东省, 519000, 中国", "type": "yes", "osm_type": "way", "osm_id": 1241226601, "class": null, "keyword": "市中心"}}, {"type": "Feature", "geometry": {"type": "Polygon", "coordinates": [[[113.305168, 22.21083], [113.305408, 22.210473], [113.305551, 22.210542], [113.305294, 22.210905], [113.305168, 22.21083]]]}, "properties": {"display_name": "时代天韵营销中心, 同盛路, 白蕉镇, 斗门区, 珠海市, 广东省, 中国", "type": "yes", "osm_type": "way", "osm_id": 1412707488, "class": null, "keyword": "市中心"}}, {"type": "Feature", "geometry": {"type": "Polygon", "coordinates": [[[113.544711, 22.260448], [113.544806, 22.260385], [113.545134, 22.260503], [113.544882, 22.260669], [113.544711, 22.260448]]]}, "properties": {"display_name": "珠海园林绿化和市容环境管理中心, 柠溪路, 翠香街道, 香洲区, 珠海市, 广东省, 519000, 中国", "type": "yes", "osm_type": "way", "osm_id": 1209750482, "class": null, "keyword": "市中心"}}, {"type": "Feature", "geometry": {"type": "Polygon", "coordinates": [[[113.52576, 22.266621], [113.52578, 22.266473], [113.525929, 22.26649], [113.525938, 22.266425], [113.526099, 22.266443], [113.526071, 22.266656], [113.52576, 22.266621]]]}, "properties": {"display_name": "梅华市民艺术中心, 上华路, 梅华街道, 香洲区, 珠海市, 广东省, 519000, 中国", "type": "commercial", "osm_type": "way", "osm_id": 1235220141, "class": null, "keyword": "市中心"}}, {"type": "Feature", "geometry": {"type": "Polygon", "coordinates": [[[113.340768, 22.143813], [113.340842, 22.143679], [113.341099, 22.143797], [113.341027, 22.143935], [113.340768, 22.143813]]]}, "properties": {"display_name": "红旗中心市场, 民兴街, 藤山社区, 红旗镇, 金湾区, 珠海市, 广东省, 519090, 中国", "type": "marketplace", "osm_type": "way", "osm_id": 1413857579, "class": null, "keyword": "市中心"}}, {"type": "Feature", "geometry": {"type": "Polygon", "coordinates": [[[113.517025, 22.258557], [113.517268, 22.258515], [113.517287, 22.258611], [113.51719, 22.258628], [113.517213, 22.258742], [113.517067, 22.258767], [113.517025, 22.258557]]]}, "properties": {"display_name": "翠微村改造更新项目展示中心, 大坊街, 隆泉新村, 前山街道, 香洲区, 珠海市, 广东省, 519000, 中国", "type": "yes", "osm_type": "way", "osm_id": 1235603774, "class": null, "keyword": "市中心"}}, {"type": "Feature", "geometry": {"type": "Polygon", "coordinates": [[[113.56694, 22.242962], [113.567157, 22.242905], [113.567196, 22.243035], [113.566979, 22.243091], [113.56694, 22.242962]]]}, "properties": {"display_name": "澳門日報珠海辦事處 (新媒體中心), 355, 水湾路, 吉大街道, 香洲区, 珠海市, 广东省, 519000, 中国", "type": "newspaper", "osm_type": "way", "osm_id": 1098442023, "class": null, "keyword": "市中心"}}]}