{"type": "FeatureCollection", "features": [{"type": "Feature", "geometry": {"type": "Polygon", "coordinates": [[[113.440786, 27.669864], [113.441002, 27.669352], [113.441776, 27.66979], [113.442464, 27.670038], [113.442722, 27.669849], [113.4424, 27.669544], [113.4427, 27.669373], [113.443023, 27.669735], [113.443389, 27.669508], [113.443002, 27.668804], [113.441991, 27.669296], [113.441927, 27.668897], [113.44283, 27.668424], [113.44341, 27.668273], [113.442744, 27.667492], [113.442723, 27.66715], [113.44341, 27.666981], [113.443669, 27.667418], [113.443239, 27.667816], [113.443798, 27.668064], [113.444551, 27.667895], [113.444271, 27.667172], [113.443798, 27.666677], [113.444142, 27.666051], [113.444271, 27.665538], [113.443604, 27.665062], [113.443346, 27.665232], [113.442937, 27.665707], [113.442809, 27.665516], [113.442959, 27.664966], [113.442701, 27.664699], [113.442141, 27.664641], [113.442357, 27.664413], [113.442744, 27.664224], [113.442529, 27.66392], [113.442809, 27.663274], [113.443023, 27.662989], [113.443023, 27.662629], [113.442701, 27.6624], [113.443088, 27.662401], [113.443519, 27.662173], [113.444379, 27.660845], [113.444551, 27.661073], [113.444206, 27.661528], [113.443712, 27.662402], [113.443819, 27.662592], [113.444163, 27.662212], [113.444465, 27.662441], [113.444078, 27.662744], [113.444078, 27.663048], [113.444292, 27.663163], [113.444615, 27.663011], [113.444981, 27.662214], [113.445024, 27.661815], [113.444852, 27.66153], [113.444895, 27.660883], [113.445304, 27.660332], [113.445282, 27.659838], [113.445777, 27.659268], [113.446293, 27.658965], [113.446917, 27.658719], [113.446616, 27.658263], [113.445906, 27.657805], [113.445777, 27.657348], [113.446014, 27.656399], [113.446508, 27.656361], [113.447003, 27.656571], [113.447347, 27.6568], [113.447842, 27.656174], [113.447885, 27.65566], [113.447692, 27.655527], [113.447692, 27.655014], [113.448143, 27.654787], [113.447971, 27.654482], [113.447949, 27.653931], [113.447821, 27.65355], [113.447283, 27.653549], [113.447112, 27.653852], [113.446659, 27.653471], [113.446251, 27.653452], [113.445993, 27.653166], [113.44567, 27.653394], [113.445261, 27.653393], [113.44481, 27.653145], [113.444724, 27.65286], [113.444745, 27.652632], [113.444445, 27.652479], [113.443971, 27.652745], [113.443627, 27.65244], [113.443885, 27.65206], [113.443563, 27.65166], [113.44296, 27.651374], [113.443026, 27.650804], [113.44266, 27.650594], [113.442273, 27.650536], [113.442531, 27.650024], [113.442251, 27.649547], [113.442509, 27.649073], [113.442294, 27.648616], [113.442466, 27.648388], [113.442983, 27.648218], [113.442853, 27.647875], [113.443713, 27.647801], [113.44395, 27.648068], [113.444186, 27.647877], [113.444725, 27.647973], [113.445089, 27.648184], [113.445434, 27.647994], [113.446144, 27.648471], [113.447047, 27.648435], [113.44737, 27.648246], [113.447671, 27.648169], [113.447822, 27.647846], [113.448316, 27.647733], [113.449435, 27.647755], [113.449155, 27.646975], [113.448445, 27.645871], [113.448704, 27.645396], [113.447672, 27.644615], [113.448209, 27.643912], [113.448984, 27.643686], [113.450145, 27.642661], [113.450102, 27.641825], [113.450554, 27.641179], [113.451887, 27.64103], [113.452318, 27.640669], [113.452835, 27.640518], [113.453265, 27.640139], [113.454082, 27.640122], [113.454427, 27.639686], [113.454491, 27.639096], [113.455589, 27.639136], [113.455718, 27.639404], [113.456127, 27.639061], [113.457009, 27.638018], [113.457482, 27.638057], [113.457762, 27.637354], [113.457741, 27.636746], [113.457892, 27.63629], [113.457462, 27.635928], [113.457655, 27.635472], [113.457569, 27.63473], [113.457741, 27.634332], [113.457655, 27.633819], [113.457419, 27.633133], [113.457462, 27.632715], [113.456902, 27.632277], [113.457246, 27.63184], [113.457699, 27.631841], [113.457999, 27.631461], [113.458129, 27.631082], [113.459355, 27.631122], [113.459958, 27.630725], [113.460195, 27.630154], [113.46082, 27.629396], [113.461034, 27.629529], [113.461487, 27.629188], [113.46181, 27.629037], [113.461723, 27.628238], [113.461896, 27.627212], [113.46181, 27.626432], [113.461917, 27.625748], [113.462326, 27.625255], [113.462714, 27.624362], [113.462714, 27.623526], [113.463661, 27.622577], [113.463553, 27.622121], [113.463273, 27.621417], [113.464049, 27.621419], [113.465103, 27.621327], [113.465813, 27.621025], [113.466653, 27.62095], [113.4676, 27.619641], [113.467579, 27.61812], [113.467127, 27.617568], [113.46689, 27.617015], [113.467127, 27.616655], [113.4676, 27.616466], [113.468182, 27.616487], [113.468655, 27.616184], [113.469064, 27.616014], [113.469431, 27.615616], [113.470055, 27.615523], [113.471196, 27.615202], [113.471007, 27.615026], [113.471924, 27.614521], [113.47186, 27.614045], [113.472441, 27.613173], [113.474551, 27.61082], [113.475283, 27.610689], [113.475778, 27.609969], [113.476489, 27.609457], [113.477759, 27.609289], [113.477652, 27.608073], [113.478556, 27.607333], [113.478448, 27.607086], [113.478749, 27.606897], [113.479159, 27.606309], [113.47946, 27.605492], [113.479805, 27.604828], [113.479935, 27.604106], [113.479633, 27.603325], [113.479698, 27.602755], [113.47959, 27.602469], [113.479826, 27.602394], [113.479612, 27.60205], [113.479849, 27.601994], [113.479956, 27.601899], [113.480322, 27.602281], [113.480732, 27.601654], [113.481722, 27.60179], [113.481872, 27.602038], [113.48226, 27.601602], [113.482562, 27.600822], [113.483617, 27.599646], [113.484091, 27.597784], [113.482928, 27.597742], [113.482993, 27.59721], [113.483273, 27.596431], [113.48282, 27.595649], [113.483057, 27.595327], [113.48394, 27.595768], [113.484328, 27.596092], [113.484241, 27.596757], [113.484586, 27.597044], [113.484521, 27.597651], [113.484715, 27.598147], [113.485275, 27.597539], [113.485814, 27.59756], [113.4859, 27.597941], [113.48618, 27.598341], [113.486417, 27.597676], [113.486697, 27.597734], [113.486546, 27.59857], [113.487257, 27.59861], [113.487063, 27.597887], [113.487795, 27.597851], [113.48829, 27.598024], [113.488657, 27.597511], [113.489259, 27.597475], [113.489647, 27.596734], [113.48969, 27.597477], [113.489992, 27.597554], [113.490185, 27.596832], [113.490465, 27.596909], [113.490358, 27.597555], [113.490595, 27.59784], [113.491693, 27.598395], [113.492166, 27.598473], [113.492017, 27.598796], [113.492188, 27.59931], [113.492942, 27.599521], [113.492878, 27.599787], [113.493395, 27.600055], [113.494126, 27.599639], [113.494515, 27.599146], [113.495613, 27.599339], [113.495613, 27.599909], [113.495161, 27.600441], [113.494881, 27.601524], [113.494536, 27.601637], [113.494105, 27.602054], [113.493653, 27.602623], [113.493567, 27.603288], [113.493178, 27.60403], [113.492942, 27.604751], [113.492985, 27.605151], [113.493201, 27.605437], [113.492964, 27.605988], [113.493222, 27.606197], [113.493975, 27.605421], [113.494708, 27.605708], [113.495311, 27.605729], [113.495483, 27.60552], [113.496302, 27.605466], [113.496819, 27.606018], [113.496236, 27.606758], [113.496753, 27.606912], [113.497206, 27.606799], [113.497443, 27.606914], [113.49768, 27.606763], [113.498153, 27.606916], [113.497982, 27.607392], [113.497615, 27.607638], [113.497658, 27.607923], [113.498305, 27.607621], [113.498627, 27.607812], [113.498627, 27.608249], [113.499015, 27.60844], [113.499015, 27.607433], [113.498908, 27.606538], [113.498585, 27.60513], [113.499296, 27.604924], [113.500674, 27.603863], [113.501966, 27.603106], [113.502376, 27.603107], [113.502828, 27.603393], [113.503215, 27.603413], [113.503065, 27.602558], [113.504077, 27.602466], [113.504465, 27.602086], [113.505132, 27.602107], [113.505499, 27.602527], [113.505628, 27.603022], [113.506124, 27.603403], [113.50636, 27.604089], [113.506425, 27.604621], [113.506877, 27.604775], [113.507178, 27.605137], [113.507437, 27.605994], [113.507522, 27.606583], [113.508751, 27.606226], [113.509095, 27.606208], [113.509225, 27.606702], [113.50916, 27.607482], [113.509203, 27.6079], [113.509569, 27.607712], [113.511228, 27.607925], [113.51211, 27.608213], [113.511809, 27.610019], [113.511809, 27.610399], [113.510689, 27.610358], [113.509096, 27.611589], [113.50832, 27.611264], [113.507739, 27.611281], [113.50748, 27.611698], [113.508212, 27.612861], [113.508816, 27.613413], [113.50959, 27.613853], [113.509849, 27.614425], [113.509784, 27.614785], [113.510344, 27.615015], [113.510797, 27.615567], [113.511421, 27.615189], [113.511205, 27.614751], [113.511722, 27.614163], [113.512411, 27.61483], [113.513036, 27.615251], [113.513122, 27.61603], [113.512821, 27.616637], [113.513014, 27.617722], [113.513058, 27.618426], [113.512562, 27.619052], [113.511593, 27.619714], [113.512024, 27.620571], [113.512432, 27.620325], [113.512971, 27.620498], [113.513057, 27.621144], [113.512777, 27.621941], [113.513488, 27.621944], [113.513875, 27.622326], [113.51422, 27.622517], [113.514802, 27.622042], [113.515469, 27.621968], [113.515835, 27.621551], [113.51646, 27.621477], [113.517386, 27.621271], [113.518269, 27.621274], [113.518893, 27.620647], [113.519282, 27.62061], [113.519561, 27.621258], [113.520186, 27.621089], [113.520875, 27.621072], [113.521219, 27.621282], [113.521219, 27.621719], [113.521563, 27.621758], [113.521972, 27.621901], [113.522101, 27.623176], [113.522509, 27.623881], [113.523015, 27.624224], [113.523123, 27.624662], [113.523274, 27.624777], [113.523436, 27.624653], [113.523575, 27.62434], [113.523877, 27.624066], [113.524362, 27.624], [113.524642, 27.624125], [113.524792, 27.624277], [113.524824, 27.624496], [113.52462, 27.62481], [113.524642, 27.624943], [113.525168, 27.625352], [113.52547, 27.625211], [113.525674, 27.625021], [113.525912, 27.624965], [113.526869, 27.624464], [113.527085, 27.624388], [113.527386, 27.624474], [113.527343, 27.624598], [113.527149, 27.624683], [113.527117, 27.624844], [113.526805, 27.625006], [113.526461, 27.625433], [113.525826, 27.62564], [113.525557, 27.62581], [113.525546, 27.626438], [113.525083, 27.627159], [113.525761, 27.626895], [113.525944, 27.626771], [113.526364, 27.626658], [113.526536, 27.626697], [113.526795, 27.62666], [113.527, 27.626308], [113.527548, 27.625883], [113.527903, 27.626283], [113.527968, 27.626435], [113.52786, 27.626521], [113.526956, 27.626784], [113.527161, 27.626956], [113.527957, 27.627091], [113.528409, 27.626978], [113.528516, 27.627063], [113.528484, 27.627149], [113.528075, 27.627357], [113.527214, 27.627136], [113.526805, 27.626917], [113.526686, 27.626992], [113.52659, 27.627211], [113.527257, 27.627488], [113.527947, 27.627585], [113.528948, 27.627493], [113.529185, 27.62777], [113.529561, 27.628398], [113.529228, 27.629386], [113.529518, 27.629787], [113.529798, 27.62995], [113.530002, 27.629978], [113.530196, 27.63016], [113.530229, 27.63034], [113.530077, 27.630759], [113.530175, 27.630987], [113.531283, 27.63157], [113.531466, 27.631789], [113.531584, 27.632228], [113.531584, 27.632361], [113.531466, 27.632502], [113.531035, 27.632549], [113.530229, 27.632043], [113.529701, 27.632289], [113.529647, 27.632593], [113.529797, 27.63304], [113.52969, 27.633078], [113.529216, 27.633875], [113.528538, 27.634178], [113.527247, 27.634288], [113.526881, 27.634591], [113.526409, 27.634553], [113.525873, 27.635067], [113.525873, 27.635181], [113.526173, 27.635713], [113.526216, 27.635865], [113.525422, 27.636492], [113.52525, 27.636568], [113.525122, 27.636568], [113.524778, 27.636682], [113.52465, 27.636682], [113.524306, 27.636796], [113.524242, 27.636739], [113.524242, 27.636663], [113.524285, 27.636625], [113.524285, 27.636435], [113.524328, 27.636397], [113.524328, 27.636169], [113.524199, 27.635979], [113.524135, 27.635922], [113.52407, 27.635979], [113.52407, 27.636321], [113.524006, 27.636378], [113.523834, 27.636302], [113.523748, 27.636302], [113.523598, 27.636207], [113.523598, 27.635789], [113.523555, 27.635751], [113.523555, 27.635637], [113.523491, 27.63558], [113.523233, 27.63558], [113.523169, 27.635637], [113.52304, 27.635903], [113.522933, 27.635998], [113.522504, 27.63615], [113.522418, 27.63615], [113.522225, 27.636283], [113.522225, 27.636473], [113.522182, 27.636511], [113.522182, 27.63693], [113.522139, 27.636968], [113.522139, 27.63731], [113.521946, 27.637443], [113.52186, 27.637443], [113.521817, 27.637481], [113.52171, 27.637386], [113.521538, 27.636625], [113.521431, 27.636492], [113.521345, 27.63653], [113.520787, 27.636568], [113.520723, 27.636663], [113.520809, 27.636739], [113.521109, 27.637272], [113.521109, 27.637386], [113.520573, 27.637709], [113.520444, 27.637747], [113.520337, 27.637842], [113.52038, 27.637994], [113.520465, 27.63807], [113.520465, 27.638184], [113.520101, 27.638507], [113.519671, 27.638697], [113.519457, 27.638697], [113.519371, 27.638659], [113.519264, 27.638754], [113.519221, 27.638983], [113.519156, 27.639039], [113.518727, 27.638887], [113.518663, 27.63883], [113.518663, 27.638754], [113.518534, 27.638564], [113.518534, 27.638488], [113.518298, 27.638317], [113.518212, 27.638317], [113.518148, 27.638374], [113.518148, 27.63864], [113.518191, 27.638678], [113.518191, 27.639135], [113.518234, 27.639173], [113.518234, 27.639249], [113.517912, 27.63961], [113.517483, 27.639572], [113.51729, 27.639363], [113.517161, 27.639097], [113.516925, 27.638849], [113.516882, 27.638849], [113.516946, 27.639249], [113.516946, 27.639401], [113.516989, 27.639477], [113.516539, 27.6398], [113.516453, 27.6398], [113.516345, 27.639705], [113.516238, 27.639534], [113.515895, 27.639534], [113.515659, 27.639705], [113.515487, 27.639971], [113.515337, 27.640066], [113.514994, 27.639724], [113.514865, 27.639724], [113.514543, 27.639895], [113.514801, 27.640199], [113.514543, 27.640655], [113.514393, 27.640788], [113.513964, 27.641016], [113.513277, 27.641016], [113.513105, 27.64094], [113.513019, 27.64094], [113.512612, 27.641302], [113.512526, 27.641492], [113.51244, 27.641568], [113.512311, 27.641834], [113.512247, 27.641891], [113.511775, 27.641967], [113.511217, 27.642423], [113.511045, 27.642385], [113.510831, 27.642233], [113.510616, 27.642271], [113.510015, 27.642841], [113.509715, 27.642955], [113.509372, 27.643183], [113.509221, 27.643316], [113.509221, 27.643507], [113.509157, 27.643564], [113.508943, 27.64364], [113.508835, 27.643735], [113.508835, 27.643849], [113.508964, 27.644001], [113.508964, 27.644267], [113.508792, 27.644381], [113.508792, 27.644495], [113.50905, 27.644951], [113.50905, 27.645027], [113.509479, 27.645597], [113.509479, 27.64575], [113.509522, 27.645788], [113.509565, 27.646092], [113.509479, 27.646206], [113.509436, 27.646396], [113.509608, 27.6467], [113.509608, 27.646852], [113.5092, 27.647061], [113.508728, 27.647441], [113.508213, 27.647745], [113.50802, 27.647916], [113.507891, 27.648106], [113.507955, 27.648201], [113.508084, 27.648239], [113.508191, 27.648335], [113.508191, 27.648411], [113.508256, 27.648468], [113.508513, 27.648468], [113.508621, 27.648563], [113.508664, 27.648981], [113.508578, 27.649095], [113.508535, 27.649285], [113.508471, 27.649342], [113.508213, 27.649304], [113.50817, 27.649266], [113.507698, 27.649266], [113.507655, 27.649304], [113.507526, 27.649304], [113.506582, 27.648924], [113.506067, 27.648924], [113.505724, 27.648544], [113.505381, 27.648315], [113.505295, 27.648315], [113.505037, 27.64843], [113.504436, 27.649], [113.504308, 27.649], [113.503964, 27.648886], [113.503836, 27.648886], [113.50375, 27.648962], [113.503535, 27.649038], [113.503471, 27.648981], [113.503471, 27.648905], [113.503364, 27.648848], [113.503321, 27.648886], [113.503235, 27.648886], [113.502977, 27.649114], [113.502806, 27.649114], [113.502763, 27.649152], [113.502376, 27.649152], [113.501947, 27.649684], [113.501733, 27.649722], [113.50169, 27.64976], [113.501561, 27.64976], [113.501518, 27.649798], [113.501304, 27.649798], [113.501175, 27.649722], [113.500832, 27.649342], [113.50036, 27.64938], [113.500338, 27.649627], [113.500381, 27.649665], [113.500381, 27.650007], [113.500896, 27.650653], [113.500896, 27.650729], [113.500531, 27.650748], [113.500424, 27.650844], [113.500295, 27.651072], [113.499866, 27.651414], [113.499866, 27.65168], [113.499716, 27.651775], [113.499501, 27.651813], [113.499351, 27.651946], [113.499351, 27.652098], [113.499608, 27.65244], [113.499694, 27.652744], [113.499909, 27.652934], [113.499909, 27.653086], [113.499952, 27.653124], [113.499866, 27.653657], [113.499823, 27.653695], [113.499823, 27.653847], [113.499566, 27.654113], [113.499566, 27.654265], [113.499737, 27.654455], [113.499737, 27.654531], [113.499866, 27.654759], [113.499866, 27.654873], [113.499802, 27.65493], [113.499501, 27.655006], [113.49897, 27.655628], [113.500123, 27.657744], [113.497635, 27.656775], [113.492824, 27.653319], [113.491148, 27.653388], [113.490051, 27.653721], [113.489377, 27.654665], [113.489033, 27.655734], [113.489241, 27.660061], [113.488048, 27.665367], [113.486826, 27.667374], [113.485366, 27.667902], [113.483816, 27.667691], [113.481938, 27.666265], [113.481027, 27.665691], [113.479761, 27.664892], [113.474932, 27.663361], [113.471358, 27.662523], [113.467155, 27.662972], [113.463078, 27.664793], [113.461229, 27.665953], [113.459184, 27.667012], [113.457225, 27.668433], [113.455869, 27.669932], [113.453008, 27.671598], [113.451201, 27.671366], [113.450255, 27.67049], [113.448254, 27.669973], [113.446232, 27.67033], [113.44363, 27.670667], [113.442246, 27.670992], [113.442077, 27.670361], [113.440786, 27.669864]]]}, "properties": {"display_name": "仙岳山街道, 醴陵市, 株洲市, 湖南省, 中国", "type": "administrative", "osm_type": "relation", "osm_id": 12498234, "class": null, "keyword": "subdistrict"}}, {"type": "Feature", "geometry": {"type": "Polygon", "coordinates": [[[113.412915, 27.677178], [113.413512, 27.674383], [113.414595, 27.672266], [113.414723, 27.67105], [113.416056, 27.66695], [113.417297, 27.667107], [113.418661, 27.666542], [113.420699, 27.663716], [113.42171, 27.661723], [113.423588, 27.658898], [113.424173, 27.658207], [113.426742, 27.658207], [113.427611, 27.658945], [113.427912, 27.659149], [113.427841, 27.662696], [113.427877, 27.668158], [113.42899, 27.673417], [113.429079, 27.674279], [113.429733, 27.675051], [113.431149, 27.675401], [113.432667, 27.675467], [113.433484, 27.675401], [113.435452, 27.674442], [113.437209, 27.673357], [113.43838, 27.672519], [113.4403, 27.671566], [113.442246, 27.670992], [113.44363, 27.670667], [113.446232, 27.67033], [113.448254, 27.669973], [113.450255, 27.67049], [113.451201, 27.671366], [113.453008, 27.671598], [113.455869, 27.669932], [113.457225, 27.668433], [113.459184, 27.667012], [113.461229, 27.665953], [113.463078, 27.664793], [113.467155, 27.662972], [113.471358, 27.662523], [113.474932, 27.663361], [113.479761, 27.664892], [113.481027, 27.665691], [113.481938, 27.666265], [113.483816, 27.667691], [113.485366, 27.667902], [113.486826, 27.667374], [113.488048, 27.665367], [113.489241, 27.660061], [113.49167, 27.659995], [113.491923, 27.660275], [113.491997, 27.660601], [113.492239, 27.660685], [113.492418, 27.660807], [113.492724, 27.660984], [113.492692, 27.661264], [113.49323, 27.662039], [113.493356, 27.663392], [113.493177, 27.664074], [113.493019, 27.664718], [113.492387, 27.665959], [113.493704, 27.666501], [113.493377, 27.667257], [113.492661, 27.66721], [113.49264, 27.667593], [113.493472, 27.667602], [113.493546, 27.668806], [113.495706, 27.668816], [113.496465, 27.669786], [113.49694, 27.670542], [113.49655, 27.671009], [113.496613, 27.671252], [113.497182, 27.671616], [113.497835, 27.672148], [113.497741, 27.672596], [113.49852, 27.673669], [113.497013, 27.674864], [113.496571, 27.675442], [113.497372, 27.675937], [113.498025, 27.676889], [113.496992, 27.677356], [113.497403, 27.677953], [113.496581, 27.678438], [113.497298, 27.679596], [113.50046, 27.678345], [113.500997, 27.679381], [113.495696, 27.681266], [113.496086, 27.682181], [113.495643, 27.682666], [113.495485, 27.682461], [113.495591, 27.682031], [113.495338, 27.68135], [113.493999, 27.681919], [113.494547, 27.682853], [113.495201, 27.684206], [113.495959, 27.684085], [113.496297, 27.684915], [113.496065, 27.685242], [113.495527, 27.6847], [113.494842, 27.684934], [113.4946, 27.684654], [113.493915, 27.684682], [113.493082, 27.684831], [113.493051, 27.685167], [113.493409, 27.685708], [113.493514, 27.686698], [113.494273, 27.686623], [113.495137, 27.68708], [113.495053, 27.687696], [113.494178, 27.688396], [113.493177, 27.688191], [113.492998, 27.687771], [113.492629, 27.687136], [113.49225, 27.686651], [113.491164, 27.686072], [113.489973, 27.68541], [113.488877, 27.6854], [113.488329, 27.68625], [113.488055, 27.686968], [113.487729, 27.687164], [113.487613, 27.686726], [113.486506, 27.686726], [113.485905, 27.686324], [113.485368, 27.686268], [113.485463, 27.685634], [113.485241, 27.685232], [113.484177, 27.685699], [113.482733, 27.686082], [113.483766, 27.688144], [113.483355, 27.689572], [113.48072, 27.690095], [113.481068, 27.687155], [113.479445, 27.686651], [113.47856, 27.68695], [113.478338, 27.686436], [113.479392, 27.686035], [113.478707, 27.685615], [113.478538, 27.685326], [113.477991, 27.685008], [113.477927, 27.683833], [113.477664, 27.682797], [113.477348, 27.68191], [113.479276, 27.682097], [113.479287, 27.681705], [113.478654, 27.681639], [113.478212, 27.681247], [113.476452, 27.681677], [113.476041, 27.681649], [113.475535, 27.682302], [113.475482, 27.683273], [113.474365, 27.684047], [113.473922, 27.684579], [113.47407, 27.684962], [113.474534, 27.686474], [113.474576, 27.68751], [113.472447, 27.688751], [113.471878, 27.689469], [113.471783, 27.689852], [113.47133, 27.689749], [113.47074, 27.690281], [113.468017, 27.691953], [113.46688, 27.693587], [113.470903, 27.697621], [113.471984, 27.699833], [113.472161, 27.700963], [113.473358, 27.702714], [113.474666, 27.705088], [113.475825, 27.707558], [113.476405, 27.709401], [113.476083, 27.712459], [113.475546, 27.715708], [113.475718, 27.717721], [113.475208, 27.719984], [113.474812, 27.721578], [113.475559, 27.723249], [113.475339, 27.725438], [113.475134, 27.728859], [113.475149, 27.730154], [113.475596, 27.731007], [113.468216, 27.729212], [113.468624, 27.723591], [113.464118, 27.724066], [113.46081, 27.726478], [113.455486, 27.728597], [113.451251, 27.731625], [113.447979, 27.729821], [113.444352, 27.72815], [113.441927, 27.725737], [113.441219, 27.724389], [113.439717, 27.721483], [113.435533, 27.722053], [113.433859, 27.722755], [113.43225, 27.723325], [113.430873, 27.724946], [113.428401, 27.72182], [113.42798, 27.720438], [113.427036, 27.719336], [113.427336, 27.718671], [113.427036, 27.717513], [113.426778, 27.715005], [113.430803, 27.714405], [113.434032, 27.713863], [113.437713, 27.713716], [113.438387, 27.716297], [113.439739, 27.716848], [113.443451, 27.715594], [113.444524, 27.714872], [113.445082, 27.713638], [113.445983, 27.711966], [113.446069, 27.711092], [113.452528, 27.709477], [113.451562, 27.7064], [113.449028, 27.700975], [113.445351, 27.701284], [113.445404, 27.697566], [113.443539, 27.697018], [113.443443, 27.692572], [113.44076, 27.691223], [113.440095, 27.688411], [113.43855, 27.686055], [113.43664, 27.685028], [113.434237, 27.684648], [113.429383, 27.68304], [113.416569, 27.676694], [113.415582, 27.676675], [113.414552, 27.676504], [113.413131, 27.677296], [113.412915, 27.677178]]]}, "properties": {"display_name": "国瓷街道, 醴陵市, 株洲市, 湖南省, 中国", "type": "administrative", "osm_type": "relation", "osm_id": 8461267, "class": null, "keyword": "subdistrict"}}, {"type": "Feature", "geometry": {"type": "Polygon", "coordinates": [[[113.108711, 27.780734], [113.110857, 27.771051], [113.11429, 27.76002], [113.117487, 27.761197], [113.118131, 27.76095], [113.124247, 27.762355], [113.128023, 27.762355], [113.129353, 27.772494], [113.13446, 27.772532], [113.145318, 27.770292], [113.154931, 27.76171], [113.160596, 27.758596], [113.167548, 27.755368], [113.168664, 27.755406], [113.173814, 27.759127], [113.175101, 27.76133], [113.174844, 27.763684], [113.173041, 27.764482], [113.171968, 27.766532], [113.172312, 27.768849], [113.174329, 27.76995], [113.176362, 27.770498], [113.175348, 27.772418], [113.174565, 27.773785], [113.173621, 27.774412], [113.172591, 27.77425], [113.171614, 27.774431], [113.170541, 27.775076], [113.170466, 27.77651], [113.168589, 27.776196], [113.164973, 27.779082], [113.164104, 27.779243], [113.164458, 27.783183], [113.165231, 27.786571], [113.165113, 27.788536], [113.164329, 27.791687], [113.161916, 27.794795], [113.155253, 27.793851], [113.150511, 27.795503], [113.149824, 27.796679], [113.148741, 27.797163], [113.147796, 27.79722], [113.144867, 27.79817], [113.144921, 27.799071], [113.145533, 27.799565], [113.145243, 27.800182], [113.146777, 27.803342], [113.14446, 27.806863], [113.143805, 27.807128], [113.140855, 27.807536], [113.137658, 27.801766], [113.130169, 27.798578], [113.122101, 27.797135], [113.114955, 27.796186], [113.111308, 27.793889], [113.110321, 27.791915], [113.109612, 27.7892], [113.108754, 27.786011], [113.108711, 27.783619], [113.108711, 27.780734]]]}, "properties": {"display_name": "枫溪街道, 芦淞区, 株洲市, 湖南省, 中国", "type": "administrative", "osm_type": "relation", "osm_id": 7400300, "class": null, "keyword": "subdistrict"}}, {"type": "Feature", "geometry": {"type": "Polygon", "coordinates": [[[113.132283, 27.899061], [113.133398, 27.899047], [113.1346, 27.898648], [113.135329, 27.897719], [113.139176, 27.896534], [113.139422, 27.895974], [113.14123, 27.89597], [113.141311, 27.895325], [113.141992, 27.895111], [113.141944, 27.893485], [113.141751, 27.892694], [113.141498, 27.890218], [113.141563, 27.8891], [113.141647, 27.888841], [113.141697, 27.888507], [113.141555, 27.887811], [113.141105, 27.887137], [113.140597, 27.88664], [113.140308, 27.886277], [113.140082, 27.88625], [113.138891, 27.886359], [113.138414, 27.887004], [113.137405, 27.887397], [113.136687, 27.886833], [113.136279, 27.884448], [113.135882, 27.883647], [113.134766, 27.884031], [113.134262, 27.88331], [113.135265, 27.882661], [113.135034, 27.882324], [113.133932, 27.881288], [113.134498, 27.880921], [113.135254, 27.880432], [113.14675, 27.87156], [113.146241, 27.871071], [113.145908, 27.870967], [113.145468, 27.871422], [113.144728, 27.871934], [113.144503, 27.872001], [113.144277, 27.871953], [113.14388, 27.871783], [113.14343, 27.871811], [113.143226, 27.871906], [113.142904, 27.872172], [113.142507, 27.872342], [113.141638, 27.872456], [113.140951, 27.872447], [113.140737, 27.872418], [113.140554, 27.872304], [113.140351, 27.871707], [113.140136, 27.871346], [113.139964, 27.871242], [113.13975, 27.871204], [113.13887, 27.871157], [113.13872, 27.871309], [113.138602, 27.872105], [113.138398, 27.872181], [113.137861, 27.872096], [113.136842, 27.870493], [113.136553, 27.870246], [113.135898, 27.870019], [113.135351, 27.86925], [113.136241, 27.868824], [113.136746, 27.868036], [113.137347, 27.867562], [113.137422, 27.867372], [113.137422, 27.867059], [113.138548, 27.866177], [113.139246, 27.866215], [113.139546, 27.866737], [113.13975, 27.866822], [113.140501, 27.866841], [113.140748, 27.866803], [113.14093, 27.86669], [113.141144, 27.866405], [113.140029, 27.865732], [113.139814, 27.865684], [113.139653, 27.865551], [113.139535, 27.865371], [113.140211, 27.864849], [113.142571, 27.865864], [113.144728, 27.867477], [113.146423, 27.86888], [113.147013, 27.870075], [113.147817, 27.870646], [113.148073, 27.870834], [113.149234, 27.871299], [113.150532, 27.871261], [113.152034, 27.871081], [113.153715, 27.871098], [113.155075, 27.871714], [113.156347, 27.872883], [113.156096, 27.8733], [113.155811, 27.874325], [113.155639, 27.874723], [113.155575, 27.875292], [113.155613, 27.875826], [113.15594, 27.87718], [113.155704, 27.877625], [113.155618, 27.878972], [113.156304, 27.879996], [113.156669, 27.881399], [113.157806, 27.88341], [113.157399, 27.884301], [113.157957, 27.885894], [113.159201, 27.886406], [113.159802, 27.887051], [113.159544, 27.889706], [113.16169, 27.889896], [113.163654, 27.890152], [113.163772, 27.891034], [113.163729, 27.892618], [113.164641, 27.892722], [113.165156, 27.89367], [113.165166, 27.894552], [113.164437, 27.895396], [113.164548, 27.89556], [113.164759, 27.89587], [113.164512, 27.897681], [113.165027, 27.897634], [113.164995, 27.898857], [113.165295, 27.898942], [113.165681, 27.898734], [113.165993, 27.896932], [113.166743, 27.896942], [113.166851, 27.897368], [113.167666, 27.897435], [113.167956, 27.897766], [113.169168, 27.897397], [113.169941, 27.897492], [113.17022, 27.898013], [113.170713, 27.898051], [113.172333, 27.897093], [113.172784, 27.896543], [113.173674, 27.896932], [113.175305, 27.895187], [113.178534, 27.895263], [113.178888, 27.896723], [113.179286, 27.896411], [113.179275, 27.895026], [113.180004, 27.894543], [113.181131, 27.894656], [113.183201, 27.895529], [113.183738, 27.896249], [113.183588, 27.897141], [113.184156, 27.897406], [113.185079, 27.897112], [113.187085, 27.898506], [113.186238, 27.89972], [113.1873, 27.900052], [113.186747, 27.901], [113.187783, 27.90283], [113.189047, 27.90355], [113.189714, 27.90393], [113.189296, 27.906148], [113.190143, 27.90685], [113.191592, 27.906584], [113.191302, 27.907352], [113.190529, 27.907608], [113.191431, 27.908917], [113.189006, 27.910519], [113.189446, 27.912472], [113.1893, 27.912576], [113.189149, 27.912683], [113.188952, 27.912823], [113.189628, 27.913562], [113.189607, 27.91415], [113.188362, 27.914178], [113.187697, 27.91469], [113.188255, 27.915174], [113.188319, 27.916046], [113.189059, 27.916293], [113.188995, 27.916843], [113.188351, 27.917373], [113.189049, 27.918454], [113.188748, 27.919402], [113.187944, 27.919042], [113.187525, 27.918966], [113.187311, 27.919013], [113.186731, 27.919317], [113.186527, 27.919374], [113.186034, 27.919402], [113.185873, 27.919478], [113.185047, 27.920132], [113.183695, 27.920246], [113.18333, 27.92036], [113.183083, 27.920587], [113.182987, 27.920966], [113.182944, 27.921763], [113.182504, 27.922493], [113.182365, 27.922654], [113.181989, 27.922853], [113.181281, 27.922824], [113.181067, 27.922758], [113.180863, 27.922635], [113.180841, 27.922436], [113.181034, 27.922047], [113.181067, 27.921838], [113.181002, 27.92163], [113.180873, 27.921459], [113.180487, 27.92126], [113.180251, 27.920691], [113.180015, 27.920322], [113.179876, 27.919791], [113.179468, 27.919099], [113.179082, 27.918625], [113.178567, 27.918236], [113.17847, 27.918065], [113.178298, 27.917933], [113.176732, 27.91799], [113.176518, 27.918065], [113.17597, 27.918378], [113.17553, 27.918511], [113.175176, 27.918738], [113.174769, 27.91889], [113.174687, 27.91891], [113.173857, 27.919118], [113.172977, 27.919061], [113.172312, 27.919184], [113.171807, 27.91944], [113.171754, 27.91962], [113.171432, 27.920113], [113.171228, 27.920066], [113.171142, 27.919687], [113.171164, 27.919288], [113.171303, 27.918881], [113.171325, 27.918473], [113.171185, 27.918302], [113.170981, 27.918198], [113.170316, 27.91816], [113.169751, 27.917862], [113.169555, 27.917847], [113.169383, 27.917961], [113.1689, 27.918852], [113.168653, 27.919175], [113.16846, 27.91926], [113.168235, 27.919241], [113.16758, 27.91907], [113.166422, 27.918606], [113.166078, 27.918264], [113.165789, 27.917705], [113.165638, 27.917563], [113.165435, 27.917478], [113.165005, 27.917449], [113.163922, 27.917497], [113.162903, 27.917203], [113.162667, 27.917203], [113.162452, 27.917231], [113.161873, 27.917544], [113.161422, 27.917582], [113.161218, 27.917525], [113.161143, 27.917345], [113.161143, 27.916719], [113.161046, 27.916321], [113.157431, 27.913885], [113.15697, 27.913709], [113.156685, 27.913723], [113.156422, 27.913795], [113.156079, 27.913785], [113.154952, 27.913012], [113.154727, 27.912932], [113.154631, 27.912946], [113.1544, 27.913098], [113.154143, 27.913643], [113.153992, 27.913776], [113.153863, 27.913766], [113.153676, 27.913638], [113.15308, 27.913079], [113.152195, 27.913003], [113.152131, 27.913373], [113.151959, 27.913496], [113.151755, 27.913591], [113.150672, 27.91378], [113.150554, 27.913932], [113.150446, 27.914482], [113.151037, 27.914899], [113.151208, 27.91506], [113.151294, 27.915259], [113.151101, 27.915591], [113.151047, 27.91598], [113.151058, 27.916549], [113.151122, 27.916757], [113.151069, 27.917449], [113.150897, 27.918037], [113.15079, 27.918208], [113.150597, 27.918312], [113.14991, 27.918359], [113.149685, 27.918426], [113.149588, 27.918587], [113.149642, 27.918776], [113.149824, 27.918909], [113.150511, 27.919146], [113.150586, 27.919336], [113.150554, 27.919696], [113.150768, 27.919772], [113.150983, 27.919762], [113.151219, 27.919819], [113.15153, 27.920123], [113.151916, 27.92036], [113.151959, 27.92054], [113.151895, 27.92072], [113.151187, 27.921175], [113.150854, 27.921251], [113.150639, 27.921203], [113.150071, 27.920824], [113.149899, 27.920672], [113.149674, 27.92036], [113.149706, 27.919952], [113.149771, 27.919753], [113.149663, 27.919582], [113.149449, 27.919506], [113.148998, 27.919525], [113.14859, 27.919374], [113.147249, 27.919293], [113.147099, 27.919649], [113.146884, 27.91953], [113.146219, 27.919611], [113.145747, 27.919649], [113.145297, 27.919535], [113.144889, 27.919345], [113.144385, 27.919431], [113.144234, 27.919582], [113.143784, 27.919705], [113.143333, 27.919715], [113.142861, 27.919639], [113.142378, 27.91944], [113.141992, 27.918928], [113.141627, 27.918748], [113.140705, 27.918758], [113.140243, 27.918843], [113.140018, 27.918824], [113.139621, 27.918644], [113.139524, 27.918464], [113.139364, 27.918321], [113.139138, 27.918255], [113.139052, 27.918056], [113.13901, 27.91744], [113.139117, 27.917269], [113.139471, 27.91707], [113.140158, 27.916994], [113.140243, 27.916814], [113.140114, 27.916634], [113.139675, 27.916549], [113.139535, 27.916387], [113.139535, 27.916179], [113.140114, 27.91542], [113.140329, 27.915335], [113.14078, 27.915345], [113.141198, 27.915525], [113.141348, 27.915686], [113.141692, 27.916226], [113.141874, 27.916359], [113.141981, 27.916539], [113.142003, 27.916738], [113.142142, 27.916899], [113.14255, 27.917174], [113.142808, 27.917753], [113.143001, 27.917819], [113.143194, 27.917734], [113.143344, 27.917591], [113.143462, 27.917421], [113.143558, 27.917013], [113.143569, 27.915288], [113.143387, 27.914472], [113.143419, 27.914283], [113.144074, 27.914311], [113.146541, 27.914899], [113.146959, 27.914937], [113.147818, 27.9147], [113.148215, 27.914548], [113.148397, 27.914453], [113.148644, 27.914141], [113.148859, 27.914131], [113.14903, 27.914008], [113.14918, 27.913477], [113.149352, 27.913136], [113.149363, 27.912728], [113.149116, 27.912282], [113.148783, 27.911903], [113.148644, 27.911609], [113.14858, 27.910974], [113.149084, 27.909286], [113.14932, 27.908689], [113.149373, 27.908092], [113.148934, 27.906053], [113.148794, 27.905674], [113.148537, 27.905655], [113.148097, 27.905741], [113.147914, 27.905883], [113.147818, 27.906082], [113.147786, 27.907077], [113.147593, 27.907182], [113.147389, 27.907096], [113.147271, 27.906926], [113.147249, 27.906736], [113.147464, 27.905959], [113.147485, 27.905001], [113.147292, 27.904878], [113.147024, 27.904859], [113.146809, 27.904925], [113.146627, 27.905058], [113.146552, 27.905248], [113.146294, 27.906063], [113.146155, 27.906679], [113.145983, 27.907068], [113.145854, 27.907258], [113.14564, 27.907362], [113.145168, 27.907362], [113.144964, 27.907258], [113.144824, 27.907096], [113.144706, 27.906736], [113.143773, 27.905741], [113.143558, 27.90575], [113.143419, 27.906158], [113.14329, 27.906328], [113.143076, 27.906404], [113.142829, 27.906404], [113.142378, 27.906309], [113.141627, 27.906309], [113.140512, 27.906499], [113.140286, 27.906404], [113.139728, 27.905741], [113.139288, 27.905589], [113.138806, 27.905579], [113.138591, 27.905646], [113.138419, 27.905778], [113.13887, 27.906565], [113.138999, 27.906935], [113.138999, 27.907134], [113.138848, 27.907314], [113.138237, 27.907333], [113.138012, 27.907238], [113.13784, 27.907096], [113.136982, 27.906091], [113.13578, 27.905399], [113.135018, 27.90483], [113.134439, 27.904489], [113.132948, 27.902763], [113.132862, 27.900194], [113.132283, 27.899061]]]}, "properties": {"display_name": "学林街道, 云龙示范区, 石峰区, 株洲市, 湖南省, 中国", "type": "administrative", "osm_type": "relation", "osm_id": 7400391, "class": null, "keyword": "subdistrict"}}, {"type": "Feature", "geometry": {"type": "Polygon", "coordinates": [[[113.065839, 27.84103], [113.068199, 27.833668], [113.068929, 27.830471], [113.069969, 27.828725], [113.075388, 27.831581], [113.078059, 27.832995], [113.079143, 27.831107], [113.081095, 27.829949], [113.081696, 27.829323], [113.082769, 27.828773], [113.080173, 27.824845], [113.07925, 27.822472], [113.08043, 27.822093], [113.081868, 27.822131], [113.083434, 27.8227], [113.085258, 27.822662], [113.08985, 27.822662], [113.089818, 27.828953], [113.093873, 27.828877], [113.095086, 27.828886], [113.095032, 27.832938], [113.095053, 27.834095], [113.108018, 27.83401], [113.108033, 27.831547], [113.10767, 27.831543], [113.107241, 27.831809], [113.106576, 27.831685], [113.106018, 27.831505], [113.105868, 27.830888], [113.105879, 27.830281], [113.106126, 27.830015], [113.106083, 27.829019], [113.108679, 27.829021], [113.108512, 27.834073], [113.110621, 27.834067], [113.115487, 27.834138], [113.114108, 27.828858], [113.114789, 27.828146], [113.115122, 27.828384], [113.115309, 27.829128], [113.116109, 27.829029], [113.116307, 27.830851], [113.116983, 27.832966], [113.11782, 27.832739], [113.118292, 27.831752], [113.118491, 27.830386], [113.118195, 27.830443], [113.117053, 27.830793], [113.117015, 27.830443], [113.117096, 27.830044], [113.117831, 27.829451], [113.118201, 27.829764], [113.118625, 27.829821], [113.119145, 27.829143], [113.119563, 27.828877], [113.119628, 27.828578], [113.119655, 27.828369], [113.118582, 27.827819], [113.118142, 27.8278], [113.117911, 27.827776], [113.117595, 27.827563], [113.117396, 27.827582], [113.116157, 27.828948], [113.115379, 27.829052], [113.115175, 27.828365], [113.114811, 27.828052], [113.115923, 27.826752], [113.118002, 27.824323], [113.121952, 27.826698], [113.124191, 27.828063], [113.124288, 27.828122], [113.126795, 27.82965], [113.132125, 27.832904], [113.137422, 27.833189], [113.136161, 27.834987], [113.139869, 27.837257], [113.134203, 27.843156], [113.130056, 27.845655], [113.126725, 27.848288], [113.121564, 27.850915], [113.119783, 27.85175], [113.117037, 27.852016], [113.11017, 27.851864], [113.103068, 27.850062], [113.098304, 27.850194], [113.093121, 27.851582], [113.07749, 27.854767], [113.074636, 27.855298], [113.070817, 27.855943], [113.070322, 27.851591], [113.070152, 27.8501], [113.069808, 27.846817], [113.065925, 27.847216], [113.065839, 27.84103]]]}, "properties": {"display_name": "嵩山路街道, 天元区, 株洲市, 湖南省, 412000, 中国", "type": "administrative", "osm_type": "relation", "osm_id": 7400457, "class": null, "keyword": "subdistrict"}}, {"type": "Feature", "geometry": {"type": "Polygon", "coordinates": [[[113.089818, 27.813866], [113.096555, 27.813913], [113.096534, 27.816457], [113.108285, 27.816449], [113.108267, 27.814975], [113.109763, 27.814151], [113.110567, 27.813572], [113.111361, 27.812926], [113.112215, 27.812188], [113.112359, 27.812063], [113.112713, 27.811826], [113.112799, 27.81174], [113.112112, 27.811655], [113.111662, 27.811617], [113.111855, 27.807546], [113.118743, 27.807517], [113.121028, 27.807441], [113.122015, 27.803484], [113.122047, 27.80113], [113.122112, 27.799251], [113.122101, 27.797135], [113.130169, 27.798578], [113.137658, 27.801766], [113.140855, 27.807536], [113.143151, 27.824123], [113.143007, 27.828648], [113.142958, 27.830215], [113.140404, 27.8367], [113.139869, 27.837257], [113.136161, 27.834987], [113.137422, 27.833189], [113.132125, 27.832904], [113.126795, 27.82965], [113.124288, 27.828122], [113.124191, 27.828063], [113.121952, 27.826698], [113.118002, 27.824323], [113.115923, 27.826752], [113.114811, 27.828052], [113.115175, 27.828365], [113.115379, 27.829052], [113.116157, 27.828948], [113.117396, 27.827582], [113.117595, 27.827563], [113.117911, 27.827776], [113.118142, 27.8278], [113.118582, 27.827819], [113.119655, 27.828369], [113.119628, 27.828578], [113.119563, 27.828877], [113.119145, 27.829143], [113.118625, 27.829821], [113.118201, 27.829764], [113.117831, 27.829451], [113.117096, 27.830044], [113.117015, 27.830443], [113.117053, 27.830793], [113.118195, 27.830443], [113.118491, 27.830386], [113.118292, 27.831752], [113.11782, 27.832739], [113.116983, 27.832966], [113.116307, 27.830851], [113.116109, 27.829029], [113.115309, 27.829128], [113.115122, 27.828384], [113.114789, 27.828146], [113.114108, 27.828858], [113.115487, 27.834138], [113.110621, 27.834067], [113.108512, 27.834073], [113.108679, 27.829021], [113.106083, 27.829019], [113.106126, 27.830015], [113.105879, 27.830281], [113.105868, 27.830888], [113.106018, 27.831505], [113.106576, 27.831685], [113.107241, 27.831809], [113.10767, 27.831543], [113.108033, 27.831547], [113.108018, 27.83401], [113.095053, 27.834095], [113.095032, 27.832938], [113.095086, 27.828886], [113.093873, 27.828877], [113.089818, 27.828953], [113.08985, 27.822662], [113.089839, 27.816589], [113.089818, 27.813866]]]}, "properties": {"display_name": "泰山路街道, 天元区, 株洲市, 湖南省, 412007, 中国", "type": "administrative", "osm_type": "relation", "osm_id": 7400466, "class": null, "keyword": "subdistrict"}}, {"type": "Feature", "geometry": {"type": "Polygon", "coordinates": [[[113.155333, 27.829854], [113.156358, 27.827288], [113.156916, 27.825371], [113.157243, 27.821021], [113.157538, 27.815503], [113.157592, 27.813168], [113.157147, 27.81044], [113.15624, 27.807219], [113.156862, 27.803603], [113.157602, 27.800371], [113.158654, 27.798663], [113.161916, 27.794795], [113.164329, 27.791687], [113.165113, 27.788536], [113.165231, 27.786571], [113.164458, 27.783183], [113.164104, 27.779243], [113.164973, 27.779082], [113.168589, 27.776196], [113.170466, 27.77651], [113.170541, 27.775076], [113.171614, 27.774431], [113.172591, 27.77425], [113.173621, 27.774412], [113.174565, 27.773785], [113.175348, 27.772418], [113.176362, 27.770498], [113.178835, 27.771165], [113.182611, 27.773424], [113.183438, 27.773353], [113.183105, 27.776044], [113.182075, 27.781075], [113.182633, 27.784189], [113.180723, 27.787549], [113.177923, 27.788099], [113.176238, 27.789523], [113.174114, 27.788688], [113.171067, 27.78715], [113.170187, 27.791763], [113.171024, 27.79256], [113.173213, 27.790776], [113.17435, 27.792788], [113.172956, 27.793566], [113.173406, 27.794383], [113.175874, 27.794591], [113.175294, 27.797401], [113.172634, 27.797648], [113.172891, 27.801672], [113.173857, 27.801823], [113.174114, 27.800096], [113.17832, 27.802678], [113.178041, 27.80467], [113.17832, 27.807774], [113.17597, 27.808296], [113.174393, 27.805534], [113.1717, 27.807783], [113.173417, 27.812072], [113.177397, 27.811636], [113.178127, 27.816494], [113.182697, 27.818013], [113.183609, 27.821021], [113.187096, 27.823753], [113.188083, 27.824674], [113.188212, 27.825129], [113.186817, 27.825395], [113.186581, 27.824607], [113.184178, 27.826543], [113.183126, 27.827387], [113.178985, 27.828203], [113.179103, 27.830025], [113.186796, 27.830575], [113.192031, 27.832169], [113.197119, 27.834617], [113.197632, 27.837786], [113.19083, 27.837919], [113.184317, 27.83715], [113.176603, 27.834617], [113.166068, 27.83105], [113.16242, 27.831458], [113.159512, 27.83179], [113.155618, 27.831069], [113.155333, 27.829854]]]}, "properties": {"display_name": "龙泉街道, 芦淞区, 株洲市, 湖南省, 中国", "type": "administrative", "osm_type": "relation", "osm_id": 7400302, "class": null, "keyword": "subdistrict"}}, {"type": "Feature", "geometry": {"type": "Polygon", "coordinates": [[[113.49897, 27.655628], [113.499501, 27.655006], [113.499802, 27.65493], [113.499866, 27.654873], [113.499866, 27.654759], [113.499737, 27.654531], [113.499737, 27.654455], [113.499566, 27.654265], [113.499566, 27.654113], [113.499823, 27.653847], [113.499823, 27.653695], [113.499866, 27.653657], [113.499952, 27.653124], [113.499909, 27.653086], [113.499909, 27.652934], [113.499694, 27.652744], [113.499608, 27.65244], [113.499351, 27.652098], [113.499351, 27.651946], [113.499501, 27.651813], [113.499716, 27.651775], [113.499866, 27.65168], [113.499866, 27.651414], [113.500295, 27.651072], [113.500424, 27.650844], [113.500531, 27.650748], [113.500896, 27.650729], [113.500896, 27.650653], [113.500381, 27.650007], [113.500381, 27.649665], [113.500338, 27.649627], [113.50036, 27.64938], [113.500832, 27.649342], [113.501175, 27.649722], [113.501304, 27.649798], [113.501518, 27.649798], [113.501561, 27.64976], [113.50169, 27.64976], [113.501733, 27.649722], [113.501947, 27.649684], [113.502376, 27.649152], [113.502763, 27.649152], [113.502806, 27.649114], [113.502977, 27.649114], [113.503235, 27.648886], [113.503321, 27.648886], [113.503364, 27.648848], [113.503471, 27.648905], [113.503471, 27.648981], [113.503535, 27.649038], [113.50375, 27.648962], [113.503836, 27.648886], [113.503964, 27.648886], [113.504308, 27.649], [113.504436, 27.649], [113.505037, 27.64843], [113.505295, 27.648315], [113.505381, 27.648315], [113.505724, 27.648544], [113.506067, 27.648924], [113.506582, 27.648924], [113.507526, 27.649304], [113.507655, 27.649304], [113.507698, 27.649266], [113.50817, 27.649266], [113.508213, 27.649304], [113.508471, 27.649342], [113.508535, 27.649285], [113.508578, 27.649095], [113.508664, 27.648981], [113.508621, 27.648563], [113.508513, 27.648468], [113.508256, 27.648468], [113.508191, 27.648411], [113.508191, 27.648335], [113.508084, 27.648239], [113.507955, 27.648201], [113.507891, 27.648106], [113.50802, 27.647916], [113.508213, 27.647745], [113.508728, 27.647441], [113.5092, 27.647061], [113.509608, 27.646852], [113.509608, 27.6467], [113.509436, 27.646396], [113.509479, 27.646206], [113.509565, 27.646092], [113.509522, 27.645788], [113.509479, 27.64575], [113.509479, 27.645597], [113.50905, 27.645027], [113.50905, 27.644951], [113.508792, 27.644495], [113.508792, 27.644381], [113.508964, 27.644267], [113.508964, 27.644001], [113.508835, 27.643849], [113.508835, 27.643735], [113.508943, 27.64364], [113.509157, 27.643564], [113.509221, 27.643507], [113.509221, 27.643316], [113.509372, 27.643183], [113.509715, 27.642955], [113.510015, 27.642841], [113.510616, 27.642271], [113.510831, 27.642233], [113.511045, 27.642385], [113.511217, 27.642423], [113.511775, 27.641967], [113.512247, 27.641891], [113.512311, 27.641834], [113.51244, 27.641568], [113.512526, 27.641492], [113.512612, 27.641302], [113.513019, 27.64094], [113.513105, 27.64094], [113.513277, 27.641016], [113.513964, 27.641016], [113.514393, 27.640788], [113.514543, 27.640655], [113.514801, 27.640199], [113.514543, 27.639895], [113.514865, 27.639724], [113.514994, 27.639724], [113.515337, 27.640066], [113.515487, 27.639971], [113.515659, 27.639705], [113.515895, 27.639534], [113.516238, 27.639534], [113.516345, 27.639705], [113.516453, 27.6398], [113.516539, 27.6398], [113.516989, 27.639477], [113.516946, 27.639401], [113.516946, 27.639249], [113.516882, 27.638849], [113.516925, 27.638849], [113.517161, 27.639097], [113.51729, 27.639363], [113.517483, 27.639572], [113.517912, 27.63961], [113.518234, 27.639249], [113.518234, 27.639173], [113.518191, 27.639135], [113.518191, 27.638678], [113.518148, 27.63864], [113.518148, 27.638374], [113.518212, 27.638317], [113.518298, 27.638317], [113.518534, 27.638488], [113.518534, 27.638564], [113.518663, 27.638754], [113.518663, 27.63883], [113.518727, 27.638887], [113.519156, 27.639039], [113.519221, 27.638983], [113.519264, 27.638754], [113.519371, 27.638659], [113.519457, 27.638697], [113.519671, 27.638697], [113.520101, 27.638507], [113.520465, 27.638184], [113.520465, 27.63807], [113.52038, 27.637994], [113.520337, 27.637842], [113.520444, 27.637747], [113.520573, 27.637709], [113.521109, 27.637386], [113.521109, 27.637272], [113.520809, 27.636739], [113.520723, 27.636663], [113.520787, 27.636568], [113.521345, 27.63653], [113.521431, 27.636492], [113.521538, 27.636625], [113.52171, 27.637386], [113.521817, 27.637481], [113.52186, 27.637443], [113.521946, 27.637443], [113.522139, 27.63731], [113.522139, 27.636968], [113.522182, 27.63693], [113.522182, 27.636511], [113.522225, 27.636473], [113.522225, 27.636283], [113.522418, 27.63615], [113.522504, 27.63615], [113.522933, 27.635998], [113.52304, 27.635903], [113.523169, 27.635637], [113.523233, 27.63558], [113.523491, 27.63558], [113.523555, 27.635637], [113.523555, 27.635751], [113.523598, 27.635789], [113.523598, 27.636207], [113.523748, 27.636302], [113.523834, 27.636302], [113.524006, 27.636378], [113.52407, 27.636321], [113.52407, 27.635979], [113.524135, 27.635922], [113.524199, 27.635979], [113.524328, 27.636169], [113.524328, 27.636397], [113.524285, 27.636435], [113.524285, 27.636625], [113.524242, 27.636663], [113.524242, 27.636739], [113.524306, 27.636796], [113.52465, 27.636682], [113.524778, 27.636682], [113.525122, 27.636568], [113.52525, 27.636568], [113.525422, 27.636492], [113.526216, 27.635865], [113.526173, 27.635713], [113.525873, 27.635181], [113.525873, 27.635067], [113.526409, 27.634553], [113.526881, 27.634591], [113.526989, 27.634686], [113.527418, 27.635447], [113.527739, 27.635732], [113.528169, 27.63596], [113.528469, 27.635922], [113.528641, 27.635846], [113.528898, 27.635846], [113.529027, 27.635922], [113.529113, 27.635922], [113.529284, 27.635998], [113.529885, 27.636036], [113.530357, 27.635846], [113.530658, 27.635884], [113.530787, 27.63596], [113.531023, 27.636169], [113.531023, 27.636207], [113.531967, 27.637006], [113.532138, 27.63731], [113.532331, 27.637481], [113.532417, 27.637519], [113.532761, 27.637519], [113.533018, 27.637671], [113.533211, 27.637842], [113.53334, 27.638222], [113.533683, 27.638868], [113.534027, 27.639135], [113.533855, 27.639287], [113.533726, 27.639667], [113.533812, 27.639819], [113.533898, 27.640199], [113.534306, 27.640674], [113.534391, 27.640674], [113.534434, 27.640636], [113.534778, 27.640674], [113.534885, 27.640579], [113.5351, 27.640161], [113.53585, 27.639458], [113.535936, 27.639458], [113.536001, 27.639515], [113.535529, 27.639933], [113.535486, 27.640085], [113.535314, 27.640313], [113.535271, 27.640541], [113.535228, 27.640921], [113.535336, 27.640978], [113.535486, 27.640845], [113.535529, 27.640693], [113.535572, 27.640503], [113.535657, 27.640389], [113.535657, 27.640313], [113.535958, 27.639895], [113.536065, 27.6398], [113.536151, 27.6398], [113.536323, 27.639914], [113.536687, 27.639515], [113.536988, 27.639059], [113.53731, 27.638811], [113.537653, 27.638621], [113.537739, 27.638659], [113.537825, 27.638773], [113.53791, 27.638773], [113.537953, 27.638811], [113.538168, 27.638697], [113.538254, 27.638697], [113.538318, 27.638754], [113.538318, 27.638868], [113.538361, 27.638906], [113.538361, 27.639287], [113.538146, 27.639667], [113.537202, 27.640389], [113.537245, 27.640655], [113.537052, 27.64075], [113.536644, 27.641073], [113.536644, 27.64115], [113.536795, 27.641244], [113.536838, 27.641244], [113.537009, 27.641092], [113.537095, 27.641054], [113.537159, 27.641073], [113.536945, 27.641758], [113.536945, 27.6421], [113.537116, 27.642632], [113.537202, 27.642746], [113.537202, 27.642974], [113.537116, 27.643164], [113.536752, 27.643487], [113.536666, 27.643487], [113.53585, 27.643754], [113.535786, 27.643697], [113.535786, 27.643583], [113.535958, 27.643431], [113.535936, 27.643069], [113.53585, 27.643069], [113.5351, 27.643545], [113.5351, 27.643659], [113.535207, 27.643754], [113.535464, 27.643716], [113.535529, 27.643773], [113.535572, 27.644001], [113.535657, 27.644153], [113.53585, 27.644324], [113.536194, 27.644476], [113.53658, 27.644476], [113.536623, 27.644438], [113.536752, 27.644438], [113.536816, 27.644495], [113.53673, 27.644609], [113.53673, 27.644837], [113.536773, 27.644875], [113.536773, 27.645027], [113.536859, 27.645217], [113.536859, 27.645978], [113.536559, 27.646282], [113.536516, 27.646472], [113.536473, 27.64651], [113.536473, 27.646662], [113.53643, 27.6467], [113.53643, 27.647422], [113.536473, 27.64746], [113.536473, 27.647612], [113.536516, 27.64765], [113.536559, 27.647916], [113.536923, 27.648277], [113.537095, 27.648315], [113.53731, 27.64843], [113.53746, 27.648563], [113.537503, 27.648677], [113.53761, 27.648772], [113.537996, 27.64881], [113.538297, 27.648924], [113.538361, 27.648981], [113.538232, 27.649209], [113.538232, 27.649285], [113.537975, 27.649703], [113.537846, 27.650083], [113.53776, 27.650159], [113.53776, 27.650311], [113.537632, 27.650615], [113.537632, 27.650729], [113.53776, 27.65092], [113.53776, 27.651034], [113.537932, 27.651224], [113.538061, 27.651528], [113.53746, 27.652288], [113.53746, 27.652364], [113.537331, 27.652554], [113.537331, 27.65263], [113.537245, 27.652744], [113.537245, 27.65282], [113.537159, 27.652972], [113.537159, 27.653466], [113.537202, 27.653504], [113.537245, 27.653999], [113.537331, 27.654189], [113.537331, 27.654379], [113.537202, 27.654493], [113.537159, 27.654797], [113.537202, 27.654835], [113.537202, 27.655025], [113.537374, 27.655405], [113.537374, 27.655633], [113.537417, 27.655671], [113.537417, 27.656203], [113.537674, 27.656583], [113.538104, 27.656926], [113.538061, 27.657154], [113.537975, 27.65723], [113.537846, 27.657496], [113.53776, 27.657572], [113.53776, 27.657686], [113.537632, 27.657914], [113.537782, 27.658047], [113.538211, 27.658275], [113.538404, 27.658446], [113.538447, 27.65856], [113.538576, 27.658712], [113.538576, 27.659244], [113.538361, 27.659472], [113.538146, 27.659814], [113.538018, 27.660309], [113.537868, 27.660442], [113.537674, 27.660537], [113.537632, 27.660651], [113.53746, 27.660841], [113.537417, 27.660955], [113.537074, 27.661411], [113.537074, 27.663235], [113.537116, 27.663273], [113.537116, 27.663539], [113.53776, 27.6643], [113.537846, 27.664452], [113.537846, 27.664566], [113.538232, 27.665402], [113.538232, 27.665706], [113.538189, 27.665744], [113.538189, 27.665858], [113.537889, 27.666542], [113.538146, 27.667492], [113.538533, 27.667949], [113.53894, 27.668348], [113.539069, 27.668348], [113.539927, 27.668576], [113.540957, 27.668918], [113.541387, 27.668918], [113.54143, 27.66888], [113.541773, 27.66888], [113.541816, 27.668842], [113.542374, 27.668842], [113.542567, 27.669013], [113.542567, 27.669089], [113.542481, 27.669431], [113.542395, 27.669621], [113.542352, 27.669925], [113.542803, 27.67021], [113.543232, 27.669982], [113.543361, 27.669982], [113.543833, 27.66983], [113.544305, 27.669792], [113.544477, 27.669944], [113.544927, 27.670229], [113.544927, 27.670305], [113.545013, 27.670419], [113.545099, 27.670799], [113.545206, 27.670894], [113.545635, 27.671046], [113.545743, 27.671141], [113.546043, 27.671673], [113.54615, 27.671768], [113.546322, 27.671806], [113.546451, 27.671882], [113.546665, 27.67192], [113.546794, 27.671996], [113.547009, 27.672034], [113.547566, 27.672262], [113.547824, 27.672338], [113.548511, 27.672528], [113.548575, 27.672585], [113.548575, 27.672851], [113.549347, 27.673345], [113.549347, 27.673992], [113.549283, 27.674049], [113.548983, 27.674049], [113.548746, 27.674182], [113.548532, 27.674448], [113.548489, 27.674752], [113.548403, 27.674942], [113.548446, 27.675056], [113.549063, 27.676016], [113.544948, 27.680622], [113.54173, 27.687842], [113.538544, 27.688533], [113.537732, 27.688312], [113.536326, 27.685491], [113.535025, 27.680484], [113.534515, 27.67852], [113.531641, 27.670996], [113.528861, 27.667482], [113.521176, 27.664494], [113.516991, 27.662475], [113.513461, 27.662613], [113.508651, 27.665324], [113.507495, 27.665601], [113.506308, 27.664826], [113.500123, 27.657744], [113.49897, 27.655628]]]}, "properties": {"display_name": "阳三石街道, 醴陵市, 株洲市, 湖南省, 中国", "type": "administrative", "osm_type": "relation", "osm_id": 8460916, "class": null, "keyword": "subdistrict"}}, {"type": "Feature", "geometry": {"type": "Polygon", "coordinates": [[[113.093121, 27.851582], [113.098304, 27.850194], [113.103068, 27.850062], [113.11017, 27.851864], [113.117037, 27.852016], [113.119783, 27.85175], [113.121564, 27.850915], [113.12408, 27.853704], [113.124214, 27.854292], [113.124389, 27.85686], [113.124348, 27.856901], [113.124621, 27.857416], [113.125116, 27.857963], [113.125362, 27.858113], [113.125725, 27.858236], [113.127629, 27.858499], [113.128168, 27.858678], [113.12963, 27.859526], [113.131218, 27.860712], [113.132771, 27.862151], [113.133677, 27.862744], [113.134273, 27.86282], [113.135077, 27.862791], [113.139646, 27.864623], [113.138698, 27.865447], [113.134535, 27.868672], [113.133849, 27.86898], [113.132755, 27.869137], [113.132052, 27.868985], [113.130689, 27.869156], [113.129954, 27.869042], [113.127948, 27.870825], [113.127042, 27.871806], [113.124188, 27.875586], [113.12371, 27.875652], [113.122128, 27.87771], [113.121463, 27.87827], [113.121296, 27.878108], [113.12007, 27.878881], [113.109795, 27.882907], [113.105434, 27.885771], [113.103733, 27.886245], [113.102156, 27.886288], [113.10067, 27.886027], [113.096395, 27.886041], [113.097103, 27.881926], [113.100568, 27.878697], [113.105182, 27.875531], [113.102891, 27.87303], [113.102006, 27.871802], [113.101561, 27.871019], [113.097161, 27.860809], [113.095439, 27.857075], [113.094602, 27.855165], [113.093121, 27.851582]]]}, "properties": {"display_name": "响石岭街道, 石峰区, 株洲市, 湖南省, 中国", "type": "administrative", "osm_type": "relation", "osm_id": 7400364, "class": null, "keyword": "subdistrict"}}, {"type": "Feature", "geometry": {"type": "Polygon", "coordinates": [[[113.489033, 27.655734], [113.489377, 27.654665], [113.490051, 27.653721], [113.491148, 27.653388], [113.492824, 27.653319], [113.497635, 27.656775], [113.500123, 27.657744], [113.506308, 27.664826], [113.507495, 27.665601], [113.508651, 27.665324], [113.513461, 27.662613], [113.516991, 27.662475], [113.521176, 27.664494], [113.528861, 27.667482], [113.531641, 27.670996], [113.534515, 27.67852], [113.535025, 27.680484], [113.532831, 27.681187], [113.532628, 27.681034], [113.531264, 27.681534], [113.529682, 27.681853], [113.529368, 27.681784], [113.529227, 27.681423], [113.528663, 27.681187], [113.528036, 27.68127], [113.527426, 27.681242], [113.526799, 27.68084], [113.526376, 27.680202], [113.525953, 27.680118], [113.525561, 27.680132], [113.525263, 27.680007], [113.52495, 27.679022], [113.523681, 27.678176], [113.522928, 27.678106], [113.522192, 27.678398], [113.521706, 27.678995], [113.521377, 27.678995], [113.521174, 27.678814], [113.520547, 27.678897], [113.519795, 27.678925], [113.519654, 27.678703], [113.519199, 27.678453], [113.518463, 27.678467], [113.51793, 27.67887], [113.516943, 27.679064], [113.516582, 27.679369], [113.516426, 27.679924], [113.515454, 27.680354], [113.514953, 27.680882], [113.514342, 27.680965], [113.51337, 27.681575], [113.512462, 27.681478], [113.511506, 27.681506], [113.511286, 27.681673], [113.510942, 27.681645], [113.510644, 27.681451], [113.510378, 27.681534], [113.509265, 27.681173], [113.509187, 27.681534], [113.508826, 27.681562], [113.508685, 27.681867], [113.507761, 27.681992], [113.507808, 27.682741], [113.507479, 27.683185], [113.50845, 27.684531], [113.508717, 27.685738], [113.508074, 27.686224], [113.507839, 27.687139], [113.508309, 27.687653], [113.508231, 27.688097], [113.508654, 27.688152], [113.50867, 27.689165], [113.508497, 27.69015], [113.507824, 27.690775], [113.507902, 27.69108], [113.508278, 27.691482], [113.508356, 27.691829], [113.508999, 27.691898], [113.509108, 27.692259], [113.509484, 27.692703], [113.508074, 27.692467], [113.508027, 27.6928], [113.508482, 27.692759], [113.509218, 27.692981], [113.509296, 27.693216], [113.507494, 27.69366], [113.506946, 27.694021], [113.506695, 27.693869], [113.506304, 27.693938], [113.505254, 27.693813], [113.505364, 27.693993], [113.506022, 27.694507], [113.506053, 27.694659], [113.505943, 27.694784], [113.505849, 27.69502], [113.505959, 27.695256], [113.505881, 27.696199], [113.505786, 27.696435], [113.505802, 27.696671], [113.50563, 27.696851], [113.505426, 27.69638], [113.50469, 27.696061], [113.504533, 27.696088], [113.504455, 27.696283], [113.503985, 27.696505], [113.503405, 27.696643], [113.503734, 27.696976], [113.504173, 27.696879], [113.504392, 27.696935], [113.504455, 27.697309], [113.50599, 27.697143], [113.505959, 27.69749], [113.503546, 27.697517], [113.502815, 27.697458], [113.502704, 27.697988], [113.501352, 27.69891], [113.501108, 27.698636], [113.500311, 27.69893], [113.500554, 27.699205], [113.499823, 27.699558], [113.499491, 27.699028], [113.498206, 27.699195], [113.494665, 27.692813], [113.494038, 27.691592], [113.494163, 27.690787], [113.493787, 27.688678], [113.494178, 27.688396], [113.495053, 27.687696], [113.495137, 27.68708], [113.494273, 27.686623], [113.493514, 27.686698], [113.493409, 27.685708], [113.493051, 27.685167], [113.493082, 27.684831], [113.493915, 27.684682], [113.4946, 27.684654], [113.494842, 27.684934], [113.495527, 27.6847], [113.496065, 27.685242], [113.496297, 27.684915], [113.495959, 27.684085], [113.495201, 27.684206], [113.494547, 27.682853], [113.493999, 27.681919], [113.495338, 27.68135], [113.495591, 27.682031], [113.495485, 27.682461], [113.495643, 27.682666], [113.496086, 27.682181], [113.495696, 27.681266], [113.500997, 27.679381], [113.50046, 27.678345], [113.497298, 27.679596], [113.496581, 27.678438], [113.497403, 27.677953], [113.496992, 27.677356], [113.498025, 27.676889], [113.497372, 27.675937], [113.496571, 27.675442], [113.497013, 27.674864], [113.49852, 27.673669], [113.497741, 27.672596], [113.497835, 27.672148], [113.497182, 27.671616], [113.496613, 27.671252], [113.49655, 27.671009], [113.49694, 27.670542], [113.496465, 27.669786], [113.495706, 27.668816], [113.493546, 27.668806], [113.493472, 27.667602], [113.49264, 27.667593], [113.492661, 27.66721], [113.493377, 27.667257], [113.493704, 27.666501], [113.492387, 27.665959], [113.493019, 27.664718], [113.493177, 27.664074], [113.493356, 27.663392], [113.49323, 27.662039], [113.492692, 27.661264], [113.492724, 27.660984], [113.492418, 27.660807], [113.492239, 27.660685], [113.491997, 27.660601], [113.491923, 27.660275], [113.49167, 27.659995], [113.489241, 27.660061], [113.489033, 27.655734]]]}, "properties": {"display_name": "来龙门街道, 醴陵市, 株洲市, 湖南省, 412200, 中国", "type": "administrative", "osm_type": "relation", "osm_id": 8461289, "class": null, "keyword": "subdistrict"}}, {"type": "Feature", "geometry": {"type": "Polygon", "coordinates": [[[113.147817, 27.870646], [113.156825, 27.86369], [113.156929, 27.863613], [113.166033, 27.856695], [113.166849, 27.857853], [113.169903, 27.860031], [113.17223, 27.8625], [113.17416, 27.865002], [113.176151, 27.86972], [113.181346, 27.874675], [113.189497, 27.880733], [113.189591, 27.881565], [113.18951, 27.881627], [113.189124, 27.881276], [113.188829, 27.8813], [113.188759, 27.881708], [113.188641, 27.88175], [113.188593, 27.881148], [113.1876, 27.880266], [113.187321, 27.88029], [113.187257, 27.880513], [113.186367, 27.881432], [113.185626, 27.881063], [113.184467, 27.88093], [113.184387, 27.881447], [113.184178, 27.881769], [113.184108, 27.881978], [113.183829, 27.882006], [113.183588, 27.882381], [113.182955, 27.882457], [113.182713, 27.882988], [113.183094, 27.883618], [113.183523, 27.883751], [113.183775, 27.884287], [113.183566, 27.884624], [113.183765, 27.885027], [113.183717, 27.885349], [113.178738, 27.885387], [113.177092, 27.885524], [113.177058, 27.885611], [113.176705, 27.886534], [113.176748, 27.886866], [113.177129, 27.886871], [113.177167, 27.88745], [113.176684, 27.888047], [113.176839, 27.888502], [113.177955, 27.889095], [113.178454, 27.889801], [113.178556, 27.890318], [113.178781, 27.890342], [113.179441, 27.889858], [113.179763, 27.889858], [113.180047, 27.889982], [113.180643, 27.889782], [113.18104, 27.889953], [113.181286, 27.890309], [113.181383, 27.890593], [113.181775, 27.890811], [113.181485, 27.891465], [113.182397, 27.891745], [113.182295, 27.894367], [113.182713, 27.894675], [113.183159, 27.894694], [113.183083, 27.895111], [113.183201, 27.895529], [113.181131, 27.894656], [113.180004, 27.894543], [113.179275, 27.895026], [113.179286, 27.896411], [113.178888, 27.896723], [113.178534, 27.895263], [113.175305, 27.895187], [113.173674, 27.896932], [113.172784, 27.896543], [113.172333, 27.897093], [113.170713, 27.898051], [113.17022, 27.898013], [113.169941, 27.897492], [113.169168, 27.897397], [113.167956, 27.897766], [113.167666, 27.897435], [113.166851, 27.897368], [113.166743, 27.896942], [113.165993, 27.896932], [113.165681, 27.898734], [113.165295, 27.898942], [113.164995, 27.898857], [113.165027, 27.897634], [113.164512, 27.897681], [113.164759, 27.89587], [113.164548, 27.89556], [113.164437, 27.895396], [113.165166, 27.894552], [113.165156, 27.89367], [113.164641, 27.892722], [113.163729, 27.892618], [113.163772, 27.891034], [113.163654, 27.890152], [113.16169, 27.889896], [113.159544, 27.889706], [113.159802, 27.887051], [113.159201, 27.886406], [113.157957, 27.885894], [113.157399, 27.884301], [113.157806, 27.88341], [113.156669, 27.881399], [113.156304, 27.879996], [113.155618, 27.878972], [113.155704, 27.877625], [113.15594, 27.87718], [113.155613, 27.875826], [113.155575, 27.875292], [113.155639, 27.874723], [113.155811, 27.874325], [113.156096, 27.8733], [113.156347, 27.872883], [113.155075, 27.871714], [113.153715, 27.871098], [113.152034, 27.871081], [113.150532, 27.871261], [113.149234, 27.871299], [113.148073, 27.870834], [113.147817, 27.870646]]]}, "properties": {"display_name": "桂花街道, 荷塘区, 株洲市, 湖南省, 中国", "type": "administrative", "osm_type": "relation", "osm_id": 7400043, "class": null, "keyword": "subdistrict"}}, {"type": "Feature", "geometry": {"type": "Polygon", "coordinates": [[[113.176151, 27.86972], [113.183443, 27.867161], [113.185852, 27.86576], [113.186806, 27.866149], [113.187439, 27.866898], [113.18981, 27.865627], [113.189156, 27.864347], [113.189478, 27.863768], [113.190562, 27.863673], [113.191312, 27.864887], [113.192235, 27.865191], [113.192847, 27.86613], [113.194735, 27.866386], [113.19598, 27.865921], [113.196119, 27.864849], [113.197868, 27.866016], [113.199123, 27.868387], [113.199939, 27.868748], [113.203908, 27.86613], [113.205754, 27.867998], [113.206977, 27.86724], [113.209519, 27.868198], [113.209176, 27.867249], [113.208114, 27.867097], [113.207642, 27.866045], [113.208125, 27.866045], [113.208425, 27.866775], [113.2088, 27.866936], [113.209616, 27.86705], [113.209723, 27.866547], [113.209959, 27.865722], [113.210678, 27.865513], [113.21026, 27.867828], [113.211054, 27.867591], [113.211783, 27.867856], [113.212126, 27.868378], [113.211933, 27.868606], [113.211182, 27.868681], [113.210582, 27.868548], [113.210506, 27.870104], [113.211751, 27.870929], [113.211998, 27.872248], [113.213274, 27.873718], [113.211848, 27.875235], [113.208672, 27.8744], [113.207728, 27.877473], [113.205335, 27.8757], [113.203168, 27.876051], [113.202985, 27.877824], [113.20084, 27.878839], [113.20335, 27.881399], [113.202739, 27.88378], [113.203502, 27.889073], [113.201312, 27.889251], [113.201618, 27.890569], [113.202669, 27.891797], [113.203839, 27.892665], [113.206065, 27.891205], [113.206687, 27.894012], [113.204616, 27.897937], [113.201955, 27.899805], [113.199198, 27.900118], [113.19525, 27.898506], [113.194113, 27.898373], [113.192686, 27.900175], [113.191237, 27.90026], [113.190368, 27.901379], [113.190036, 27.901455], [113.19069, 27.899947], [113.190465, 27.899805], [113.190175, 27.899786], [113.189188, 27.901654], [113.189047, 27.90355], [113.187783, 27.90283], [113.186747, 27.901], [113.1873, 27.900052], [113.186238, 27.89972], [113.187085, 27.898506], [113.185079, 27.897112], [113.184156, 27.897406], [113.183588, 27.897141], [113.183738, 27.896249], [113.183201, 27.895529], [113.183083, 27.895111], [113.183159, 27.894694], [113.182713, 27.894675], [113.182295, 27.894367], [113.182397, 27.891745], [113.181485, 27.891465], [113.181775, 27.890811], [113.181383, 27.890593], [113.181286, 27.890309], [113.18104, 27.889953], [113.180643, 27.889782], [113.180047, 27.889982], [113.179763, 27.889858], [113.179441, 27.889858], [113.178781, 27.890342], [113.178556, 27.890318], [113.178454, 27.889801], [113.177955, 27.889095], [113.176839, 27.888502], [113.176684, 27.888047], [113.177167, 27.88745], [113.177129, 27.886871], [113.176748, 27.886866], [113.176705, 27.886534], [113.177058, 27.885611], [113.177092, 27.885524], [113.178738, 27.885387], [113.183717, 27.885349], [113.183765, 27.885027], [113.183566, 27.884624], [113.183775, 27.884287], [113.183523, 27.883751], [113.183094, 27.883618], [113.182713, 27.882988], [113.182955, 27.882457], [113.183588, 27.882381], [113.183829, 27.882006], [113.184108, 27.881978], [113.184178, 27.881769], [113.184387, 27.881447], [113.184467, 27.88093], [113.185626, 27.881063], [113.186367, 27.881432], [113.187257, 27.880513], [113.187321, 27.88029], [113.1876, 27.880266], [113.188593, 27.881148], [113.188641, 27.88175], [113.188759, 27.881708], [113.188829, 27.8813], [113.189124, 27.881276], [113.18951, 27.881627], [113.189591, 27.881565], [113.189497, 27.880733], [113.181346, 27.874675], [113.176151, 27.86972]]]}, "properties": {"display_name": "宋家桥街道, 荷塘区, 株洲市, 湖南省, 中国", "type": "administrative", "osm_type": "relation", "osm_id": 7400039, "class": null, "keyword": "subdistrict"}}, {"type": "Feature", "geometry": {"type": "Polygon", "coordinates": [[[113.166033, 27.856695], [113.171389, 27.852651], [113.17118, 27.852315], [113.170676, 27.852495], [113.170179, 27.851987], [113.169552, 27.852125], [113.169909, 27.852898], [113.169136, 27.853159], [113.168927, 27.852495], [113.168567, 27.852239], [113.16846, 27.851878], [113.168417, 27.851366], [113.168267, 27.851105], [113.168921, 27.850882], [113.168347, 27.84953], [113.169056, 27.849279], [113.168997, 27.849108], [113.170981, 27.848387], [113.171765, 27.850692], [113.172312, 27.85212], [113.17655, 27.848904], [113.180444, 27.844581], [113.180777, 27.844654], [113.180541, 27.845176], [113.180627, 27.845755], [113.181871, 27.846305], [113.182193, 27.846912], [113.182687, 27.847036], [113.183384, 27.84621], [113.184049, 27.845954], [113.184618, 27.846362], [113.185111, 27.846058], [113.186066, 27.845878], [113.186753, 27.846153], [113.186935, 27.845783], [113.187429, 27.845793], [113.187568, 27.846011], [113.187869, 27.845907], [113.18789, 27.845707], [113.188695, 27.845432], [113.189059, 27.844891], [113.190089, 27.844408], [113.192064, 27.844389], [113.19216, 27.844854], [113.1929, 27.844996], [113.193212, 27.845888], [113.194145, 27.847159], [113.194671, 27.848558], [113.195786, 27.848397], [113.196055, 27.84908], [113.196731, 27.848975], [113.19716, 27.849493], [113.198104, 27.849663], [113.198361, 27.848715], [113.198962, 27.848335], [113.200078, 27.848999], [113.200636, 27.848392], [113.201215, 27.848373], [113.200593, 27.8501], [113.20231, 27.850859], [113.203297, 27.849777], [113.205228, 27.850346], [113.205635, 27.851105], [113.205142, 27.852243], [113.205786, 27.854406], [113.207824, 27.852888], [113.211214, 27.853211], [113.212309, 27.856095], [113.209519, 27.863635], [113.210689, 27.864954], [113.210678, 27.865513], [113.209959, 27.865722], [113.209723, 27.866547], [113.209616, 27.86705], [113.2088, 27.866936], [113.208425, 27.866775], [113.208125, 27.866045], [113.207642, 27.866045], [113.208114, 27.867097], [113.209176, 27.867249], [113.209519, 27.868198], [113.206977, 27.86724], [113.205754, 27.867998], [113.203908, 27.86613], [113.199939, 27.868748], [113.199123, 27.868387], [113.197868, 27.866016], [113.196119, 27.864849], [113.19598, 27.865921], [113.194735, 27.866386], [113.192847, 27.86613], [113.192235, 27.865191], [113.191312, 27.864887], [113.190562, 27.863673], [113.189478, 27.863768], [113.189156, 27.864347], [113.18981, 27.865627], [113.187439, 27.866898], [113.186806, 27.866149], [113.185852, 27.86576], [113.183443, 27.867161], [113.176151, 27.86972], [113.17416, 27.865002], [113.17223, 27.8625], [113.169903, 27.860031], [113.166849, 27.857853], [113.166033, 27.856695]]]}, "properties": {"display_name": "金山街道, 荷塘区, 株洲市, 湖南省, 中国", "type": "administrative", "osm_type": "relation", "osm_id": 7400054, "class": null, "keyword": "subdistrict"}}, {"type": "Feature", "geometry": {"type": "Polygon", "coordinates": [[[113.100809, 27.897918], [113.109913, 27.890949], [113.110685, 27.890304], [113.113657, 27.887355], [113.119472, 27.881864], [113.122578, 27.879062], [113.121463, 27.87827], [113.122128, 27.87771], [113.12371, 27.875652], [113.124188, 27.875586], [113.127042, 27.871806], [113.127948, 27.870825], [113.129954, 27.869042], [113.130689, 27.869156], [113.132052, 27.868985], [113.132755, 27.869137], [113.133849, 27.86898], [113.134535, 27.868672], [113.138698, 27.865447], [113.139646, 27.864623], [113.140211, 27.864849], [113.139535, 27.865371], [113.139653, 27.865551], [113.139814, 27.865684], [113.140029, 27.865732], [113.141144, 27.866405], [113.14093, 27.86669], [113.140748, 27.866803], [113.140501, 27.866841], [113.13975, 27.866822], [113.139546, 27.866737], [113.139246, 27.866215], [113.138548, 27.866177], [113.137422, 27.867059], [113.137422, 27.867372], [113.137347, 27.867562], [113.136746, 27.868036], [113.136241, 27.868824], [113.135351, 27.86925], [113.135898, 27.870019], [113.136553, 27.870246], [113.136842, 27.870493], [113.137861, 27.872096], [113.138398, 27.872181], [113.138602, 27.872105], [113.13872, 27.871309], [113.13887, 27.871157], [113.13975, 27.871204], [113.139964, 27.871242], [113.140136, 27.871346], [113.140351, 27.871707], [113.140554, 27.872304], [113.140737, 27.872418], [113.140951, 27.872447], [113.141638, 27.872456], [113.142507, 27.872342], [113.142904, 27.872172], [113.143226, 27.871906], [113.14343, 27.871811], [113.14388, 27.871783], [113.144277, 27.871953], [113.144503, 27.872001], [113.144728, 27.871934], [113.145468, 27.871422], [113.145908, 27.870967], [113.146241, 27.871071], [113.14675, 27.87156], [113.135254, 27.880432], [113.134498, 27.880921], [113.133932, 27.881288], [113.135034, 27.882324], [113.135265, 27.882661], [113.134262, 27.88331], [113.134766, 27.884031], [113.135882, 27.883647], [113.136279, 27.884448], [113.136687, 27.886833], [113.137405, 27.887397], [113.138414, 27.887004], [113.138891, 27.886359], [113.140082, 27.88625], [113.140308, 27.886277], [113.140597, 27.88664], [113.141105, 27.887137], [113.141555, 27.887811], [113.141697, 27.888507], [113.141647, 27.888841], [113.141563, 27.8891], [113.141498, 27.890218], [113.141751, 27.892694], [113.141944, 27.893485], [113.141992, 27.895111], [113.141311, 27.895325], [113.14123, 27.89597], [113.139422, 27.895974], [113.139176, 27.896534], [113.135329, 27.897719], [113.1346, 27.898648], [113.133398, 27.899047], [113.132283, 27.899061], [113.131767, 27.898847], [113.131397, 27.898928], [113.131135, 27.898881], [113.130062, 27.89898], [113.129284, 27.899203], [113.129176, 27.898952], [113.129407, 27.897164], [113.129321, 27.896733], [113.129321, 27.896472], [113.128426, 27.896695], [113.128184, 27.896932], [113.12775, 27.896742], [113.128071, 27.896249], [113.127645, 27.896036], [113.127224, 27.896666], [113.126124, 27.897766], [113.12488, 27.898203], [113.123533, 27.898425], [113.11304, 27.89852], [113.112493, 27.898094], [113.110396, 27.898122], [113.109382, 27.897216], [113.10869, 27.896752], [113.108432, 27.896776], [113.108368, 27.897017], [113.108336, 27.897638], [113.108073, 27.898705], [113.108132, 27.899853], [113.107601, 27.900104], [113.10708, 27.900706], [113.106104, 27.901588], [113.105219, 27.901976], [113.104613, 27.902047], [113.103583, 27.902531], [113.103422, 27.901881], [113.103427, 27.901251], [113.103309, 27.90073], [113.103111, 27.90026], [113.101748, 27.898117], [113.101496, 27.898046], [113.101196, 27.898122], [113.100809, 27.897918]]]}, "properties": {"display_name": "田心街道, 石峰区, 株洲市, 湖南省, 中国", "type": "administrative", "osm_type": "relation", "osm_id": 7400360, "class": null, "keyword": "subdistrict"}}, {"type": "Feature", "geometry": {"type": "Polygon", "coordinates": [[[113.149518, 27.843013], [113.151391, 27.839835], [113.152328, 27.837864], [113.154008, 27.833317], [113.155087, 27.831282], [113.155618, 27.831069], [113.159512, 27.83179], [113.16242, 27.831458], [113.166068, 27.83105], [113.176603, 27.834617], [113.184317, 27.83715], [113.19083, 27.837919], [113.18539, 27.839911], [113.182429, 27.842349], [113.180444, 27.844581], [113.17655, 27.848904], [113.172312, 27.85212], [113.171765, 27.850692], [113.170981, 27.848387], [113.168997, 27.849108], [113.169056, 27.849279], [113.168347, 27.84953], [113.168921, 27.850882], [113.168267, 27.851105], [113.168417, 27.851366], [113.16846, 27.851878], [113.168567, 27.852239], [113.168927, 27.852495], [113.169136, 27.853159], [113.169909, 27.852898], [113.169552, 27.852125], [113.170179, 27.851987], [113.170676, 27.852495], [113.17118, 27.852315], [113.171389, 27.852651], [113.166033, 27.856695], [113.165352, 27.85566], [113.164343, 27.85386], [113.16267, 27.8509], [113.162054, 27.849961], [113.161397, 27.849192], [113.160797, 27.84868], [113.160272, 27.848249], [113.157608, 27.846803], [113.152815, 27.844341], [113.149518, 27.843013]]]}, "properties": {"display_name": "月塘街道, 荷塘区, 株洲市, 湖南省, 中国", "type": "administrative", "osm_type": "relation", "osm_id": 7400023, "class": null, "keyword": "subdistrict"}}, {"type": "Feature", "geometry": {"type": "Polygon", "coordinates": [[[113.170187, 27.791763], [113.171067, 27.78715], [113.174114, 27.788688], [113.176238, 27.789523], [113.177923, 27.788099], [113.180863, 27.790245], [113.18274, 27.792465], [113.185573, 27.792731], [113.186216, 27.79425], [113.186216, 27.795313], [113.188748, 27.799033], [113.190422, 27.799071], [113.190991, 27.796547], [113.191034, 27.796357], [113.191828, 27.795256], [113.194928, 27.794971], [113.194928, 27.797078], [113.196044, 27.796907], [113.198233, 27.798957], [113.194016, 27.80113], [113.193008, 27.804158], [113.194311, 27.805558], [113.195829, 27.805354], [113.195808, 27.806654], [113.196956, 27.807508], [113.196065, 27.808599], [113.194134, 27.805961], [113.192761, 27.806511], [113.194907, 27.808552], [113.193469, 27.812376], [113.195229, 27.813192], [113.195089, 27.813448], [113.194242, 27.816836], [113.189113, 27.816931], [113.189113, 27.81843], [113.185895, 27.819208], [113.183985, 27.816627], [113.182912, 27.816665], [113.182697, 27.818013], [113.178127, 27.816494], [113.177397, 27.811636], [113.173417, 27.812072], [113.1717, 27.807783], [113.174393, 27.805534], [113.17597, 27.808296], [113.17832, 27.807774], [113.178041, 27.80467], [113.17832, 27.802678], [113.174114, 27.800096], [113.173857, 27.801823], [113.172891, 27.801672], [113.172634, 27.797648], [113.175294, 27.797401], [113.175874, 27.794591], [113.173406, 27.794383], [113.172956, 27.793566], [113.17435, 27.792788], [113.173213, 27.790776], [113.171024, 27.79256], [113.170187, 27.791763]]]}, "properties": {"display_name": "董家塅街道, 芦淞区, 株洲市, 湖南省, 中国", "type": "administrative", "osm_type": "relation", "osm_id": 7400287, "class": null, "keyword": "subdistrict"}}, {"type": "Feature", "geometry": {"type": "Polygon", "coordinates": [[[113.131218, 27.860712], [113.136713, 27.85562], [113.138409, 27.854634], [113.143596, 27.851764], [113.14505, 27.850963], [113.146681, 27.849094], [113.148225, 27.846371], [113.149518, 27.843013], [113.152815, 27.844341], [113.157608, 27.846803], [113.160272, 27.848249], [113.160797, 27.84868], [113.161397, 27.849192], [113.162054, 27.849961], [113.16267, 27.8509], [113.164343, 27.85386], [113.165352, 27.85566], [113.166033, 27.856695], [113.156929, 27.863613], [113.156825, 27.86369], [113.147817, 27.870646], [113.147013, 27.870075], [113.146423, 27.86888], [113.144728, 27.867477], [113.142571, 27.865864], [113.140211, 27.864849], [113.139646, 27.864623], [113.135077, 27.862791], [113.134273, 27.86282], [113.133677, 27.862744], [113.132771, 27.862151], [113.131218, 27.860712]]]}, "properties": {"display_name": "茨菇塘街道, 荷塘区, 株洲市, 湖南省, 中国", "type": "administrative", "osm_type": "relation", "osm_id": 7400026, "class": null, "keyword": "subdistrict"}}, {"type": "Feature", "geometry": {"type": "Polygon", "coordinates": [[[113.140855, 27.807536], [113.143805, 27.807128], [113.14446, 27.806863], [113.146777, 27.803342], [113.145243, 27.800182], [113.145533, 27.799565], [113.144921, 27.799071], [113.144867, 27.79817], [113.147796, 27.79722], [113.148741, 27.797163], [113.149824, 27.796679], [113.150511, 27.795503], [113.155253, 27.793851], [113.161916, 27.794795], [113.158654, 27.798663], [113.157602, 27.800371], [113.156862, 27.803603], [113.15624, 27.807219], [113.157147, 27.81044], [113.157592, 27.813168], [113.157538, 27.815503], [113.157243, 27.821021], [113.156916, 27.825371], [113.156358, 27.827288], [113.155333, 27.829854], [113.154813, 27.829684], [113.153509, 27.829019], [113.154062, 27.828075], [113.153204, 27.827919], [113.149969, 27.828365], [113.143007, 27.828648], [113.143151, 27.824123], [113.140855, 27.807536]]]}, "properties": {"display_name": "庆云街道, 芦淞区, 株洲市, 湖南省, 中国", "type": "administrative", "osm_type": "relation", "osm_id": 7400296, "class": null, "keyword": "subdistrict"}}, {"type": "Feature", "geometry": {"type": "Polygon", "coordinates": [[[113.121564, 27.850915], [113.126725, 27.848288], [113.130056, 27.845655], [113.134873, 27.850892], [113.142558, 27.845356], [113.144147, 27.847023], [113.145474, 27.848416], [113.144004, 27.849303], [113.142528, 27.84973], [113.142153, 27.849891], [113.143596, 27.851764], [113.138409, 27.854634], [113.136713, 27.85562], [113.131218, 27.860712], [113.12963, 27.859526], [113.128168, 27.858678], [113.127629, 27.858499], [113.125725, 27.858236], [113.125362, 27.858113], [113.125116, 27.857963], [113.124621, 27.857416], [113.124348, 27.856901], [113.124389, 27.85686], [113.124214, 27.854292], [113.12408, 27.853704], [113.121564, 27.850915]]]}, "properties": {"display_name": "贺家土街道, 芦淞区, 株洲市, 湖南省, 中国", "type": "administrative", "osm_type": "relation", "osm_id": 7400258, "class": null, "keyword": "subdistrict"}}, {"type": "Feature", "geometry": {"type": "Polygon", "coordinates": [[[113.130056, 27.845655], [113.134203, 27.843156], [113.139869, 27.837257], [113.140404, 27.8367], [113.150065, 27.838554], [113.150559, 27.838227], [113.150994, 27.837425], [113.152328, 27.837864], [113.151391, 27.839835], [113.149518, 27.843013], [113.148225, 27.846371], [113.146681, 27.849094], [113.14505, 27.850963], [113.143596, 27.851764], [113.142153, 27.849891], [113.142528, 27.84973], [113.144004, 27.849303], [113.145474, 27.848416], [113.144147, 27.847023], [113.142558, 27.845356], [113.134873, 27.850892], [113.130056, 27.845655]]]}, "properties": {"display_name": "建设街道, 芦淞区, 株洲市, 湖南省, 412008, 中国", "type": "administrative", "osm_type": "relation", "osm_id": 7400265, "class": null, "keyword": "subdistrict"}}, {"type": "Feature", "geometry": {"type": "Polygon", "coordinates": [[[113.140404, 27.8367], [113.142958, 27.830215], [113.143007, 27.828648], [113.149969, 27.828365], [113.153204, 27.827919], [113.154062, 27.828075], [113.153509, 27.829019], [113.154813, 27.829684], [113.155333, 27.829854], [113.155618, 27.831069], [113.155087, 27.831282], [113.154008, 27.833317], [113.152328, 27.837864], [113.150994, 27.837425], [113.150559, 27.838227], [113.150065, 27.838554], [113.140404, 27.8367]]]}, "properties": {"display_name": "建宁街道, 芦淞区, 株洲市, 湖南省, 中国", "type": "administrative", "osm_type": "relation", "osm_id": 7400275, "class": null, "keyword": "subdistrict"}}, {"type": "Feature", "geometry": {"type": "Polygon", "coordinates": [[[113.134399, 27.816688], [113.134405, 27.813596], [113.134436, 27.813528], [113.138925, 27.813567], [113.138852, 27.817017], [113.135086, 27.816943], [113.134717, 27.816966], [113.134399, 27.816688]]]}, "properties": {"display_name": "株洲市中心医院, 滨江南路, 泰山路街道, 株洲市, 天元区, 株洲市, 湖南省, 412000, 中国", "type": "hospital", "osm_type": "way", "osm_id": 298295141, "class": null, "keyword": "市中心"}}, {"type": "Feature", "geometry": {"type": "Polygon", "coordinates": [[[113.10974, 27.832844], [113.10974, 27.83245], [113.109821, 27.83245], [113.109821, 27.832027], [113.109766, 27.832027], [113.109766, 27.83169], [113.110036, 27.83169], [113.110035, 27.832163], [113.110326, 27.832163], [113.110325, 27.832844], [113.10974, 27.832844]]]}, "properties": {"display_name": "株洲市民中心, 神农街, 泰山路街道, 株洲市, 天元区, 株洲市, 湖南省, 412000, 中国", "type": "yes", "osm_type": "way", "osm_id": 1004635826, "class": null, "keyword": "市中心"}}, {"type": "Feature", "geometry": {"type": "Polygon", "coordinates": [[[113.109172, 27.83173], [113.10962, 27.831729], [113.109623, 27.832763], [113.109176, 27.832764], [113.109172, 27.83173]]]}, "properties": {"display_name": "株洲市民中心, 神农大道, 泰山路街道, 株洲市, 天元区, 株洲市, 湖南省, 412000, 中国", "type": "yes", "osm_type": "way", "osm_id": 1001112572, "class": null, "keyword": "市中心"}}]}