{"type": "FeatureCollection", "features": [{"type": "Feature", "geometry": {"type": "Polygon", "coordinates": [[[117.928946, 36.830104], [117.931171, 36.830077], [117.930962, 36.82605], [117.938812, 36.821548], [117.945846, 36.818435], [117.952583, 36.814873], [117.949074, 36.80257], [117.952759, 36.792652], [117.959214, 36.789089], [117.962791, 36.775738], [117.961372, 36.766601], [117.959427, 36.758854], [117.955421, 36.748986], [117.96421, 36.747539], [117.970947, 36.744201], [117.984917, 36.735226], [117.993309, 36.730251], [117.998489, 36.72282], [118.002907, 36.71838], [118.009918, 36.714805], [118.037582, 36.716316], [118.045883, 36.717293], [118.054138, 36.717586], [118.062866, 36.714432], [118.069641, 36.712459], [118.079483, 36.708366], [118.086113, 36.711208], [118.093178, 36.718395], [118.1082, 36.716251], [118.115516, 36.713581], [118.127136, 36.711967], [118.134888, 36.713638], [118.142098, 36.716461], [118.150238, 36.721561], [118.15641, 36.727386], [118.157669, 36.739731], [118.154739, 36.745743], [118.152077, 36.75153], [118.145172, 36.758087], [118.148468, 36.763058], [118.155693, 36.766109], [118.162376, 36.770321], [118.16719, 36.777778], [118.171204, 36.786854], [118.170929, 36.795795], [118.168854, 36.802025], [118.166283, 36.810551], [118.168998, 36.815075], [118.176483, 36.817207], [118.185669, 36.819076], [118.192039, 36.821918], [118.194229, 36.827595], [118.194832, 36.84568], [118.193993, 36.854629], [118.190514, 36.861347], [118.182083, 36.865192], [118.174766, 36.868553], [118.168297, 36.871212], [118.16214, 36.874775], [118.156059, 36.880859], [118.15271, 36.88602], [118.145058, 36.884758], [118.126297, 36.887207], [118.115433, 36.886516], [118.106506, 36.884182], [118.09131, 36.881274], [118.089441, 36.877654], [118.087726, 36.877862], [118.08634, 36.878048], [118.086281, 36.877719], [118.085371, 36.877883], [118.085296, 36.877116], [118.081763, 36.877622], [118.076502, 36.87824], [118.076813, 36.879096], [118.075878, 36.87946], [118.07622, 36.881104], [118.075535, 36.881186], [118.074659, 36.88129], [118.073509, 36.881405], [118.073331, 36.880473], [118.072759, 36.879851], [118.071311, 36.8801], [118.071549, 36.881623], [118.073094, 36.881458], [118.073312, 36.882717], [118.071508, 36.882951], [118.071612, 36.883895], [118.070235, 36.884054], [118.070305, 36.884587], [118.068828, 36.88479], [118.069305, 36.886813], [118.057417, 36.888192], [118.058279, 36.892989], [118.058579, 36.894936], [118.056325, 36.89497], [118.056508, 36.898033], [118.055617, 36.898068], [118.055609, 36.898241], [118.056552, 36.898713], [118.056688, 36.900337], [118.056799, 36.901672], [118.056674, 36.901661], [118.056925, 36.903734], [118.057242, 36.905766], [118.05084, 36.906724], [118.04876, 36.907027], [118.048974, 36.909497], [118.047265, 36.909563], [118.046787, 36.908946], [118.046261, 36.908522], [118.045616, 36.908529], [118.045622, 36.90896], [118.044471, 36.908994], [118.043594, 36.910508], [118.043763, 36.912087], [118.039071, 36.912451], [118.038493, 36.910336], [118.032777, 36.910815], [118.029987, 36.911132], [118.029941, 36.910715], [118.028335, 36.910837], [118.028598, 36.912875], [118.026995, 36.91299], [118.027101, 36.915079], [118.023871, 36.915189], [118.024019, 36.916585], [118.018919, 36.916708], [118.018627, 36.91445], [118.017504, 36.914442], [118.01737, 36.91309], [118.016627, 36.906251], [118.01323, 36.906413], [118.013035, 36.905244], [118.010226, 36.905419], [118.011273, 36.907336], [118.009793, 36.907441], [118.00412, 36.907768], [118.004151, 36.908317], [118.002073, 36.908405], [118.001998, 36.909138], [118.000573, 36.909199], [117.999974, 36.904588], [117.999704, 36.901977], [117.997672, 36.902111], [117.995265, 36.902232], [117.994921, 36.899261], [117.994489, 36.899272], [117.993123, 36.899915], [117.991952, 36.898711], [117.99005, 36.898874], [117.990404, 36.901357], [117.988498, 36.902642], [117.988164, 36.900681], [117.987921, 36.899213], [117.985594, 36.899287], [117.984767, 36.891766], [117.988035, 36.891624], [117.987978, 36.889871], [117.987999, 36.888025], [117.987911, 36.885444], [117.987928, 36.884566], [117.987924, 36.883534], [117.987153, 36.883583], [117.98696, 36.88356], [117.985641, 36.883681], [117.985593, 36.881285], [117.984181, 36.881347], [117.983975, 36.881458], [117.982608, 36.881485], [117.982516, 36.881377], [117.980207, 36.881511], [117.980161, 36.878703], [117.971616, 36.879136], [117.971427, 36.877284], [117.977735, 36.876699], [117.9774, 36.869532], [117.975659, 36.869629], [117.975643, 36.868408], [117.9756, 36.867236], [117.973729, 36.867371], [117.973514, 36.866019], [117.973082, 36.866077], [117.973045, 36.865793], [117.972715, 36.865836], [117.972297, 36.862858], [117.971502, 36.862874], [117.971381, 36.861535], [117.967099, 36.861751], [117.967141, 36.864456], [117.966297, 36.86453], [117.966248, 36.865495], [117.963144, 36.865616], [117.963338, 36.867505], [117.960491, 36.867589], [117.960653, 36.871238], [117.959219, 36.871641], [117.958544, 36.871843], [117.958091, 36.87211], [117.957941, 36.872435], [117.95787, 36.872846], [117.952067, 36.873099], [117.95222, 36.875942], [117.952382, 36.879211], [117.951685, 36.879208], [117.951739, 36.879934], [117.95064, 36.880072], [117.950621, 36.880945], [117.949609, 36.880961], [117.946512, 36.88101], [117.946339, 36.879587], [117.944924, 36.879978], [117.944161, 36.880124], [117.943489, 36.880351], [117.942844, 36.880657], [117.941549, 36.880951], [117.940627, 36.88101], [117.939942, 36.878947], [117.941215, 36.876539], [117.939759, 36.876618], [117.939618, 36.87471], [117.938059, 36.87483], [117.93758, 36.871334], [117.93753, 36.870849], [117.9373, 36.868594], [117.937851, 36.86854], [117.940682, 36.868265], [117.941502, 36.867443], [117.941213, 36.865307], [117.941001, 36.863735], [117.940579, 36.860605], [117.941871, 36.860519], [117.941662, 36.858605], [117.941513, 36.858098], [117.942138, 36.858184], [117.943477, 36.858121], [117.943288, 36.855769], [117.942105, 36.855907], [117.941923, 36.853133], [117.942895, 36.853007], [117.942678, 36.850615], [117.944018, 36.850531], [117.943913, 36.849507], [117.943739, 36.84744], [117.943169, 36.847441], [117.943039, 36.845817], [117.942151, 36.846226], [117.939321, 36.846273], [117.939182, 36.84442], [117.938201, 36.844455], [117.938177, 36.843268], [117.938158, 36.84205], [117.935351, 36.842111], [117.935758, 36.840513], [117.931257, 36.840613], [117.931261, 36.836841], [117.929888, 36.836847], [117.929868, 36.835518], [117.928996, 36.835555], [117.928946, 36.830104]]]}, "properties": {"display_name": "张店区, 淄博市, 山东省, 255000, 中国", "type": "administrative", "osm_type": "relation", "osm_id": 3468500, "class": null, "keyword": "district"}}, {"type": "Feature", "geometry": {"type": "Polygon", "coordinates": [[[117.907231, 36.658474], [117.90743, 36.658048], [117.907628, 36.65739], [117.907757, 36.656624], [117.907805, 36.655957], [117.907746, 36.655195], [117.907655, 36.654606], [117.912258, 36.654554], [117.912322, 36.656422], [117.912424, 36.656628], [117.912515, 36.656839], [117.912505, 36.656955], [117.912456, 36.657093], [117.912381, 36.657153], [117.91207, 36.657308], [117.911663, 36.65748], [117.911426, 36.657665], [117.911265, 36.657889], [117.911126, 36.65816], [117.911056, 36.658388], [117.910981, 36.658483], [117.907285, 36.658505], [117.907231, 36.658474]]]}, "properties": {"display_name": "般阳中学, 松龄西路, 淄川区, 淄博市, 山东省, 中国", "type": "school", "osm_type": "way", "osm_id": 1182522975, "class": null, "keyword": "中央区"}}, {"type": "Feature", "geometry": {"type": "Polygon", "coordinates": [[[117.974721, 36.817707], [117.974914, 36.817591], [117.977146, 36.817432], [117.977312, 36.817565], [117.977763, 36.817513], [117.977865, 36.818437], [117.977688, 36.820223], [117.977698, 36.821374], [117.977822, 36.822319], [117.976064, 36.822413], [117.976076, 36.822639], [117.975204, 36.822681], [117.974721, 36.817707]]]}, "properties": {"display_name": "淄博明发世贸中心, 张店区, 淄博市, 山东省, 中国", "type": "residential", "osm_type": "way", "osm_id": 1343754061, "class": null, "keyword": "市中心"}}, {"type": "Feature", "geometry": {"type": "Polygon", "coordinates": [[[117.981461, 36.81342], [117.981503, 36.813059], [117.981688, 36.812727], [117.981998, 36.812462], [117.982398, 36.812291], [117.982845, 36.812234], [117.983292, 36.812295], [117.983692, 36.81247], [117.983999, 36.81274], [117.98418, 36.813075], [117.984214, 36.813439], [117.984099, 36.813792], [117.983846, 36.814096], [117.983484, 36.814317], [117.983051, 36.814432], [117.982595, 36.814428], [117.982166, 36.814305], [117.981811, 36.814079], [117.981568, 36.813773], [117.981461, 36.81342]]]}, "properties": {"display_name": "淄博市体育中心体育场, 心环东路, 张店区, 淄博市, 山东省, 255000, 中国", "type": "stadium", "osm_type": "way", "osm_id": 612257377, "class": null, "keyword": "city centre"}}, {"type": "Feature", "geometry": {"type": "Polygon", "coordinates": [[[117.923394, 36.658281], [117.926323, 36.658289], [117.926388, 36.65983], [117.925347, 36.659839], [117.92436, 36.659821], [117.923888, 36.659623], [117.923577, 36.659314], [117.923405, 36.658849], [117.923394, 36.658281]]]}, "properties": {"display_name": "地中海阳光, 淄川区, 淄博市, 山东省, 中国", "type": "residential", "osm_type": "way", "osm_id": 1182522972, "class": null, "keyword": "中央区"}}, {"type": "Feature", "geometry": {"type": "Polygon", "coordinates": [[[118.053003, 36.810056], [118.054521, 36.809736], [118.055858, 36.809453], [118.05619, 36.810547], [118.056032, 36.810733], [118.053443, 36.811232], [118.053003, 36.810056]]]}, "properties": {"display_name": "中央公园, 体育场街道, 张店区, 淄博市, 山东省, 中国", "type": "residential", "osm_type": "way", "osm_id": 995867762, "class": null, "keyword": "中央区"}}, {"type": "Feature", "geometry": {"type": "Polygon", "coordinates": [[[118.052009, 36.808352], [118.053189, 36.808071], [118.053909, 36.807899], [118.054058, 36.808463], [118.053873, 36.808502], [118.053974, 36.808866], [118.054225, 36.80882], [118.054521, 36.809736], [118.053003, 36.810056], [118.052491, 36.809896], [118.052009, 36.808352]]]}, "properties": {"display_name": "中央公园2期, 体育场街道, 张店区, 淄博市, 山东省, 中国", "type": "residential", "osm_type": "way", "osm_id": 996066630, "class": null, "keyword": "中央区"}}, {"type": "Feature", "geometry": {"type": "Polygon", "coordinates": [[[117.961482, 36.825286], [117.963295, 36.825213], [117.963418, 36.826995], [117.962233, 36.827386], [117.961863, 36.826939], [117.961643, 36.826527], [117.961551, 36.826205], [117.961482, 36.825286]]]}, "properties": {"display_name": "太平洋在线服务中心, 张店区, 淄博市, 山东省, 中国", "type": "commercial", "osm_type": "way", "osm_id": 1343754051, "class": null, "keyword": "中央区"}}, {"type": "Feature", "geometry": {"type": "Polygon", "coordinates": [[[118.01469, 36.805235], [118.017452, 36.804946], [118.017555, 36.805575], [118.014792, 36.805864], [118.01469, 36.805235]]]}, "properties": {"display_name": "张店市民中心, 张店区, 淄博市, 山东省, 中国", "type": "commercial", "osm_type": "way", "osm_id": 1239083853, "class": null, "keyword": "市中心"}}, {"type": "Feature", "geometry": {"type": "Polygon", "coordinates": [[[117.985326, 36.822182], [117.986646, 36.822069], [117.986709, 36.822123], [117.986806, 36.822907], [117.985421, 36.823008], [117.985355, 36.822438], [117.985339, 36.822295], [117.985326, 36.822182]]]}, "properties": {"display_name": "中国人民银行淄博市中心支行, 张店区, 淄博市, 山东省, 中国", "type": "commercial", "osm_type": "way", "osm_id": 1028671177, "class": null, "keyword": "市中心"}}]}