{"type": "FeatureCollection", "features": [{"type": "Feature", "geometry": {"type": "Polygon", "coordinates": [[[107.473978, 27.753634], [107.474235, 27.753406], [107.474579, 27.753406], [107.475608, 27.752951], [107.476638, 27.751887], [107.477668, 27.752343], [107.478012, 27.752647], [107.478698, 27.752647], [107.47887, 27.752799], [107.480587, 27.752799], [107.480758, 27.752951], [107.482303, 27.752343], [107.484191, 27.752191], [107.484707, 27.751887], [107.48505, 27.751887], [107.485651, 27.751355], [107.485651, 27.7509], [107.485908, 27.750672], [107.486423, 27.750672], [107.487196, 27.751355], [107.487196, 27.752115], [107.486852, 27.752571], [107.48711, 27.752951], [107.489513, 27.752039], [107.490886, 27.751887], [107.49226, 27.753255], [107.492689, 27.752875], [107.49286, 27.752115], [107.493719, 27.751355], [107.493719, 27.751204], [107.49432, 27.750672], [107.495521, 27.750368], [107.496122, 27.749836], [107.496294, 27.749229], [107.495435, 27.748773], [107.495435, 27.748469], [107.495779, 27.747861], [107.495779, 27.745279], [107.496208, 27.745051], [107.496894, 27.744291], [107.498096, 27.744443], [107.498182, 27.744215], [107.497581, 27.743683], [107.496894, 27.74338], [107.496551, 27.74338], [107.49595, 27.743], [107.496122, 27.741784], [107.495521, 27.741253], [107.49535, 27.741253], [107.494148, 27.740037], [107.493805, 27.740037], [107.493633, 27.740189], [107.493375, 27.740113], [107.493719, 27.738442], [107.494577, 27.737834], [107.493805, 27.73715], [107.49329, 27.73715], [107.493032, 27.736922], [107.492345, 27.735403], [107.493719, 27.73434], [107.493375, 27.73358], [107.493375, 27.733276], [107.493633, 27.733048], [107.49535, 27.733048], [107.496036, 27.733352], [107.497753, 27.734871], [107.498954, 27.734871], [107.499298, 27.735023], [107.499813, 27.735631], [107.501358, 27.735783], [107.501701, 27.735935], [107.502559, 27.736847], [107.502731, 27.736847], [107.502817, 27.735707], [107.502645, 27.735555], [107.502645, 27.734947], [107.502473, 27.734795], [107.502302, 27.733732], [107.503074, 27.733656], [107.50316, 27.733124], [107.504276, 27.732288], [107.504963, 27.73244], [107.505477, 27.733048], [107.505821, 27.733048], [107.506507, 27.73244], [107.507366, 27.732592], [107.507452, 27.732364], [107.50625, 27.731149], [107.50625, 27.729933], [107.507023, 27.729098], [107.507709, 27.728794], [107.508567, 27.728794], [107.508739, 27.728642], [107.509168, 27.729022], [107.50934, 27.730541], [107.510456, 27.731529], [107.510971, 27.731529], [107.512344, 27.731984], [107.512773, 27.732364], [107.512773, 27.732972], [107.513374, 27.733352], [107.513717, 27.733352], [107.514232, 27.732744], [107.514747, 27.7332], [107.515091, 27.733048], [107.515348, 27.733276], [107.515348, 27.734188], [107.515005, 27.734795], [107.514833, 27.735859], [107.514232, 27.736391], [107.513889, 27.736391], [107.513374, 27.735783], [107.513031, 27.735631], [107.512344, 27.735631], [107.5114, 27.736467], [107.511915, 27.737682], [107.511915, 27.739505], [107.512602, 27.739961], [107.512602, 27.740569], [107.513374, 27.740949], [107.514146, 27.741633], [107.514146, 27.742088], [107.512687, 27.743532], [107.512001, 27.743835], [107.5114, 27.744367], [107.511056, 27.745127], [107.511056, 27.745431], [107.511228, 27.745583], [107.511228, 27.746494], [107.5114, 27.746646], [107.5114, 27.749988], [107.512086, 27.750444], [107.511572, 27.751355], [107.511572, 27.751659], [107.512001, 27.751887], [107.513031, 27.750976], [107.513202, 27.750976], [107.513717, 27.75128], [107.514061, 27.75128], [107.514576, 27.751735], [107.515434, 27.751735], [107.515863, 27.751355], [107.515863, 27.751052], [107.515691, 27.7509], [107.515691, 27.750292], [107.515348, 27.749836], [107.515348, 27.749381], [107.515691, 27.748773], [107.516979, 27.747633], [107.518524, 27.747633], [107.518953, 27.748165], [107.518953, 27.749381], [107.519725, 27.749912], [107.52024, 27.74976], [107.521614, 27.748545], [107.521957, 27.748545], [107.522644, 27.748849], [107.523502, 27.748849], [107.523759, 27.749077], [107.523416, 27.749684], [107.523674, 27.750064], [107.52539, 27.749457], [107.526077, 27.748697], [107.52848, 27.748545], [107.528738, 27.748773], [107.528738, 27.749229], [107.530626, 27.750748], [107.530626, 27.751204], [107.530283, 27.751659], [107.530283, 27.752115], [107.529768, 27.753179], [107.529768, 27.754546], [107.528738, 27.755761], [107.530111, 27.756976], [107.530283, 27.75728], [107.530283, 27.757888], [107.530969, 27.758647], [107.530969, 27.759407], [107.530626, 27.759863], [107.528738, 27.761533], [107.528738, 27.761989], [107.528995, 27.762521], [107.529853, 27.762521], [107.530197, 27.762369], [107.5326, 27.760698], [107.532943, 27.760698], [107.53363, 27.760394], [107.533973, 27.760394], [107.534145, 27.760546], [107.535003, 27.760546], [107.535432, 27.759863], [107.536033, 27.759331], [107.537235, 27.758875], [107.537836, 27.758343], [107.537836, 27.757128], [107.538093, 27.7569], [107.538265, 27.7569], [107.539295, 27.757964], [107.539638, 27.757964], [107.539896, 27.758192], [107.539896, 27.759255], [107.540153, 27.759483], [107.541183, 27.759635], [107.541698, 27.76009], [107.54187, 27.76009], [107.542471, 27.759559], [107.542471, 27.758192], [107.542127, 27.757584], [107.542385, 27.757204], [107.544616, 27.757052], [107.545818, 27.756597], [107.547191, 27.756597], [107.54805, 27.75766], [107.548393, 27.757812], [107.549766, 27.757812], [107.550195, 27.758343], [107.550195, 27.758951], [107.550796, 27.759483], [107.550968, 27.759483], [107.55114, 27.759331], [107.551826, 27.759331], [107.552599, 27.758647], [107.552599, 27.757432], [107.552427, 27.75728], [107.552427, 27.756976], [107.552856, 27.7569], [107.553714, 27.755989], [107.554229, 27.755989], [107.556289, 27.755229], [107.55689, 27.754698], [107.557233, 27.753179], [107.558178, 27.752647], [107.558521, 27.752647], [107.559723, 27.752039], [107.560066, 27.752039], [107.561611, 27.75128], [107.562469, 27.75128], [107.562641, 27.751431], [107.562984, 27.751431], [107.563585, 27.751963], [107.5641, 27.753027], [107.564958, 27.753634], [107.564958, 27.755001], [107.56513, 27.755153], [107.565302, 27.756217], [107.56616, 27.757128], [107.56616, 27.75804], [107.566846, 27.759559], [107.566846, 27.761685], [107.567705, 27.763053], [107.567876, 27.764268], [107.568735, 27.765331], [107.568735, 27.765635], [107.568906, 27.765787], [107.568906, 27.767457], [107.57028, 27.770343], [107.570108, 27.770951], [107.569078, 27.772318], [107.569078, 27.772774], [107.56925, 27.772925], [107.569078, 27.774444], [107.569593, 27.775508], [107.569593, 27.775963], [107.568735, 27.776875], [107.56822, 27.777786], [107.56822, 27.77809], [107.568048, 27.778241], [107.568048, 27.779608], [107.567876, 27.77976], [107.567876, 27.780064], [107.56822, 27.78052], [107.569421, 27.781431], [107.56925, 27.78295], [107.568906, 27.783253], [107.568906, 27.784164], [107.569421, 27.784772], [107.569421, 27.785228], [107.56925, 27.78538], [107.568906, 27.786594], [107.568649, 27.786822], [107.568134, 27.786822], [107.567876, 27.78705], [107.567018, 27.789024], [107.567018, 27.789632], [107.56719, 27.789784], [107.567533, 27.790999], [107.56822, 27.791758], [107.56822, 27.792061], [107.567705, 27.793125], [107.567705, 27.79358], [107.568735, 27.794491], [107.568906, 27.795099], [107.569936, 27.795706], [107.569765, 27.796617], [107.57028, 27.797073], [107.57028, 27.79768], [107.570795, 27.798288], [107.570795, 27.799199], [107.57131, 27.799806], [107.570623, 27.801021], [107.570795, 27.801324], [107.570795, 27.802843], [107.57131, 27.803299], [107.57131, 27.804236], [107.57131, 27.805273], [107.571138, 27.805424], [107.570966, 27.806791], [107.570451, 27.80755], [107.570451, 27.809372], [107.568735, 27.810587], [107.568735, 27.810739], [107.569593, 27.811498], [107.569593, 27.811953], [107.569936, 27.812712], [107.569936, 27.814383], [107.568563, 27.81666], [107.568391, 27.817267], [107.566332, 27.819696], [107.565387, 27.820531], [107.564701, 27.820835], [107.564357, 27.820835], [107.563842, 27.821139], [107.562812, 27.82129], [107.562198, 27.820522], [107.558864, 27.819924], [107.558435, 27.819545], [107.557405, 27.818482], [107.556375, 27.816205], [107.556481, 27.814882], [107.555603, 27.814155], [107.554306, 27.813807], [107.553764, 27.813901], [107.553336, 27.814648], [107.552193, 27.815639], [107.551311, 27.815521], [107.55101, 27.815235], [107.550594, 27.812671], [107.550539, 27.811346], [107.550367, 27.809372], [107.549337, 27.807854], [107.548736, 27.807322], [107.547967, 27.807343], [107.546815, 27.808572], [107.545276, 27.808547], [107.543157, 27.805728], [107.541011, 27.80383], [107.53981, 27.803526], [107.539295, 27.803526], [107.538387, 27.803909], [107.538158, 27.804376], [107.537609, 27.807253], [107.537063, 27.807647], [107.536642, 27.807421], [107.535347, 27.806108], [107.534059, 27.804817], [107.533115, 27.803526], [107.532257, 27.803374], [107.532085, 27.803223], [107.531398, 27.803071], [107.530368, 27.803071], [107.529682, 27.803526], [107.529081, 27.804058], [107.528995, 27.804589], [107.528308, 27.804589], [107.527879, 27.804969], [107.527879, 27.805424], [107.52745, 27.805956], [107.526764, 27.8055], [107.526077, 27.8055], [107.525648, 27.804817], [107.524532, 27.804134], [107.524189, 27.804134], [107.524017, 27.804285], [107.522472, 27.804285], [107.521871, 27.803754], [107.521871, 27.803299], [107.521614, 27.803071], [107.520841, 27.802995], [107.520841, 27.802843], [107.521356, 27.802539], [107.521356, 27.802236], [107.521013, 27.801476], [107.520498, 27.801021], [107.520498, 27.799806], [107.519897, 27.799275], [107.519382, 27.799123], [107.518095, 27.797984], [107.518095, 27.797376], [107.517923, 27.797073], [107.518095, 27.796921], [107.518095, 27.79601], [107.518266, 27.795858], [107.518266, 27.795554], [107.517065, 27.794491], [107.51655, 27.792517], [107.51552, 27.791758], [107.515176, 27.79115], [107.514576, 27.790619], [107.514232, 27.790619], [107.513975, 27.790391], [107.51346, 27.789632], [107.512602, 27.788872], [107.512602, 27.788417], [107.512344, 27.788189], [107.512001, 27.788189], [107.511486, 27.787885], [107.510627, 27.787885], [107.510112, 27.788189], [107.508911, 27.788493], [107.508653, 27.788721], [107.508825, 27.788872], [107.508739, 27.789252], [107.507623, 27.788265], [107.507623, 27.787506], [107.507366, 27.787278], [107.505993, 27.787278], [107.504705, 27.785835], [107.504705, 27.784924], [107.505907, 27.784013], [107.506765, 27.782646], [107.506422, 27.782038], [107.506422, 27.781583], [107.50625, 27.781431], [107.505907, 27.780216], [107.50522, 27.779153], [107.50522, 27.778849], [107.50419, 27.777026], [107.503761, 27.776647], [107.502903, 27.776647], [107.500671, 27.778773], [107.499469, 27.779532], [107.498783, 27.779684], [107.49801, 27.779001], [107.49801, 27.777938], [107.499212, 27.775811], [107.499212, 27.775508], [107.499555, 27.7749], [107.496294, 27.77247], [107.496122, 27.77171], [107.49535, 27.771027], [107.493805, 27.770116], [107.492431, 27.769052], [107.491745, 27.768901], [107.491058, 27.769508], [107.489233, 27.769717], [107.488141, 27.770463], [107.486439, 27.771152], [107.485651, 27.771559], [107.484168, 27.773575], [107.484621, 27.773989], [107.484964, 27.775204], [107.484792, 27.775356], [107.484792, 27.775811], [107.484535, 27.776039], [107.484191, 27.776039], [107.483848, 27.776343], [107.482297, 27.776475], [107.4799, 27.777558], [107.478012, 27.776191], [107.477325, 27.776191], [107.475592, 27.774395], [107.475865, 27.774257], [107.476513, 27.774099], [107.477028, 27.77383], [107.477668, 27.773305], [107.478087, 27.773297], [107.478879, 27.773843], [107.479189, 27.773657], [107.479282, 27.77204], [107.479562, 27.770191], [107.480485, 27.76729], [107.482475, 27.765711], [107.483161, 27.765255], [107.484191, 27.764647], [107.486166, 27.763356], [107.486681, 27.762293], [107.486681, 27.761685], [107.486423, 27.761457], [107.481635, 27.761923], [107.479557, 27.761609], [107.479385, 27.761457], [107.478355, 27.761457], [107.47707, 27.761389], [107.476295, 27.761154], [107.476038, 27.760926], [107.475144, 27.759647], [107.474321, 27.757888], [107.474493, 27.756369], [107.474321, 27.756217], [107.474321, 27.755761], [107.473978, 27.755001], [107.473978, 27.753634]]]}, "properties": {"display_name": "湄江街道, 湄潭县, 遵义市, 贵州省, 中国", "type": "administrative", "osm_type": "relation", "osm_id": 8227057, "class": null, "keyword": "subdistrict"}}, {"type": "Feature", "geometry": {"type": "Polygon", "coordinates": [[[106.887615, 27.671991], [106.887755, 27.671588], [106.88926, 27.670084], [106.889715, 27.670146], [106.889943, 27.670906], [106.890486, 27.671309], [106.891466, 27.671278], [106.892201, 27.670968], [106.892639, 27.670007], [106.893864, 27.669604], [106.89544, 27.668952], [106.897453, 27.667759], [106.899553, 27.665991], [106.900656, 27.664611], [106.899746, 27.663976], [106.898923, 27.663697], [106.898573, 27.663417], [106.898871, 27.663076], [106.897733, 27.662038], [106.89537, 27.660022], [106.897856, 27.65827], [106.900796, 27.661976], [106.902862, 27.663991], [106.90358, 27.66382], [106.904228, 27.663805], [106.904945, 27.663882], [106.905558, 27.664146], [106.909182, 27.666906], [106.910897, 27.668115], [106.911597, 27.668456], [106.91228, 27.668487], [106.91291, 27.668286], [106.914538, 27.667557], [106.914958, 27.667479], [106.915571, 27.667573], [106.915851, 27.667929], [106.915781, 27.668177], [106.914031, 27.669092], [106.914346, 27.670146], [106.914573, 27.670146], [106.914626, 27.670332], [106.914836, 27.670549], [106.915379, 27.670844], [106.915711, 27.671061], [106.915414, 27.671805], [106.914766, 27.67241], [106.914836, 27.672751], [106.915274, 27.672859], [106.915729, 27.673123], [106.915799, 27.67351], [106.915921, 27.673712], [106.915942, 27.673853], [106.916007, 27.67421], [106.915246, 27.674282], [106.913692, 27.674038], [106.912818, 27.674024], [106.911976, 27.674225], [106.911426, 27.674353], [106.911717, 27.674626], [106.911604, 27.674884], [106.911312, 27.675357], [106.911167, 27.675888], [106.911588, 27.676734], [106.91141, 27.67692], [106.911086, 27.678339], [106.910373, 27.678153], [106.910082, 27.678483], [106.910357, 27.678755], [106.909693, 27.679615], [106.910033, 27.679959], [106.91183, 27.680332], [106.913449, 27.681049], [106.913495, 27.681433], [106.913155, 27.681401], [106.91277, 27.681773], [106.912035, 27.682316], [106.911825, 27.682719], [106.91151, 27.683091], [106.90442, 27.686346], [106.903737, 27.685385], [106.903947, 27.685153], [106.903965, 27.684765], [106.904297, 27.684533], [106.904963, 27.68368], [106.904665, 27.683231], [106.9047, 27.682889], [106.90484, 27.682672], [106.903055, 27.682486], [106.902775, 27.682207], [106.90267, 27.681618], [106.902232, 27.681541], [106.901794, 27.682037], [106.901164, 27.682471], [106.898923, 27.682409], [106.898118, 27.682238], [106.897138, 27.68151], [106.896402, 27.681045], [106.896, 27.680099], [106.89565, 27.68027], [106.895352, 27.680254], [106.895177, 27.680037], [106.895282, 27.679804], [106.895475, 27.679619], [106.894337, 27.67906], [106.893952, 27.678673], [106.893584, 27.678502], [106.893392, 27.678316], [106.893076, 27.67813], [106.891606, 27.675898], [106.891081, 27.674456], [106.890976, 27.673464], [106.891098, 27.673076], [106.891903, 27.672208], [106.891798, 27.671883], [106.890976, 27.671945], [106.890101, 27.671805], [106.889173, 27.672921], [106.88877, 27.672751], [106.888087, 27.672596], [106.887615, 27.671991]]]}, "properties": {"display_name": "南门关街道, 红花岗区, 遵义市, 贵州省, 中国", "type": "administrative", "osm_type": "relation", "osm_id": 8316221, "class": null, "keyword": "subdistrict"}}, {"type": "Feature", "geometry": {"type": "Polygon", "coordinates": [[[106.978296, 27.369556], [106.978661, 27.369213], [106.979423, 27.368108], [106.980539, 27.366241], [106.981633, 27.366555], [106.983929, 27.369089], [106.984165, 27.370652], [106.984669, 27.371109], [106.987555, 27.374225], [106.988076, 27.373766], [106.989294, 27.375174], [106.991601, 27.376846], [106.992224, 27.376884], [106.99439, 27.378493], [106.995183, 27.379373], [106.996202, 27.379624], [106.996938, 27.379373], [106.997462, 27.379989], [106.99725, 27.38034], [106.997519, 27.381346], [106.998071, 27.381912], [106.998439, 27.383357], [106.999118, 27.384049], [106.999302, 27.384564], [106.998481, 27.385821], [106.998113, 27.385683], [106.997448, 27.38557], [106.996613, 27.386412], [106.996627, 27.386676], [106.995962, 27.386764], [106.995508, 27.386136], [106.994914, 27.386299], [106.994291, 27.38596], [106.994008, 27.385029], [106.992663, 27.38327], [106.991672, 27.384074], [106.990808, 27.383345], [106.988996, 27.382352], [106.988529, 27.381585], [106.989237, 27.380554], [106.990369, 27.379599], [106.989421, 27.378229], [106.988529, 27.378945], [106.987595, 27.378053], [106.984806, 27.379989], [106.983716, 27.37897], [106.98172, 27.380378], [106.97903, 27.377462], [106.980686, 27.376179], [106.979667, 27.375186], [106.978888, 27.373301], [106.980559, 27.371955], [106.978296, 27.369556]]]}, "properties": {"display_name": "中国铝业遵义氧化铝有限公司, 播州区, 遵义市, 贵州省, 中国", "type": "industrial", "osm_type": "way", "osm_id": 352025738, "class": null, "keyword": "中央区"}}, {"type": "Feature", "geometry": {"type": "Polygon", "coordinates": [[[106.909693, 27.679615], [106.910357, 27.678755], [106.910082, 27.678483], [106.910373, 27.678153], [106.911086, 27.678339], [106.91141, 27.67692], [106.911588, 27.676734], [106.911167, 27.675888], [106.911312, 27.675357], [106.911604, 27.674884], [106.911717, 27.674626], [106.911426, 27.674353], [106.911976, 27.674225], [106.912818, 27.674024], [106.913692, 27.674038], [106.915246, 27.674282], [106.916007, 27.67421], [106.915942, 27.673853], [106.919326, 27.673579], [106.920654, 27.673536], [106.921155, 27.67454], [106.923406, 27.67669], [106.923973, 27.676676], [106.924021, 27.677164], [106.923438, 27.677766], [106.92577, 27.680203], [106.925219, 27.68178], [106.92462, 27.682827], [106.92407, 27.683414], [106.922936, 27.683414], [106.922483, 27.683601], [106.92169, 27.683715], [106.920751, 27.683515], [106.919634, 27.684203], [106.919618, 27.684504], [106.918873, 27.684432], [106.918419, 27.684461], [106.917108, 27.683973], [106.916606, 27.683529], [106.913514, 27.681594], [106.913495, 27.681433], [106.913449, 27.681049], [106.91183, 27.680332], [106.910033, 27.679959], [106.909693, 27.679615]]]}, "properties": {"display_name": "万里路街道, 红花岗区, 遵义市, 贵州省, 中国", "type": "administrative", "osm_type": "relation", "osm_id": 8316193, "class": null, "keyword": "subdistrict"}}, {"type": "Feature", "geometry": {"type": "Polygon", "coordinates": [[[106.847788, 27.579687], [106.849582, 27.578487], [106.850796, 27.579902], [106.848937, 27.581128], [106.847788, 27.579687]]]}, "properties": {"display_name": "美域中央, 播州区, 遵义市, 贵州省, 中国", "type": "residential", "osm_type": "way", "osm_id": 445877984, "class": null, "keyword": "中央区"}}, {"type": "Feature", "geometry": {"type": "Polygon", "coordinates": [[[106.824339, 27.532588], [106.825014, 27.53232], [106.825202, 27.532096], [106.825917, 27.531752], [106.826841, 27.533258], [106.826027, 27.5337], [106.825673, 27.533897], [106.825149, 27.534083], [106.82508, 27.533955], [106.824966, 27.533743], [106.824928, 27.533673], [106.824339, 27.532588]]]}, "properties": {"display_name": "遵义县第二中学, 万寿南街, 播州区, 遵义市, 贵州省, 中国", "type": "school", "osm_type": "way", "osm_id": 354222898, "class": null, "keyword": "district"}}, {"type": "Feature", "geometry": {"type": "Polygon", "coordinates": [[[106.820136, 27.529719], [106.820904, 27.52933], [106.821531, 27.530407], [106.821637, 27.530359], [106.822044, 27.531047], [106.822161, 27.531092], [106.822365, 27.531543], [106.821919, 27.53171], [106.82171, 27.531292], [106.82144, 27.531368], [106.821251, 27.531235], [106.821004, 27.531059], [106.820735, 27.531113], [106.820487, 27.531003], [106.820324, 27.530987], [106.820328, 27.530698], [106.820536, 27.530457], [106.820136, 27.529719]]]}, "properties": {"display_name": "遵义县第三小学, 92, 西大街南段, 播州区, 遵义市, 贵州省, 中国", "type": "school", "osm_type": "way", "osm_id": 353407563, "class": null, "keyword": "district"}}, {"type": "Feature", "geometry": {"type": "Polygon", "coordinates": [[[106.817135, 27.525293], [106.818062, 27.524801], [106.818087, 27.524715], [106.818289, 27.524985], [106.818402, 27.524942], [106.818664, 27.524935], [106.818813, 27.525067], [106.818635, 27.525268], [106.819081, 27.525902], [106.81894, 27.52599], [106.818805, 27.52609], [106.818727, 27.52621], [106.818522, 27.526335], [106.818635, 27.526605], [106.818678, 27.526919], [106.81819, 27.527019], [106.817652, 27.526009], [106.817135, 27.525293]]]}, "properties": {"display_name": "遵义县第八中学, 景坪路, 播州区, 遵义市, 贵州省, 中国", "type": "school", "osm_type": "way", "osm_id": 353238271, "class": null, "keyword": "district"}}, {"type": "Feature", "geometry": {"type": "Polygon", "coordinates": [[[106.877831, 27.656871], [106.878063, 27.655828], [106.878236, 27.654925], [106.879375, 27.655138], [106.878866, 27.656994], [106.878002, 27.65685], [106.877831, 27.656871]]]}, "properties": {"display_name": "遵义服务区, 兰海高速, 桃溪寺, 红花岗区, 遵义市, 贵州省, 中国", "type": "services", "osm_type": "way", "osm_id": 564532050, "class": null, "keyword": "district"}}, {"type": "Feature", "geometry": {"type": "Polygon", "coordinates": [[[106.916635, 27.712127], [106.917009, 27.711433], [106.917592, 27.711619], [106.918751, 27.711855], [106.918522, 27.71276], [106.91833, 27.712706], [106.917924, 27.712326], [106.917107, 27.712347], [106.916906, 27.712301], [106.916635, 27.712127]]]}, "properties": {"display_name": "遵义市汇川区中小企业服务中心, 汇川区, 遵义市, 贵州省, 中国", "type": "commercial", "osm_type": "way", "osm_id": 339129563, "class": null, "keyword": "市中心"}}, {"type": "Feature", "geometry": {"type": "Polygon", "coordinates": [[[106.913487, 27.689799], [106.913492, 27.689642], [106.91361, 27.6894], [106.913594, 27.688839], [106.914162, 27.688844], [106.914168, 27.689044], [106.914297, 27.689034], [106.914297, 27.689799], [106.913487, 27.689799]]]}, "properties": {"display_name": "遵义市老城小学, 玉屏路, 红花岗区, 遵义市, 贵州省, 中国", "type": "school", "osm_type": "way", "osm_id": 330512939, "class": null, "keyword": "老城区"}}, {"type": "Feature", "geometry": {"type": "Polygon", "coordinates": [[[106.886019, 27.642923], [106.886051, 27.642827], [106.886112, 27.64272], [106.88621, 27.642662], [106.886112, 27.64253], [106.88635, 27.642393], [106.886995, 27.643312], [106.886789, 27.643427], [106.886677, 27.643279], [106.886514, 27.643341], [106.88636, 27.643345], [106.886206, 27.643303], [106.886098, 27.643204], [106.886033, 27.643055], [106.886019, 27.642923]]]}, "properties": {"display_name": "遵义市公安局, 坂水沟路, 红花岗区, 遵义市, 贵州省, 中国", "type": "police", "osm_type": "way", "osm_id": 564532038, "class": null, "keyword": "district"}}, {"type": "Feature", "geometry": {"type": "Polygon", "coordinates": [[[106.91784, 27.714482], [106.918343, 27.714364], [106.918598, 27.715191], [106.918237, 27.715278], [106.91784, 27.714482]]]}, "properties": {"display_name": "遵义市民体育健身中心, 北海路, 汇川区, 遵义市, 贵州省, 中国", "type": "pitch", "osm_type": "way", "osm_id": 339129567, "class": null, "keyword": "市中心"}}, {"type": "Feature", "geometry": {"type": "Polygon", "coordinates": [[[106.823502, 27.528329], [106.823923, 27.527977], [106.82398, 27.528037], [106.823552, 27.528379], [106.823502, 27.528329]]]}, "properties": {"display_name": "遵义县政务服务中心, 柳堰路, 商贸城夜市美食街, 播州区, 遵义市, 贵州省, 中国", "type": "government", "osm_type": "way", "osm_id": 353398799, "class": null, "keyword": "district"}}, {"type": "Feature", "geometry": {"type": "Polygon", "coordinates": [[[106.818331, 27.524234], [106.818485, 27.524156], [106.818585, 27.524311], [106.818431, 27.52439], [106.818331, 27.524234]]]}, "properties": {"display_name": "中国石油加油站 金鑫加油站, 万寿南街, 播州区, 遵义市, 贵州省, 中国", "type": "fuel", "osm_type": "way", "osm_id": 1144316175, "class": null, "keyword": "市中心"}}]}